{
"type": "FeatureCollection",
"name": "LIMITE_COMUNA",
"features": [
{ "type": "Feature", "properties": { "CUT_REG": "13", "CUT_PROV": "131", "CUT_COM": "13101", "PROVINCIA": "Santiago", "COMUNA": "Santiago", "SUPERFICIE": 23.18 }, "geometry": { "type": "Polygon", "coordinates": [ [ [ -70.6717362, -33.4758949 ], [ -70.671733, -33.4762471 ], [ -70.6718445, -33.4762654 ], [ -70.6723391, -33.4764448 ], [ -70.6729119, -33.4764729 ], [ -70.6737743, -33.4764541 ], [ -70.6745449, -33.476551 ], [ -70.6755976, -33.4766585 ], [ -70.676247, -33.4766712 ], [ -70.6773737, -33.4766273 ], [ -70.6779877, -33.476576 ], [ -70.6789345, -33.4765059 ], [ -70.6799425, -33.4765138 ], [ -70.6806818, -33.4765104 ], [ -70.6807018, -33.4768398 ], [ -70.6808132, -33.4784095 ], [ -70.6787852, -33.4784442 ], [ -70.6770899, -33.4784564 ], [ -70.6753392, -33.4784801 ], [ -70.6736826, -33.478506 ], [ -70.6715858, -33.47852 ], [ -70.6715881, -33.4768629 ], [ -70.6715861, -33.475903 ], [ -70.6694227, -33.4759051 ], [ -70.6683243, -33.475894 ], [ -70.6653926, -33.4758246 ], [ -70.6640567, -33.4757976 ], [ -70.6618407, -33.4758183 ], [ -70.6604974, -33.475902 ], [ -70.6595012, -33.4760176 ], [ -70.6580573, -33.4761619 ], [ -70.656751, -33.4762623 ], [ -70.6557397, -33.4763591 ], [ -70.6549218, -33.4764374 ], [ -70.6537684, -33.4765402 ], [ -70.6503208, -33.4768014 ], [ -70.647193, -33.4768921 ], [ -70.6448755, -33.4766998 ], [ -70.6426599, -33.4765704 ], [ -70.6419877, -33.4765312 ], [ -70.641974, -33.4765289 ], [ -70.6417789, -33.4764965 ], [ -70.6404861, -33.4762994 ], [ -70.6394653, -33.4761434 ], [ -70.6387, -33.4759356 ], [ -70.637166, -33.4754243 ], [ -70.6350497, -33.4747449 ], [ -70.631934, -33.4735234 ], [ -70.6285896, -33.4723091 ], [ -70.6278023, -33.4719773 ], [ -70.626751, -33.471587 ], [ -70.6261326, -33.4710432 ], [ -70.625897, -33.470809 ], [ -70.625413, -33.470119 ], [ -70.6251066, -33.4695612 ], [ -70.6256301, -33.4692396 ], [ -70.6258675, -33.4690325 ], [ -70.6259515, -33.4689109 ], [ -70.6260407, -33.4687247 ], [ -70.6261269, -33.4684611 ], [ -70.6263657, -33.4675035 ], [ -70.6268183, -33.4659438 ], [ -70.6269758, -33.4654533 ], [ -70.6272518, -33.4644479 ], [ -70.6276193, -33.4632851 ], [ -70.6279907, -33.4619432 ], [ -70.6288688, -33.4589479 ], [ -70.6297866, -33.4556965 ], [ -70.630083, -33.4547142 ], [ -70.6302895, -33.4540956 ], [ -70.6305664, -33.4532189 ], [ -70.6309533, -33.4519065 ], [ -70.6315554, -33.4498304 ], [ -70.6316344, -33.4495836 ], [ -70.631985, -33.4484014 ], [ -70.6322603, -33.4473791 ], [ -70.6328478, -33.4454249 ], [ -70.6332335, -33.4442171 ], [ -70.63348, -33.4434351 ], [ -70.6339267, -33.4417634 ], [ -70.6344292, -33.4400149 ], [ -70.6347753, -33.4389056 ], [ -70.6350102, -33.4379246 ], [ -70.6352201, -33.4371664 ], [ -70.6353893, -33.4364606 ], [ -70.6353764, -33.4356953 ], [ -70.635401, -33.4356908 ], [ -70.6357159, -33.4356324 ], [ -70.6367087, -33.4354075 ], [ -70.6387839, -33.4349344 ], [ -70.6403543, -33.4345603 ], [ -70.6423651, -33.4340844 ], [ -70.643294, -33.4338865 ], [ -70.6449574, -33.4334927 ], [ -70.6465386, -33.4331121 ], [ -70.6483433, -33.4326637 ], [ -70.6493528, -33.4324364 ], [ -70.6494109, -33.4324245 ], [ -70.6502995, -33.4322434 ], [ -70.6515263, -33.4319505 ], [ -70.6516073, -33.4319312 ], [ -70.6535495, -33.431507 ], [ -70.655507, -33.4310476 ], [ -70.6565273, -33.4308011 ], [ -70.6570424, -33.4305327 ], [ -70.6580123, -33.4301566 ], [ -70.6585636, -33.4299799 ], [ -70.6589877, -33.4298772 ], [ -70.6601409, -33.429654 ], [ -70.6610489, -33.4293504 ], [ -70.6614291, -33.4291855 ], [ -70.6618286, -33.4290414 ], [ -70.6625848, -33.4288647 ], [ -70.6631097, -33.4288093 ], [ -70.6638027, -33.4287246 ], [ -70.6642372, -33.4285997 ], [ -70.6648071, -33.4283873 ], [ -70.6654834, -33.4280862 ], [ -70.6664926, -33.4276778 ], [ -70.6677973, -33.4272106 ], [ -70.6688446, -33.4268497 ], [ -70.6697817, -33.4264973 ], [ -70.6704717, -33.4262388 ], [ -70.6705362, -33.4262146 ], [ -70.6706952, -33.4261551 ], [ -70.6711463, -33.4260384 ], [ -70.6712791, -33.4260041 ], [ -70.6713624, -33.4262877 ], [ -70.6714143, -33.4264641 ], [ -70.6714397, -33.4265506 ], [ -70.671574, -33.4269536 ], [ -70.6717135, -33.4274933 ], [ -70.6717663, -33.4278067 ], [ -70.6717835, -33.4280183 ], [ -70.6717864, -33.4283149 ], [ -70.6737202, -33.4276789 ], [ -70.6759372, -33.4269587 ], [ -70.6762074, -33.4267923 ], [ -70.6766229, -33.4266139 ], [ -70.6768686, -33.4265683 ], [ -70.67723, -33.4265575 ], [ -70.6775445, -33.426606 ], [ -70.6779231, -33.4267576 ], [ -70.6783237, -33.4269273 ], [ -70.6790317, -33.4272251 ], [ -70.6793487, -33.4274115 ], [ -70.6796553, -33.4276571 ], [ -70.6799189, -33.4278998 ], [ -70.6802206, -33.4282805 ], [ -70.6803689, -33.428538 ], [ -70.6805959, -33.4289636 ], [ -70.6806804, -33.4294183 ], [ -70.680728, -33.4298953 ], [ -70.6806954, -33.4302633 ], [ -70.6806398, -33.4310311 ], [ -70.6805527, -33.4325415 ], [ -70.680472, -33.434324 ], [ -70.680266, -33.436117 ], [ -70.6800926, -33.4382043 ], [ -70.6800729, -33.4384413 ], [ -70.6817697, -33.4385655 ], [ -70.6818227, -33.4379229 ], [ -70.6818883, -33.4379268 ], [ -70.681929, -33.4374661 ], [ -70.6814319, -33.4374271 ], [ -70.6814213, -33.4374726 ], [ -70.6813216, -33.4374692 ], [ -70.6813302, -33.4373443 ], [ -70.6807767, -33.4373263 ], [ -70.680879, -33.4360294 ], [ -70.6826284, -33.4363169 ], [ -70.6836286, -33.43653 ], [ -70.6837264, -33.4376132 ], [ -70.6837976, -33.437617 ], [ -70.6837996, -33.437574 ], [ -70.6842387, -33.4376134 ], [ -70.6841471, -33.4387081 ], [ -70.6859282, -33.4388262 ], [ -70.6864928, -33.4388687 ], [ -70.6867704, -33.4388895 ], [ -70.6886841, -33.4390176 ], [ -70.6910303, -33.4391666 ], [ -70.6918092, -33.4392679 ], [ -70.6917441, -33.4396305 ], [ -70.6917126, -33.440132 ], [ -70.6917678, -33.4411264 ], [ -70.6918547, -33.442199 ], [ -70.692039, -33.4444748 ], [ -70.6901402, -33.444388 ], [ -70.6868671, -33.4442268 ], [ -70.6836781, -33.4440737 ], [ -70.6805541, -33.4439279 ], [ -70.67977, -33.44384 ], [ -70.6795761, -33.4438412 ], [ -70.6795014, -33.4448578 ], [ -70.6792439, -33.4478618 ], [ -70.6790966, -33.4496576 ], [ -70.6790312, -33.4507223 ], [ -70.6778936, -33.4504586 ], [ -70.6778325, -33.4509819 ], [ -70.6778289, -33.4512253 ], [ -70.6779044, -33.4518814 ], [ -70.6780265, -33.4538226 ], [ -70.6781471, -33.4552377 ], [ -70.6782704, -33.4574057 ], [ -70.6784074, -33.4591407 ], [ -70.6785056, -33.4605624 ], [ -70.6786176, -33.4618011 ], [ -70.6786799, -33.4627207 ], [ -70.6787643, -33.4638161 ], [ -70.6788303, -33.4649122 ], [ -70.678937, -33.4665538 ], [ -70.679088, -33.4690472 ], [ -70.6791388, -33.4693812 ], [ -70.6791888, -33.4695488 ], [ -70.6797407, -33.4703907 ], [ -70.6798437, -33.4704919 ], [ -70.6798472, -33.4705271 ], [ -70.6798389, -33.4705725 ], [ -70.6798093, -33.4706246 ], [ -70.6797618, -33.4706736 ], [ -70.679253, -33.470671 ], [ -70.6772472, -33.4706524 ], [ -70.6751784, -33.4706339 ], [ -70.6729434, -33.4706321 ], [ -70.6729167, -33.4718351 ], [ -70.6729125, -33.4726661 ], [ -70.6729127, -33.4727346 ], [ -70.6729161, -33.4739202 ], [ -70.6728785, -33.4748825 ], [ -70.6728524, -33.475035 ], [ -70.6727478, -33.4752547 ], [ -70.6725954, -33.4755036 ], [ -70.6724428, -33.4756193 ], [ -70.6720821, -33.4757449 ], [ -70.6717362, -33.4758949 ] ] ] } }
]
}
