{
"type": "FeatureCollection",
"name": "LIMITE_TERRITORIOS_PLADECO",
"features": [
{ "type": "Feature", "properties": { "UNIDAD": 2.0, "SECTORES_T": "NORPONIENTE" }, "geometry": { "type": "Polygon", "coordinates": [ [ [ -70.667822, -33.42736 ], [ -70.669894, -33.426637 ], [ -70.670309, -33.426478 ], [ -70.670705, -33.426278 ], [ -70.671043, -33.426079 ], [ -70.671209, -33.425973 ], [ -70.671323, -33.425897 ], [ -70.671444, -33.425805 ], [ -70.671572, -33.425695 ], [ -70.671601, -33.42593 ], [ -70.671614, -33.426048 ], [ -70.671741, -33.427117 ], [ -70.671728, -33.427185 ], [ -70.671822, -33.428279 ], [ -70.675192, -33.427181 ], [ -70.675463, -33.427087 ], [ -70.675506, -33.427072 ], [ -70.67579, -33.427001 ], [ -70.676053, -33.42693 ], [ -70.676375, -33.426851 ], [ -70.67673, -33.426816 ], [ -70.676896, -33.426817 ], [ -70.677031, -33.426818 ], [ -70.677531, -33.426848 ], [ -70.677781, -33.426882 ], [ -70.678208, -33.426974 ], [ -70.679089, -33.427338 ], [ -70.679363, -33.427457 ], [ -70.679646, -33.427681 ], [ -70.679937, -33.427948 ], [ -70.680308, -33.428401 ], [ -70.68048, -33.428688 ], [ -70.680604, -33.428984 ], [ -70.680709, -33.42938 ], [ -70.68074, -33.42985 ], [ -70.680706, -33.430347 ], [ -70.680503, -33.432943 ], [ -70.6805, -33.43302 ], [ -70.680481, -33.433503 ], [ -70.680265, -33.435955 ], [ -70.680064, -33.438433 ], [ -70.681716, -33.438549 ], [ -70.681764, -33.437937 ], [ -70.681866, -33.437944 ], [ -70.681903, -33.437447 ], [ -70.681412, -33.437417 ], [ -70.681408, -33.437463 ], [ -70.681305, -33.437456 ], [ -70.681316, -33.437326 ], [ -70.680781, -33.437284 ], [ -70.680892, -33.436013 ], [ -70.681902, -33.436152 ], [ -70.68346, -33.436452 ], [ -70.683238, -33.438642 ], [ -70.691481, -33.439182 ], [ -70.691718, -33.439214 ], [ -70.691892, -33.439257 ], [ -70.692323, -33.444528 ], [ -70.689157, -33.444372 ], [ -70.680262, -33.443942 ], [ -70.67956, -33.44387 ], [ -70.679524, -33.444512 ], [ -70.679483, -33.445027 ], [ -70.679215, -33.448329 ], [ -70.678978, -33.450842 ], [ -70.677892, -33.450602 ], [ -70.677856, -33.450425 ], [ -70.676969, -33.450185 ], [ -70.673833, -33.449331 ], [ -70.672949, -33.449097 ], [ -70.670487, -33.448444 ], [ -70.668342, -33.447897 ], [ -70.668144, -33.447846 ], [ -70.667447, -33.447661 ], [ -70.667447, -33.447661 ], [ -70.665916, -33.447215 ], [ -70.664716, -33.446888 ], [ -70.664606, -33.446862 ], [ -70.663729, -33.446655 ], [ -70.662582, -33.446375 ], [ -70.662577, -33.446399 ], [ -70.660581, -33.445928 ], [ -70.66063, -33.444581 ], [ -70.660631, -33.444246 ], [ -70.660582, -33.443935 ], [ -70.660048, -33.441727 ], [ -70.660039, -33.44169 ], [ -70.659736, -33.440319 ], [ -70.659702, -33.440061 ], [ -70.659722, -33.439593 ], [ -70.659785, -33.43914 ], [ -70.659891, -33.438468 ], [ -70.660013, -33.438407 ], [ -70.660025, -33.438098 ], [ -70.659927, -33.438026 ], [ -70.659998, -33.437409 ], [ -70.660036, -33.437148 ], [ -70.660308, -33.435249 ], [ -70.660525, -33.433728 ], [ -70.660611, -33.433277 ], [ -70.66063, -33.433177 ], [ -70.66075, -33.432542 ], [ -70.660925, -33.431603 ], [ -70.660945, -33.4314 ], [ -70.660957, -33.431251 ], [ -70.660959, -33.430814 ], [ -70.660501, -33.429543 ], [ -70.660691, -33.429445 ], [ -70.660831, -33.429375 ], [ -70.660974, -33.429305 ], [ -70.661109, -33.429243 ], [ -70.661224, -33.429204 ], [ -70.661379, -33.429181 ], [ -70.661711, -33.429166 ], [ -70.662086, -33.429146 ], [ -70.662546, -33.429094 ], [ -70.663099, -33.428976 ], [ -70.66375, -33.428762 ], [ -70.664369, -33.428548 ], [ -70.664427, -33.428528 ], [ -70.667822, -33.42736 ] ] ] } },
{ "type": "Feature", "properties": { "UNIDAD": 3.0, "SECTORES_T": "CENTRO ORIENTE" }, "geometry": { "type": "Polygon", "coordinates": [ [ [ -70.64384, -33.458466 ], [ -70.643268, -33.458342 ], [ -70.641642, -33.457988 ], [ -70.639543, -33.457517 ], [ -70.635858, -33.456809 ], [ -70.633253, -33.456234 ], [ -70.629828, -33.455482 ], [ -70.630626, -33.452854 ], [ -70.630901, -33.451932 ], [ -70.631493, -33.449942 ], [ -70.631647, -33.449416 ], [ -70.632349, -33.447004 ], [ -70.633196, -33.444146 ], [ -70.633892, -33.441859 ], [ -70.634074, -33.441262 ], [ -70.635193, -33.437122 ], [ -70.635441, -33.437178 ], [ -70.635903, -33.437289 ], [ -70.636451, -33.437444 ], [ -70.636556, -33.437486 ], [ -70.636671, -33.43754 ], [ -70.636875, -33.437637 ], [ -70.637504, -33.437962 ], [ -70.638043, -33.438343 ], [ -70.63814, -33.438398 ], [ -70.63819, -33.43844 ], [ -70.639225, -33.439202 ], [ -70.639584, -33.439459 ], [ -70.640495, -33.44006 ], [ -70.64052, -33.440077 ], [ -70.640704, -33.440204 ], [ -70.640794, -33.440272 ], [ -70.641707, -33.440891 ], [ -70.641849, -33.440992 ], [ -70.642435, -33.441405 ], [ -70.642757, -33.441617 ], [ -70.642933, -33.441709 ], [ -70.643109, -33.441802 ], [ -70.643305, -33.441885 ], [ -70.643501, -33.441968 ], [ -70.643685, -33.442038 ], [ -70.644042, -33.442175 ], [ -70.644084, -33.442187 ], [ -70.644084, -33.442187 ], [ -70.64429, -33.442246 ], [ -70.644814, -33.442398 ], [ -70.64489, -33.442424 ], [ -70.645283, -33.442517 ], [ -70.646142, -33.442708 ], [ -70.646229, -33.44273 ], [ -70.64635, -33.442753 ], [ -70.646781, -33.442839 ], [ -70.647092, -33.442909 ], [ -70.64766, -33.443035 ], [ -70.648957, -33.443332 ], [ -70.65038, -33.443656 ], [ -70.651014, -33.443814 ], [ -70.651101, -33.443835 ], [ -70.651619, -33.44391 ], [ -70.651901, -33.443929 ], [ -70.652848, -33.444151 ], [ -70.652989, -33.444187 ], [ -70.653076, -33.444205 ], [ -70.65331, -33.444246 ], [ -70.654028, -33.444396 ], [ -70.654291, -33.444468 ], [ -70.654835, -33.4446 ], [ -70.655443, -33.444748 ], [ -70.65559, -33.444773 ], [ -70.655721, -33.444792 ], [ -70.657371, -33.445183 ], [ -70.658616, -33.445473 ], [ -70.658619, -33.445474 ], [ -70.659271, -33.445618 ], [ -70.660063, -33.445807 ], [ -70.660434, -33.445883 ], [ -70.660581, -33.445928 ], [ -70.6603, -33.447154 ], [ -70.660012, -33.448168 ], [ -70.659663, -33.449235 ], [ -70.658971, -33.452215 ], [ -70.658827, -33.452659 ], [ -70.658233, -33.454144 ], [ -70.658121, -33.454447 ], [ -70.658054, -33.454593 ], [ -70.65797, -33.454775 ], [ -70.657724, -33.455126 ], [ -70.657265, -33.455716 ], [ -70.657016, -33.456094 ], [ -70.656883, -33.45644 ], [ -70.6568, -33.457087 ], [ -70.65671, -33.457774 ], [ -70.656726, -33.458105 ], [ -70.656894, -33.459077 ], [ -70.657108, -33.460257 ], [ -70.657096, -33.46068 ], [ -70.656638, -33.460627 ], [ -70.656045, -33.460399 ], [ -70.653386, -33.460047 ], [ -70.649731, -33.459652 ], [ -70.649128, -33.459557 ], [ -70.649126, -33.459571 ], [ -70.645885, -33.458881 ], [ -70.645284, -33.458744 ], [ -70.645284, -33.458744 ], [ -70.64384, -33.458466 ] ] ] } },
{ "type": "Feature", "properties": { "UNIDAD": 4.0, "SECTORES_T": "CENTRO PONIENTE" }, "geometry": { "type": "Polygon", "coordinates": [ [ [ -70.660581, -33.445928 ], [ -70.662577, -33.446399 ], [ -70.662582, -33.446375 ], [ -70.663729, -33.446655 ], [ -70.664606, -33.446862 ], [ -70.664716, -33.446888 ], [ -70.665916, -33.447215 ], [ -70.667447, -33.447661 ], [ -70.667447, -33.447661 ], [ -70.668144, -33.447846 ], [ -70.668342, -33.447897 ], [ -70.670487, -33.448444 ], [ -70.672532, -33.448986 ], [ -70.672949, -33.449097 ], [ -70.673833, -33.449331 ], [ -70.676969, -33.450185 ], [ -70.677856, -33.450425 ], [ -70.677892, -33.450602 ], [ -70.677869, -33.450996 ], [ -70.677868, -33.451401 ], [ -70.67801, -33.453487 ], [ -70.67824, -33.456709 ], [ -70.678349, -33.458134 ], [ -70.676158, -33.458565 ], [ -70.67538, -33.458543 ], [ -70.672119, -33.458349 ], [ -70.672118, -33.458349 ], [ -70.672108, -33.458348 ], [ -70.669195, -33.457877 ], [ -70.666499, -33.457393 ], [ -70.664951, -33.457115 ], [ -70.664952, -33.458626 ], [ -70.663927, -33.458541 ], [ -70.663873, -33.458545 ], [ -70.659305, -33.458253 ], [ -70.656726, -33.458105 ], [ -70.65671, -33.457774 ], [ -70.6568, -33.457087 ], [ -70.656883, -33.45644 ], [ -70.657016, -33.456094 ], [ -70.657265, -33.455716 ], [ -70.657724, -33.455126 ], [ -70.65797, -33.454775 ], [ -70.658054, -33.454593 ], [ -70.658121, -33.454447 ], [ -70.658233, -33.454144 ], [ -70.658827, -33.452659 ], [ -70.658971, -33.452215 ], [ -70.659663, -33.449235 ], [ -70.660012, -33.448168 ], [ -70.6603, -33.447154 ], [ -70.660581, -33.445928 ] ] ] } },
{ "type": "Feature", "properties": { "UNIDAD": 6.0, "SECTORES_T": "SURPONIENTE" }, "geometry": { "type": "Polygon", "coordinates": [ [ [ -70.664951, -33.457115 ], [ -70.666499, -33.457393 ], [ -70.669195, -33.457877 ], [ -70.672108, -33.458348 ], [ -70.672119, -33.458349 ], [ -70.67538, -33.458543 ], [ -70.676158, -33.458565 ], [ -70.678349, -33.458134 ], [ -70.678434, -33.459254 ], [ -70.678686, -33.462531 ], [ -70.678975, -33.466655 ], [ -70.678976, -33.466665 ], [ -70.679095, -33.46922 ], [ -70.67995, -33.470491 ], [ -70.679939, -33.47051 ], [ -70.679962, -33.470546 ], [ -70.679952, -33.470591 ], [ -70.679942, -33.470627 ], [ -70.679921, -33.470673 ], [ -70.679857, -33.470701 ], [ -70.67294, -33.470631 ], [ -70.672927, -33.471944 ], [ -70.672898, -33.474888 ], [ -70.672867, -33.474984 ], [ -70.672608, -33.475497 ], [ -70.67231, -33.475808 ], [ -70.671652, -33.475791 ], [ -70.671658, -33.476178 ], [ -70.67188, -33.476221 ], [ -70.67205, -33.476302 ], [ -70.672183, -33.476369 ], [ -70.67231, -33.476446 ], [ -70.672392, -33.476481 ], [ -70.673005, -33.476436 ], [ -70.673599, -33.476418 ], [ -70.674365, -33.476486 ], [ -70.675005, -33.476598 ], [ -70.675772, -33.476656 ], [ -70.676461, -33.476601 ], [ -70.676645, -33.476599 ], [ -70.677862, -33.476546 ], [ -70.67868, -33.476454 ], [ -70.679315, -33.476436 ], [ -70.679995, -33.476454 ], [ -70.680717, -33.476462 ], [ -70.680847, -33.478422 ], [ -70.679537, -33.47843 ], [ -70.671555, -33.478529 ], [ -70.671581, -33.476785 ], [ -70.671572, -33.476128 ], [ -70.668159, -33.476054 ], [ -70.666172, -33.476006 ], [ -70.664805, -33.475954 ], [ -70.664784, -33.475954 ], [ -70.663263, -33.47593 ], [ -70.662271, -33.475907 ], [ -70.661775, -33.475914 ], [ -70.661269, -33.475948 ], [ -70.660859, -33.475971 ], [ -70.655096, -33.476518 ], [ -70.654998, -33.476526 ], [ -70.654878, -33.476536 ], [ -70.654847, -33.476477 ], [ -70.654641, -33.476023 ], [ -70.654491, -33.47566 ], [ -70.65439, -33.475281 ], [ -70.654353, -33.474772 ], [ -70.654369, -33.474397 ], [ -70.654427, -33.474054 ], [ -70.654564, -33.473637 ], [ -70.654748, -33.473283 ], [ -70.65507, -33.472814 ], [ -70.655392, -33.472345 ], [ -70.65566, -33.471972 ], [ -70.655915, -33.471581 ], [ -70.656048, -33.471281 ], [ -70.656116, -33.470974 ], [ -70.656133, -33.470715 ], [ -70.656155, -33.470296 ], [ -70.656174, -33.470037 ], [ -70.65633, -33.470044 ], [ -70.656352, -33.469243 ], [ -70.656457, -33.466592 ], [ -70.656571, -33.464616 ], [ -70.656603, -33.46406 ], [ -70.657096, -33.46068 ], [ -70.657108, -33.460257 ], [ -70.656894, -33.459077 ], [ -70.656726, -33.458105 ], [ -70.659305, -33.458253 ], [ -70.663873, -33.458545 ], [ -70.663927, -33.458541 ], [ -70.664952, -33.458626 ], [ -70.664951, -33.457115 ] ] ] } },
{ "type": "Feature", "properties": { "UNIDAD": 5.0, "SECTORES_T": "SURORIENTE" }, "geometry": { "type": "Polygon", "coordinates": [ [ [ -70.628872, -33.458759 ], [ -70.629728, -33.455811 ], [ -70.629828, -33.455482 ], [ -70.633253, -33.456234 ], [ -70.635858, -33.456809 ], [ -70.639543, -33.457517 ], [ -70.641642, -33.457988 ], [ -70.643268, -33.458342 ], [ -70.64384, -33.458466 ], [ -70.645284, -33.458744 ], [ -70.645284, -33.458744 ], [ -70.645885, -33.458881 ], [ -70.649126, -33.459571 ], [ -70.649128, -33.459557 ], [ -70.649731, -33.459652 ], [ -70.653386, -33.460047 ], [ -70.656045, -33.460399 ], [ -70.656638, -33.460627 ], [ -70.657096, -33.46068 ], [ -70.656603, -33.46406 ], [ -70.656571, -33.464616 ], [ -70.656457, -33.466592 ], [ -70.656352, -33.469243 ], [ -70.65633, -33.470044 ], [ -70.656174, -33.470037 ], [ -70.656155, -33.470296 ], [ -70.656133, -33.470715 ], [ -70.656116, -33.470974 ], [ -70.656048, -33.471281 ], [ -70.655915, -33.471581 ], [ -70.65566, -33.471972 ], [ -70.655392, -33.472345 ], [ -70.65507, -33.472814 ], [ -70.654748, -33.473283 ], [ -70.654564, -33.473637 ], [ -70.654427, -33.474054 ], [ -70.654369, -33.474397 ], [ -70.654353, -33.474772 ], [ -70.65439, -33.475281 ], [ -70.654491, -33.47566 ], [ -70.654641, -33.476023 ], [ -70.654847, -33.476477 ], [ -70.654878, -33.476536 ], [ -70.654305, -33.476583 ], [ -70.654018, -33.476592 ], [ -70.654013, -33.476592 ], [ -70.648205, -33.476772 ], [ -70.648201, -33.476773 ], [ -70.641967, -33.47649 ], [ -70.641883, -33.476486 ], [ -70.64048, -33.476387 ], [ -70.640328, -33.476362 ], [ -70.639949, -33.476295 ], [ -70.639625, -33.476227 ], [ -70.639256, -33.476132 ], [ -70.638974, -33.476037 ], [ -70.638546, -33.475907 ], [ -70.634983, -33.474633 ], [ -70.630732, -33.473113 ], [ -70.629895, -33.472813 ], [ -70.627345, -33.471907 ], [ -70.627222, -33.47185 ], [ -70.627062, -33.471775 ], [ -70.626703, -33.471581 ], [ -70.626663, -33.471551 ], [ -70.626331, -33.471297 ], [ -70.626001, -33.470985 ], [ -70.625814, -33.470762 ], [ -70.625604, -33.470493 ], [ -70.625416, -33.470216 ], [ -70.625069, -33.46957 ], [ -70.625107, -33.469551 ], [ -70.625672, -33.46921 ], [ -70.625852, -33.469054 ], [ -70.625988, -33.468808 ], [ -70.626379, -33.46752 ], [ -70.626416, -33.467386 ], [ -70.627162, -33.464727 ], [ -70.627995, -33.461725 ], [ -70.628872, -33.458759 ] ] ] } },
{ "type": "Feature", "properties": { "UNIDAD": 1.0, "SECTORES_T": "NORORIENTE" }, "geometry": { "type": "Polygon", "coordinates": [ [ [ -70.660434, -33.445883 ], [ -70.660063, -33.445807 ], [ -70.659271, -33.445618 ], [ -70.658619, -33.445474 ], [ -70.658616, -33.445473 ], [ -70.657371, -33.445183 ], [ -70.655721, -33.444792 ], [ -70.65559, -33.444773 ], [ -70.655443, -33.444748 ], [ -70.654835, -33.4446 ], [ -70.654291, -33.444468 ], [ -70.654028, -33.444396 ], [ -70.65331, -33.444246 ], [ -70.653076, -33.444205 ], [ -70.652989, -33.444187 ], [ -70.652848, -33.444151 ], [ -70.651901, -33.443929 ], [ -70.651619, -33.44391 ], [ -70.651101, -33.443835 ], [ -70.651014, -33.443814 ], [ -70.65038, -33.443656 ], [ -70.648957, -33.443332 ], [ -70.64766, -33.443035 ], [ -70.647092, -33.442909 ], [ -70.646781, -33.442839 ], [ -70.64635, -33.442753 ], [ -70.646229, -33.44273 ], [ -70.646142, -33.442708 ], [ -70.645283, -33.442517 ], [ -70.64489, -33.442424 ], [ -70.644814, -33.442398 ], [ -70.64429, -33.442246 ], [ -70.644084, -33.442187 ], [ -70.644084, -33.442187 ], [ -70.644042, -33.442175 ], [ -70.643685, -33.442038 ], [ -70.643501, -33.441968 ], [ -70.643305, -33.441885 ], [ -70.643109, -33.441802 ], [ -70.642933, -33.441709 ], [ -70.642757, -33.441617 ], [ -70.642435, -33.441405 ], [ -70.641849, -33.440992 ], [ -70.641707, -33.440891 ], [ -70.640794, -33.440272 ], [ -70.640704, -33.440204 ], [ -70.64052, -33.440077 ], [ -70.640495, -33.44006 ], [ -70.639584, -33.439459 ], [ -70.639225, -33.439202 ], [ -70.63819, -33.43844 ], [ -70.63814, -33.438398 ], [ -70.638043, -33.438343 ], [ -70.637504, -33.437962 ], [ -70.636875, -33.437637 ], [ -70.636671, -33.43754 ], [ -70.636556, -33.437486 ], [ -70.636451, -33.437444 ], [ -70.635903, -33.437289 ], [ -70.635441, -33.437178 ], [ -70.635193, -33.437122 ], [ -70.635359, -33.43651 ], [ -70.635376, -33.436284 ], [ -70.635335, -33.435824 ], [ -70.635386, -33.435688 ], [ -70.636175, -33.435496 ], [ -70.641974, -33.434137 ], [ -70.642563, -33.433999 ], [ -70.647494, -33.432844 ], [ -70.647823, -33.432771 ], [ -70.648599, -33.432598 ], [ -70.650654, -33.43214 ], [ -70.651728, -33.431901 ], [ -70.652826, -33.431656 ], [ -70.652972, -33.431623 ], [ -70.655934, -33.430916 ], [ -70.657474, -33.430549 ], [ -70.659396, -33.43009 ], [ -70.659659, -33.430007 ], [ -70.659926, -33.429878 ], [ -70.660184, -33.429733 ], [ -70.660299, -33.429663 ], [ -70.660477, -33.429556 ], [ -70.660501, -33.429543 ], [ -70.660959, -33.430814 ], [ -70.660957, -33.431251 ], [ -70.660945, -33.4314 ], [ -70.660925, -33.431603 ], [ -70.66075, -33.432542 ], [ -70.66063, -33.433177 ], [ -70.660611, -33.433277 ], [ -70.660525, -33.433728 ], [ -70.660308, -33.435249 ], [ -70.660036, -33.437148 ], [ -70.659998, -33.437409 ], [ -70.659927, -33.438026 ], [ -70.660025, -33.438098 ], [ -70.660013, -33.438407 ], [ -70.659891, -33.438468 ], [ -70.659785, -33.43914 ], [ -70.659722, -33.439593 ], [ -70.659702, -33.440061 ], [ -70.659736, -33.440319 ], [ -70.660039, -33.44169 ], [ -70.660048, -33.441727 ], [ -70.660582, -33.443935 ], [ -70.660631, -33.444246 ], [ -70.66063, -33.444581 ], [ -70.660581, -33.445928 ], [ -70.660434, -33.445883 ] ] ] } }
]
}
