{
"type": "FeatureCollection",
"name": "PRC_SE_D11",
"features": [
{ "type": "Feature", "properties": { "FID_": 0, "ENTITY": "LWPolyline", "LAYER": "SE D11", "COLOR": 7, "LINETYPE": "Continuous", "ELEVATION": 0.0, "LINEWT": 25, "REFNAME": null, "DENSIDAD": 0, "DENSIDAD_C": 0, "SUPERFICIE": 0, "DENSIDAD_": 0 }, "geometry": { "type": "Polygon", "coordinates": [ [ [ -70.669395, -33.429987 ], [ -70.66918, -33.432114 ], [ -70.668037, -33.43209 ], [ -70.667649, -33.432086 ], [ -70.666898, -33.432051 ], [ -70.665338, -33.432042 ], [ -70.665078, -33.432039 ], [ -70.665124, -33.431281 ], [ -70.665144, -33.430933 ], [ -70.665144, -33.430933 ], [ -70.665177, -33.430933 ], [ -70.666446, -33.430956 ], [ -70.666514, -33.43096 ], [ -70.666532, -33.430568 ], [ -70.667814, -33.430607 ], [ -70.667866, -33.430066 ], [ -70.667877, -33.429955 ], [ -70.669346, -33.42998 ], [ -70.669395, -33.429987 ] ] ] } }
]
}
