{
"type": "FeatureCollection",
"name": "PRC_ZONA_TIPICA",
"features": [
{ "type": "Feature", "properties": { "AREA": 2292697.8254, "PERIMETER": 8955.64332, "CL_ZTP": 16, "NOMBRE_ZT": "Barrios Yungay y Brasil" }, "geometry": { "type": "Polygon", "coordinates": [ [ [ -70.67969, -33.4425967 ], [ -70.6795872, -33.4435097 ], [ -70.6794528, -33.4450469 ], [ -70.6794967, -33.4450504 ], [ -70.6792251, -33.4484043 ], [ -70.6790073, -33.4507167 ], [ -70.6789521, -33.4507058 ], [ -70.6778714, -33.450449 ], [ -70.6766494, -33.4501082 ], [ -70.6756038, -33.4498352 ], [ -70.6742941, -33.4494951 ], [ -70.6729846, -33.4491284 ], [ -70.6729258, -33.4491137 ], [ -70.6722583, -33.44894 ], [ -70.6716021, -33.4487617 ], [ -70.6703602, -33.4484235 ], [ -70.66905, -33.4480848 ], [ -70.6683906, -33.4479162 ], [ -70.6683381, -33.4479009 ], [ -70.6683859, -33.4477625 ], [ -70.6683861, -33.4477619 ], [ -70.6684641, -33.4475367 ], [ -70.6684994, -33.4474246 ], [ -70.6685953, -33.4471005 ], [ -70.6677448, -33.4469006 ], [ -70.6676465, -33.4468773 ], [ -70.6676273, -33.4468727 ], [ -70.6676339, -33.4467859 ], [ -70.6676392, -33.446716 ], [ -70.6676611, -33.4464302 ], [ -70.667672, -33.4462886 ], [ -70.6677156, -33.4457188 ], [ -70.6676892, -33.4457154 ], [ -70.6675914, -33.4457029 ], [ -70.667479, -33.4456934 ], [ -70.6674415, -33.4456902 ], [ -70.6674094, -33.4456875 ], [ -70.667365, -33.4456837 ], [ -70.6672179, -33.4456713 ], [ -70.6670682, -33.4456586 ], [ -70.6669959, -33.4456525 ], [ -70.6669149, -33.4456456 ], [ -70.6667707, -33.4456334 ], [ -70.666618, -33.4456205 ], [ -70.6664755, -33.4456084 ], [ -70.6664875, -33.4454559 ], [ -70.6664901, -33.4454276 ], [ -70.6664937, -33.4453835 ], [ -70.666501, -33.4452348 ], [ -70.6665101, -33.4450821 ], [ -70.6665103, -33.4450808 ], [ -70.6665106, -33.445075 ], [ -70.6664903, -33.4449866 ], [ -70.6664914, -33.4449701 ], [ -70.6664916, -33.4448254 ], [ -70.666491, -33.4447486 ], [ -70.6664907, -33.4446817 ], [ -70.6662924, -33.4446706 ], [ -70.6662913, -33.4446706 ], [ -70.6662354, -33.4446706 ], [ -70.6662372, -33.4448042 ], [ -70.6661854, -33.4448051 ], [ -70.6660286, -33.4447946 ], [ -70.6659332, -33.4447841 ], [ -70.6659333, -33.4447835 ], [ -70.6659448, -33.4446906 ], [ -70.6659452, -33.4446867 ], [ -70.6659503, -33.4446454 ], [ -70.6659005, -33.4446407 ], [ -70.6658416, -33.4446352 ], [ -70.6657388, -33.4446256 ], [ -70.665682, -33.4446203 ], [ -70.6656593, -33.4446182 ], [ -70.6655932, -33.444612 ], [ -70.6655156, -33.4446048 ], [ -70.6655071, -33.444604 ], [ -70.665413, -33.4445952 ], [ -70.6652488, -33.4445799 ], [ -70.6652472, -33.4445917 ], [ -70.665089, -33.4445746 ], [ -70.6650875, -33.4445802 ], [ -70.6650335, -33.4445725 ], [ -70.6650263, -33.4446203 ], [ -70.6647115, -33.4445934 ], [ -70.6647102, -33.4445933 ], [ -70.6644749, -33.4445735 ], [ -70.6644558, -33.4447232 ], [ -70.6644378, -33.4448639 ], [ -70.6644274, -33.4449461 ], [ -70.6644255, -33.4449458 ], [ -70.6643791, -33.4449423 ], [ -70.6643719, -33.4449417 ], [ -70.6643608, -33.4450249 ], [ -70.6643493, -33.4451103 ], [ -70.664338, -33.4451941 ], [ -70.6643272, -33.4452746 ], [ -70.6644059, -33.4452811 ], [ -70.6643913, -33.4453831 ], [ -70.66438, -33.4454662 ], [ -70.6643781, -33.445479 ], [ -70.6643615, -33.4455938 ], [ -70.6643575, -33.4456214 ], [ -70.6643539, -33.4456457 ], [ -70.6643458, -33.4457016 ], [ -70.6643441, -33.4457113 ], [ -70.6643357, -33.4457574 ], [ -70.6643268, -33.445807 ], [ -70.664325, -33.4458166 ], [ -70.6643153, -33.4458701 ], [ -70.6643105, -33.4458971 ], [ -70.6643051, -33.4459268 ], [ -70.6642956, -33.4459792 ], [ -70.6642938, -33.4459894 ], [ -70.6642849, -33.4460383 ], [ -70.664274, -33.4460989 ], [ -70.6642632, -33.4461588 ], [ -70.6642542, -33.4462082 ], [ -70.6642442, -33.4462638 ], [ -70.6642339, -33.4463205 ], [ -70.6642241, -33.4463751 ], [ -70.6642139, -33.4464314 ], [ -70.6642039, -33.4464864 ], [ -70.6641795, -33.4466217 ], [ -70.6641475, -33.4467613 ], [ -70.6637161, -33.4466583 ], [ -70.6626024, -33.4464117 ], [ -70.6625802, -33.4464065 ], [ -70.6614471, -33.4461386 ], [ -70.660807, -33.4459827 ], [ -70.6608131, -33.4458472 ], [ -70.6608195, -33.4458074 ], [ -70.6608313, -33.4456711 ], [ -70.6608449, -33.4455474 ], [ -70.6608598, -33.4454279 ], [ -70.6608803, -33.4452761 ], [ -70.6609017, -33.4451353 ], [ -70.6609192, -33.4450449 ], [ -70.6609614, -33.4448872 ], [ -70.6609939, -33.4447828 ], [ -70.6610114, -33.4447206 ], [ -70.6610265, -33.444642 ], [ -70.6610424, -33.4445417 ], [ -70.6610498, -33.4444837 ], [ -70.6610544, -33.4444445 ], [ -70.6610638, -33.4443385 ], [ -70.6610678, -33.4442432 ], [ -70.6610598, -33.4441668 ], [ -70.6610455, -33.4440406 ], [ -70.6610338, -33.4439719 ], [ -70.6610186, -33.4439018 ], [ -70.6610021, -33.4438335 ], [ -70.6609751, -33.4437528 ], [ -70.660863, -33.4433404 ], [ -70.6607661, -33.4429952 ], [ -70.6607245, -33.4428403 ], [ -70.6607692, -33.4428446 ], [ -70.6611106, -33.4428817 ], [ -70.6611451, -33.4428861 ], [ -70.6611453, -33.4428861 ], [ -70.6616927, -33.4429388 ], [ -70.661754, -33.4429443 ], [ -70.66185, -33.4429553 ], [ -70.6619759, -33.4418623 ], [ -70.6606205, -33.4417309 ], [ -70.6606696, -33.4410398 ], [ -70.660869, -33.4394734 ], [ -70.6622525, -33.4395973 ], [ -70.6622568, -33.439557 ], [ -70.6622568, -33.4395568 ], [ -70.6623583, -33.4386031 ], [ -70.6622663, -33.4385942 ], [ -70.662177, -33.4385856 ], [ -70.6620705, -33.4385762 ], [ -70.6620735, -33.4385492 ], [ -70.6618906, -33.4385364 ], [ -70.6615644, -33.4385136 ], [ -70.6613885, -33.4385013 ], [ -70.661264, -33.4384926 ], [ -70.6611143, -33.4384781 ], [ -70.6611141, -33.4384782 ], [ -70.66104, -33.4384705 ], [ -70.660915, -33.4384446 ], [ -70.6605291, -33.4384064 ], [ -70.6605283, -33.4384149 ], [ -70.6605271, -33.4384244 ], [ -70.6603446, -33.438405 ], [ -70.6603282, -33.4384032 ], [ -70.6601669, -33.4383853 ], [ -70.6601911, -33.4382683 ], [ -70.6602633, -33.4377155 ], [ -70.6603098, -33.4373562 ], [ -70.6603418, -33.4371146 ], [ -70.6603423, -33.4371104 ], [ -70.6603448, -33.4370898 ], [ -70.6604617, -33.437103 ], [ -70.6605245, -33.4371088 ], [ -70.6605815, -33.437114 ], [ -70.6606133, -33.4371165 ], [ -70.6606089, -33.4371551 ], [ -70.6607652, -33.437173 ], [ -70.660776, -33.4371742 ], [ -70.6609256, -33.4371907 ], [ -70.6609482, -33.4371931 ], [ -70.6610686, -33.4372046 ], [ -70.6610744, -33.4372052 ], [ -70.6610947, -33.4372001 ], [ -70.6610979, -33.4371776 ], [ -70.6610998, -33.4371644 ], [ -70.661158, -33.4367567 ], [ -70.6611643, -33.4367062 ], [ -70.6612932, -33.4367137 ], [ -70.6615181, -33.4367327 ], [ -70.6615648, -33.4367364 ], [ -70.6616016, -33.4367394 ], [ -70.6617979, -33.4367562 ], [ -70.6619083, -33.4367653 ], [ -70.6619472, -33.4367685 ], [ -70.6620221, -33.4367747 ], [ -70.662044, -33.4367765 ], [ -70.6620569, -33.4367775 ], [ -70.6621405, -33.436784 ], [ -70.6621768, -33.436787 ], [ -70.6622356, -33.436792 ], [ -70.6625096, -33.4368149 ], [ -70.6625273, -33.4366842 ], [ -70.6625284, -33.4366725 ], [ -70.662533, -33.436625 ], [ -70.6625359, -33.4365947 ], [ -70.6625413, -33.4365531 ], [ -70.6625704, -33.4365557 ], [ -70.6625832, -33.4364513 ], [ -70.662591, -33.4363876 ], [ -70.6626016, -33.436298 ], [ -70.6626159, -33.4361766 ], [ -70.6626184, -33.4361554 ], [ -70.6626198, -33.4361428 ], [ -70.6626298, -33.4360295 ], [ -70.6626976, -33.4354054 ], [ -70.6627046, -33.4353193 ], [ -70.6627332, -33.4350292 ], [ -70.6627469, -33.434898 ], [ -70.6627601, -33.434751 ], [ -70.6627818, -33.4345568 ], [ -70.6629253, -33.4345449 ], [ -70.663269, -33.4345622 ], [ -70.6632777, -33.4345698 ], [ -70.6633256, -33.4345718 ], [ -70.6633252, -33.4345773 ], [ -70.6634234, -33.4345806 ], [ -70.6634236, -33.434575 ], [ -70.6635383, -33.4345791 ], [ -70.663538, -33.4345849 ], [ -70.6636362, -33.4345888 ], [ -70.6636365, -33.4345831 ], [ -70.66377, -33.434588 ], [ -70.6637696, -33.4345937 ], [ -70.6638676, -33.4345973 ], [ -70.6639493, -33.4346012 ], [ -70.6640905, -33.4346025 ], [ -70.664091, -33.4346028 ], [ -70.6640924, -33.4346038 ], [ -70.6640929, -33.4346041 ], [ -70.6640939, -33.4346047 ], [ -70.6640954, -33.4346055 ], [ -70.6640965, -33.434606 ], [ -70.6640975, -33.4346065 ], [ -70.6640986, -33.434607 ], [ -70.6640992, -33.4346072 ], [ -70.6641009, -33.4346078 ], [ -70.664102, -33.4346082 ], [ -70.6641032, -33.4346085 ], [ -70.6641044, -33.4346088 ], [ -70.664105, -33.4346089 ], [ -70.6641056, -33.434609 ], [ -70.6643897, -33.4346227 ], [ -70.6643896, -33.4346258 ], [ -70.6643894, -33.4346325 ], [ -70.6643882, -33.4346651 ], [ -70.6644929, -33.4346694 ], [ -70.6645466, -33.4346716 ], [ -70.6646517, -33.434674 ], [ -70.6648064, -33.4346774 ], [ -70.664976, -33.43467 ], [ -70.6651603, -33.434677 ], [ -70.6651603, -33.4346778 ], [ -70.6653042, -33.4346822 ], [ -70.6653741, -33.434685 ], [ -70.6653963, -33.4346859 ], [ -70.6654552, -33.4346883 ], [ -70.6654551, -33.4346926 ], [ -70.6656302, -33.4347012 ], [ -70.6656303, -33.4346973 ], [ -70.6657745, -33.4347028 ], [ -70.6659208, -33.4347085 ], [ -70.6660695, -33.4347142 ], [ -70.6662021, -33.4347193 ], [ -70.6663784, -33.4347164 ], [ -70.666683, -33.4347293 ], [ -70.6670779, -33.4347483 ], [ -70.6672848, -33.4347571 ], [ -70.6674525, -33.434761 ], [ -70.6674832, -33.4347623 ], [ -70.6677955, -33.4347746 ], [ -70.6679224, -33.4347787 ], [ -70.6682409, -33.4347904 ], [ -70.668278, -33.4347901 ], [ -70.6684093, -33.4347925 ], [ -70.6684163, -33.4347958 ], [ -70.6684235, -33.4347967 ], [ -70.6684997, -33.4347989 ], [ -70.6685541, -33.4348011 ], [ -70.6685709, -33.4348016 ], [ -70.6686489, -33.4348049 ], [ -70.6686663, -33.4348061 ], [ -70.6687835, -33.4348106 ], [ -70.6689155, -33.4348165 ], [ -70.6689576, -33.4348184 ], [ -70.6690867, -33.4348243 ], [ -70.6693436, -33.4348348 ], [ -70.6694147, -33.434838 ], [ -70.6694439, -33.4348393 ], [ -70.6695237, -33.4348429 ], [ -70.6696216, -33.4348464 ], [ -70.6696217, -33.4348455 ], [ -70.6697227, -33.4348492 ], [ -70.6698383, -33.4348548 ], [ -70.6699409, -33.4348591 ], [ -70.6701603, -33.4348657 ], [ -70.6701925, -33.4348673 ], [ -70.6702519, -33.4348703 ], [ -70.6703582, -33.4348743 ], [ -70.6705789, -33.4348809 ], [ -70.6706747, -33.4348842 ], [ -70.6708531, -33.4348909 ], [ -70.6710749, -33.434903 ], [ -70.6711702, -33.4349056 ], [ -70.6711975, -33.4349064 ], [ -70.6712668, -33.4349083 ], [ -70.6713951, -33.4349123 ], [ -70.6714848, -33.4349148 ], [ -70.671497, -33.4349152 ], [ -70.6715783, -33.4349172 ], [ -70.6715783, -33.4349178 ], [ -70.6717714, -33.434922 ], [ -70.6719186, -33.4349251 ], [ -70.6719905, -33.4349265 ], [ -70.672128, -33.4349312 ], [ -70.6721963, -33.4349323 ], [ -70.6723449, -33.4349348 ], [ -70.6723714, -33.4349357 ], [ -70.6724548, -33.4349381 ], [ -70.6724548, -33.4349387 ], [ -70.6725172, -33.4349403 ], [ -70.6725725, -33.4349417 ], [ -70.6726134, -33.4349425 ], [ -70.6726716, -33.4349441 ], [ -70.6727153, -33.4349452 ], [ -70.6728201, -33.4349489 ], [ -70.6730083, -33.4349508 ], [ -70.6731928, -33.4349574 ], [ -70.6733441, -33.4349609 ], [ -70.6734944, -33.434965 ], [ -70.6736142, -33.4349678 ], [ -70.6737024, -33.4349705 ], [ -70.673896, -33.4349762 ], [ -70.67424, -33.4349875 ], [ -70.6742399, -33.4349903 ], [ -70.6743185, -33.4349919 ], [ -70.6743982, -33.4349992 ], [ -70.6743991, -33.4349993 ], [ -70.6744757, -33.4350064 ], [ -70.6744764, -33.4349971 ], [ -70.6745502, -33.4350027 ], [ -70.6746191, -33.4350079 ], [ -70.6747624, -33.4350257 ], [ -70.6748311, -33.4350386 ], [ -70.674924, -33.435056 ], [ -70.6750944, -33.4350765 ], [ -70.6752016, -33.4350913 ], [ -70.6753035, -33.4351051 ], [ -70.6753056, -33.4351054 ], [ -70.6754046, -33.4351182 ], [ -70.6755086, -33.4351312 ], [ -70.6756366, -33.4351505 ], [ -70.6758277, -33.4351766 ], [ -70.6759677, -33.4351958 ], [ -70.6760053, -33.435201 ], [ -70.6762129, -33.4352262 ], [ -70.6761675, -33.4354026 ], [ -70.6761669, -33.4354082 ], [ -70.6761265, -33.4358015 ], [ -70.6761253, -33.4358209 ], [ -70.6761164, -33.4359561 ], [ -70.6761054, -33.4361256 ], [ -70.6760634, -33.4365441 ], [ -70.6760406, -33.4368045 ], [ -70.6761205, -33.4368096 ], [ -70.6762339, -33.4368173 ], [ -70.6763487, -33.4368251 ], [ -70.6763274, -33.4370752 ], [ -70.6764145, -33.4370811 ], [ -70.6768032, -33.4371079 ], [ -70.6769564, -33.4371326 ], [ -70.6771721, -33.437148 ], [ -70.6773127, -33.4371573 ], [ -70.6774212, -33.4371651 ], [ -70.6776572, -33.4371811 ], [ -70.6777807, -33.437189 ], [ -70.677783, -33.4371646 ], [ -70.6778671, -33.4371708 ], [ -70.6780192, -33.4371799 ], [ -70.6780465, -33.4372084 ], [ -70.6782601, -33.4372217 ], [ -70.6784256, -33.4372329 ], [ -70.6785579, -33.437242 ], [ -70.678889, -33.4372641 ], [ -70.6789203, -33.4372661 ], [ -70.679136, -33.4372535 ], [ -70.6791363, -33.4372538 ], [ -70.679267, -33.4372637 ], [ -70.6794114, -33.4372731 ], [ -70.6794869, -33.4372782 ], [ -70.679524, -33.4372806 ], [ -70.6795956, -33.4372854 ], [ -70.679699, -33.4372923 ], [ -70.6799414, -33.4373085 ], [ -70.6803013, -33.4373336 ], [ -70.6802997, -33.4373524 ], [ -70.6802238, -33.4383584 ], [ -70.6801494, -33.4385038 ], [ -70.6801481, -33.4385083 ], [ -70.6801463, -33.4385143 ], [ -70.6799134, -33.4385013 ], [ -70.679905, -33.4385923 ], [ -70.6799034, -33.4386102 ], [ -70.6796933, -33.4385937 ], [ -70.6795713, -33.4385836 ], [ -70.6794345, -33.4385735 ], [ -70.6793323, -33.4385657 ], [ -70.6789878, -33.4385447 ], [ -70.6789646, -33.4385443 ], [ -70.6789544, -33.4386689 ], [ -70.6789432, -33.4388054 ], [ -70.6789666, -33.4388061 ], [ -70.6789555, -33.438941 ], [ -70.678945, -33.4390635 ], [ -70.6789338, -33.439184 ], [ -70.6789151, -33.4391828 ], [ -70.6789057, -33.4392986 ], [ -70.6788972, -33.4393987 ], [ -70.6788838, -33.4395443 ], [ -70.6788772, -33.4396222 ], [ -70.6788676, -33.4397274 ], [ -70.6788558, -33.4398525 ], [ -70.6788294, -33.4401428 ], [ -70.6787744, -33.440213 ], [ -70.6786916, -33.4410786 ], [ -70.6786563, -33.4414478 ], [ -70.675576, -33.4411055 ], [ -70.67416, -33.440938 ], [ -70.6740414, -33.44214 ], [ -70.675457, -33.4423151 ], [ -70.6774942, -33.4424502 ], [ -70.6774662, -33.4427788 ], [ -70.6775295, -33.4427824 ], [ -70.6775309, -33.4427825 ], [ -70.6776243, -33.4427893 ], [ -70.6777221, -33.4427966 ], [ -70.6778144, -33.4428034 ], [ -70.6779145, -33.4428108 ], [ -70.6780151, -33.4428182 ], [ -70.6780205, -33.4427677 ], [ -70.6781138, -33.4427743 ], [ -70.6784317, -33.442791 ], [ -70.6784758, -33.4427933 ], [ -70.6785418, -33.442798 ], [ -70.6785696, -33.4425151 ], [ -70.67969, -33.4425967 ] ] ] } },
{ "type": "Feature", "properties": { "AREA": 343140.79631000001, "PERIMETER": 0.0, "CL_ZTP": 17, "NOMBRE_ZT": "Parque Quinta Normal" }, "geometry": { "type": "Polygon", "coordinates": [ [ [ -70.682668, -33.4408804 ], [ -70.6826368, -33.4408653 ], [ -70.6826119, -33.4408527 ], [ -70.6825962, -33.44084 ], [ -70.6825867, -33.4408246 ], [ -70.68258, -33.4408014 ], [ -70.6825825, -33.4407703 ], [ -70.6825913, -33.4407469 ], [ -70.6826095, -33.4407285 ], [ -70.6826279, -33.4407205 ], [ -70.6826461, -33.4407047 ], [ -70.6826703, -33.4406811 ], [ -70.6826731, -33.4406655 ], [ -70.6826667, -33.4406527 ], [ -70.6826727, -33.4406448 ], [ -70.6826818, -33.4406369 ], [ -70.6826783, -33.4406163 ], [ -70.682678, -33.4406008 ], [ -70.6826778, -33.4405878 ], [ -70.6826682, -33.4405698 ], [ -70.6826462, -33.440552 ], [ -70.6826183, -33.4405446 ], [ -70.6826, -33.4405578 ], [ -70.6825879, -33.4405709 ], [ -70.6825791, -33.4405943 ], [ -70.6825518, -33.4406154 ], [ -70.6825459, -33.440631 ], [ -70.6825463, -33.4406543 ], [ -70.6825406, -33.4406751 ], [ -70.6825253, -33.4406831 ], [ -70.6824882, -33.440681 ], [ -70.6824482, -33.4406893 ], [ -70.6824177, -33.4407104 ], [ -70.6823878, -33.4407574 ], [ -70.6823854, -33.4407937 ], [ -70.6823889, -33.4408169 ], [ -70.6823737, -33.4408301 ], [ -70.6823401, -33.4408486 ], [ -70.6822906, -33.4408415 ], [ -70.6822657, -33.4408315 ], [ -70.6822437, -33.4408111 ], [ -70.6822035, -33.4408065 ], [ -70.6821695, -33.440807 ], [ -70.6821421, -33.4408229 ], [ -70.682133, -33.4408307 ], [ -70.6821363, -33.4408462 ], [ -70.6821397, -33.4408591 ], [ -70.682112, -33.4408647 ], [ -70.6820687, -33.4408601 ], [ -70.6820252, -33.4408451 ], [ -70.6820001, -33.4408248 ], [ -70.6819749, -33.4407992 ], [ -70.6819375, -33.440779 ], [ -70.6819121, -33.4407432 ], [ -70.6818958, -33.440702 ], [ -70.6818983, -33.4406683 ], [ -70.6809897, -33.4406211 ], [ -70.6809311, -33.441663 ], [ -70.6798765, -33.4416109 ], [ -70.6798968, -33.4413995 ], [ -70.6798917, -33.4413194 ], [ -70.6798912, -33.4413112 ], [ -70.6799248, -33.4410084 ], [ -70.6799473, -33.4408119 ], [ -70.6799485, -33.4408007 ], [ -70.6799587, -33.4406848 ], [ -70.6799594, -33.4406773 ], [ -70.6799629, -33.4406512 ], [ -70.6799699, -33.4405377 ], [ -70.6799759, -33.4403594 ], [ -70.6799822, -33.4402612 ], [ -70.6799966, -33.4400458 ], [ -70.6799981, -33.4400242 ], [ -70.6800322, -33.4400262 ], [ -70.6804987, -33.4400499 ], [ -70.6805116, -33.4398987 ], [ -70.6805127, -33.4398823 ], [ -70.6805164, -33.4398297 ], [ -70.6805212, -33.4397582 ], [ -70.6805223, -33.4397434 ], [ -70.6805256, -33.4397007 ], [ -70.680528, -33.4396684 ], [ -70.6805306, -33.4396348 ], [ -70.6805398, -33.4395157 ], [ -70.6805464, -33.4394422 ], [ -70.6805602, -33.4392875 ], [ -70.6805647, -33.4392338 ], [ -70.6805733, -33.4391317 ], [ -70.6805815, -33.439034 ], [ -70.6805918, -33.438914 ], [ -70.6806026, -33.4387885 ], [ -70.6806035, -33.4387789 ], [ -70.6806113, -33.4386898 ], [ -70.6806873, -33.4386942 ], [ -70.6807926, -33.4387003 ], [ -70.6808891, -33.4387059 ], [ -70.6810593, -33.4387158 ], [ -70.6811251, -33.4387196 ], [ -70.6812368, -33.4387261 ], [ -70.6812454, -33.4386016 ], [ -70.6837111, -33.4387594 ], [ -70.6837132, -33.4388442 ], [ -70.6837226, -33.4392179 ], [ -70.6838553, -33.4392271 ], [ -70.684063, -33.4392406 ], [ -70.6841727, -33.4392491 ], [ -70.6841809, -33.4392497 ], [ -70.6842504, -33.4392551 ], [ -70.6842542, -33.4392554 ], [ -70.6843371, -33.4392605 ], [ -70.6843608, -33.439262 ], [ -70.6844322, -33.4392664 ], [ -70.6845884, -33.4392758 ], [ -70.6846256, -33.439278 ], [ -70.684638, -33.4392788 ], [ -70.6846963, -33.4392821 ], [ -70.6847251, -33.4392837 ], [ -70.6848415, -33.4392903 ], [ -70.6848524, -33.4392909 ], [ -70.6849659, -33.4392973 ], [ -70.6850638, -33.4393027 ], [ -70.6850676, -33.4393029 ], [ -70.6850998, -33.4393051 ], [ -70.6851503, -33.4393086 ], [ -70.6852463, -33.4393152 ], [ -70.6852521, -33.4393156 ], [ -70.6852786, -33.4393173 ], [ -70.6853203, -33.4393201 ], [ -70.6853897, -33.4393247 ], [ -70.6854133, -33.4393262 ], [ -70.6855066, -33.4393322 ], [ -70.6855419, -33.4393347 ], [ -70.6856858, -33.4393451 ], [ -70.6857126, -33.439347 ], [ -70.6858034, -33.4393523 ], [ -70.6859281, -33.4393595 ], [ -70.6860725, -33.4393691 ], [ -70.6861463, -33.439374 ], [ -70.6864263, -33.4393944 ], [ -70.6864837, -33.4393988 ], [ -70.6865634, -33.4394049 ], [ -70.686575, -33.4394052 ], [ -70.6866556, -33.4394071 ], [ -70.6868684, -33.4394235 ], [ -70.6869092, -33.4394267 ], [ -70.6869624, -33.4394309 ], [ -70.6871133, -33.4394429 ], [ -70.6871316, -33.4395937 ], [ -70.6871365, -33.4396341 ], [ -70.6871521, -33.4396533 ], [ -70.6871672, -33.4396657 ], [ -70.6871917, -33.4396774 ], [ -70.687219, -33.4396832 ], [ -70.68724, -33.4396829 ], [ -70.6872753, -33.4401996 ], [ -70.6873109, -33.4406864 ], [ -70.6873712, -33.4414228 ], [ -70.6874416, -33.4422781 ], [ -70.6874594, -33.4426218 ], [ -70.6874749, -33.4429057 ], [ -70.6874813, -33.4430238 ], [ -70.6875081, -33.443471 ], [ -70.6875281, -33.443845 ], [ -70.6875449, -33.444054 ], [ -70.6875457, -33.4440647 ], [ -70.6875477, -33.4440857 ], [ -70.6875476, -33.4440977 ], [ -70.6875464, -33.4441096 ], [ -70.6875443, -33.4441214 ], [ -70.6875412, -33.4441331 ], [ -70.6875372, -33.4441445 ], [ -70.6875323, -33.4441557 ], [ -70.6875265, -33.4441666 ], [ -70.6875199, -33.4441771 ], [ -70.6875124, -33.4441872 ], [ -70.6875041, -33.4441968 ], [ -70.6874951, -33.4442059 ], [ -70.6874853, -33.4442145 ], [ -70.6874749, -33.4442224 ], [ -70.6874638, -33.4442298 ], [ -70.6874522, -33.4442364 ], [ -70.687433, -33.4442485 ], [ -70.6874221, -33.4442538 ], [ -70.6874112, -33.4442581 ], [ -70.6873998, -33.4442617 ], [ -70.6873881, -33.4442645 ], [ -70.6873762, -33.4442665 ], [ -70.6873641, -33.4442676 ], [ -70.687352, -33.4442678 ], [ -70.6873399, -33.4442672 ], [ -70.6873279, -33.4442657 ], [ -70.6873161, -33.4442634 ], [ -70.6873027, -33.4442597 ], [ -70.6871394, -33.4442518 ], [ -70.6870376, -33.4442449 ], [ -70.6869081, -33.4442379 ], [ -70.6867494, -33.4442332 ], [ -70.6867025, -33.4442283 ], [ -70.686459, -33.4442118 ], [ -70.6861029, -33.4441918 ], [ -70.6858325, -33.4441742 ], [ -70.6856213, -33.4441628 ], [ -70.6854215, -33.4441502 ], [ -70.6852765, -33.4441461 ], [ -70.6851001, -33.4441353 ], [ -70.6849492, -33.444129 ], [ -70.6848135, -33.4441217 ], [ -70.6846995, -33.4441141 ], [ -70.6845724, -33.4441091 ], [ -70.6844239, -33.4441015 ], [ -70.6843862, -33.4441001 ], [ -70.6839638, -33.4440811 ], [ -70.6837865, -33.4440756 ], [ -70.6835605, -33.4440649 ], [ -70.6833571, -33.4440539 ], [ -70.6831486, -33.444045 ], [ -70.6829657, -33.4440358 ], [ -70.6827817, -33.4440293 ], [ -70.6826209, -33.4440244 ], [ -70.6824364, -33.4440128 ], [ -70.6822639, -33.4440058 ], [ -70.6820648, -33.4439992 ], [ -70.6819431, -33.4439933 ], [ -70.6816448, -33.4439804 ], [ -70.6813787, -33.4439695 ], [ -70.6811007, -33.4439576 ], [ -70.6808806, -33.4439449 ], [ -70.680674, -33.4439337 ], [ -70.680496, -33.4439208 ], [ -70.6803532, -33.4439111 ], [ -70.6802312, -33.4438998 ], [ -70.6800929, -33.4438791 ], [ -70.6799761, -33.4438609 ], [ -70.6798588, -33.4438433 ], [ -70.6797775, -33.4438292 ], [ -70.6797662, -33.4438255 ], [ -70.6797555, -33.4438206 ], [ -70.6797456, -33.4438147 ], [ -70.6797365, -33.4438079 ], [ -70.6797284, -33.4438002 ], [ -70.6797214, -33.4437917 ], [ -70.6797155, -33.4437827 ], [ -70.679711, -33.4437731 ], [ -70.6797078, -33.4437631 ], [ -70.6797059, -33.4437529 ], [ -70.6797056, -33.4437407 ], [ -70.6797246, -33.443521 ], [ -70.6797509, -33.4432193 ], [ -70.6797764, -33.4428899 ], [ -70.6797773, -33.442879 ], [ -70.6797876, -33.4426015 ], [ -70.6799804, -33.442613 ], [ -70.6809564, -33.4426745 ], [ -70.680967, -33.4424814 ], [ -70.6810565, -33.4424864 ], [ -70.682329, -33.4425662 ], [ -70.6823641, -33.4420881 ], [ -70.6823918, -33.4417642 ], [ -70.6825896, -33.4417714 ], [ -70.682668, -33.4408804 ] ] ] } },
{ "type": "Feature", "properties": { "AREA": 120026.68322000001, "PERIMETER": 2328.98023, "CL_ZTP": 18, "NOMBRE_ZT": "Sector, Av. Viel - Av. Matta" }, "geometry": { "type": "Polygon", "coordinates": [ [ [ -70.6562238, -33.4647225 ], [ -70.656192, -33.4657045 ], [ -70.6561432, -33.4668561 ], [ -70.6560631, -33.4684819 ], [ -70.6559809, -33.4699978 ], [ -70.6545859, -33.4699149 ], [ -70.6547285, -33.4683897 ], [ -70.6548584, -33.4667209 ], [ -70.6549075, -33.4661194 ], [ -70.6550306, -33.4646284 ], [ -70.6551222, -33.4636032 ], [ -70.6553943, -33.4603923 ], [ -70.6564261, -33.460497 ], [ -70.6563281, -33.4627747 ], [ -70.6562238, -33.4647225 ] ] ] } },
{ "type": "Feature", "properties": { "AREA": 9630.74681, "PERIMETER": 495.22555, "CL_ZTP": 8, "NOMBRE_ZT": "Conjunto Virginia Opazo" }, "geometry": { "type": "Polygon", "coordinates": [ [ [ -70.6690876, -33.4484782 ], [ -70.6691582, -33.4484976 ], [ -70.6692341, -33.4485184 ], [ -70.6694065, -33.4485652 ], [ -70.6694624, -33.4485806 ], [ -70.6695244, -33.4485976 ], [ -70.6695048, -33.4486603 ], [ -70.6695006, -33.4486737 ], [ -70.6694808, -33.4487374 ], [ -70.6694702, -33.4487714 ], [ -70.669458, -33.4488105 ], [ -70.6694534, -33.4488254 ], [ -70.6694437, -33.4488566 ], [ -70.6694545, -33.4488839 ], [ -70.6694717, -33.4489274 ], [ -70.6695113, -33.4490276 ], [ -70.6695155, -33.4490382 ], [ -70.6695393, -33.4490985 ], [ -70.6695337, -33.449122 ], [ -70.6695306, -33.4491348 ], [ -70.669529, -33.4491417 ], [ -70.6695208, -33.4491762 ], [ -70.6695753, -33.4491942 ], [ -70.6695698, -33.4492146 ], [ -70.6695458, -33.4493047 ], [ -70.6695285, -33.4493696 ], [ -70.6695222, -33.4493929 ], [ -70.6695069, -33.4494504 ], [ -70.6694984, -33.4494822 ], [ -70.6694942, -33.4494979 ], [ -70.6695232, -33.4495102 ], [ -70.6695247, -33.4495108 ], [ -70.6695244, -33.4495117 ], [ -70.6695195, -33.449533 ], [ -70.6695097, -33.4495754 ], [ -70.6694882, -33.4496682 ], [ -70.6694798, -33.449667 ], [ -70.6694752, -33.4496832 ], [ -70.6694027, -33.4496664 ], [ -70.6693501, -33.4496542 ], [ -70.6692723, -33.4496363 ], [ -70.6692599, -33.4496795 ], [ -70.6692465, -33.449726 ], [ -70.6692341, -33.449769 ], [ -70.6692281, -33.4497898 ], [ -70.6692229, -33.4498079 ], [ -70.6692122, -33.4498449 ], [ -70.6692081, -33.4498594 ], [ -70.6692025, -33.4498786 ], [ -70.6691873, -33.4499315 ], [ -70.6691795, -33.4499584 ], [ -70.6691723, -33.4499834 ], [ -70.6691651, -33.4500087 ], [ -70.669116, -33.450179 ], [ -70.6689978, -33.4501499 ], [ -70.6688499, -33.4501127 ], [ -70.6687227, -33.4500804 ], [ -70.6687153, -33.4500785 ], [ -70.6687657, -33.4499049 ], [ -70.6687685, -33.4498941 ], [ -70.6687877, -33.4498203 ], [ -70.6687907, -33.4498089 ], [ -70.6688036, -33.4497593 ], [ -70.6688139, -33.4497195 ], [ -70.6688144, -33.4497178 ], [ -70.6688232, -33.4496838 ], [ -70.6688426, -33.4496094 ], [ -70.668805, -33.4496027 ], [ -70.6688327, -33.4494851 ], [ -70.6688056, -33.4494474 ], [ -70.6687357, -33.4494358 ], [ -70.6687426, -33.4494064 ], [ -70.6687457, -33.4493933 ], [ -70.668737, -33.4493821 ], [ -70.6687363, -33.4493812 ], [ -70.668738, -33.4493735 ], [ -70.6687398, -33.4493656 ], [ -70.668746, -33.4493379 ], [ -70.6687485, -33.449327 ], [ -70.6687276, -33.4493232 ], [ -70.6687289, -33.4493174 ], [ -70.6687367, -33.4492828 ], [ -70.6687391, -33.4492722 ], [ -70.6687488, -33.4492289 ], [ -70.6687592, -33.4491828 ], [ -70.6687693, -33.4491376 ], [ -70.6687709, -33.4491308 ], [ -70.6687631, -33.4491293 ], [ -70.6687709, -33.4490965 ], [ -70.668795, -33.4489964 ], [ -70.6687961, -33.4489917 ], [ -70.6688027, -33.4489642 ], [ -70.6688432, -33.4489749 ], [ -70.6688566, -33.4489624 ], [ -70.6688855, -33.4489351 ], [ -70.6689243, -33.4488985 ], [ -70.6689388, -33.4488849 ], [ -70.6689606, -33.4488328 ], [ -70.6689779, -33.4487915 ], [ -70.6689803, -33.4487846 ], [ -70.6689933, -33.4487476 ], [ -70.669008, -33.4487057 ], [ -70.6690247, -33.4486578 ], [ -70.6690345, -33.4486299 ], [ -70.6690391, -33.4486168 ], [ -70.6690571, -33.4485652 ], [ -70.6690613, -33.4485533 ], [ -70.6690628, -33.4485492 ], [ -70.6690647, -33.4485435 ], [ -70.6690876, -33.4484782 ] ] ] } },
{ "type": "Feature", "properties": { "AREA": 69201.00059, "PERIMETER": 1381.24756, "CL_ZTP": 6, "NOMBRE_ZT": "Sector Casonas Avda. República" }, "geometry": { "type": "Polygon", "coordinates": [ [ [ -70.6669459, -33.451056 ], [ -70.6669576, -33.4510051 ], [ -70.6671658, -33.4510584 ], [ -70.6675202, -33.4511489 ], [ -70.6679117, -33.4512407 ], [ -70.6683097, -33.4513324 ], [ -70.6684302, -33.4513592 ], [ -70.6684644, -33.4513686 ], [ -70.6684589, -33.451554 ], [ -70.6684562, -33.4515817 ], [ -70.6684532, -33.4516122 ], [ -70.6684483, -33.4516625 ], [ -70.6684388, -33.4517597 ], [ -70.6684341, -33.4518163 ], [ -70.668434, -33.4518207 ], [ -70.668428, -33.4518489 ], [ -70.6684227, -33.4518735 ], [ -70.6684162, -33.4519044 ], [ -70.6684152, -33.4519089 ], [ -70.6684113, -33.4519276 ], [ -70.6684051, -33.4519573 ], [ -70.6683149, -33.4523279 ], [ -70.6681048, -33.4524345 ], [ -70.6680687, -33.4526064 ], [ -70.6679843, -33.4530131 ], [ -70.6679617, -33.4531325 ], [ -70.6679027, -33.4534092 ], [ -70.6680287, -33.4536264 ], [ -70.6679705, -33.4538927 ], [ -70.6680499, -33.4539083 ], [ -70.6680977, -33.4539184 ], [ -70.6679968, -33.4544119 ], [ -70.6679299, -33.4546792 ], [ -70.6681133, -33.4547191 ], [ -70.6679692, -33.4552008 ], [ -70.6676723, -33.4551572 ], [ -70.6675881, -33.4554736 ], [ -70.6675065, -33.4557614 ], [ -70.6668295, -33.4556325 ], [ -70.6661969, -33.4554914 ], [ -70.6661117, -33.4554765 ], [ -70.6661383, -33.4549277 ], [ -70.666147, -33.4547744 ], [ -70.6661703, -33.4543271 ], [ -70.6664924, -33.4543931 ], [ -70.6665389, -33.4539936 ], [ -70.6665598, -33.4538262 ], [ -70.6665959, -33.4534847 ], [ -70.6666031, -33.4534152 ], [ -70.6666192, -33.4533007 ], [ -70.6666333, -33.4532328 ], [ -70.666724, -33.4532518 ], [ -70.6667412, -33.4531617 ], [ -70.6667832, -33.4527695 ], [ -70.6667929, -33.4526679 ], [ -70.6668038, -33.4525689 ], [ -70.6668282, -33.452346 ], [ -70.6668498, -33.4521418 ], [ -70.6668607, -33.451993 ], [ -70.6668917, -33.4516105 ], [ -70.6669156, -33.45136 ], [ -70.6669215, -33.4512798 ], [ -70.6669387, -33.4511273 ], [ -70.6669459, -33.451056 ] ] ] } },
{ "type": "Feature", "properties": { "AREA": 139225.13264, "PERIMETER": 2470.7012, "CL_ZTP": 2, "NOMBRE_ZT": "Calle Dieciocho" }, "geometry": { "type": "Polygon", "coordinates": [ [ [ -70.6562462, -33.4515165 ], [ -70.6565862, -33.4515607 ], [ -70.6566483, -33.4512939 ], [ -70.6566374, -33.4512918 ], [ -70.656706, -33.4508938 ], [ -70.6568588, -33.4509123 ], [ -70.6568857, -33.4507522 ], [ -70.6568638, -33.4507457 ], [ -70.6568955, -33.4505536 ], [ -70.6569511, -33.4505645 ], [ -70.6570768, -33.4499946 ], [ -70.6569158, -33.4499737 ], [ -70.6570148, -33.4494421 ], [ -70.6571267, -33.4494552 ], [ -70.6571757, -33.4492209 ], [ -70.6570178, -33.4492 ], [ -70.6571429, -33.4486128 ], [ -70.6568247, -33.4485734 ], [ -70.6568893, -33.4481878 ], [ -70.6560875, -33.4480834 ], [ -70.6562787, -33.4469735 ], [ -70.6564903, -33.4469995 ], [ -70.6564954, -33.4469265 ], [ -70.6565766, -33.4464907 ], [ -70.656763, -33.4465057 ], [ -70.6567797, -33.4463864 ], [ -70.6566283, -33.4463631 ], [ -70.6568581, -33.4456347 ], [ -70.6584108, -33.4460236 ], [ -70.6601795, -33.446422 ], [ -70.6601428, -33.4465764 ], [ -70.6598913, -33.4474365 ], [ -70.6595107, -33.4473834 ], [ -70.6593785, -33.4478613 ], [ -70.6593377, -33.4479895 ], [ -70.6592514, -33.448359 ], [ -70.6592491, -33.44839 ], [ -70.6592538, -33.4484876 ], [ -70.659246, -33.4485258 ], [ -70.659195, -33.4487869 ], [ -70.6585437, -33.4487063 ], [ -70.6584736, -33.4490629 ], [ -70.6584911, -33.4490668 ], [ -70.6584366, -33.4493337 ], [ -70.6583554, -33.4498375 ], [ -70.6584668, -33.4498535 ], [ -70.6584412, -33.450023 ], [ -70.6583505, -33.4506761 ], [ -70.6574455, -33.4505655 ], [ -70.6569565, -33.4527637 ], [ -70.6568794, -33.4531895 ], [ -70.6558961, -33.4530961 ], [ -70.6562462, -33.4515165 ] ] ] } },
{ "type": "Feature", "properties": { "AREA": 83899.59434, "PERIMETER": 1389.5458, "CL_ZTP": 4, "NOMBRE_ZT": "Sector calle Enrique Concha y Toro" }, "geometry": { "type": "Polygon", "coordinates": [ [ [ -70.6647101, -33.4445933 ], [ -70.6647102, -33.4445933 ], [ -70.6647115, -33.4445935 ], [ -70.6648661, -33.4446076 ], [ -70.6650294, -33.4446191 ], [ -70.6650335, -33.4445725 ], [ -70.6650875, -33.4445802 ], [ -70.665089, -33.4445746 ], [ -70.6651432, -33.4445804 ], [ -70.6652472, -33.4445917 ], [ -70.6652488, -33.4445799 ], [ -70.6654139, -33.4445953 ], [ -70.6655934, -33.4446132 ], [ -70.6656582, -33.4446183 ], [ -70.6657383, -33.4446247 ], [ -70.6659503, -33.4446454 ], [ -70.665938, -33.4447455 ], [ -70.6659333, -33.4447835 ], [ -70.6659332, -33.4447841 ], [ -70.6660296, -33.4447952 ], [ -70.6661849, -33.4448051 ], [ -70.6662366, -33.4448134 ], [ -70.6662404, -33.4446685 ], [ -70.6662926, -33.4446705 ], [ -70.6664885, -33.4446815 ], [ -70.6664916, -33.4448254 ], [ -70.6664915, -33.4448446 ], [ -70.6664914, -33.4449701 ], [ -70.6664868, -33.4450179 ], [ -70.666515, -33.4450211 ], [ -70.6665099, -33.4450765 ], [ -70.6664997, -33.4452561 ], [ -70.6664978, -33.4453241 ], [ -70.6664937, -33.4453835 ], [ -70.6664901, -33.4454276 ], [ -70.6664875, -33.4454559 ], [ -70.6664743, -33.4456086 ], [ -70.667589, -33.4457027 ], [ -70.6675914, -33.4457029 ], [ -70.6676811, -33.4457112 ], [ -70.6676543, -33.4463528 ], [ -70.6676223, -33.4468938 ], [ -70.6684737, -33.4470981 ], [ -70.6685955, -33.4471279 ], [ -70.6684681, -33.4475364 ], [ -70.6683338, -33.4478982 ], [ -70.6682291, -33.4478675 ], [ -70.6679849, -33.4477983 ], [ -70.6678072, -33.4477463 ], [ -70.6675436, -33.4476693 ], [ -70.666605, -33.4473933 ], [ -70.6664852, -33.4473575 ], [ -70.6662104, -33.4472827 ], [ -70.6661661, -33.4472707 ], [ -70.6661569, -33.4472682 ], [ -70.6660403, -33.4472366 ], [ -70.6659315, -33.4472071 ], [ -70.6659129, -33.4472021 ], [ -70.6658951, -33.4471972 ], [ -70.6656369, -33.4471201 ], [ -70.6654613, -33.4470779 ], [ -70.6651199, -33.4469988 ], [ -70.6646514, -33.446882 ], [ -70.6641521, -33.4467618 ], [ -70.6641776, -33.446623 ], [ -70.6641996, -33.4465025 ], [ -70.6642071, -33.4464605 ], [ -70.6642146, -33.4464191 ], [ -70.6642418, -33.4462674 ], [ -70.6642714, -33.4461066 ], [ -70.6642766, -33.4460776 ], [ -70.6642829, -33.4460405 ], [ -70.6642922, -33.4459899 ], [ -70.6643052, -33.4459302 ], [ -70.6643108, -33.4458898 ], [ -70.6643258, -33.4458065 ], [ -70.6643439, -33.4457112 ], [ -70.6643608, -33.4455946 ], [ -70.6643785, -33.4454791 ], [ -70.66438, -33.4454662 ], [ -70.6643913, -33.4453831 ], [ -70.6644059, -33.4452811 ], [ -70.6643272, -33.4452746 ], [ -70.664338, -33.4451941 ], [ -70.6643494, -33.4451103 ], [ -70.6643593, -33.4450247 ], [ -70.6643689, -33.4449415 ], [ -70.6643791, -33.4449423 ], [ -70.6644176, -33.4449452 ], [ -70.6644257, -33.4448629 ], [ -70.6644425, -33.4448644 ], [ -70.6644546, -33.4447231 ], [ -70.664458, -33.4446882 ], [ -70.6644589, -33.4446873 ], [ -70.664469, -33.4446153 ], [ -70.6644748, -33.4445735 ], [ -70.6645055, -33.4445765 ], [ -70.6645243, -33.4445783 ], [ -70.6647101, -33.4445933 ] ] ] } },
{ "type": "Feature", "properties": { "AREA": 8933.10326, "PERIMETER": 499.586, "CL_ZTP": 7, "NOMBRE_ZT": "Sector Pasaje República - G. García" }, "geometry": { "type": "Polygon", "coordinates": [ [ [ -70.6669423, -33.4481778 ], [ -70.6669744, -33.4478486 ], [ -70.6671721, -33.4478908 ], [ -70.6673744, -33.4479396 ], [ -70.6673462, -33.4480632 ], [ -70.6672897, -33.4483067 ], [ -70.6672788, -33.448376 ], [ -70.6673184, -33.448383 ], [ -70.6673213, -33.4483835 ], [ -70.667333, -33.4483856 ], [ -70.6673439, -33.4483875 ], [ -70.6673706, -33.4483923 ], [ -70.6674046, -33.4483983 ], [ -70.6674182, -33.4484007 ], [ -70.667462, -33.4484084 ], [ -70.6674567, -33.4484307 ], [ -70.6676172, -33.4484602 ], [ -70.6676346, -33.4483971 ], [ -70.6678672, -33.448449 ], [ -70.6678426, -33.4485512 ], [ -70.6680493, -33.4485866 ], [ -70.6682617, -33.4486296 ], [ -70.6681984, -33.4489423 ], [ -70.6679898, -33.4489055 ], [ -70.6677575, -33.4488728 ], [ -70.6674454, -33.4488255 ], [ -70.6673966, -33.449138 ], [ -70.6672789, -33.4491199 ], [ -70.6672662, -33.4491201 ], [ -70.6670865, -33.4491013 ], [ -70.6670684, -33.449099 ], [ -70.666975, -33.4490922 ], [ -70.6669978, -33.4489761 ], [ -70.6668729, -33.4489699 ], [ -70.6668743, -33.4489486 ], [ -70.6668874, -33.4487505 ], [ -70.6669087, -33.4485177 ], [ -70.6669144, -33.4484596 ], [ -70.6669284, -33.4483183 ], [ -70.6669312, -33.4482901 ], [ -70.6669351, -33.4482511 ], [ -70.6669423, -33.4481778 ] ] ] } },
{ "type": "Feature", "properties": { "AREA": 35513.75483, "PERIMETER": 1001.63325, "CL_ZTP": 1, "NOMBRE_ZT": "Calles Londres - París" }, "geometry": { "type": "Polygon", "coordinates": [ [ [ -70.6483167, -33.4436291 ], [ -70.6486591, -33.4437115 ], [ -70.6485708, -33.4440362 ], [ -70.6485483, -33.4441204 ], [ -70.6484749, -33.4441695 ], [ -70.6483579, -33.44425 ], [ -70.6483788, -33.4442814 ], [ -70.6484978, -33.4442047 ], [ -70.6485418, -33.4442447 ], [ -70.6486232, -33.4442509 ], [ -70.6486549, -33.4442873 ], [ -70.6486986, -33.4442619 ], [ -70.6487894, -33.4442824 ], [ -70.6487734, -33.4443594 ], [ -70.6489427, -33.4443878 ], [ -70.6489316, -33.4444361 ], [ -70.6490109, -33.4444497 ], [ -70.6493826, -33.4445143 ], [ -70.6494509, -33.4445233 ], [ -70.6493692, -33.4449021 ], [ -70.648846, -33.4448146 ], [ -70.6487289, -33.4453628 ], [ -70.6483362, -33.445286 ], [ -70.6482495, -33.4457145 ], [ -70.6476992, -33.4456075 ], [ -70.6477865, -33.4452088 ], [ -70.647644, -33.4451933 ], [ -70.6476263, -33.444888 ], [ -70.6470782, -33.4448953 ], [ -70.6470823, -33.444407 ], [ -70.6470885, -33.443715 ], [ -70.6470906, -33.4431153 ], [ -70.6474718, -33.4431709 ], [ -70.6476138, -33.4431908 ], [ -70.6478278, -33.4432284 ], [ -70.6480007, -33.4432692 ], [ -70.6483742, -33.4433774 ], [ -70.6483167, -33.4436291 ] ] ] } },
{ "type": "Feature", "properties": { "AREA": 21529.4555, "PERIMETER": 585.73959, "CL_ZTP": 11, "NOMBRE_ZT": "Población Madrid" }, "geometry": { "type": "Polygon", "coordinates": [ [ [ -70.6363575, -33.4543809 ], [ -70.6360276, -33.4557232 ], [ -70.6352847, -33.4555652 ], [ -70.6345463, -33.4554052 ], [ -70.6348799, -33.4540646 ], [ -70.6353165, -33.4541615 ], [ -70.6363575, -33.4543809 ] ] ] } },
{ "type": "Feature", "properties": { "AREA": 155942.62416000001, "PERIMETER": 2412.36982, "CL_ZTP": 3, "NOMBRE_ZT": "Plaza de Armas, Congreso Nacional" }, "geometry": { "type": "Polygon", "coordinates": [ [ [ -70.6500319, -33.4360534 ], [ -70.6500202, -33.4359236 ], [ -70.6501458, -33.4350952 ], [ -70.6501783, -33.4348757 ], [ -70.6502667, -33.4348817 ], [ -70.6514388, -33.4350212 ], [ -70.6515648, -33.4350428 ], [ -70.651473, -33.4357722 ], [ -70.6515576, -33.4357794 ], [ -70.6517147, -33.4357932 ], [ -70.651713, -33.4357985 ], [ -70.6519766, -33.4358224 ], [ -70.6519391, -33.4360755 ], [ -70.6519114, -33.4362549 ], [ -70.6518623, -33.4362481 ], [ -70.6518528, -33.4363109 ], [ -70.6518215, -33.4365572 ], [ -70.6518014, -33.436729 ], [ -70.6519116, -33.4367443 ], [ -70.6520282, -33.4367594 ], [ -70.6520239, -33.436789 ], [ -70.6520224, -33.4368025 ], [ -70.6520178, -33.4368441 ], [ -70.6521818, -33.4368627 ], [ -70.6523203, -33.4368787 ], [ -70.6523297, -33.4368794 ], [ -70.6523458, -33.4368812 ], [ -70.652355, -33.4368822 ], [ -70.6526179, -33.4369092 ], [ -70.6526193, -33.4369095 ], [ -70.6527645, -33.4369434 ], [ -70.6527885, -33.436946 ], [ -70.6529421, -33.4369628 ], [ -70.6529878, -33.4369679 ], [ -70.6530462, -33.4369746 ], [ -70.6531179, -33.4369831 ], [ -70.6532037, -33.4369931 ], [ -70.6532104, -33.4369666 ], [ -70.65334, -33.4369834 ], [ -70.6533719, -33.4369822 ], [ -70.6534623, -33.4369978 ], [ -70.6535164, -33.4370065 ], [ -70.6536436, -33.4370228 ], [ -70.6537099, -33.43645 ], [ -70.6541489, -33.4364963 ], [ -70.6540679, -33.4370607 ], [ -70.65413, -33.4370681 ], [ -70.6544487, -33.4371031 ], [ -70.6544189, -33.4373635 ], [ -70.6543898, -33.437633 ], [ -70.654383, -33.4376987 ], [ -70.6544744, -33.4377096 ], [ -70.6544576, -33.4378502 ], [ -70.6544426, -33.4380037 ], [ -70.6544283, -33.4381519 ], [ -70.6544169, -33.4382408 ], [ -70.6546852, -33.4382709 ], [ -70.6548302, -33.4382801 ], [ -70.6548732, -33.4382841 ], [ -70.655027, -33.4382994 ], [ -70.6550177, -33.4383657 ], [ -70.655011, -33.4384071 ], [ -70.6549994, -33.4384777 ], [ -70.6549774, -33.4386121 ], [ -70.6549527, -33.4388026 ], [ -70.6549485, -33.4388301 ], [ -70.6549485, -33.4388302 ], [ -70.6549435, -33.4388707 ], [ -70.6545867, -33.438833 ], [ -70.6544817, -33.4394357 ], [ -70.654428, -33.4394212 ], [ -70.6542625, -33.4393883 ], [ -70.6540961, -33.4393549 ], [ -70.6538385, -33.4393036 ], [ -70.6538105, -33.4393001 ], [ -70.653755, -33.4392931 ], [ -70.6537358, -33.4394235 ], [ -70.6535247, -33.4394054 ], [ -70.6535402, -33.4393144 ], [ -70.6534717, -33.4393089 ], [ -70.6531781, -33.4392897 ], [ -70.6531734, -33.439321 ], [ -70.6528394, -33.4392908 ], [ -70.6528254, -33.4393958 ], [ -70.6526777, -33.4393871 ], [ -70.652667, -33.4394522 ], [ -70.6526205, -33.4394513 ], [ -70.652617, -33.4394759 ], [ -70.6524126, -33.4394539 ], [ -70.6524121, -33.4394538 ], [ -70.6523403, -33.4394471 ], [ -70.6523811, -33.4392088 ], [ -70.6523198, -33.4392021 ], [ -70.6522348, -33.4391923 ], [ -70.6521263, -33.4391803 ], [ -70.6518794, -33.4391516 ], [ -70.6517174, -33.4391321 ], [ -70.6515261, -33.4391097 ], [ -70.651425, -33.4390972 ], [ -70.6510324, -33.4390526 ], [ -70.6510664, -33.4388092 ], [ -70.650965, -33.4387945 ], [ -70.6508041, -33.4387809 ], [ -70.6508189, -33.4386736 ], [ -70.6505947, -33.438652 ], [ -70.6505738, -33.4388351 ], [ -70.650452, -33.4388245 ], [ -70.6504313, -33.4389873 ], [ -70.6503286, -33.4389745 ], [ -70.6503745, -33.4386218 ], [ -70.6501415, -33.4385969 ], [ -70.6501382, -33.4386348 ], [ -70.6499709, -33.4386208 ], [ -70.6499639, -33.438662 ], [ -70.6498583, -33.4386521 ], [ -70.6498518, -33.4387018 ], [ -70.6497335, -33.438691 ], [ -70.6496388, -33.438683 ], [ -70.6496527, -33.4385799 ], [ -70.6495894, -33.4385729 ], [ -70.6495376, -33.4385674 ], [ -70.6494032, -33.43855 ], [ -70.6493798, -33.4386785 ], [ -70.6493644, -33.4387712 ], [ -70.649345, -33.4388942 ], [ -70.6492053, -33.4388813 ], [ -70.6492042, -33.4388861 ], [ -70.648945, -33.4388589 ], [ -70.6489781, -33.4386385 ], [ -70.6489915, -33.4385482 ], [ -70.6490326, -33.4385525 ], [ -70.6490416, -33.4384874 ], [ -70.6490536, -33.4384044 ], [ -70.6490133, -33.4383994 ], [ -70.649024, -33.4383374 ], [ -70.6490341, -33.4382838 ], [ -70.6490457, -33.438285 ], [ -70.6490606, -33.4381884 ], [ -70.6491316, -33.4377368 ], [ -70.6491663, -33.4375366 ], [ -70.6492159, -33.4372327 ], [ -70.649225, -33.4371725 ], [ -70.6492327, -33.4371059 ], [ -70.6498962, -33.4371979 ], [ -70.6500319, -33.4360534 ] ] ] } },
{ "type": "Feature", "properties": { "AREA": 44503.701, "PERIMETER": 901.21802, "CL_ZTP": 5, "NOMBRE_ZT": "Sector calles Nueva York, la Bolsa" }, "geometry": { "type": "Polygon", "coordinates": [ [ [ -70.6503234, -33.4447773 ], [ -70.6502356, -33.4447647 ], [ -70.6501311, -33.444748 ], [ -70.6503128, -33.4439043 ], [ -70.6502582, -33.4438926 ], [ -70.6503236, -33.4434317 ], [ -70.6505095, -33.4420201 ], [ -70.6505212, -33.4418542 ], [ -70.6517937, -33.4419615 ], [ -70.652061, -33.4419828 ], [ -70.6520296, -33.4421532 ], [ -70.6518772, -33.443241 ], [ -70.6517783, -33.4432382 ], [ -70.6517119, -33.4436266 ], [ -70.6516633, -33.4439145 ], [ -70.6516151, -33.4442276 ], [ -70.6516936, -33.4442464 ], [ -70.6515193, -33.4449616 ], [ -70.6514104, -33.4449452 ], [ -70.6503234, -33.4447773 ] ] ] } },
{ "type": "Feature", "properties": { "AREA": 84419.58094, "PERIMETER": 1670.00817, "CL_ZTP": 12, "NOMBRE_ZT": "Psajes. Lucrecia Valdés, Adriana Cousiño, Hurtad" }, "geometry": { "type": "Polygon", "coordinates": [ [ [ -70.6798848, -33.4403317 ], [ -70.6797666, -33.4415621 ], [ -70.6797186, -33.4421407 ], [ -70.6796966, -33.4424081 ], [ -70.6796805, -33.4426011 ], [ -70.6793011, -33.4425748 ], [ -70.6785646, -33.4425277 ], [ -70.6785358, -33.4427963 ], [ -70.6780213, -33.4427684 ], [ -70.678016, -33.4428171 ], [ -70.6774585, -33.4427771 ], [ -70.6774913, -33.4424509 ], [ -70.6770472, -33.4424221 ], [ -70.6764343, -33.4423838 ], [ -70.6759637, -33.4423539 ], [ -70.6754614, -33.4423238 ], [ -70.6749426, -33.4422507 ], [ -70.6746021, -33.4422094 ], [ -70.6740378, -33.442146 ], [ -70.6741006, -33.4414829 ], [ -70.6741518, -33.4409482 ], [ -70.6747894, -33.4410183 ], [ -70.6751739, -33.4410618 ], [ -70.6755735, -33.4411107 ], [ -70.6760652, -33.4411535 ], [ -70.6765357, -33.4412196 ], [ -70.6771624, -33.441287 ], [ -70.6775843, -33.4413314 ], [ -70.6786581, -33.4414527 ], [ -70.6786895, -33.4411034 ], [ -70.678772, -33.4402103 ], [ -70.6793055, -33.4402685 ], [ -70.6794953, -33.4402896 ], [ -70.6798848, -33.4403317 ] ] ] } },
{ "type": "Feature", "properties": { "AREA": 370013.68871999998, "PERIMETER": 4640.11401, "CL_ZTP": 10, "NOMBRE_ZT": "Parque Forestal" }, "geometry": { "type": "Polygon", "coordinates": [ [ [ -70.6368119, -33.4368607 ], [ -70.6367235, -33.4368456 ], [ -70.6364289, -33.4368488 ], [ -70.6362279, -33.4368527 ], [ -70.6360592, -33.4368643 ], [ -70.6358606, -33.436867 ], [ -70.6356494, -33.4368698 ], [ -70.6353776, -33.4368808 ], [ -70.6353406, -33.4368183 ], [ -70.6353872, -33.4365306 ], [ -70.6353699, -33.4357124 ], [ -70.6387463, -33.4349414 ], [ -70.6426388, -33.4340289 ], [ -70.6474248, -33.4328841 ], [ -70.6486022, -33.4326134 ], [ -70.6527696, -33.4316715 ], [ -70.6528903, -33.4307727 ], [ -70.6537683, -33.4305638 ], [ -70.6540128, -33.4313893 ], [ -70.6546178, -33.4312631 ], [ -70.6554995, -33.4310535 ], [ -70.6559349, -33.4309495 ], [ -70.6564058, -33.4308398 ], [ -70.6567705, -33.4320629 ], [ -70.653154, -33.4329065 ], [ -70.6529091, -33.4329435 ], [ -70.6518059, -33.433118 ], [ -70.6516777, -33.4342308 ], [ -70.6503033, -33.4341858 ], [ -70.650389, -33.4334975 ], [ -70.6499272, -33.4336141 ], [ -70.6494509, -33.4337485 ], [ -70.6489637, -33.4338499 ], [ -70.648267, -33.4340215 ], [ -70.6480027, -33.4340864 ], [ -70.6476398, -33.4341571 ], [ -70.6468304, -33.4343817 ], [ -70.6459982, -33.4347865 ], [ -70.6458464, -33.4348299 ], [ -70.6441797, -33.4355963 ], [ -70.6434428, -33.435944 ], [ -70.6432453, -33.4359786 ], [ -70.6407249, -33.4365739 ], [ -70.6405663, -33.4366117 ], [ -70.6405721, -33.4366442 ], [ -70.6405829, -33.436698 ], [ -70.6405941, -33.4367781 ], [ -70.6406041, -33.4368294 ], [ -70.6404972, -33.4368358 ], [ -70.6404173, -33.4368419 ], [ -70.6401773, -33.4368457 ], [ -70.6400778, -33.4368821 ], [ -70.6396815, -33.4368861 ], [ -70.6388723, -33.4368887 ], [ -70.6376286, -33.4368771 ], [ -70.6368119, -33.4368607 ] ] ] } },
{ "type": "Feature", "properties": { "AREA": 124632.84788, "PERIMETER": 2358.64618, "CL_ZTP": 9, "NOMBRE_ZT": "Barrioa Santa Lucía - Mulato Gil de Castro - Parq" }, "geometry": { "type": "Polygon", "coordinates": [ [ [ -70.6432431, -33.4359793 ], [ -70.6433556, -33.4360368 ], [ -70.6434607, -33.4363005 ], [ -70.6434397, -33.436409 ], [ -70.6434217, -33.4364787 ], [ -70.643337, -33.4377058 ], [ -70.6432646, -33.4377805 ], [ -70.6430983, -33.4379417 ], [ -70.6429039, -33.438116 ], [ -70.6427481, -33.4382592 ], [ -70.6426666, -33.4383779 ], [ -70.6426466, -33.438409 ], [ -70.6426085, -33.4384932 ], [ -70.6425607, -33.4386681 ], [ -70.6424392, -33.4390977 ], [ -70.642347, -33.4394284 ], [ -70.6423504, -33.4395287 ], [ -70.6423507, -33.4396617 ], [ -70.6423739, -33.4402055 ], [ -70.6423696, -33.4402571 ], [ -70.6422582, -33.4402067 ], [ -70.6420035, -33.4401023 ], [ -70.6418516, -33.4400329 ], [ -70.6417953, -33.4400065 ], [ -70.6412502, -33.4396697 ], [ -70.6411785, -33.4397444 ], [ -70.6411373, -33.4397943 ], [ -70.6410433, -33.4398847 ], [ -70.6409787, -33.4398364 ], [ -70.6409779, -33.4398371 ], [ -70.6408294, -33.4397422 ], [ -70.6407796, -33.4397355 ], [ -70.640779, -33.4397077 ], [ -70.6407326, -33.4397042 ], [ -70.6407138, -33.439498 ], [ -70.6406969, -33.4395093 ], [ -70.6406413, -33.4395152 ], [ -70.6406394, -33.4395046 ], [ -70.6405863, -33.4394655 ], [ -70.6406158, -33.4394225 ], [ -70.6405595, -33.4393833 ], [ -70.6404323, -33.4392875 ], [ -70.6403424, -33.4390031 ], [ -70.6405329, -33.4389738 ], [ -70.6405258, -33.4389531 ], [ -70.6406977, -33.4389389 ], [ -70.6408764, -33.4389247 ], [ -70.6408278, -33.4385464 ], [ -70.6407903, -33.4382162 ], [ -70.6401149, -33.4382192 ], [ -70.6401208, -33.4385345 ], [ -70.6397931, -33.4385329 ], [ -70.6397903, -33.4382201 ], [ -70.6393193, -33.4382226 ], [ -70.639184, -33.4381304 ], [ -70.6391401, -33.4381727 ], [ -70.6391078, -33.4381522 ], [ -70.6388838, -33.4380062 ], [ -70.6388654, -33.4379834 ], [ -70.6388591, -33.4379755 ], [ -70.6388365, -33.437948 ], [ -70.6388052, -33.4378809 ], [ -70.638804, -33.4378795 ], [ -70.6387244, -33.4378314 ], [ -70.638722, -33.43783 ], [ -70.63866, -33.4377671 ], [ -70.638634, -33.4377426 ], [ -70.6386261, -33.4377334 ], [ -70.6385563, -33.4377493 ], [ -70.6385277, -33.4377427 ], [ -70.6385105, -33.4377255 ], [ -70.6385182, -33.4376816 ], [ -70.6385274, -33.4376337 ], [ -70.6385471, -33.4374372 ], [ -70.6385494, -33.4374044 ], [ -70.6384083, -33.4373984 ], [ -70.6383665, -33.4373957 ], [ -70.638362, -33.4374347 ], [ -70.6383295, -33.4374331 ], [ -70.6381764, -33.4374271 ], [ -70.6381589, -33.4375777 ], [ -70.6381572, -33.4375775 ], [ -70.6379383, -33.4375519 ], [ -70.6378153, -33.4375399 ], [ -70.637828, -33.437455 ], [ -70.6376567, -33.4374395 ], [ -70.6375921, -33.4374323 ], [ -70.6375839, -33.4374689 ], [ -70.6375242, -33.4374597 ], [ -70.6373034, -33.4374253 ], [ -70.6373063, -33.4374111 ], [ -70.6372215, -33.4373965 ], [ -70.6371647, -33.4373881 ], [ -70.6371677, -33.4373717 ], [ -70.6371764, -33.4373094 ], [ -70.6372013, -33.4371293 ], [ -70.6369015, -33.4371095 ], [ -70.6367547, -33.4370982 ], [ -70.6366791, -33.4370982 ], [ -70.6365735, -33.4374217 ], [ -70.636429, -33.4373723 ], [ -70.6363386, -33.4373454 ], [ -70.6363541, -33.4372821 ], [ -70.6364304, -33.4368501 ], [ -70.6367228, -33.436845 ], [ -70.6368119, -33.4368616 ], [ -70.6376291, -33.4368763 ], [ -70.6388709, -33.4368893 ], [ -70.6396815, -33.4368874 ], [ -70.6400792, -33.4368809 ], [ -70.6401773, -33.4368451 ], [ -70.6404136, -33.4368426 ], [ -70.6404972, -33.4368365 ], [ -70.6406033, -33.4368294 ], [ -70.6405922, -33.4367681 ], [ -70.6405828, -33.4366949 ], [ -70.6405656, -33.4366123 ], [ -70.6406488, -33.4365915 ], [ -70.6416579, -33.4363546 ], [ -70.6432431, -33.4359793 ] ] ] } },
{ "type": "Feature", "properties": { "AREA": 1968585.34445, "PERIMETER": 5697.90276, "CL_ZTP": 13, "NOMBRE_ZT": "Sector Club Hípico y parque O'Higgins" }, "geometry": { "type": "Polygon", "coordinates": [ [ [ -70.6568504, -33.4581519 ], [ -70.6555893, -33.4580744 ], [ -70.6555946, -33.4579345 ], [ -70.655756, -33.4561962 ], [ -70.656121, -33.4562358 ], [ -70.656207, -33.456294 ], [ -70.6567637, -33.4563666 ], [ -70.6570541, -33.4563894 ], [ -70.659617, -33.4566039 ], [ -70.6603967, -33.4566788 ], [ -70.6609307, -33.4567419 ], [ -70.6624916, -33.4569193 ], [ -70.6640016, -33.4570437 ], [ -70.6649258, -33.457122 ], [ -70.6664707, -33.4573905 ], [ -70.6683236, -33.4577063 ], [ -70.6721151, -33.4583857 ], [ -70.6720798, -33.4587558 ], [ -70.671769, -33.4612493 ], [ -70.6716148, -33.4623743 ], [ -70.671517, -33.4634144 ], [ -70.6715039, -33.4635093 ], [ -70.6715473, -33.4646512 ], [ -70.6715495, -33.4653246 ], [ -70.6715521, -33.46621 ], [ -70.6715587, -33.4663677 ], [ -70.6715259, -33.4664313 ], [ -70.6714412, -33.4665397 ], [ -70.670947, -33.4671532 ], [ -70.6699898, -33.4681191 ], [ -70.6676945, -33.4705853 ], [ -70.6674374, -33.4705527 ], [ -70.6650599, -33.470508 ], [ -70.6648625, -33.4705046 ], [ -70.6637315, -33.4704492 ], [ -70.6634227, -33.4704353 ], [ -70.6633178, -33.470411 ], [ -70.6598798, -33.4702217 ], [ -70.6573367, -33.4700553 ], [ -70.6571649, -33.4700756 ], [ -70.6564845, -33.4700487 ], [ -70.6564924, -33.4699914 ], [ -70.6565374, -33.4685868 ], [ -70.656631, -33.466245 ], [ -70.656663, -33.465762 ], [ -70.6567875, -33.4638281 ], [ -70.6569604, -33.4615172 ], [ -70.6570226, -33.4606835 ], [ -70.6570421, -33.4604219 ], [ -70.6570475, -33.4603286 ], [ -70.6570633, -33.4600455 ], [ -70.6570546, -33.4598625 ], [ -70.6569859, -33.4592618 ], [ -70.6568504, -33.4581519 ] ] ] } },
{ "type": "Feature", "properties": { "AREA": 33656.01253, "PERIMETER": 0.0, "CL_ZTP": 14, "NOMBRE_ZT": "Conjunto Residencial calle Serrano" }, "geometry": { "type": "Polygon", "coordinates": [ [ [ -70.6466777, -33.4553009 ], [ -70.6470115, -33.4553696 ], [ -70.647162, -33.4554026 ], [ -70.6471757, -33.4553526 ], [ -70.6473751, -33.4553927 ], [ -70.64766, -33.4554503 ], [ -70.6473574, -33.456252 ], [ -70.6473322, -33.4563204 ], [ -70.6473415, -33.4563223 ], [ -70.6473203, -33.4564015 ], [ -70.6477923, -33.456495 ], [ -70.6477659, -33.4566018 ], [ -70.647735, -33.4567587 ], [ -70.6476844, -33.456751 ], [ -70.6476585, -33.456748 ], [ -70.6472439, -33.4566805 ], [ -70.6470673, -33.4573471 ], [ -70.6470532, -33.4573455 ], [ -70.6470079, -33.4575781 ], [ -70.646974, -33.457708 ], [ -70.6468947, -33.4580339 ], [ -70.646794, -33.4584139 ], [ -70.6466663, -33.4589294 ], [ -70.6462038, -33.4588312 ], [ -70.6459522, -33.4587785 ], [ -70.6459862, -33.4586436 ], [ -70.6460075, -33.4585517 ], [ -70.6460522, -33.4583782 ], [ -70.6461299, -33.4580735 ], [ -70.6462079, -33.4577687 ], [ -70.646261, -33.4575635 ], [ -70.64628, -33.4574943 ], [ -70.6463445, -33.4575081 ], [ -70.6463619, -33.4574451 ], [ -70.6463802, -33.4573707 ], [ -70.6464211, -33.457224 ], [ -70.6465234, -33.4568551 ], [ -70.6465365, -33.456803 ], [ -70.6461111, -33.4566972 ], [ -70.6461766, -33.4564377 ], [ -70.6459993, -33.4564007 ], [ -70.6458822, -33.4563762 ], [ -70.6459622, -33.4560474 ], [ -70.646079, -33.4560716 ], [ -70.6463485, -33.4561242 ], [ -70.6465191, -33.4555949 ], [ -70.646584, -33.4556044 ], [ -70.6466777, -33.4553009 ] ] ] } },
{ "type": "Feature", "properties": { "AREA": 315730.32321, "PERIMETER": 0.0, "CL_ZTP": 15, "NOMBRE_ZT": "Barrio Cívico - Eje Bulnes - Parque Almagro" }, "geometry": { "type": "Polygon", "coordinates": [ [ [ -70.6533825, -33.4488167 ], [ -70.6532107, -33.4499192 ], [ -70.6531973, -33.4499833 ], [ -70.653055, -33.4508862 ], [ -70.6530526, -33.450941 ], [ -70.6529832, -33.4513679 ], [ -70.6529667, -33.4514465 ], [ -70.6529628, -33.4514697 ], [ -70.6530335, -33.4514777 ], [ -70.6536694, -33.4515538 ], [ -70.6543802, -33.4515976 ], [ -70.6543908, -33.4515436 ], [ -70.6544545, -33.4515501 ], [ -70.6545183, -33.4515582 ], [ -70.6560408, -33.45176 ], [ -70.656085, -33.4517658 ], [ -70.6561863, -33.451778 ], [ -70.6558966, -33.4530938 ], [ -70.6550689, -33.4530119 ], [ -70.6542357, -33.452831 ], [ -70.6535104, -33.4526558 ], [ -70.6528823, -33.4524922 ], [ -70.6528234, -33.4524801 ], [ -70.6528081, -33.4524769 ], [ -70.6503651, -33.4518672 ], [ -70.6488351, -33.4514924 ], [ -70.6480804, -33.4512771 ], [ -70.6481745, -33.4507644 ], [ -70.6482268, -33.4507729 ], [ -70.648254, -33.4507775 ], [ -70.648487, -33.450815 ], [ -70.6488458, -33.4508727 ], [ -70.6489001, -33.4508819 ], [ -70.6489513, -33.4508893 ], [ -70.648995, -33.4506731 ], [ -70.6490851, -33.4506867 ], [ -70.6494299, -33.4507437 ], [ -70.6494415, -33.4507456 ], [ -70.6494605, -33.4507487 ], [ -70.6494736, -33.4507509 ], [ -70.6497637, -33.4507988 ], [ -70.6497647, -33.4507933 ], [ -70.6503993, -33.4509119 ], [ -70.6504934, -33.4509292 ], [ -70.6504878, -33.4509673 ], [ -70.6504718, -33.4511506 ], [ -70.6514898, -33.4512767 ], [ -70.6514978, -33.4512192 ], [ -70.651514, -33.4510913 ], [ -70.6514147, -33.4510772 ], [ -70.6514156, -33.4510715 ], [ -70.6514666, -33.4506952 ], [ -70.6514735, -33.450647 ], [ -70.650955, -33.4505707 ], [ -70.6509869, -33.4503497 ], [ -70.6512839, -33.4503874 ], [ -70.6512927, -33.4503382 ], [ -70.6513076, -33.4502465 ], [ -70.6513164, -33.4501998 ], [ -70.6513269, -33.4501359 ], [ -70.6513483, -33.4500278 ], [ -70.6513606, -33.4499573 ], [ -70.6513755, -33.4498722 ], [ -70.6513791, -33.4498533 ], [ -70.6513898, -33.4498001 ], [ -70.651423, -33.4496517 ], [ -70.651449, -33.4495329 ], [ -70.6514582, -33.449451 ], [ -70.6514858, -33.4492627 ], [ -70.6515054, -33.4492657 ], [ -70.6515339, -33.449124 ], [ -70.6515527, -33.4490341 ], [ -70.6515678, -33.4489686 ], [ -70.6515714, -33.4489548 ], [ -70.6515975, -33.4488377 ], [ -70.6515253, -33.4488216 ], [ -70.6515576, -33.4486297 ], [ -70.651637, -33.448645 ], [ -70.6516487, -33.4485672 ], [ -70.6516186, -33.4485599 ], [ -70.6516355, -33.448483 ], [ -70.6516555, -33.4484868 ], [ -70.6516755, -33.4484226 ], [ -70.6516777, -33.4484125 ], [ -70.6519795, -33.4485054 ], [ -70.6520781, -33.4485455 ], [ -70.6522127, -33.4479433 ], [ -70.6522891, -33.4476048 ], [ -70.6526123, -33.4461558 ], [ -70.6526887, -33.4458325 ], [ -70.6521926, -33.4457662 ], [ -70.6522908, -33.4453763 ], [ -70.6524607, -33.444702 ], [ -70.6525159, -33.4444831 ], [ -70.6526103, -33.4440951 ], [ -70.651904, -33.4439294 ], [ -70.6516578, -33.4439237 ], [ -70.651778, -33.4432339 ], [ -70.651872, -33.4432461 ], [ -70.6523852, -33.4433109 ], [ -70.6524347, -33.4429119 ], [ -70.6525351, -33.4429238 ], [ -70.6525418, -33.4428851 ], [ -70.6525383, -33.4428254 ], [ -70.6525577, -33.4427042 ], [ -70.652521, -33.4427012 ], [ -70.652511, -33.4426993 ], [ -70.652521, -33.4426268 ], [ -70.6525396, -33.4424693 ], [ -70.6525438, -33.4424367 ], [ -70.6525985, -33.4424424 ], [ -70.6526263, -33.4421724 ], [ -70.6526264, -33.4421715 ], [ -70.6526416, -33.442037 ], [ -70.6526748, -33.4417964 ], [ -70.6526912, -33.441679 ], [ -70.6527105, -33.4415376 ], [ -70.652532, -33.4415198 ], [ -70.6525524, -33.4413851 ], [ -70.6525767, -33.4412446 ], [ -70.6526102, -33.4412468 ], [ -70.6526475, -33.4410402 ], [ -70.6526541, -33.4409389 ], [ -70.6531012, -33.4410019 ], [ -70.6531134, -33.4409328 ], [ -70.6531555, -33.4406981 ], [ -70.6534691, -33.4407279 ], [ -70.6535524, -33.4407359 ], [ -70.6535832, -33.4404726 ], [ -70.6536708, -33.4404888 ], [ -70.6539783, -33.4405161 ], [ -70.6540555, -33.4405229 ], [ -70.6542525, -33.44054 ], [ -70.6543424, -33.4405493 ], [ -70.6546871, -33.4405951 ], [ -70.6547504, -33.4402829 ], [ -70.6547439, -33.4402774 ], [ -70.6547583, -33.4400348 ], [ -70.6551874, -33.4400924 ], [ -70.6550436, -33.4408067 ], [ -70.655124, -33.4408167 ], [ -70.6554424, -33.4408549 ], [ -70.6553815, -33.4411513 ], [ -70.655363, -33.4412165 ], [ -70.6554714, -33.4412261 ], [ -70.6553386, -33.4417477 ], [ -70.6553258, -33.4417957 ], [ -70.6555968, -33.4418348 ], [ -70.6554558, -33.4423872 ], [ -70.6552145, -33.4434193 ], [ -70.6551869, -33.4435037 ], [ -70.6550637, -33.4436354 ], [ -70.6550317, -33.4437634 ], [ -70.6548063, -33.4445861 ], [ -70.6546552, -33.4445513 ], [ -70.6544932, -33.4452103 ], [ -70.6544926, -33.4452123 ], [ -70.6544189, -33.4455234 ], [ -70.6543864, -33.445661 ], [ -70.6545327, -33.4456883 ], [ -70.6544797, -33.4459539 ], [ -70.6544689, -33.4460082 ], [ -70.6544181, -33.4460015 ], [ -70.6541654, -33.445962 ], [ -70.653893, -33.4459249 ], [ -70.6538509, -33.4459191 ], [ -70.6537716, -33.446333 ], [ -70.6535434, -33.4477684 ], [ -70.653528, -33.4478494 ], [ -70.6533825, -33.4488167 ] ] ] } },
{ "type": "Feature", "properties": { "AREA": 77584.91252, "PERIMETER": 0.0, "CL_ZTP": 19, "NOMBRE_ZT": "Barrio Huemul" }, "geometry": { "type": "Polygon", "coordinates": [ [ [ -70.6521024, -33.4735401 ], [ -70.6521365, -33.4735679 ], [ -70.6520251, -33.4747898 ], [ -70.6519426, -33.4757575 ], [ -70.6519191, -33.4757861 ], [ -70.6513523, -33.475754 ], [ -70.6512969, -33.4765091 ], [ -70.6508789, -33.4765247 ], [ -70.6506879, -33.4765339 ], [ -70.6507043, -33.4757173 ], [ -70.6493258, -33.4756393 ], [ -70.6492862, -33.4755795 ], [ -70.6493749, -33.4749338 ], [ -70.6494335, -33.4744779 ], [ -70.648457, -33.4744305 ], [ -70.6484175, -33.4743787 ], [ -70.64849, -33.4733828 ], [ -70.6485468, -33.4733378 ], [ -70.6521024, -33.4735401 ] ] ] } },
{ "type": "Feature", "properties": { "AREA": 1886550.6387499999, "PERIMETER": 0.0, "CL_ZTP": 20, "NOMBRE_ZT": "Barrio Matta Sur" }, "geometry": { "type": "Polygon", "coordinates": [ [ [ -70.6496842, -33.4554906 ], [ -70.6496946, -33.4554935 ], [ -70.6497052, -33.4554998 ], [ -70.6497139, -33.4555062 ], [ -70.6497194, -33.4555144 ], [ -70.6497242, -33.4555242 ], [ -70.6497257, -33.4555333 ], [ -70.6495159, -33.4568861 ], [ -70.6493696, -33.4577302 ], [ -70.6491934, -33.4586651 ], [ -70.6491916, -33.4586989 ], [ -70.6493677, -33.4586981 ], [ -70.6507562, -33.4587073 ], [ -70.6507695, -33.4587088 ], [ -70.650777, -33.4587116 ], [ -70.650783, -33.4587152 ], [ -70.650787, -33.458721 ], [ -70.6507901, -33.458728 ], [ -70.6507912, -33.4587346 ], [ -70.6507924, -33.4587437 ], [ -70.6506765, -33.4595776 ], [ -70.6506298, -33.4599281 ], [ -70.6505026, -33.4609144 ], [ -70.6504805, -33.4610897 ], [ -70.650474, -33.4611438 ], [ -70.6504703, -33.4611569 ], [ -70.6504654, -33.4611628 ], [ -70.6504615, -33.4611679 ], [ -70.6504556, -33.461173 ], [ -70.6504457, -33.461179 ], [ -70.6504358, -33.4611816 ], [ -70.6504268, -33.4611842 ], [ -70.6499994, -33.4611707 ], [ -70.6498497, -33.4611639 ], [ -70.6490948, -33.4611421 ], [ -70.6488682, -33.4610815 ], [ -70.6472391, -33.4610037 ], [ -70.647075, -33.46098 ], [ -70.6461411, -33.4609049 ], [ -70.6459842, -33.4608891 ], [ -70.6450408, -33.4608102 ], [ -70.6448791, -33.460797 ], [ -70.6428937, -33.4606348 ], [ -70.6428251, -33.4612055 ], [ -70.6428045, -33.4613708 ], [ -70.6427129, -33.4621755 ], [ -70.6426215, -33.462992 ], [ -70.6426086, -33.4631293 ], [ -70.6425061, -33.4641241 ], [ -70.6424913, -33.4643072 ], [ -70.6423918, -33.4652433 ], [ -70.6423916, -33.4652472 ], [ -70.6423903, -33.4652588 ], [ -70.6423879, -33.4652659 ], [ -70.6423849, -33.4652716 ], [ -70.6423821, -33.4652757 ], [ -70.6423793, -33.4652788 ], [ -70.6423751, -33.4652825 ], [ -70.6423714, -33.4652856 ], [ -70.6423665, -33.4652885 ], [ -70.6423612, -33.4652908 ], [ -70.6423559, -33.4652927 ], [ -70.642351, -33.4652939 ], [ -70.6423468, -33.4652945 ], [ -70.6423403, -33.4652952 ], [ -70.6423339, -33.4652952 ], [ -70.6423242, -33.4652939 ], [ -70.6414891, -33.4651671 ], [ -70.6413216, -33.4651429 ], [ -70.6401426, -33.4649648 ], [ -70.6399603, -33.4649372 ], [ -70.6394343, -33.4648482 ], [ -70.63933, -33.464832 ], [ -70.638746, -33.4647305 ], [ -70.6386254, -33.4647082 ], [ -70.6384763, -33.4652698 ], [ -70.6384026, -33.4655478 ], [ -70.6382518, -33.4661139 ], [ -70.6382498, -33.4661253 ], [ -70.638245, -33.4661352 ], [ -70.6382389, -33.466144 ], [ -70.6382286, -33.466151 ], [ -70.6382228, -33.4661544 ], [ -70.6382165, -33.4661572 ], [ -70.6382062, -33.4661588 ], [ -70.6381997, -33.4661594 ], [ -70.6381795, -33.4661584 ], [ -70.6381632, -33.4661564 ], [ -70.6374046, -33.4660738 ], [ -70.6373121, -33.4660625 ], [ -70.6372077, -33.4660514 ], [ -70.6369054, -33.4671974 ], [ -70.6362113, -33.4698117 ], [ -70.6362092, -33.4698195 ], [ -70.6362055, -33.4698287 ], [ -70.6361987, -33.4698365 ], [ -70.636191, -33.4698425 ], [ -70.6361865, -33.4698458 ], [ -70.6361765, -33.4698498 ], [ -70.6361642, -33.4698519 ], [ -70.6361557, -33.469852 ], [ -70.6361347, -33.4698497 ], [ -70.6356848, -33.4698096 ], [ -70.6355198, -33.4697956 ], [ -70.6350404, -33.4697527 ], [ -70.6348591, -33.4697363 ], [ -70.6343766, -33.4696914 ], [ -70.6342233, -33.4696792 ], [ -70.633702, -33.4696323 ], [ -70.6335642, -33.4696205 ], [ -70.6329833, -33.4695698 ], [ -70.6327918, -33.46954 ], [ -70.6311897, -33.4692389 ], [ -70.6310088, -33.4692064 ], [ -70.630605, -33.4691288 ], [ -70.6304241, -33.4690992 ], [ -70.6299713, -33.4690133 ], [ -70.6299696, -33.4690125 ], [ -70.6299643, -33.4690102 ], [ -70.62996, -33.4690071 ], [ -70.6299566, -33.4690041 ], [ -70.6299543, -33.4690009 ], [ -70.6299529, -33.4689982 ], [ -70.6299522, -33.4689967 ], [ -70.6299514, -33.4689947 ], [ -70.629951, -33.4689918 ], [ -70.6299505, -33.4689881 ], [ -70.629951, -33.4689829 ], [ -70.6306106, -33.4665312 ], [ -70.6313473, -33.4637739 ], [ -70.6314128, -33.4635238 ], [ -70.6315365, -33.4630685 ], [ -70.6316751, -33.46253 ], [ -70.6320033, -33.4613034 ], [ -70.6325052, -33.4594304 ], [ -70.6327638, -33.4584844 ], [ -70.6320176, -33.4583274 ], [ -70.6307084, -33.4580471 ], [ -70.6306925, -33.45804 ], [ -70.6306854, -33.4580349 ], [ -70.6306799, -33.4580254 ], [ -70.6306735, -33.4580123 ], [ -70.6306733, -33.4580012 ], [ -70.6311724, -33.4563232 ], [ -70.6313502, -33.4556089 ], [ -70.6315933, -33.4547024 ], [ -70.6319349, -33.4535441 ], [ -70.6319374, -33.4535382 ], [ -70.6319402, -33.4535356 ], [ -70.6319426, -33.4535328 ], [ -70.6319463, -33.4535307 ], [ -70.6319511, -33.4535279 ], [ -70.6319543, -33.4535266 ], [ -70.6319613, -33.4535252 ], [ -70.6319657, -33.4535251 ], [ -70.6319701, -33.4535249 ], [ -70.6328378, -33.4536892 ], [ -70.6339222, -33.453892 ], [ -70.6341842, -33.4528829 ], [ -70.6342147, -33.4527587 ], [ -70.6342219, -33.4527461 ], [ -70.6342291, -33.4527386 ], [ -70.6342379, -33.452731 ], [ -70.6342468, -33.4527296 ], [ -70.6342571, -33.4527258 ], [ -70.6342674, -33.4527232 ], [ -70.6349795, -33.452872 ], [ -70.6353021, -33.4529382 ], [ -70.6361238, -33.4531101 ], [ -70.6364618, -33.4531827 ], [ -70.6367789, -33.4532457 ], [ -70.637632, -33.4534283 ], [ -70.637664, -33.4534625 ], [ -70.6373969, -33.4546246 ], [ -70.63709, -33.4559897 ], [ -70.6372191, -33.4560117 ], [ -70.639317, -33.4564059 ], [ -70.639697, -33.4564792 ], [ -70.6398875, -33.4565288 ], [ -70.6405133, -33.456645 ], [ -70.640658, -33.4566703 ], [ -70.6413409, -33.4567965 ], [ -70.6422093, -33.4569802 ], [ -70.6423772, -33.4570162 ], [ -70.6427449, -33.4570955 ], [ -70.6434618, -33.4572497 ], [ -70.6434964, -33.4570189 ], [ -70.6435407, -33.4567209 ], [ -70.6436774, -33.4557384 ], [ -70.6438423, -33.4545139 ], [ -70.6438429, -33.45451 ], [ -70.6438907, -33.4544726 ], [ -70.6438959, -33.4544715 ], [ -70.645739, -33.4548048 ], [ -70.6458281, -33.454817 ], [ -70.6459611, -33.4548205 ], [ -70.6461697, -33.4548538 ], [ -70.6463632, -33.454876 ], [ -70.6472118, -33.4550587 ], [ -70.6481359, -33.4552495 ], [ -70.6481354, -33.4552486 ], [ -70.6485102, -33.4553214 ], [ -70.6488451, -33.4553785 ], [ -70.649015, -33.4554102 ], [ -70.6496842, -33.4554906 ] ] ] } }
]
}
