{
"type": "FeatureCollection",
"name": "URB_PTO_ESTACIONES_METRO_2026",
"features": [
{ "type": "Feature", "properties": { "OBJECTID_1": 1, "Join_Count": 1, "TARGET_FID": 1, "objectid": 5, "id": 5.0, "especial": "CONSTRUCCION INTERMODAL", "estacion": "CONSTRUCCION", "nombre": "QUINTA NORMAL", "temporal": "INTERMODAL", "f1": 1, "tipo": "ESTACION METRO", "linea": "Linea 5", "OBJECTID_2": 1572, "OBJECTID_3": 185503, "COMUNA": "SANTIAGO", "DISTRITO": "QUINTA NORMAL", "ID_MANZANA": 185503, "ID_MZTXT": 185503.0, "Shape_Leng": 3853.3623685500002, "X": 343831.06, "Y": 6298641.01 }, "geometry": { "type": "Point", "coordinates": [ -70.6800599, -33.4402698 ] } },
{ "type": "Feature", "properties": { "OBJECTID_1": 2, "Join_Count": 0, "TARGET_FID": 2, "objectid": 6, "id": 6.0, "especial": "EXISTENTE", "estacion": "EXISTENTE", "nombre": "SANTA ANA", "temporal": null, "f1": 1, "tipo": "ESTACION METRO", "linea": "Linea 5", "OBJECTID_2": 0, "OBJECTID_3": 0, "COMUNA": null, "DISTRITO": null, "ID_MANZANA": 0, "ID_MZTXT": null, "Shape_Leng": 0.0, "X": 345724.86, "Y": 6298889.76 }, "geometry": { "type": "Point", "coordinates": [ -70.6596512, -33.4383014 ] } },
{ "type": "Feature", "properties": { "OBJECTID_1": 3, "Join_Count": 1, "TARGET_FID": 3, "objectid": 7, "id": 7.0, "especial": "EXSTENTE", "estacion": "EXSTENTE", "nombre": "RICARDO CUMMING", "temporal": null, "f1": 1, "tipo": "ESTACION METRO", "linea": "Linea 5", "OBJECTID_2": 294, "OBJECTID_3": 184225, "COMUNA": "SANTIAGO", "DISTRITO": "PORTALES", "ID_MANZANA": 184225, "ID_MZTXT": 184225.0, "Shape_Leng": 844.69284427900004, "X": 344879.36, "Y": 6298798.32 }, "geometry": { "type": "Point", "coordinates": [ -70.6687593, -33.4390038 ] } },
{ "type": "Feature", "properties": { "OBJECTID_1": 4, "Join_Count": 0, "TARGET_FID": 4, "objectid": 11, "id": 11.0, "especial": "EXISTENTE", "estacion": "EXISTENTE", "nombre": "ESTACION CENTRAL", "temporal": null, "f1": 1, "tipo": "ESTACION METRO", "linea": "Linea 1", "OBJECTID_2": 0, "OBJECTID_3": 0, "COMUNA": null, "DISTRITO": null, "ID_MANZANA": 0, "ID_MZTXT": null, "Shape_Leng": 0.0, "X": 343952.32, "Y": 6297477.45 }, "geometry": { "type": "Point", "coordinates": [ -70.678958, -33.450778 ] } },
{ "type": "Feature", "properties": { "OBJECTID_1": 5, "Join_Count": 1, "TARGET_FID": 5, "objectid": 12, "id": 12.0, "especial": "EXISTENTE", "estacion": "EXISTENTE", "nombre": "LOS HEROES", "temporal": null, "f1": 1, "tipo": "ESTACION METRO", "linea": "Linea 1", "OBJECTID_2": 1177, "OBJECTID_3": 185108, "COMUNA": "SANTIAGO", "DISTRITO": "ALMAGRO", "ID_MANZANA": 185108, "ID_MZTXT": 185108.0, "Shape_Leng": 459.310312044, "X": 345673.42, "Y": 6298026.53 }, "geometry": { "type": "Point", "coordinates": [ -70.6603527, -33.4460768 ] } },
{ "type": "Feature", "properties": { "OBJECTID_1": 6, "Join_Count": 1, "TARGET_FID": 6, "objectid": 13, "id": 13.0, "especial": "EXISTENTE", "estacion": "EXISTENTE", "nombre": "REPUBLICA", "temporal": null, "f1": 1, "tipo": "ESTACION METRO", "linea": "Linea 1", "OBJECTID_2": 1679, "OBJECTID_3": 185624, "COMUNA": "SANTIAGO", "DISTRITO": "AVENIDA ESPAÑA", "ID_MANZANA": 185624, "ID_MZTXT": 185624.0, "Shape_Leng": 180.43062269800001, "X": 345061.07, "Y": 6297840.95 }, "geometry": { "type": "Point", "coordinates": [ -70.6669704, -33.4476616 ] } },
{ "type": "Feature", "properties": { "OBJECTID_1": 7, "Join_Count": 1, "TARGET_FID": 7, "objectid": 14, "id": 14.0, "especial": "EXISTENTE", "estacion": "EXISTENTE", "nombre": "UNION LATINOAMERICANA", "temporal": null, "f1": 1, "tipo": "ESTACION METRO", "linea": "Linea 1", "OBJECTID_2": 1669, "OBJECTID_3": 185614, "COMUNA": "SANTIAGO", "DISTRITO": "SAN ALFONSO", "ID_MANZANA": 185614, "ID_MZTXT": 185614.0, "Shape_Leng": 265.67510604400002, "X": 344472.86, "Y": 6297648.23 }, "geometry": { "type": "Point", "coordinates": [ -70.6733299, -33.4493139 ] } },
{ "type": "Feature", "properties": { "OBJECTID_1": 8, "Join_Count": 1, "TARGET_FID": 8, "objectid": 15, "id": 15.0, "especial": "CONSTRUCCION INTERMODAL", "estacion": "EXISTENTE", "nombre": "PLAZA DE ARMAS", "temporal": "INTERMODAL", "f1": 1, "tipo": "ESTACION METRO", "linea": "Linea 5", "OBJECTID_2": 202, "OBJECTID_3": 184133, "COMUNA": "SANTIAGO", "DISTRITO": "MONEDA", "ID_MANZANA": 184133, "ID_MZTXT": 184133.0, "Shape_Leng": 465.68758531899999, "X": 346618.98, "Y": 6299025.57 }, "geometry": { "type": "Point", "coordinates": [ -70.6500128, -33.4372053 ] } },
{ "type": "Feature", "properties": { "OBJECTID_1": 9, "Join_Count": 0, "TARGET_FID": 9, "objectid": 16, "id": 16.0, "especial": "EXISTENTE", "estacion": "EXISTENTE", "nombre": "BELLAS ARTES", "temporal": null, "f1": 1, "tipo": "ESTACION METRO", "linea": "Linea 5", "OBJECTID_2": 0, "OBJECTID_3": 0, "COMUNA": null, "DISTRITO": null, "ID_MANZANA": 0, "ID_MZTXT": null, "Shape_Leng": 0.0, "X": 347245.0, "Y": 6299144.28 }, "geometry": { "type": "Point", "coordinates": [ -70.6432606, -33.4362244 ] } },
{ "type": "Feature", "properties": { "OBJECTID_1": 10, "Join_Count": 0, "TARGET_FID": 10, "objectid": 17, "id": 17.0, "especial": "EXISTENTE", "estacion": "EXISTENTE", "nombre": "BAQUEDANO", "temporal": null, "f1": 1, "tipo": "ESTACION METRO", "linea": "Linea 1", "OBJECTID_2": 0, "OBJECTID_3": 0, "COMUNA": null, "DISTRITO": null, "ID_MANZANA": 0, "ID_MZTXT": null, "Shape_Leng": 0.0, "X": 348071.06, "Y": 6299052.4 }, "geometry": { "type": "Point", "coordinates": [ -70.6343929, -33.4371702 ] } },
{ "type": "Feature", "properties": { "OBJECTID_1": 11, "Join_Count": 1, "TARGET_FID": 11, "objectid": 18, "id": 18.0, "especial": "EXISTENTE", "estacion": "EXISTENTE", "nombre": "MONEDA", "temporal": null, "f1": 1, "tipo": "ESTACION METRO", "linea": "Linea 1", "OBJECTID_2": 737, "OBJECTID_3": 184668, "COMUNA": "SANTIAGO", "DISTRITO": "ALMAGRO", "ID_MANZANA": 184668, "ID_MZTXT": 184668.0, "Shape_Leng": 303.03901386000001, "X": 346227.33, "Y": 6298188.55 }, "geometry": { "type": "Point", "coordinates": [ -70.6543678, -33.4446957 ] } },
{ "type": "Feature", "properties": { "OBJECTID_1": 12, "Join_Count": 0, "TARGET_FID": 12, "objectid": 19, "id": 19.0, "especial": "CONSTRUCCION INTERMODAL", "estacion": "EXISTENTE", "nombre": "UNIVERSIDAD DE CHILE", "temporal": "INTERMODAL", "f1": 1, "tipo": "ESTACION METRO", "linea": "Linea 1", "OBJECTID_2": 0, "OBJECTID_3": 0, "COMUNA": null, "DISTRITO": null, "ID_MANZANA": 0, "ID_MZTXT": null, "Shape_Leng": 0.0, "X": 346473.7, "Y": 6298245.08 }, "geometry": { "type": "Point", "coordinates": [ -70.6517085, -33.4442214 ] } },
{ "type": "Feature", "properties": { "OBJECTID_1": 13, "Join_Count": 0, "TARGET_FID": 13, "objectid": 20, "id": 20.0, "especial": "EXISTENTE", "estacion": "EXISTENTE", "nombre": "SANTA LUCIA", "temporal": null, "f1": 1, "tipo": "ESTACION METRO", "linea": "Linea 1", "OBJECTID_2": 0, "OBJECTID_3": 0, "COMUNA": null, "DISTRITO": null, "ID_MANZANA": 0, "ID_MZTXT": null, "Shape_Leng": 0.0, "X": 347092.07, "Y": 6298439.66 }, "geometry": { "type": "Point", "coordinates": [ -70.645025, -33.4425555 ] } },
{ "type": "Feature", "properties": { "OBJECTID_1": 14, "Join_Count": 1, "TARGET_FID": 14, "objectid": 21, "id": 21.0, "especial": "EXISTENTE", "estacion": "EXISTENTE", "nombre": "UNIVERSIDAD CATOLICA", "temporal": null, "f1": 1, "tipo": "ESTACION METRO", "linea": "Linea 1", "OBJECTID_2": 715, "OBJECTID_3": 184646, "COMUNA": "SANTIAGO", "DISTRITO": "SAN ISIDRO", "ID_MANZANA": 184646, "ID_MZTXT": 184646.0, "Shape_Leng": 1010.53012934, "X": 347461.54, "Y": 6298648.58 }, "geometry": { "type": "Point", "coordinates": [ -70.6410161, -33.4407245 ] } },
{ "type": "Feature", "properties": { "OBJECTID_1": 15, "Join_Count": 1, "TARGET_FID": 15, "objectid": 22, "id": 22.0, "especial": "EXISTENTE INTERMODAL", "estacion": "EXISTENTE", "nombre": "CAL Y CANTO", "temporal": "INTERMODAL", "f1": 1, "tipo": "ESTACION METRO", "linea": "Linea 2", "OBJECTID_2": 169, "OBJECTID_3": 184100, "COMUNA": "SANTIAGO", "DISTRITO": "MONEDA", "ID_MANZANA": 184100, "ID_MZTXT": 184100.0, "Shape_Leng": 1004.08216558, "X": 346295.48, "Y": 6299556.51 }, "geometry": { "type": "Point", "coordinates": [ -70.6534008, -33.432372 ] } },
{ "type": "Feature", "properties": { "OBJECTID_1": 16, "Join_Count": 1, "TARGET_FID": 16, "objectid": 23, "id": 23.0, "especial": "EXISTENTE", "estacion": "EXISTENTE", "nombre": "TOESCA", "temporal": null, "f1": 1, "tipo": "ESTACION METRO", "linea": "Linea 2", "OBJECTID_2": 1203, "OBJECTID_3": 185134, "COMUNA": "SANTIAGO", "DISTRITO": "SAN DIEGO", "ID_MANZANA": 185134, "ID_MZTXT": 185134.0, "Shape_Leng": 2478.43650441, "X": 345874.01, "Y": 6297197.4 }, "geometry": { "type": "Point", "coordinates": [ -70.6583377, -33.4535811 ] } },
{ "type": "Feature", "properties": { "OBJECTID_1": 17, "Join_Count": 0, "TARGET_FID": 17, "objectid": 24, "id": 24.0, "especial": "EXISTENTE", "estacion": "EXISTENTE", "nombre": "PARQUE O'HIGGINS", "temporal": null, "f1": 1, "tipo": "ESTACION METRO", "linea": "Linea 2", "OBJECTID_2": 0, "OBJECTID_3": 0, "COMUNA": null, "DISTRITO": null, "ID_MANZANA": 0, "ID_MZTXT": null, "Shape_Leng": 0.0, "X": 346064.87, "Y": 6296448.45 }, "geometry": { "type": "Point", "coordinates": [ -70.6564133, -33.460361 ] } },
{ "type": "Feature", "properties": { "OBJECTID_1": 18, "Join_Count": 0, "TARGET_FID": 18, "objectid": 25, "id": 25.0, "especial": "CONSTRUCCION INTERMODAL", "estacion": "EXISTENTE", "nombre": "FRANKLIN", "temporal": "INTERMODAL", "f1": 1, "tipo": "ESTACION METRO", "linea": "Linea 2", "OBJECTID_2": 0, "OBJECTID_3": 0, "COMUNA": null, "DISTRITO": null, "ID_MANZANA": 0, "ID_MZTXT": null, "Shape_Leng": 0.0, "X": 346828.18, "Y": 6294624.66 }, "geometry": { "type": "Point", "coordinates": [ -70.6485141, -33.4769137 ] } },
{ "type": "Feature", "properties": { "OBJECTID_1": 19, "Join_Count": 0, "TARGET_FID": 19, "objectid": 26, "id": 26.0, "especial": "EXISTENTE", "estacion": "EXISTENTE", "nombre": "EL LLANO", "temporal": null, "f1": 1, "tipo": "ESTACION METRO", "linea": "Linea 2", "OBJECTID_2": 0, "OBJECTID_3": 0, "COMUNA": null, "DISTRITO": null, "ID_MANZANA": 0, "ID_MZTXT": null, "Shape_Leng": 0.0, "X": 346725.77, "Y": 6294070.55 }, "geometry": { "type": "Point", "coordinates": [ -70.6497106, -33.4818948 ] } },
{ "type": "Feature", "properties": { "OBJECTID_1": 20, "Join_Count": 0, "TARGET_FID": 20, "objectid": 34, "id": 34.0, "especial": "EXISTENTE", "estacion": "EXISTENTE", "nombre": "PARQUE BUSTAMANTE", "temporal": null, "f1": 1, "tipo": "ESTACION METRO", "linea": "Linea 5", "OBJECTID_2": 0, "OBJECTID_3": 0, "COMUNA": null, "DISTRITO": null, "ID_MANZANA": 0, "ID_MZTXT": null, "Shape_Leng": 0.0, "X": 348283.59, "Y": 6298597.15 }, "geometry": { "type": "Point", "coordinates": [ -70.6321843, -33.4413049 ] } },
{ "type": "Feature", "properties": { "OBJECTID_1": 21, "Join_Count": 0, "TARGET_FID": 21, "objectid": 35, "id": 35.0, "especial": "EXISTENTE", "estacion": "EXISTENTE", "nombre": "SANTA ISABEL", "temporal": null, "f1": 1, "tipo": "ESTACION METRO", "linea": "Linea 5", "OBJECTID_2": 0, "OBJECTID_3": 0, "COMUNA": null, "DISTRITO": null, "ID_MANZANA": 0, "ID_MZTXT": null, "Shape_Leng": 0.0, "X": 348473.41, "Y": 6297959.82 }, "geometry": { "type": "Point", "coordinates": [ -70.6302504, -33.447078 ] } },
{ "type": "Feature", "properties": { "OBJECTID_1": 22, "Join_Count": 0, "TARGET_FID": 22, "objectid": 36, "id": 36.0, "especial": "CONSTRUCCION INTERMODAL", "estacion": "EXISTENTE", "nombre": "IRARRAZAVAL", "temporal": "INTERMODAL", "f1": 1, "tipo": "ESTACION METRO", "linea": "Linea 5", "OBJECTID_2": 0, "OBJECTID_3": 0, "COMUNA": null, "DISTRITO": null, "ID_MANZANA": 0, "ID_MZTXT": null, "Shape_Leng": 0.0, "X": 348596.33, "Y": 6297374.07 }, "geometry": { "type": "Point", "coordinates": [ -70.6290272, -33.4523765 ] } },
{ "type": "Feature", "properties": { "OBJECTID_1": 23, "Join_Count": 0, "TARGET_FID": 23, "objectid": 37, "id": 37.0, "especial": "CONSTRUCCION INTERMODAL", "estacion": "EXISTENTE", "nombre": "NUBLE", "temporal": "INTERMODAL", "f1": 1, "tipo": "ESTACION METRO", "linea": "Linea 5", "OBJECTID_2": 0, "OBJECTID_3": 0, "COMUNA": null, "DISTRITO": null, "ID_MANZANA": 0, "ID_MZTXT": null, "Shape_Leng": 0.0, "X": 349005.55, "Y": 6295747.88 }, "geometry": { "type": "Point", "coordinates": [ -70.6248993, -33.4670961 ] } },
{ "type": "Feature", "properties": { "OBJECTID_1": 24, "Join_Count": 0, "TARGET_FID": 24, "objectid": 77, "id": 77.0, "especial": "EXISTENTE", "estacion": "EXISTENTE", "nombre": "PATRONATO", "temporal": null, "f1": 0, "tipo": "ESTACION METRO", "linea": "Linea 2", "OBJECTID_2": 0, "OBJECTID_3": 0, "COMUNA": null, "DISTRITO": null, "ID_MANZANA": 0, "ID_MZTXT": null, "Shape_Leng": 0.0, "X": 346882.87, "Y": 6299874.57 }, "geometry": { "type": "Point", "coordinates": [ -70.6470304, -33.4295884 ] } },
{ "type": "Feature", "properties": { "OBJECTID_1": 25, "Join_Count": 0, "TARGET_FID": 25, "objectid": 79, "id": 79.0, "especial": "EXISTENTE", "estacion": "EXISTENTE", "nombre": "RONDIZZONI", "temporal": null, "f1": 1, "tipo": "ESTACION METRO", "linea": "Linea 2", "OBJECTID_2": 0, "OBJECTID_3": 0, "COMUNA": null, "DISTRITO": null, "ID_MANZANA": 0, "ID_MZTXT": null, "Shape_Leng": 0.0, "X": 346126.78, "Y": 6295391.32 }, "geometry": { "type": "Point", "coordinates": [ -70.6559286, -33.4699009 ] } },
{ "type": "Feature", "properties": { "OBJECTID_1": 26, "Join_Count": 1, "TARGET_FID": 26, "objectid": 0, "id": 95.0, "especial": "PROYECTADO", "estacion": "PROYECTADO", "nombre": "PARQUE ALMAGRO", "temporal": null, "f1": 0, "tipo": "ESTACION METRO", "linea": "Linea 3", "OBJECTID_2": 1172, "OBJECTID_3": 185103, "COMUNA": "SANTIAGO", "DISTRITO": "ALMAGRO", "ID_MANZANA": 185103, "ID_MZTXT": 185103.0, "Shape_Leng": 615.81601903199999, "X": 346594.13, "Y": 6297409.26 }, "geometry": { "type": "Point", "coordinates": [ -70.6505561, -33.4517744 ] } },
{ "type": "Feature", "properties": { "OBJECTID_1": 27, "Join_Count": 0, "TARGET_FID": 27, "objectid": 0, "id": 96.0, "especial": "PROYECTADO", "estacion": "PROYECTADO", "nombre": "MATTA", "temporal": null, "f1": 0, "tipo": "ESTACION METRO", "linea": "Linea 3", "OBJECTID_2": 0, "OBJECTID_3": 0, "COMUNA": null, "DISTRITO": null, "ID_MANZANA": 0, "ID_MZTXT": null, "Shape_Leng": 0.0, "X": 347277.13, "Y": 6296698.26 }, "geometry": { "type": "Point", "coordinates": [ -70.643331, -33.4582823 ] } },
{ "type": "Feature", "properties": { "OBJECTID_1": 28, "Join_Count": 0, "TARGET_FID": 28, "objectid": 0, "id": 104.0, "especial": "PROYECTADO", "estacion": "PROYECTADO", "nombre": "BIO BIO", "temporal": null, "f1": 0, "tipo": "ESTACION METRO", "linea": "Linea 6", "OBJECTID_2": 0, "OBJECTID_3": 0, "COMUNA": null, "DISTRITO": null, "ID_MANZANA": 0, "ID_MZTXT": null, "Shape_Leng": 0.0, "X": 347416.36, "Y": 6294704.05 }, "geometry": { "type": "Point", "coordinates": [ -70.6421725, -33.4762819 ] } },
{ "type": "Feature", "properties": { "OBJECTID_1": 29, "Join_Count": 0, "TARGET_FID": 29, "objectid": 0, "id": 105.0, "especial": "PROYECTADO", "estacion": "PROYECTADO", "nombre": "CLUB H├ìPICO", "temporal": null, "f1": 0, "tipo": "ESTACION METRO", "linea": "Linea 6", "OBJECTID_2": 0, "OBJECTID_3": 0, "COMUNA": null, "DISTRITO": null, "ID_MANZANA": 0, "ID_MZTXT": null, "Shape_Leng": 0.0, "X": 345318.79, "Y": 6294421.01 }, "geometry": { "type": "Point", "coordinates": [ -70.6647881, -33.4785327 ] } },
{ "type": "Feature", "properties": { "OBJECTID_1": 30, "Join_Count": 0, "TARGET_FID": 30, "objectid": 0, "id": 106.0, "especial": "PROYECTADO", "estacion": "PROYECTADO", "nombre": "LO VALLEDOR", "temporal": null, "f1": 0, "tipo": "ESTACION METRO", "linea": "Linea 6", "OBJECTID_2": 0, "OBJECTID_3": 0, "COMUNA": null, "DISTRITO": null, "ID_MANZANA": 0, "ID_MZTXT": null, "Shape_Leng": 0.0, "X": 343841.09, "Y": 6294425.01 }, "geometry": { "type": "Point", "coordinates": [ -70.6806855, -33.478282 ] } },
{ "type": "Feature", "properties": { "OBJECTID_1": 31, "Join_Count": 0, "TARGET_FID": 31, "objectid": 0, "id": 114.0, "especial": "EXISTENTE", "estacion": "EXISTENTE", "nombre": "GRUTA DE LOURDES", "temporal": null, "f1": 0, "tipo": "ESTACION METRO", "linea": "Linea 5", "OBJECTID_2": 0, "OBJECTID_3": 0, "COMUNA": null, "DISTRITO": null, "ID_MANZANA": 0, "ID_MZTXT": null, "Shape_Leng": 0.0, "X": 342793.77, "Y": 6298874.43 }, "geometry": { "type": "Point", "coordinates": [ -70.6911739, -33.4380137 ] } },
{ "type": "Feature", "properties": { "OBJECTID_1": 32, "Join_Count": 0, "TARGET_FID": 32, "objectid": 0, "id": null, "especial": null, "estacion": "Matucana", "nombre": "Matucana", "temporal": null, "f1": 0, "tipo": null, "linea": "Linea 7", "OBJECTID_2": 0, "OBJECTID_3": 0, "COMUNA": null, "DISTRITO": null, "ID_MANZANA": 0, "ID_MZTXT": null, "Shape_Leng": 0.0, "X": 343769.62, "Y": 6299471.21 }, "geometry": { "type": "Point", "coordinates": [ -70.6805763, -33.4327759 ] } },
{ "type": "Feature", "properties": { "OBJECTID_1": 33, "Join_Count": 0, "TARGET_FID": 33, "objectid": 0, "id": null, "especial": null, "estacion": "Cumming", "nombre": "Cumming", "temporal": null, "f1": 0, "tipo": null, "linea": "Linea 7", "OBJECTID_2": 0, "OBJECTID_3": 0, "COMUNA": null, "DISTRITO": null, "ID_MANZANA": 0, "ID_MZTXT": null, "Shape_Leng": 0.0, "X": 344821.04, "Y": 6299580.87 }, "geometry": { "type": "Point", "coordinates": [ -70.6692514, -33.43194 ] } },
{ "type": "Feature", "properties": { "OBJECTID_1": 34, "Join_Count": 1, "TARGET_FID": 34, "objectid": 0, "id": null, "especial": null, "estacion": "├æuble", "nombre": "ÑUBLE", "temporal": null, "f1": 0, "tipo": null, "linea": "Linea 9", "OBJECTID_2": 1014, "OBJECTID_3": 184945, "COMUNA": "SANTIAGO", "DISTRITO": "CARMEN", "ID_MANZANA": 184945, "ID_MZTXT": 184945.0, "Shape_Leng": 368.735744286, "X": 347411.6, "Y": 6295526.76 }, "geometry": { "type": "Point", "coordinates": [ -70.6420838, -33.4688637 ] } }
]
}
