{
"type": "FeatureCollection",
"name": "URB_LIN_RECORRIDO_BUS_MUNICIPAL_2024",
"features": [
{ "type": "Feature", "properties": { "Name": "Regreso", "Descr": null, "Symbology": null }, "geometry": { "type": "LineString", "coordinates": [ [ -70.672267, -33.474825 ], [ -70.672294, -33.472691 ], [ -70.671628, -33.4727 ], [ -70.671646, -33.47187 ], [ -70.670331, -33.471873 ], [ -70.670341, -33.470613 ], [ -70.67025, -33.470605 ], [ -70.670286, -33.468334 ], [ -70.670037, -33.468177 ], [ -70.669099, -33.469176 ], [ -70.669441, -33.469384 ], [ -70.669414, -33.470574 ], [ -70.665212, -33.470521 ], [ -70.664866, -33.47052 ], [ -70.663513, -33.470463 ], [ -70.659603, -33.470243 ], [ -70.656644, -33.470089 ], [ -70.656004, -33.470084 ], [ -70.655538, -33.47029 ], [ -70.65519, -33.470424 ], [ -70.655029, -33.470462 ], [ -70.654567, -33.470439 ], [ -70.653317, -33.470318 ], [ -70.652132, -33.470187 ], [ -70.650141, -33.469966 ], [ -70.649598, -33.47342 ], [ -70.649446, -33.474513 ], [ -70.648274, -33.474462 ], [ -70.648372, -33.472142 ], [ -70.645298, -33.471911 ], [ -70.645326, -33.470701 ], [ -70.645397, -33.469461 ], [ -70.643985, -33.469315 ], [ -70.643658, -33.47538 ], [ -70.639045, -33.475121 ], [ -70.636722, -33.475009 ], [ -70.63657, -33.474999 ], [ -70.633815, -33.473998 ], [ -70.63456, -33.471264 ], [ -70.633269, -33.471171 ], [ -70.63405, -33.468232 ], [ -70.633279, -33.468137 ], [ -70.633484, -33.467385 ] ] } },
{ "type": "Feature", "properties": { "Name": "Ida", "Descr": null, "Symbology": null }, "geometry": { "type": "MultiLineString", "coordinates": [ [ [ -70.641202, -33.467719 ], [ -70.642326, -33.467843 ], [ -70.642562, -33.464232 ], [ -70.64154, -33.464102 ], [ -70.641202, -33.467719 ] ], [ [ -70.641202, -33.467719 ], [ -70.641013, -33.469746 ], [ -70.640838, -33.471623 ], [ -70.634657, -33.47127 ], [ -70.632535, -33.471156 ], [ -70.629849, -33.470668 ], [ -70.627101, -33.470154 ], [ -70.628579, -33.465129 ], [ -70.633946, -33.465726 ], [ -70.635545, -33.459997 ], [ -70.636002, -33.458438 ], [ -70.64011, -33.45935 ], [ -70.639226, -33.462689 ], [ -70.640308, -33.462846 ], [ -70.642681, -33.463095 ], [ -70.647066, -33.46354 ] ], [ [ -70.633484, -33.467385 ], [ -70.633638, -33.466858 ], [ -70.634395, -33.466947 ], [ -70.635672, -33.467107 ], [ -70.641202, -33.467719 ] ], [ [ -70.647066, -33.46354 ], [ -70.646955, -33.465969 ], [ -70.646742, -33.47086 ], [ -70.649857, -33.471183 ], [ -70.64951, -33.473354 ], [ -70.651279, -33.473445 ], [ -70.651312, -33.472719 ], [ -70.65227, -33.472781 ], [ -70.6528, -33.4728 ], [ -70.652933, -33.471724 ], [ -70.653164, -33.471728 ], [ -70.653445, -33.469167 ], [ -70.654654, -33.469285 ], [ -70.654583, -33.470341 ], [ -70.654578, -33.47036 ], [ -70.654675, -33.470364 ], [ -70.65488, -33.47039 ], [ -70.655045, -33.470373 ], [ -70.656023, -33.470002 ], [ -70.656672, -33.470003 ], [ -70.659609, -33.470163 ], [ -70.659647, -33.469476 ], [ -70.659524, -33.469291 ], [ -70.659608, -33.469204 ], [ -70.659813, -33.469216 ], [ -70.659832, -33.469316 ], [ -70.659737, -33.469475 ], [ -70.659724, -33.470165 ], [ -70.663414, -33.470384 ], [ -70.663753, -33.466432 ], [ -70.664907, -33.466478 ], [ -70.664905, -33.470491 ], [ -70.664849, -33.473531 ], [ -70.667243, -33.473618 ], [ -70.667309, -33.473503 ], [ -70.667393, -33.473445 ], [ -70.668071, -33.473464 ], [ -70.668209, -33.473534 ], [ -70.668257, -33.473653 ], [ -70.668236, -33.473739 ], [ -70.668141, -33.473835 ], [ -70.668011, -33.473875 ], [ -70.667891, -33.473887 ], [ -70.667857, -33.475749 ], [ -70.670324, -33.475801 ], [ -70.671603, -33.475822 ], [ -70.671595, -33.474844 ], [ -70.672267, -33.474825 ] ], [ [ -70.647066, -33.46354 ], [ -70.648888, -33.463725 ], [ -70.652869, -33.464177 ], [ -70.653915, -33.464289 ], [ -70.654088, -33.462636 ], [ -70.648954, -33.462461 ], [ -70.647121, -33.462332 ], [ -70.647066, -33.46354 ] ] ] } }
]
}
