{
"type": "FeatureCollection",
"name": "URB_PTO_DANO_ESTRUCTURAL",
"features": [
{ "type": "Feature", "properties": { "MES": "septiembre", "DIA_SEMANA": "martes", "TIPO_DIA": "Semana", "TRAMO_HORA": "14 a 16 hrs", "BARRIO": "PARQUE ALMAGRO", "PROCEDIMIE": "DAÑOS ESTRUCTURALES" }, "geometry": null },
{ "type": "Feature", "properties": { "MES": "mayo", "DIA_SEMANA": "jueves", "TIPO_DIA": "Semana", "TRAMO_HORA": "20 a 22 hrs", "BARRIO": "PARQUE ALMAGRO", "PROCEDIMIE": "DAÑOS ESTRUCTURALES" }, "geometry": { "type": "Point", "coordinates": [ -70.650412, -33.451409 ] } },
{ "type": "Feature", "properties": { "MES": "mayo", "DIA_SEMANA": "miércoles", "TIPO_DIA": "Semana", "TRAMO_HORA": "10 a 12 hrs", "BARRIO": "SAN BORJA", "PROCEDIMIE": "DAÑOS ESTRUCTURALES" }, "geometry": { "type": "Point", "coordinates": [ -70.644253, -33.445013 ] } },
{ "type": "Feature", "properties": { "MES": "mayo", "DIA_SEMANA": "miércoles", "TIPO_DIA": "Semana", "TRAMO_HORA": "12 a 14 hrs", "BARRIO": "FRANKLIN", "PROCEDIMIE": "DAÑOS ESTRUCTURALES" }, "geometry": { "type": "Point", "coordinates": [ -70.652401, -33.471657 ] } },
{ "type": "Feature", "properties": { "MES": "mayo", "DIA_SEMANA": "viernes", "TIPO_DIA": "Semana", "TRAMO_HORA": "18 a 20 hrs", "BARRIO": "BALMACEDA", "PROCEDIMIE": "DAÑOS ESTRUCTURALES" }, "geometry": { "type": "Point", "coordinates": [ -70.674787, -33.433734 ] } },
{ "type": "Feature", "properties": { "MES": "mayo", "DIA_SEMANA": "jueves", "TIPO_DIA": "Semana", "TRAMO_HORA": "16 a 18 hrs", "BARRIO": "CENTRO HISTORICO", "PROCEDIMIE": "DAÑOS ESTRUCTURALES" }, "geometry": { "type": "Point", "coordinates": [ -70.648797, -33.442657 ] } },
{ "type": "Feature", "properties": { "MES": "junio", "DIA_SEMANA": "lunes", "TIPO_DIA": "Semana", "TRAMO_HORA": "10 a 12 hrs", "BARRIO": "YUNGAY", "PROCEDIMIE": "DAÑOS ESTRUCTURALES" }, "geometry": { "type": "Point", "coordinates": [ -70.675748, -33.438114 ] } },
{ "type": "Feature", "properties": { "MES": "junio", "DIA_SEMANA": "lunes", "TIPO_DIA": "Semana", "TRAMO_HORA": "10 a 12 hrs", "BARRIO": "YUNGAY", "PROCEDIMIE": "DAÑOS ESTRUCTURALES" }, "geometry": { "type": "Point", "coordinates": [ -70.674498, -33.436938 ] } },
{ "type": "Feature", "properties": { "MES": "junio", "DIA_SEMANA": "lunes", "TIPO_DIA": "Semana", "TRAMO_HORA": "10 a 12 hrs", "BARRIO": "CENTRO HISTORICO", "PROCEDIMIE": "DAÑOS ESTRUCTURALES" }, "geometry": { "type": "Point", "coordinates": [ -70.65221, -33.439784 ] } },
{ "type": "Feature", "properties": { "MES": "junio", "DIA_SEMANA": "martes", "TIPO_DIA": "Semana", "TRAMO_HORA": "08 a 10 hrs", "BARRIO": "YUNGAY", "PROCEDIMIE": "DAÑOS ESTRUCTURALES" }, "geometry": { "type": "Point", "coordinates": [ -70.671423, -33.441737 ] } },
{ "type": "Feature", "properties": { "MES": "junio", "DIA_SEMANA": "viernes", "TIPO_DIA": "Semana", "TRAMO_HORA": "08 a 10 hrs", "BARRIO": "FRANKLIN", "PROCEDIMIE": "DAÑOS ESTRUCTURALES" }, "geometry": { "type": "Point", "coordinates": [ -70.648313, -33.473371 ] } },
{ "type": "Feature", "properties": { "MES": "junio", "DIA_SEMANA": "sábado", "TIPO_DIA": "Fin de semana", "TRAMO_HORA": "10 a 12 hrs", "BARRIO": "DIEZ DE JULIO", "PROCEDIMIE": "DAÑOS ESTRUCTURALES" }, "geometry": { "type": "Point", "coordinates": [ -70.635199, -33.452351 ] } },
{ "type": "Feature", "properties": { "MES": "junio", "DIA_SEMANA": "lunes", "TIPO_DIA": "Semana", "TRAMO_HORA": "20 a 22 hrs", "BARRIO": "DIEZ DE JULIO", "PROCEDIMIE": "DAÑOS ESTRUCTURALES" }, "geometry": { "type": "Point", "coordinates": [ -70.643723, -33.455826 ] } },
{ "type": "Feature", "properties": { "MES": "junio", "DIA_SEMANA": "jueves", "TIPO_DIA": "Semana", "TRAMO_HORA": "22 a 24 hrs", "BARRIO": "MATTA NORTE", "PROCEDIMIE": "DAÑOS ESTRUCTURALES" }, "geometry": { "type": "Point", "coordinates": [ -70.645427, -33.458154 ] } },
{ "type": "Feature", "properties": { "MES": "junio", "DIA_SEMANA": "lunes", "TIPO_DIA": "Semana", "TRAMO_HORA": "18 a 20 hrs", "BARRIO": "SANTA LUCIA FORESTAL", "PROCEDIMIE": "DAÑOS ESTRUCTURALES" }, "geometry": { "type": "Point", "coordinates": [ -70.642361, -33.437431 ] } },
{ "type": "Feature", "properties": { "MES": "junio", "DIA_SEMANA": "jueves", "TIPO_DIA": "Semana", "TRAMO_HORA": "20 a 22 hrs", "BARRIO": "PARQUE ALMAGRO", "PROCEDIMIE": "DAÑOS ESTRUCTURALES" }, "geometry": { "type": "Point", "coordinates": [ -70.653487, -33.448445 ] } },
{ "type": "Feature", "properties": { "MES": "junio", "DIA_SEMANA": "viernes", "TIPO_DIA": "Semana", "TRAMO_HORA": "12 a 14 hrs", "BARRIO": "MATTA SUR", "PROCEDIMIE": "DAÑOS ESTRUCTURALES" }, "geometry": { "type": "Point", "coordinates": [ -70.646967, -33.459243 ] } },
{ "type": "Feature", "properties": { "MES": "junio", "DIA_SEMANA": "viernes", "TIPO_DIA": "Semana", "TRAMO_HORA": "18 a 20 hrs", "BARRIO": "BRASIL", "PROCEDIMIE": "DAÑOS ESTRUCTURALES" }, "geometry": { "type": "Point", "coordinates": [ -70.667062, -33.438974 ] } },
{ "type": "Feature", "properties": { "MES": "junio", "DIA_SEMANA": "sábado", "TIPO_DIA": "Fin de semana", "TRAMO_HORA": "14 a 16 hrs", "BARRIO": "PANAMA", "PROCEDIMIE": "DAÑOS ESTRUCTURALES" }, "geometry": { "type": "Point", "coordinates": [ -70.658832, -33.434543 ] } },
{ "type": "Feature", "properties": { "MES": "junio", "DIA_SEMANA": "sábado", "TIPO_DIA": "Fin de semana", "TRAMO_HORA": "20 a 22 hrs", "BARRIO": "SANTA ANA", "PROCEDIMIE": "DAÑOS ESTRUCTURALES" }, "geometry": { "type": "Point", "coordinates": [ -70.651146, -33.441044 ] } },
{ "type": "Feature", "properties": { "MES": "junio", "DIA_SEMANA": "martes", "TIPO_DIA": "Semana", "TRAMO_HORA": "22 a 24 hrs", "BARRIO": "YUNGAY", "PROCEDIMIE": "DAÑOS ESTRUCTURALES" }, "geometry": { "type": "Point", "coordinates": [ -70.673533, -33.438642 ] } },
{ "type": "Feature", "properties": { "MES": "junio", "DIA_SEMANA": "jueves", "TIPO_DIA": "Semana", "TRAMO_HORA": "22 a 24 hrs", "BARRIO": "SANTA ANA", "PROCEDIMIE": "DAÑOS ESTRUCTURALES" }, "geometry": { "type": "Point", "coordinates": [ -70.658466, -33.433813 ] } },
{ "type": "Feature", "properties": { "MES": "julio", "DIA_SEMANA": "domingo", "TIPO_DIA": "Fin de semana", "TRAMO_HORA": "14 a 16 hrs", "BARRIO": "YUNGAY", "PROCEDIMIE": "DAÑOS ESTRUCTURALES" }, "geometry": { "type": "Point", "coordinates": [ -70.677576, -33.441243 ] } },
{ "type": "Feature", "properties": { "MES": "julio", "DIA_SEMANA": "miércoles", "TIPO_DIA": "Semana", "TRAMO_HORA": "20 a 22 hrs", "BARRIO": "FRANKLIN", "PROCEDIMIE": "DAÑOS ESTRUCTURALES" }, "geometry": { "type": "Point", "coordinates": [ -70.648599, -33.468376 ] } },
{ "type": "Feature", "properties": { "MES": "julio", "DIA_SEMANA": "lunes", "TIPO_DIA": "Semana", "TRAMO_HORA": "22 a 24 hrs", "BARRIO": "MATTA NORTE", "PROCEDIMIE": "DAÑOS ESTRUCTURALES" }, "geometry": { "type": "Point", "coordinates": [ -70.635179, -33.469076 ] } },
{ "type": "Feature", "properties": { "MES": "julio", "DIA_SEMANA": "viernes", "TIPO_DIA": "Semana", "TRAMO_HORA": "20 a 22 hrs", "BARRIO": "EJERCITO", "PROCEDIMIE": "DAÑOS ESTRUCTURALES" }, "geometry": { "type": "Point", "coordinates": [ -70.665328, -33.451758 ] } },
{ "type": "Feature", "properties": { "MES": "julio", "DIA_SEMANA": "sábado", "TIPO_DIA": "Fin de semana", "TRAMO_HORA": "08 a 10 hrs", "BARRIO": "CENTRO HISTORICO", "PROCEDIMIE": "DAÑOS ESTRUCTURALES" }, "geometry": { "type": "Point", "coordinates": [ -70.641149, -33.436747 ] } },
{ "type": "Feature", "properties": { "MES": "julio", "DIA_SEMANA": "viernes", "TIPO_DIA": "Semana", "TRAMO_HORA": "16 a 18 hrs", "BARRIO": "BRASIL", "PROCEDIMIE": "DAÑOS ESTRUCTURALES" }, "geometry": { "type": "Point", "coordinates": [ -70.664161, -33.442943 ] } },
{ "type": "Feature", "properties": { "MES": "julio", "DIA_SEMANA": "lunes", "TIPO_DIA": "Semana", "TRAMO_HORA": "08 a 10 hrs", "BARRIO": "BALMACEDA", "PROCEDIMIE": "DAÑOS ESTRUCTURALES" }, "geometry": { "type": "Point", "coordinates": [ -70.673492, -33.429691 ] } },
{ "type": "Feature", "properties": { "MES": "agosto", "DIA_SEMANA": "lunes", "TIPO_DIA": "Semana", "TRAMO_HORA": "10 a 12 hrs", "BARRIO": "PARQUE ALMAGRO", "PROCEDIMIE": "DAÑOS ESTRUCTURALES" }, "geometry": { "type": "Point", "coordinates": [ -70.647112, -33.446449 ] } },
{ "type": "Feature", "properties": { "MES": "agosto", "DIA_SEMANA": "lunes", "TIPO_DIA": "Semana", "TRAMO_HORA": "12 a 14 hrs", "BARRIO": "RONDIZZONI", "PROCEDIMIE": "DAÑOS ESTRUCTURALES" }, "geometry": { "type": "Point", "coordinates": [ -70.664164, -33.470509 ] } },
{ "type": "Feature", "properties": { "MES": "agosto", "DIA_SEMANA": "sábado", "TIPO_DIA": "Fin de semana", "TRAMO_HORA": "14 a 16 hrs", "BARRIO": "SANTA ISABEL", "PROCEDIMIE": "DAÑOS ESTRUCTURALES" }, "geometry": { "type": "Point", "coordinates": [ -70.638197, -33.445506 ] } },
{ "type": "Feature", "properties": { "MES": "agosto", "DIA_SEMANA": "sábado", "TIPO_DIA": "Fin de semana", "TRAMO_HORA": "14 a 16 hrs", "BARRIO": "YUNGAY", "PROCEDIMIE": "DAÑOS ESTRUCTURALES" }, "geometry": { "type": "Point", "coordinates": [ -70.66935, -33.44663 ] } },
{ "type": "Feature", "properties": { "MES": "agosto", "DIA_SEMANA": "martes", "TIPO_DIA": "Semana", "TRAMO_HORA": "06 a 08 hrs", "BARRIO": "SAN BORJA", "PROCEDIMIE": "DAÑOS ESTRUCTURALES" }, "geometry": { "type": "Point", "coordinates": [ -70.636152, -33.438834 ] } },
{ "type": "Feature", "properties": { "MES": "agosto", "DIA_SEMANA": "martes", "TIPO_DIA": "Semana", "TRAMO_HORA": "12 a 14 hrs", "BARRIO": "SANTA LUCIA FORESTAL", "PROCEDIMIE": "DAÑOS ESTRUCTURALES" }, "geometry": { "type": "Point", "coordinates": [ -70.645497, -33.438571 ] } },
{ "type": "Feature", "properties": { "MES": "agosto", "DIA_SEMANA": "miércoles", "TIPO_DIA": "Semana", "TRAMO_HORA": "08 a 10 hrs", "BARRIO": "SANTA ELENA", "PROCEDIMIE": "DAÑOS ESTRUCTURALES" }, "geometry": { "type": "Point", "coordinates": [ -70.629211, -33.465223 ] } },
{ "type": "Feature", "properties": { "MES": "agosto", "DIA_SEMANA": "miércoles", "TIPO_DIA": "Semana", "TRAMO_HORA": "12 a 14 hrs", "BARRIO": "FRANKLIN", "PROCEDIMIE": "DAÑOS ESTRUCTURALES" }, "geometry": { "type": "Point", "coordinates": [ -70.641979, -33.47497 ] } },
{ "type": "Feature", "properties": { "MES": "septiembre", "DIA_SEMANA": "jueves", "TIPO_DIA": "Semana", "TRAMO_HORA": "02 a 04 hrs", "BARRIO": "PARQUE ALMAGRO", "PROCEDIMIE": "DAÑOS ESTRUCTURALES" }, "geometry": { "type": "Point", "coordinates": [ -70.65657, -33.450621 ] } },
{ "type": "Feature", "properties": { "MES": "septiembre", "DIA_SEMANA": "lunes", "TIPO_DIA": "Semana", "TRAMO_HORA": "10 a 12 hrs", "BARRIO": "SAN VICENTE", "PROCEDIMIE": "DAÑOS ESTRUCTURALES" }, "geometry": { "type": "Point", "coordinates": [ -70.673212, -33.468318 ] } },
{ "type": "Feature", "properties": { "MES": "septiembre", "DIA_SEMANA": "miércoles", "TIPO_DIA": "Semana", "TRAMO_HORA": "12 a 14 hrs", "BARRIO": "PARQUE ALMAGRO", "PROCEDIMIE": "DAÑOS ESTRUCTURALES" }, "geometry": { "type": "Point", "coordinates": [ -70.652142, -33.451333 ] } },
{ "type": "Feature", "properties": { "MES": "septiembre", "DIA_SEMANA": "viernes", "TIPO_DIA": "Semana", "TRAMO_HORA": "20 a 22 hrs", "BARRIO": "SAN VICENTE", "PROCEDIMIE": "DAÑOS ESTRUCTURALES" }, "geometry": { "type": "Point", "coordinates": [ -70.675848, -33.46203 ] } },
{ "type": "Feature", "properties": { "MES": "mayo", "DIA_SEMANA": "viernes", "TIPO_DIA": "Semana", "TRAMO_HORA": "10 a 12 hrs", "BARRIO": "RONDIZZONI", "PROCEDIMIE": "DAÑOS ESTRUCTURALES" }, "geometry": { "type": "Point", "coordinates": [ -70.664866, -33.473625 ] } },
{ "type": "Feature", "properties": { "MES": "junio", "DIA_SEMANA": "domingo", "TIPO_DIA": "Fin de semana", "TRAMO_HORA": "12 a 14 hrs", "BARRIO": "PANAMA", "PROCEDIMIE": "DAÑOS ESTRUCTURALES" }, "geometry": { "type": "Point", "coordinates": [ -70.666568, -33.430067 ] } },
{ "type": "Feature", "properties": { "MES": "junio", "DIA_SEMANA": "martes", "TIPO_DIA": "Semana", "TRAMO_HORA": "08 a 10 hrs", "BARRIO": "BALMACEDA", "PROCEDIMIE": "DAÑOS ESTRUCTURALES" }, "geometry": { "type": "Point", "coordinates": [ -70.679283, -33.427403 ] } },
{ "type": "Feature", "properties": { "MES": "junio", "DIA_SEMANA": "viernes", "TIPO_DIA": "Semana", "TRAMO_HORA": "10 a 12 hrs", "BARRIO": "YUNGAY", "PROCEDIMIE": "DAÑOS ESTRUCTURALES" }, "geometry": { "type": "Point", "coordinates": [ -70.673557, -33.43799 ] } },
{ "type": "Feature", "properties": { "MES": "junio", "DIA_SEMANA": "sábado", "TIPO_DIA": "Fin de semana", "TRAMO_HORA": "08 a 10 hrs", "BARRIO": "VIEL", "PROCEDIMIE": "DAÑOS ESTRUCTURALES" }, "geometry": { "type": "Point", "coordinates": [ -70.652198, -33.473501 ] } },
{ "type": "Feature", "properties": { "MES": "junio", "DIA_SEMANA": "sábado", "TIPO_DIA": "Fin de semana", "TRAMO_HORA": "20 a 22 hrs", "BARRIO": "BRASIL", "PROCEDIMIE": "DAÑOS ESTRUCTURALES" }, "geometry": { "type": "Point", "coordinates": [ -70.662544, -33.437416 ] } },
{ "type": "Feature", "properties": { "MES": "junio", "DIA_SEMANA": "domingo", "TIPO_DIA": "Fin de semana", "TRAMO_HORA": "16 a 18 hrs", "BARRIO": "CENTRO HISTORICO", "PROCEDIMIE": "DAÑOS ESTRUCTURALES" }, "geometry": { "type": "Point", "coordinates": [ -70.647672, -33.443037 ] } },
{ "type": "Feature", "properties": { "MES": "junio", "DIA_SEMANA": "jueves", "TIPO_DIA": "Semana", "TRAMO_HORA": "18 a 20 hrs", "BARRIO": "MATTA NORTE", "PROCEDIMIE": "DAÑOS ESTRUCTURALES" }, "geometry": { "type": "Point", "coordinates": [ -70.654976, -33.453676 ] } },
{ "type": "Feature", "properties": { "MES": "julio", "DIA_SEMANA": "domingo", "TIPO_DIA": "Fin de semana", "TRAMO_HORA": "20 a 22 hrs", "BARRIO": "PANAMA", "PROCEDIMIE": "DAÑOS ESTRUCTURALES" }, "geometry": { "type": "Point", "coordinates": [ -70.663085, -33.432079 ] } },
{ "type": "Feature", "properties": { "MES": "julio", "DIA_SEMANA": "lunes", "TIPO_DIA": "Semana", "TRAMO_HORA": "14 a 16 hrs", "BARRIO": "MATTA NORTE", "PROCEDIMIE": "DAÑOS ESTRUCTURALES" }, "geometry": { "type": "Point", "coordinates": [ -70.651684, -33.459882 ] } },
{ "type": "Feature", "properties": { "MES": "julio", "DIA_SEMANA": "lunes", "TIPO_DIA": "Semana", "TRAMO_HORA": "16 a 18 hrs", "BARRIO": "CENTRO HISTORICO", "PROCEDIMIE": "DAÑOS ESTRUCTURALES" }, "geometry": { "type": "Point", "coordinates": [ -70.649921, -33.43717 ] } },
{ "type": "Feature", "properties": { "MES": "julio", "DIA_SEMANA": "viernes", "TIPO_DIA": "Semana", "TRAMO_HORA": "14 a 16 hrs", "BARRIO": "BOGOTA", "PROCEDIMIE": "DAÑOS ESTRUCTURALES" }, "geometry": { "type": "Point", "coordinates": [ -70.634688, -33.465825 ] } },
{ "type": "Feature", "properties": { "MES": "julio", "DIA_SEMANA": "sábado", "TIPO_DIA": "Fin de semana", "TRAMO_HORA": "16 a 18 hrs", "BARRIO": "FRANKLIN", "PROCEDIMIE": "DAÑOS ESTRUCTURALES" }, "geometry": { "type": "Point", "coordinates": [ -70.646497, -33.47554 ] } },
{ "type": "Feature", "properties": { "MES": "agosto", "DIA_SEMANA": "viernes", "TIPO_DIA": "Semana", "TRAMO_HORA": "22 a 24 hrs", "BARRIO": "YUNGAY", "PROCEDIMIE": "DAÑOS ESTRUCTURALES" }, "geometry": { "type": "Point", "coordinates": [ -70.666262, -33.443468 ] } },
{ "type": "Feature", "properties": { "MES": "agosto", "DIA_SEMANA": "lunes", "TIPO_DIA": "Semana", "TRAMO_HORA": "14 a 16 hrs", "BARRIO": "PARQUE ALMAGRO", "PROCEDIMIE": "DAÑOS ESTRUCTURALES" }, "geometry": { "type": "Point", "coordinates": [ -70.652982, -33.45145 ] } },
{ "type": "Feature", "properties": { "MES": "agosto", "DIA_SEMANA": "viernes", "TIPO_DIA": "Semana", "TRAMO_HORA": "12 a 14 hrs", "BARRIO": "BRASIL", "PROCEDIMIE": "DAÑOS ESTRUCTURALES" }, "geometry": { "type": "Point", "coordinates": [ -70.665039, -33.441062 ] } },
{ "type": "Feature", "properties": { "MES": "agosto", "DIA_SEMANA": "martes", "TIPO_DIA": "Semana", "TRAMO_HORA": "10 a 12 hrs", "BARRIO": "MATTA NORTE", "PROCEDIMIE": "DAÑOS ESTRUCTURALES" }, "geometry": { "type": "Point", "coordinates": [ -70.656607, -33.454515 ] } },
{ "type": "Feature", "properties": { "MES": "agosto", "DIA_SEMANA": "miércoles", "TIPO_DIA": "Semana", "TRAMO_HORA": "10 a 12 hrs", "BARRIO": "BALMACEDA", "PROCEDIMIE": "DAÑOS ESTRUCTURALES" }, "geometry": { "type": "Point", "coordinates": [ -70.675702, -33.439891 ] } },
{ "type": "Feature", "properties": { "MES": "agosto", "DIA_SEMANA": "miércoles", "TIPO_DIA": "Semana", "TRAMO_HORA": "12 a 14 hrs", "BARRIO": "MATTA SUR", "PROCEDIMIE": "DAÑOS ESTRUCTURALES" }, "geometry": { "type": "Point", "coordinates": [ -70.647269, -33.459174 ] } }
]
}
