{
"type": "FeatureCollection",
"name": "URB_POL_VALOR_SUELO_SII_2025",
"features": [
{ "type": "Feature", "properties": { "Id": 1, "Codigo_SII": "CMM007", "UF_m2": "158.22", "Rango": "150-199", "UFm2_2018": "39", "Territorio": "NorOriente", "Barrio": null, "Comparativ": "Sube" }, "geometry": { "type": "Polygon", "coordinates": [ [ [ -70.648814, -33.433262 ], [ -70.6486146, -33.4328929 ], [ -70.6485975, -33.4326012 ], [ -70.6548398, -33.4311143 ], [ -70.6576773, -33.4304443 ], [ -70.6594146, -33.4300296 ], [ -70.6605195, -33.4294829 ], [ -70.6609146, -33.4305785 ], [ -70.6615775, -33.4304569 ], [ -70.6612746, -33.4310816 ], [ -70.6611708, -33.4312735 ], [ -70.6610098, -33.4315968 ], [ -70.6607962, -33.4320726 ], [ -70.660568, -33.4333939 ], [ -70.6574536, -33.4332566 ], [ -70.6573553, -33.4342269 ], [ -70.6559627, -33.4341667 ], [ -70.6559557, -33.4344012 ], [ -70.6557972, -33.4355907 ], [ -70.6543063, -33.4354434 ], [ -70.6529554, -33.4352254 ], [ -70.6530675, -33.4343146 ], [ -70.6516969, -33.4342517 ], [ -70.6517342, -33.4330974 ], [ -70.6513183, -33.4331362 ], [ -70.6506486, -33.4333222 ], [ -70.6503926, -33.4334442 ], [ -70.6499856, -33.4336294 ], [ -70.6489839, -33.4338615 ], [ -70.648814, -33.433262 ] ] ] } },
{ "type": "Feature", "properties": { "Id": 2, "Codigo_SII": "CMA004", "UF_m2": "8.09", "Rango": "1-49", "UFm2_2018": "8.5", "Territorio": "NorPoniente", "Barrio": null, "Comparativ": "Baja" }, "geometry": { "type": "Polygon", "coordinates": [ [ [ -70.6605195, -33.4294829 ], [ -70.6611273, -33.4291825 ], [ -70.6625647, -33.4290337 ], [ -70.6642076, -33.4285337 ], [ -70.6651832, -33.4305121 ], [ -70.6650934, -33.4320434 ], [ -70.6621317, -33.4320741 ], [ -70.6607962, -33.4320726 ], [ -70.6610098, -33.4315968 ], [ -70.6615775, -33.4304569 ], [ -70.6610459, -33.4305672 ], [ -70.6609146, -33.4305785 ], [ -70.6605195, -33.4294829 ] ] ] } },
{ "type": "Feature", "properties": { "Id": 3, "Codigo_SII": "XBM006", "UF_m2": "14.6", "Rango": "1-49", "UFm2_2018": "15.9", "Territorio": "NorPoniente", "Barrio": null, "Comparativ": "Baja" }, "geometry": { "type": "Polygon", "coordinates": [ [ [ -70.6650934, -33.4320434 ], [ -70.6649088, -33.4347694 ], [ -70.6628535, -33.4346707 ], [ -70.6629645, -33.4333165 ], [ -70.6618159, -33.4333319 ], [ -70.6621317, -33.4320741 ], [ -70.6650934, -33.4320434 ] ] ] } },
{ "type": "Feature", "properties": { "Id": 4, "Codigo_SII": "CMM008", "UF_m2": "17.91", "Rango": "1-49", "UFm2_2018": "7", "Territorio": "NorPoniente", "Barrio": null, "Comparativ": "Sube" }, "geometry": { "type": "Polygon", "coordinates": [ [ [ -70.6621317, -33.4320741 ], [ -70.6618159, -33.4333319 ], [ -70.6629645, -33.4333165 ], [ -70.6628535, -33.4346707 ], [ -70.6616103, -33.4346242 ], [ -70.6613387, -33.4359986 ], [ -70.6601942, -33.4359049 ], [ -70.660568, -33.4333939 ], [ -70.6607962, -33.4320726 ], [ -70.6621317, -33.4320741 ] ] ] } },
{ "type": "Feature", "properties": { "Id": 5, "Codigo_SII": "XMM017", "UF_m2": "25.14", "Rango": "1-49", "UFm2_2018": "14.5", "Territorio": "NorPoniente", "Barrio": null, "Comparativ": "Sube" }, "geometry": { "type": "Polygon", "coordinates": [ [ [ -70.6649088, -33.4347694 ], [ -70.6648362, -33.4359927 ], [ -70.6645765, -33.4362759 ], [ -70.6644089, -33.4375988 ], [ -70.6646299, -33.4387502 ], [ -70.6648713, -33.4399004 ], [ -70.6650388, -33.4410624 ], [ -70.662135, -33.4407586 ], [ -70.660751, -33.4406148 ], [ -70.6597722, -33.4404749 ], [ -70.6597173, -33.4393888 ], [ -70.6608858, -33.439477 ], [ -70.6613387, -33.4359986 ], [ -70.6616103, -33.4346242 ], [ -70.6628535, -33.4346707 ], [ -70.6649088, -33.4347694 ] ] ] } },
{ "type": "Feature", "properties": { "Id": 6, "Codigo_SII": "HMM012", "UF_m2": "27.79", "Rango": "1-49", "UFm2_2018": "11", "Territorio": "NorPoniente", "Barrio": null, "Comparativ": "Sube" }, "geometry": { "type": "Polygon", "coordinates": [ [ [ -70.6600942, -33.4394289 ], [ -70.6602337, -33.4383746 ], [ -70.6602396, -33.4383311 ], [ -70.6603692, -33.4371939 ], [ -70.6600414, -33.4371613 ], [ -70.6602122, -33.435906 ], [ -70.6603874, -33.435917 ], [ -70.6613387, -33.4359986 ], [ -70.6608858, -33.439477 ], [ -70.6600942, -33.4394289 ] ] ] } },
{ "type": "Feature", "properties": { "Id": 8, "Codigo_SII": "EMM027", "UF_m2": "35.01", "Rango": "1-49", "UFm2_2018": "26", "Territorio": "NorPoniente", "Barrio": null, "Comparativ": "Sube" }, "geometry": { "type": "Polygon", "coordinates": [ [ [ -70.6633139, -33.4431687 ], [ -70.6629794, -33.4446672 ], [ -70.6642963, -33.4447864 ], [ -70.6642065, -33.4452712 ], [ -70.6643877, -33.4452842 ], [ -70.6641585, -33.446765 ], [ -70.6637386, -33.4466655 ], [ -70.6625937, -33.4464054 ], [ -70.6606611, -33.4459449 ], [ -70.6607217, -33.4452989 ], [ -70.6606281, -33.4440477 ], [ -70.6604944, -33.4429072 ], [ -70.6633139, -33.4431687 ] ] ] } },
{ "type": "Feature", "properties": { "Id": 7, "Codigo_SII": "CMM068", "UF_m2": "23.34", "Rango": "1-49", "UFm2_2018": "20", "Territorio": "NorPoniente", "Barrio": null, "Comparativ": "Sube" }, "geometry": { "type": "Polygon", "coordinates": [ [ [ -70.6650388, -33.4410624 ], [ -70.6650481, -33.4433438 ], [ -70.6644887, -33.4432882 ], [ -70.6642963, -33.4447864 ], [ -70.6629794, -33.4446672 ], [ -70.6633139, -33.4431687 ], [ -70.6604944, -33.4429072 ], [ -70.6604053, -33.4428971 ], [ -70.6602858, -33.4425765 ], [ -70.6601034, -33.4418469 ], [ -70.6597722, -33.4404749 ], [ -70.6650388, -33.4410624 ] ] ] } },
{ "type": "Feature", "properties": { "Id": 9, "Codigo_SII": "CMM069", "UF_m2": "26.85", "Rango": "1-49", "UFm2_2018": "28.53", "Territorio": "NorPoniente", "Barrio": null, "Comparativ": "Baja" }, "geometry": { "type": "Polygon", "coordinates": [ [ [ -70.6641585, -33.446765 ], [ -70.6641869, -33.4465819 ], [ -70.6643877, -33.4452842 ], [ -70.6642065, -33.4452712 ], [ -70.6642963, -33.4447864 ], [ -70.6643614, -33.4442798 ], [ -70.6644887, -33.4432882 ], [ -70.6650481, -33.4433438 ], [ -70.6645052, -33.4468472 ], [ -70.6641585, -33.446765 ] ] ] } },
{ "type": "Feature", "properties": { "Id": 10, "Codigo_SII": "XMM018", "UF_m2": "128.82", "Rango": "100-149", "UFm2_2018": "48", "Territorio": "NorOriente", "Barrio": null, "Comparativ": "Sube" }, "geometry": { "type": "Polygon", "coordinates": [ [ [ -70.6561069, -33.4424626 ], [ -70.6604944, -33.4429072 ], [ -70.6606281, -33.4440477 ], [ -70.6607217, -33.4452989 ], [ -70.6606611, -33.4459449 ], [ -70.6556047, -33.4447765 ], [ -70.6561069, -33.4424626 ] ] ] } },
{ "type": "Feature", "properties": { "Id": 12, "Codigo_SII": "HMM010", "UF_m2": "158.22", "Rango": "150-199", "UFm2_2018": "117.74", "Territorio": "NorOriente", "Barrio": null, "Comparativ": "Sube" }, "geometry": { "type": "Polygon", "coordinates": [ [ [ -70.6604067, -33.4345433 ], [ -70.6587256, -33.4345126 ], [ -70.6583938, -33.436967 ], [ -70.6581295, -33.439189 ], [ -70.6567471, -33.4390722 ], [ -70.6568819, -33.4379611 ], [ -70.6570178, -33.436832 ], [ -70.6556678, -33.4366697 ], [ -70.6557972, -33.4355907 ], [ -70.6559627, -33.4341667 ], [ -70.6573553, -33.4342269 ], [ -70.6574536, -33.4332566 ], [ -70.660568, -33.4333939 ], [ -70.6604067, -33.4345433 ] ] ] } },
{ "type": "Feature", "properties": { "Id": 14, "Codigo_SII": "CMA021", "UF_m2": "245.39", "Rango": "150-199", "UFm2_2018": "235.4", "Territorio": "NorOriente", "Barrio": null, "Comparativ": "Sube" }, "geometry": { "type": "Polygon", "coordinates": [ [ [ -70.653112, -33.4434189 ], [ -70.6530021, -33.4441906 ], [ -70.6506064, -33.4436837 ], [ -70.6507773, -33.4426827 ], [ -70.650888, -33.4419561 ], [ -70.6519588, -33.44204 ], [ -70.6518253, -33.4428661 ], [ -70.6517675, -33.443217 ], [ -70.653112, -33.4434189 ] ] ] } },
{ "type": "Feature", "properties": { "Id": 16, "Codigo_SII": "CMA065", "UF_m2": "157.59", "Rango": "150-199", "UFm2_2018": "148", "Territorio": "NorOriente", "Barrio": null, "Comparativ": "Sube" }, "geometry": { "type": "Polygon", "coordinates": [ [ [ -70.653689, -33.4399156 ], [ -70.6538595, -33.43875 ], [ -70.6553557, -33.4389284 ], [ -70.6567471, -33.4390722 ], [ -70.656588, -33.4402016 ], [ -70.6563584, -33.4413139 ], [ -70.6535222, -33.4410451 ], [ -70.653689, -33.4399156 ] ] ] } },
{ "type": "Feature", "properties": { "Id": 17, "Codigo_SII": "CMM013", "UF_m2": "168.29", "Rango": "150-199", "UFm2_2018": "168.66", "Territorio": "NorOriente", "Barrio": null, "Comparativ": "Baja" }, "geometry": { "type": "Polygon", "coordinates": [ [ [ -70.6567471, -33.4390722 ], [ -70.6553557, -33.4389284 ], [ -70.6538595, -33.43875 ], [ -70.6524848, -33.4386511 ], [ -70.6526431, -33.4375127 ], [ -70.6527953, -33.4363563 ], [ -70.6529554, -33.4352254 ], [ -70.6543063, -33.4354434 ], [ -70.6557972, -33.4355907 ], [ -70.6556678, -33.4366697 ], [ -70.6570178, -33.436832 ], [ -70.6568819, -33.4379611 ], [ -70.6567471, -33.4390722 ] ] ] } },
{ "type": "Feature", "properties": { "Id": 15, "Codigo_SII": "CMM066", "UF_m2": "200.78", "Rango": "200-249", "UFm2_2018": "198.4", "Territorio": "NorOriente", "Barrio": null, "Comparativ": "Sube" }, "geometry": { "type": "Polygon", "coordinates": [ [ [ -70.6529348, -33.4421352 ], [ -70.652874, -33.4425925 ], [ -70.6527919, -33.4425787 ], [ -70.6527725, -33.4426834 ], [ -70.6527476, -33.4426837 ], [ -70.6527102, -33.4429613 ], [ -70.6518253, -33.4428661 ], [ -70.6519588, -33.44204 ], [ -70.6512924, -33.4419878 ], [ -70.651429, -33.4408428 ], [ -70.6521374, -33.4409103 ], [ -70.6521911, -33.4405624 ], [ -70.651529, -33.440487 ], [ -70.6515565, -33.440245 ], [ -70.6517417, -33.4402574 ], [ -70.6517965, -33.4397676 ], [ -70.6518, -33.4397169 ], [ -70.6515858, -33.4396963 ], [ -70.65172, -33.4385616 ], [ -70.6524848, -33.4386511 ], [ -70.6536131, -33.4387323 ], [ -70.6538595, -33.43875 ], [ -70.653689, -33.4399156 ], [ -70.6535222, -33.4410451 ], [ -70.652662, -33.4409614 ], [ -70.6526137, -33.4412479 ], [ -70.6525638, -33.4412426 ], [ -70.6525383, -33.441401 ], [ -70.6527344, -33.4414252 ], [ -70.6526394, -33.4421064 ], [ -70.6529348, -33.4421352 ] ] ] } },
{ "type": "Feature", "properties": { "Id": 18, "Codigo_SII": "CMM075", "UF_m2": "146.06", "Rango": "100-149", "UFm2_2018": "155", "Territorio": "NorOriente", "Barrio": null, "Comparativ": "Baja" }, "geometry": { "type": "Polygon", "coordinates": [ [ [ -70.6530675, -33.4343146 ], [ -70.6529554, -33.4352254 ], [ -70.6527953, -33.4363563 ], [ -70.6526431, -33.4375127 ], [ -70.6512652, -33.4373507 ], [ -70.6514307, -33.4362032 ], [ -70.6500444, -33.4360514 ], [ -70.6500465, -33.4356839 ], [ -70.6501934, -33.4348798 ], [ -70.6502352, -33.4345958 ], [ -70.6503419, -33.4341976 ], [ -70.6516969, -33.4342517 ], [ -70.6530675, -33.4343146 ] ] ] } },
{ "type": "Feature", "properties": { "Id": 19, "Codigo_SII": "EMM014", "UF_m2": "140.6", "Rango": "100-149", "UFm2_2018": "110.1", "Territorio": "NorOriente", "Barrio": null, "Comparativ": "Sube" }, "geometry": { "type": "Polygon", "coordinates": [ [ [ -70.6524848, -33.4386511 ], [ -70.6497179, -33.4383452 ], [ -70.6499206, -33.4371702 ], [ -70.6500444, -33.4360514 ], [ -70.6514307, -33.4362032 ], [ -70.6512652, -33.4373507 ], [ -70.6526431, -33.4375127 ], [ -70.6524848, -33.4386511 ] ] ] } },
{ "type": "Feature", "properties": { "Id": 20, "Codigo_SII": "XMM011", "UF_m2": "122.83", "Rango": "100-149", "UFm2_2018": "103.63", "Territorio": "NorOriente", "Barrio": "Santa Lucia-Forestal", "Comparativ": "Sube" }, "geometry": { "type": "Polygon", "coordinates": [ [ [ -70.6517342, -33.4330974 ], [ -70.6516969, -33.4342517 ], [ -70.6503419, -33.4341976 ], [ -70.6502352, -33.4345958 ], [ -70.6500465, -33.4356839 ], [ -70.6500444, -33.4360514 ], [ -70.6473561, -33.4357826 ], [ -70.6471771, -33.4369091 ], [ -70.6457561, -33.4367385 ], [ -70.6456112, -33.4379489 ], [ -70.6441885, -33.4377964 ], [ -70.6443502, -33.4366044 ], [ -70.6443668, -33.4358691 ], [ -70.6444104, -33.435804 ], [ -70.6444983, -33.4354632 ], [ -70.6439291, -33.4336227 ], [ -70.6460417, -33.4331336 ], [ -70.6485975, -33.4326012 ], [ -70.6486146, -33.4328929 ], [ -70.648814, -33.433262 ], [ -70.6489839, -33.4338615 ], [ -70.6503926, -33.4334442 ], [ -70.6506486, -33.4333222 ], [ -70.6511419, -33.4331819 ], [ -70.6514411, -33.4331176 ], [ -70.6517342, -33.4330974 ] ] ] } },
{ "type": "Feature", "properties": { "Id": 21, "Codigo_SII": "HMA016", "UF_m2": "127.36", "Rango": "100-149", "UFm2_2018": "124.96", "Territorio": "NorOriente", "Barrio": "Santa Lucia-Forestal", "Comparativ": "Sube" }, "geometry": { "type": "Polygon", "coordinates": [ [ [ -70.6439291, -33.4336227 ], [ -70.6444983, -33.4354632 ], [ -70.6444104, -33.435804 ], [ -70.6443502, -33.4366044 ], [ -70.6441885, -33.4377964 ], [ -70.6434556, -33.437704 ], [ -70.643274, -33.4376632 ], [ -70.6401946, -33.4369475 ], [ -70.6400946, -33.4368857 ], [ -70.6398912, -33.4368884 ], [ -70.6395796, -33.4346456 ], [ -70.6413682, -33.434225 ], [ -70.6439291, -33.4336227 ] ] ] } },
{ "type": "Feature", "properties": { "Id": 24, "Codigo_SII": "CMA015", "UF_m2": "171.58", "Rango": "150-199", "UFm2_2018": "99.5", "Territorio": "NorOriente", "Barrio": null, "Comparativ": "Sube" }, "geometry": { "type": "Polygon", "coordinates": [ [ [ -70.6497179, -33.4383452 ], [ -70.6483422, -33.4382283 ], [ -70.6470272, -33.4380834 ], [ -70.6469309, -33.4380576 ], [ -70.6456112, -33.4379489 ], [ -70.6457561, -33.4367385 ], [ -70.6471771, -33.4369091 ], [ -70.6473561, -33.4357826 ], [ -70.648723, -33.4359301 ], [ -70.6500444, -33.4360514 ], [ -70.6499206, -33.4371702 ], [ -70.6497179, -33.4383452 ] ] ] } },
{ "type": "Feature", "properties": { "Id": 25, "Codigo_SII": "CMA019", "UF_m2": "234.52", "Rango": "200-249", "UFm2_2018": "172.5", "Territorio": "NorOriente", "Barrio": null, "Comparativ": "Sube" }, "geometry": { "type": "Polygon", "coordinates": [ [ [ -70.6456112, -33.4379489 ], [ -70.6469309, -33.4380576 ], [ -70.6493977, -33.4383193 ], [ -70.649333, -33.4387479 ], [ -70.6490767, -33.438737 ], [ -70.6487855, -33.4386907 ], [ -70.6487459, -33.4388559 ], [ -70.6489081, -33.4388537 ], [ -70.6488274, -33.4394262 ], [ -70.6487194, -33.440159 ], [ -70.6490017, -33.4401911 ], [ -70.6489514, -33.4406087 ], [ -70.6485137, -33.4405766 ], [ -70.6484125, -33.4411708 ], [ -70.6489276, -33.4412372 ], [ -70.6488834, -33.4417832 ], [ -70.6487591, -33.4417715 ], [ -70.6487143, -33.4421491 ], [ -70.6485523, -33.4421584 ], [ -70.6484952, -33.4427533 ], [ -70.6487262, -33.4427789 ], [ -70.6486336, -33.4432537 ], [ -70.6476717, -33.4430372 ], [ -70.6466915, -33.4428264 ], [ -70.6462565, -33.442734 ], [ -70.6447499, -33.4423691 ], [ -70.6448999, -33.4423159 ], [ -70.644946, -33.4422611 ], [ -70.6450954, -33.441451 ], [ -70.645292, -33.4403069 ], [ -70.6454634, -33.4390782 ], [ -70.6456112, -33.4379489 ] ] ] } },
{ "type": "Feature", "properties": { "Id": 26, "Codigo_SII": "CMA067", "UF_m2": "264.37", "Rango": "+250", "UFm2_2018": "260", "Territorio": "NorOriente", "Barrio": null, "Comparativ": "Sube" }, "geometry": { "type": "Polygon", "coordinates": [ [ [ -70.65172, -33.4385616 ], [ -70.6515858, -33.4396963 ], [ -70.6518, -33.4397169 ], [ -70.6517417, -33.4402574 ], [ -70.6515565, -33.440245 ], [ -70.651529, -33.440487 ], [ -70.6521911, -33.4405624 ], [ -70.6521374, -33.4409103 ], [ -70.651429, -33.4408428 ], [ -70.6512924, -33.4419878 ], [ -70.650888, -33.4419561 ], [ -70.6506064, -33.4436837 ], [ -70.6503517, -33.4436298 ], [ -70.650365, -33.443922 ], [ -70.6488862, -33.4435464 ], [ -70.6486336, -33.4432537 ], [ -70.6487262, -33.4427789 ], [ -70.6484952, -33.4427533 ], [ -70.6485523, -33.4421584 ], [ -70.6487143, -33.4421491 ], [ -70.6487591, -33.4417715 ], [ -70.6488834, -33.4417832 ], [ -70.6489276, -33.4412372 ], [ -70.6484125, -33.4411708 ], [ -70.6485137, -33.4405766 ], [ -70.6489514, -33.4406087 ], [ -70.6490017, -33.4401911 ], [ -70.6487194, -33.440159 ], [ -70.6489081, -33.4388537 ], [ -70.6487459, -33.4388559 ], [ -70.6487855, -33.4386907 ], [ -70.648924, -33.4387127 ], [ -70.6490767, -33.438737 ], [ -70.649333, -33.4387479 ], [ -70.6493977, -33.4383193 ], [ -70.6497179, -33.4383452 ], [ -70.6510343, -33.4384908 ], [ -70.65172, -33.4385616 ] ] ] } },
{ "type": "Feature", "properties": { "Id": 22, "Codigo_SII": "XMM025", "UF_m2": "129.52", "Rango": "100-149", "UFm2_2018": "101.83", "Territorio": "NorOriente", "Barrio": "Santa Lucia-Forestal", "Comparativ": "Sube" }, "geometry": { "type": "Polygon", "coordinates": [ [ [ -70.6397186, -33.4354338 ], [ -70.6398912, -33.4368884 ], [ -70.6400946, -33.4368857 ], [ -70.6401946, -33.4369475 ], [ -70.6413588, -33.4372235 ], [ -70.643274, -33.4376632 ], [ -70.6441885, -33.4377964 ], [ -70.6456112, -33.4379489 ], [ -70.6454634, -33.4390782 ], [ -70.645292, -33.4403069 ], [ -70.6450954, -33.441451 ], [ -70.644946, -33.4422611 ], [ -70.6448999, -33.4423159 ], [ -70.6447499, -33.4423691 ], [ -70.6441074, -33.4421928 ], [ -70.6445823, -33.4414252 ], [ -70.6447469, -33.440985 ], [ -70.6447548, -33.4407112 ], [ -70.6446026, -33.4402344 ], [ -70.6444008, -33.4399074 ], [ -70.6442708, -33.4396383 ], [ -70.643998, -33.4391105 ], [ -70.6434607, -33.4379747 ], [ -70.6431397, -33.437918 ], [ -70.6428359, -33.4382205 ], [ -70.6426342, -33.4384213 ], [ -70.6424576, -33.4390286 ], [ -70.6423213, -33.4395166 ], [ -70.6422699, -33.4404462 ], [ -70.6417563, -33.4409266 ], [ -70.6406761, -33.440188 ], [ -70.6375228, -33.4379016 ], [ -70.6364697, -33.4373834 ], [ -70.6352118, -33.4370614 ], [ -70.6353856, -33.4363903 ], [ -70.6353768, -33.436024 ], [ -70.6353536, -33.4357633 ], [ -70.6354049, -33.4356271 ], [ -70.6395796, -33.4346456 ], [ -70.6397186, -33.4354338 ] ] ] } },
{ "type": "Feature", "properties": { "Id": 23, "Codigo_SII": "EMM590-Emm024", "UF_m2": "89.55", "Rango": "50-99", "UFm2_2018": "83.2", "Territorio": "NorOriente", "Barrio": "Santa Lucia-Forestal", "Comparativ": "Sube" }, "geometry": { "type": "Polygon", "coordinates": [ [ [ -70.6441074, -33.4421928 ], [ -70.6429514, -33.441649 ], [ -70.642564, -33.441417 ], [ -70.6417563, -33.4409266 ], [ -70.6422699, -33.4404462 ], [ -70.6423213, -33.4395166 ], [ -70.642485, -33.4389341 ], [ -70.6426342, -33.4384213 ], [ -70.6431397, -33.437918 ], [ -70.6434607, -33.4379747 ], [ -70.6437584, -33.4386064 ], [ -70.6442312, -33.4395406 ], [ -70.6446026, -33.4402344 ], [ -70.6447548, -33.4407112 ], [ -70.6447243, -33.4410973 ], [ -70.6445024, -33.4415646 ], [ -70.6441074, -33.4421928 ] ] ] } },
{ "type": "Feature", "properties": { "Id": 27, "Codigo_SII": "XMM072", "UF_m2": "23.87", "Rango": "1-49", "UFm2_2018": "74", "Territorio": "CentroOriente", "Barrio": null, "Comparativ": "Baja" }, "geometry": { "type": "Polygon", "coordinates": [ [ [ -70.6309756, -33.4519131 ], [ -70.6334781, -33.4432914 ], [ -70.6344452, -33.4400592 ], [ -70.635859, -33.4406402 ], [ -70.6354896, -33.4413591 ], [ -70.6352899, -33.4413379 ], [ -70.6351016, -33.4416277 ], [ -70.6352252, -33.4416788 ], [ -70.634974, -33.442185 ], [ -70.63642, -33.4426148 ], [ -70.6361162, -33.4433232 ], [ -70.6357924, -33.4441264 ], [ -70.6355028, -33.4448103 ], [ -70.6350458, -33.4458985 ], [ -70.6347304, -33.4469849 ], [ -70.6344448, -33.4479807 ], [ -70.6340561, -33.4493385 ], [ -70.6334367, -33.4515291 ], [ -70.6333724, -33.4516336 ], [ -70.6324698, -33.4516452 ], [ -70.6316513, -33.4518105 ], [ -70.6309756, -33.4519131 ] ] ] } },
{ "type": "Feature", "properties": { "Id": 29, "Codigo_SII": "CMM053", "UF_m2": "24.84", "Rango": "1-49", "UFm2_2018": "18.01", "Territorio": "CentroOriente", "Barrio": null, "Comparativ": "Sube" }, "geometry": { "type": "Polygon", "coordinates": [ [ [ -70.6340561, -33.4493385 ], [ -70.6349567, -33.4495341 ], [ -70.6361451, -33.4497534 ], [ -70.6382337, -33.4501669 ], [ -70.638669, -33.4502638 ], [ -70.6391721, -33.4503903 ], [ -70.6399563, -33.4505773 ], [ -70.6412446, -33.4508841 ], [ -70.641158, -33.451194 ], [ -70.642682, -33.451524 ], [ -70.6442057, -33.4517232 ], [ -70.6455188, -33.4518934 ], [ -70.6456926, -33.4519085 ], [ -70.6467259, -33.4520384 ], [ -70.6478699, -33.4522709 ], [ -70.6486554, -33.4524345 ], [ -70.6483187, -33.4539599 ], [ -70.6482084, -33.4539669 ], [ -70.6475538, -33.4538628 ], [ -70.6465017, -33.4537125 ], [ -70.6464189, -33.4537454 ], [ -70.6452251, -33.45352 ], [ -70.6439773, -33.4532979 ], [ -70.6438923, -33.4532643 ], [ -70.6430663, -33.4531208 ], [ -70.6423334, -33.4529988 ], [ -70.6408705, -33.452729 ], [ -70.6407565, -33.4527154 ], [ -70.6406572, -33.4526956 ], [ -70.6395995, -33.4524856 ], [ -70.6393242, -33.4524309 ], [ -70.6385289, -33.4522753 ], [ -70.6380363, -33.4521361 ], [ -70.6376505, -33.4520761 ], [ -70.6369193, -33.4519529 ], [ -70.6366394, -33.4519087 ], [ -70.6357719, -33.4517508 ], [ -70.6354504, -33.4517136 ], [ -70.6345709, -33.4515808 ], [ -70.6342673, -33.4516477 ], [ -70.6335601, -33.4516366 ], [ -70.6333724, -33.4516336 ], [ -70.6334367, -33.4515291 ], [ -70.6335376, -33.4511716 ], [ -70.6340561, -33.4493385 ] ] ] } },
{ "type": "Feature", "properties": { "Id": 30, "Codigo_SII": "XMM074", "UF_m2": "20.37", "Rango": "1-49", "UFm2_2018": "91", "Territorio": "CentroOriente", "Barrio": null, "Comparativ": "Baja" }, "geometry": { "type": "Polygon", "coordinates": [ [ [ -70.6486554, -33.4524345 ], [ -70.6478699, -33.4522709 ], [ -70.6467259, -33.4520384 ], [ -70.6456926, -33.4519085 ], [ -70.6442057, -33.4517232 ], [ -70.642682, -33.451524 ], [ -70.641158, -33.451194 ], [ -70.6412446, -33.4508841 ], [ -70.6399563, -33.4505773 ], [ -70.638669, -33.4502638 ], [ -70.6361451, -33.4497534 ], [ -70.6352512, -33.4495884 ], [ -70.6349238, -33.4495269 ], [ -70.6340561, -33.4493385 ], [ -70.6344448, -33.4479807 ], [ -70.6347304, -33.4469849 ], [ -70.6355698, -33.4471756 ], [ -70.6356396, -33.4472023 ], [ -70.636915, -33.4475054 ], [ -70.636994, -33.4475136 ], [ -70.6381848, -33.4478057 ], [ -70.6394191, -33.4480953 ], [ -70.6406926, -33.4484027 ], [ -70.6407509, -33.4484348 ], [ -70.6419419, -33.4487577 ], [ -70.6434199, -33.4489891 ], [ -70.643294, -33.4493493 ], [ -70.6445777, -33.4496206 ], [ -70.6457462, -33.4497888 ], [ -70.6469462, -33.4499615 ], [ -70.6483014, -33.4501239 ], [ -70.6490951, -33.4502306 ], [ -70.6505722, -33.4505085 ], [ -70.6503851, -33.4518818 ], [ -70.6502211, -33.4527532 ], [ -70.6486554, -33.4524345 ] ] ] } },
{ "type": "Feature", "properties": { "Id": 31, "Codigo_SII": "EMM041", "UF_m2": "51.4", "Rango": "50-99", "UFm2_2018": "49.79", "Territorio": "CentroOriente", "Barrio": null, "Comparativ": "Sube" }, "geometry": { "type": "Polygon", "coordinates": [ [ [ -70.6390732, -33.4432579 ], [ -70.6391091, -33.4450114 ], [ -70.6368843, -33.4445547 ], [ -70.63782, -33.4430185 ], [ -70.6382296, -33.4431502 ], [ -70.6385663, -33.4432122 ], [ -70.6390732, -33.4432579 ] ] ] } },
{ "type": "Feature", "properties": { "Id": 33, "Codigo_SII": "CMM046", "UF_m2": "44.63", "Rango": "1-49", "UFm2_2018": "31.6", "Territorio": "CentroOriente", "Barrio": null, "Comparativ": "Sube" }, "geometry": { "type": "Polygon", "coordinates": [ [ [ -70.6455864, -33.4451918 ], [ -70.6470831, -33.4454867 ], [ -70.647976, -33.4456642 ], [ -70.6491391, -33.4458922 ], [ -70.6499587, -33.4460527 ], [ -70.651126, -33.4462285 ], [ -70.6512265, -33.4462805 ], [ -70.651234, -33.4462191 ], [ -70.6512766, -33.4459499 ], [ -70.6526278, -33.4461884 ], [ -70.6525686, -33.4462975 ], [ -70.6523041, -33.4476086 ], [ -70.652093, -33.4485493 ], [ -70.6516994, -33.4484712 ], [ -70.6515603, -33.4490159 ], [ -70.6519529, -33.4490814 ], [ -70.6518362, -33.449584 ], [ -70.6521035, -33.4496506 ], [ -70.6519889, -33.4507276 ], [ -70.6523427, -33.4507824 ], [ -70.6522439, -33.4513725 ], [ -70.6504751, -33.451159 ], [ -70.6505722, -33.4505085 ], [ -70.6490951, -33.4502306 ], [ -70.6483014, -33.4501239 ], [ -70.6469462, -33.4499615 ], [ -70.6470697, -33.4467133 ], [ -70.6452878, -33.4463107 ], [ -70.6455864, -33.4451918 ] ] ] } },
{ "type": "Feature", "properties": { "Id": 34, "Codigo_SII": "CMA034", "UF_m2": "71.52", "Rango": "50-99", "UFm2_2018": "63.6", "Territorio": "CentroOriente", "Barrio": null, "Comparativ": "Sube" }, "geometry": { "type": "Polygon", "coordinates": [ [ [ -70.6472113, -33.4429382 ], [ -70.6471059, -33.4430758 ], [ -70.6470831, -33.4454867 ], [ -70.6455864, -33.4451918 ], [ -70.6443025, -33.4449284 ], [ -70.6445876, -33.4437883 ], [ -70.6443616, -33.4437328 ], [ -70.6437795, -33.4435898 ], [ -70.6431945, -33.443446 ], [ -70.6412608, -33.4429585 ], [ -70.6415153, -33.4428867 ], [ -70.6414746, -33.4428235 ], [ -70.6412561, -33.4427429 ], [ -70.6417298, -33.4414634 ], [ -70.6420206, -33.4410871 ], [ -70.6429514, -33.441649 ], [ -70.6441074, -33.4421928 ], [ -70.6447499, -33.4423691 ], [ -70.645916, -33.4426515 ], [ -70.6472113, -33.4429382 ] ] ] } },
{ "type": "Feature", "properties": { "Id": 28, "Codigo_SII": "XMA036", "UF_m2": "68.39", "Rango": "50-99", "UFm2_2018": "70", "Territorio": "CentroOriente", "Barrio": null, "Comparativ": "Baja" }, "geometry": { "type": "Polygon", "coordinates": [ [ [ -70.634974, -33.442185 ], [ -70.6352252, -33.4416788 ], [ -70.6351016, -33.4416277 ], [ -70.6352899, -33.4413379 ], [ -70.6354896, -33.4413591 ], [ -70.635859, -33.4406402 ], [ -70.6344452, -33.4400592 ], [ -70.6345852, -33.4395675 ], [ -70.6349261, -33.4383695 ], [ -70.6352118, -33.4370614 ], [ -70.6364697, -33.4373834 ], [ -70.6375228, -33.4379016 ], [ -70.6393721, -33.4392425 ], [ -70.6397304, -33.4395023 ], [ -70.6403009, -33.439916 ], [ -70.641359, -33.4406549 ], [ -70.6420206, -33.4410871 ], [ -70.6417298, -33.4414634 ], [ -70.6412561, -33.4427429 ], [ -70.6414746, -33.4428235 ], [ -70.6415153, -33.4428867 ], [ -70.6412608, -33.4429585 ], [ -70.6409824, -33.4430086 ], [ -70.64051, -33.4430712 ], [ -70.6400582, -33.4431299 ], [ -70.6395855, -33.4431913 ], [ -70.6395611, -33.4431945 ], [ -70.6390732, -33.4432579 ], [ -70.6388909, -33.4432433 ], [ -70.6385663, -33.4432122 ], [ -70.6382296, -33.4431502 ], [ -70.63782, -33.4430185 ], [ -70.63642, -33.4426148 ], [ -70.634974, -33.442185 ] ] ] } },
{ "type": "Feature", "properties": { "Id": 32, "Codigo_SII": "HMM047", "UF_m2": "36.44", "Rango": "1-49", "UFm2_2018": "52", "Territorio": "CentroOriente", "Barrio": null, "Comparativ": "Baja" }, "geometry": { "type": "Polygon", "coordinates": [ [ [ -70.63642, -33.4426148 ], [ -70.63782, -33.4430185 ], [ -70.6368843, -33.4445547 ], [ -70.6391091, -33.4450114 ], [ -70.6390732, -33.4432579 ], [ -70.6409743, -33.4430102 ], [ -70.6412608, -33.4429585 ], [ -70.6431945, -33.443446 ], [ -70.6445876, -33.4437883 ], [ -70.6443025, -33.4449284 ], [ -70.6455864, -33.4451918 ], [ -70.6452878, -33.4463107 ], [ -70.6470697, -33.4467133 ], [ -70.647043, -33.448508 ], [ -70.6469462, -33.4499615 ], [ -70.6445777, -33.4496206 ], [ -70.643294, -33.4493493 ], [ -70.6434199, -33.4489891 ], [ -70.6419419, -33.4487577 ], [ -70.6406926, -33.4484027 ], [ -70.6394191, -33.4480953 ], [ -70.6381848, -33.4478057 ], [ -70.636994, -33.4475136 ], [ -70.6355698, -33.4471756 ], [ -70.6347304, -33.4469849 ], [ -70.6350458, -33.4458985 ], [ -70.6355028, -33.4448103 ], [ -70.6357924, -33.4441264 ], [ -70.63642, -33.4426148 ] ] ] } },
{ "type": "Feature", "properties": { "Id": 35, "Codigo_SII": "CMA033", "UF_m2": "76.53", "Rango": "50-99", "UFm2_2018": "69", "Territorio": "CentroOriente", "Barrio": null, "Comparativ": "Sube" }, "geometry": { "type": "Polygon", "coordinates": [ [ [ -70.6502355, -33.4446602 ], [ -70.6501917, -33.4448807 ], [ -70.6501516, -33.4450823 ], [ -70.6500479, -33.4456039 ], [ -70.6499587, -33.4460527 ], [ -70.6491391, -33.4458922 ], [ -70.647976, -33.4456642 ], [ -70.6470831, -33.4454867 ], [ -70.6471059, -33.4430758 ], [ -70.6472113, -33.4429382 ], [ -70.6486336, -33.4432537 ], [ -70.6488862, -33.4435464 ], [ -70.650365, -33.443922 ], [ -70.6502355, -33.4446602 ] ] ] } },
{ "type": "Feature", "properties": { "Id": 36, "Codigo_SII": "EMM500", "UF_m2": "49.11", "Rango": "1-49", "UFm2_2018": "46.94", "Territorio": "CentroOriente", "Barrio": null, "Comparativ": "Sube" }, "geometry": { "type": "Polygon", "coordinates": [ [ [ -70.650365, -33.443922 ], [ -70.6510857, -33.4440915 ], [ -70.6511882, -33.4441155 ], [ -70.6516111, -33.4441644 ], [ -70.6512766, -33.4459499 ], [ -70.6512265, -33.4462805 ], [ -70.651126, -33.4462285 ], [ -70.6499587, -33.4460527 ], [ -70.650365, -33.443922 ] ] ] } },
{ "type": "Feature", "properties": { "Id": 37, "Codigo_SII": "CMA071", "UF_m2": "64.58", "Rango": "50-99", "UFm2_2018": "54.7", "Territorio": "CentroOriente", "Barrio": null, "Comparativ": "Sube" }, "geometry": { "type": "Polygon", "coordinates": [ [ [ -70.6555114, -33.4450508 ], [ -70.6554339, -33.4452788 ], [ -70.6551779, -33.4468398 ], [ -70.6550757, -33.4466067 ], [ -70.6549839, -33.4465358 ], [ -70.6549188, -33.4465096 ], [ -70.653782, -33.4463534 ], [ -70.6532099, -33.4462885 ], [ -70.6526278, -33.4461884 ], [ -70.6512766, -33.4459499 ], [ -70.6516111, -33.4441644 ], [ -70.6517334, -33.4442107 ], [ -70.6529813, -33.4444786 ], [ -70.6541149, -33.4447129 ], [ -70.6555114, -33.4450508 ] ] ] } },
{ "type": "Feature", "properties": { "Id": 11, "Codigo_SII": "XMM009", "UF_m2": "127.86", "Rango": "100-149", "UFm2_2018": "93", "Territorio": "NorOriente", "Barrio": null, "Comparativ": "Sube" }, "geometry": { "type": "Polygon", "coordinates": [ [ [ -70.6597173, -33.4393888 ], [ -70.6597113, -33.4397661 ], [ -70.6597577, -33.4403054 ], [ -70.6599091, -33.4410421 ], [ -70.6601903, -33.4421945 ], [ -70.6604944, -33.4429072 ], [ -70.6561069, -33.4424626 ], [ -70.6563584, -33.4413139 ], [ -70.656588, -33.4402016 ], [ -70.6567471, -33.4390722 ], [ -70.6581295, -33.439189 ], [ -70.6587256, -33.4345126 ], [ -70.6600704, -33.4345276 ], [ -70.6603985, -33.4345432 ], [ -70.6600414, -33.4371613 ], [ -70.6603692, -33.4371939 ], [ -70.6600942, -33.4394289 ], [ -70.6597173, -33.4393888 ] ] ] } },
{ "type": "Feature", "properties": { "Id": 13, "Codigo_SII": "CMA064", "UF_m2": "121.68", "Rango": "100-149", "UFm2_2018": "154", "Territorio": "NorOriente", "Barrio": null, "Comparativ": "Baja" }, "geometry": { "type": "Polygon", "coordinates": [ [ [ -70.6555114, -33.4450508 ], [ -70.6541149, -33.4447129 ], [ -70.6529813, -33.4444786 ], [ -70.6519247, -33.444251 ], [ -70.6517334, -33.4442107 ], [ -70.6511882, -33.4441155 ], [ -70.650365, -33.443922 ], [ -70.6503517, -33.4436298 ], [ -70.6530021, -33.4441906 ], [ -70.653112, -33.4434189 ], [ -70.6526426, -33.443338 ], [ -70.6517675, -33.443217 ], [ -70.6518253, -33.4428661 ], [ -70.6527102, -33.4429613 ], [ -70.6527419, -33.4427553 ], [ -70.6527476, -33.4426837 ], [ -70.6527725, -33.4426834 ], [ -70.6527919, -33.4425787 ], [ -70.652874, -33.4425925 ], [ -70.6529348, -33.4421352 ], [ -70.6526394, -33.4421064 ], [ -70.6526495, -33.4420109 ], [ -70.6527344, -33.4414252 ], [ -70.6525383, -33.441401 ], [ -70.6525638, -33.4412426 ], [ -70.6526137, -33.4412479 ], [ -70.652662, -33.4409614 ], [ -70.6535222, -33.4410451 ], [ -70.6549316, -33.4411796 ], [ -70.6563584, -33.4413139 ], [ -70.6561069, -33.4424626 ], [ -70.6556047, -33.4447765 ], [ -70.6555114, -33.4450508 ] ] ] } },
{ "type": "Feature", "properties": { "Id": 38, "Codigo_SII": "XMM052", "UF_m2": "43.88", "Rango": "1-49", "UFm2_2018": "21.65", "Territorio": "CentroOriente", "Barrio": null, "Comparativ": "Sube" }, "geometry": { "type": "Polygon", "coordinates": [ [ [ -70.6486554, -33.4524345 ], [ -70.6527006, -33.4532434 ], [ -70.6528231, -33.4524808 ], [ -70.6545962, -33.4529196 ], [ -70.6546306, -33.452651 ], [ -70.6551468, -33.4527268 ], [ -70.6551252, -33.4524654 ], [ -70.6560412, -33.452543 ], [ -70.6559222, -33.453102 ], [ -70.6568963, -33.4531919 ], [ -70.6581154, -33.4532629 ], [ -70.6585024, -33.4518957 ], [ -70.6591653, -33.4520061 ], [ -70.6585329, -33.4542985 ], [ -70.6578434, -33.4542133 ], [ -70.6576511, -33.4545546 ], [ -70.6566071, -33.4545145 ], [ -70.6555032, -33.4544774 ], [ -70.6549211, -33.4544521 ], [ -70.6540648, -33.4544383 ], [ -70.6532876, -33.4544223 ], [ -70.6525255, -33.4544054 ], [ -70.6514684, -33.4543835 ], [ -70.6500371, -33.4541345 ], [ -70.6489322, -33.4539548 ], [ -70.6483187, -33.4539599 ], [ -70.6486554, -33.4524345 ] ] ] } },
{ "type": "Feature", "properties": { "Id": 39, "Codigo_SII": "EMM051", "UF_m2": "28.84", "Rango": "1-49", "UFm2_2018": "26.94", "Territorio": "CentroOriente", "Barrio": null, "Comparativ": "Sube" }, "geometry": { "type": "Polygon", "coordinates": [ [ [ -70.6584766, -33.4519874 ], [ -70.6581154, -33.4532629 ], [ -70.6559222, -33.453102 ], [ -70.6560412, -33.452543 ], [ -70.6551252, -33.4524654 ], [ -70.6551468, -33.4527268 ], [ -70.6546306, -33.452651 ], [ -70.6545962, -33.4529196 ], [ -70.6528231, -33.4524808 ], [ -70.6527006, -33.4532434 ], [ -70.6502211, -33.4527532 ], [ -70.6503851, -33.4518818 ], [ -70.6504751, -33.451159 ], [ -70.6522439, -33.4513725 ], [ -70.6529745, -33.4514982 ], [ -70.654396, -33.4516265 ], [ -70.6561854, -33.4518782 ], [ -70.6560814, -33.452358 ], [ -70.6570502, -33.4524679 ], [ -70.6571865, -33.4518262 ], [ -70.6584766, -33.4519874 ] ] ] } },
{ "type": "Feature", "properties": { "Id": 40, "Codigo_SII": "CMA031", "UF_m2": "74.34", "Rango": "50-99", "UFm2_2018": "51.43", "Territorio": "CentroOriente", "Barrio": null, "Comparativ": "Sube" }, "geometry": { "type": "Polygon", "coordinates": [ [ [ -70.6529745, -33.4514982 ], [ -70.6522439, -33.4513725 ], [ -70.6523427, -33.4507823 ], [ -70.6519889, -33.4507276 ], [ -70.6521035, -33.4496506 ], [ -70.6518362, -33.449584 ], [ -70.6519529, -33.4490814 ], [ -70.6515603, -33.4490159 ], [ -70.6516994, -33.4484712 ], [ -70.652093, -33.4485493 ], [ -70.6523041, -33.4476086 ], [ -70.6525686, -33.4462975 ], [ -70.6526278, -33.4461884 ], [ -70.653782, -33.4463534 ], [ -70.6535584, -33.4477723 ], [ -70.6533975, -33.4488205 ], [ -70.6532258, -33.449923 ], [ -70.6530737, -33.4508959 ], [ -70.6529745, -33.4514982 ] ] ] } },
{ "type": "Feature", "properties": { "Id": 41, "Codigo_SII": "HMM045", "UF_m2": "57.21", "Rango": "50-99", "UFm2_2018": "59.76", "Territorio": "CentroOriente", "Barrio": null, "Comparativ": "Baja" }, "geometry": { "type": "Polygon", "coordinates": [ [ [ -70.653782, -33.4463534 ], [ -70.6543117, -33.4464175 ], [ -70.6549188, -33.4465096 ], [ -70.6550757, -33.4466067 ], [ -70.6551779, -33.4468398 ], [ -70.6549889, -33.4479335 ], [ -70.6562116, -33.4481095 ], [ -70.6560329, -33.4490821 ], [ -70.6567423, -33.4491637 ], [ -70.6564597, -33.4506013 ], [ -70.6562986, -33.4513558 ], [ -70.6555197, -33.4512503 ], [ -70.6555595, -33.4510976 ], [ -70.6545117, -33.450982 ], [ -70.654396, -33.4516265 ], [ -70.6529745, -33.4514982 ], [ -70.6529818, -33.4514504 ], [ -70.6530737, -33.4508959 ], [ -70.6532258, -33.449923 ], [ -70.6533975, -33.4488205 ], [ -70.6535584, -33.4477723 ], [ -70.653782, -33.4463534 ] ] ] } },
{ "type": "Feature", "properties": { "Id": 42, "Codigo_SII": "EMM044", "UF_m2": "38.63", "Rango": "1-49", "UFm2_2018": "36.46", "Territorio": "CentroOriente", "Barrio": null, "Comparativ": "Sube" }, "geometry": { "type": "Polygon", "coordinates": [ [ [ -70.6562986, -33.4513558 ], [ -70.6564597, -33.4506013 ], [ -70.6567423, -33.4491637 ], [ -70.6560329, -33.4490821 ], [ -70.6562116, -33.4481095 ], [ -70.6549889, -33.4479335 ], [ -70.6551779, -33.4468398 ], [ -70.6552414, -33.4464525 ], [ -70.6558145, -33.4465177 ], [ -70.6558907, -33.4460335 ], [ -70.6561763, -33.4460834 ], [ -70.6561179, -33.4463824 ], [ -70.6562823, -33.446422 ], [ -70.6563297, -33.4462961 ], [ -70.6568089, -33.4464209 ], [ -70.6569022, -33.4460916 ], [ -70.6572593, -33.4461522 ], [ -70.6571694, -33.4466764 ], [ -70.6582578, -33.4468067 ], [ -70.6582934, -33.446653 ], [ -70.6588203, -33.4467261 ], [ -70.6587527, -33.4469366 ], [ -70.6590481, -33.4469756 ], [ -70.6589919, -33.4473074 ], [ -70.6602049, -33.4474711 ], [ -70.6596332, -33.4492672 ], [ -70.6588874, -33.45197 ], [ -70.6585024, -33.4518957 ], [ -70.6584766, -33.4519874 ], [ -70.6571865, -33.4518262 ], [ -70.6570502, -33.4524679 ], [ -70.6560814, -33.452358 ], [ -70.6561854, -33.4518782 ], [ -70.654396, -33.4516265 ], [ -70.6545117, -33.450982 ], [ -70.6555595, -33.4510976 ], [ -70.6555197, -33.4512503 ], [ -70.6562986, -33.4513558 ] ] ] } },
{ "type": "Feature", "properties": { "Id": 43, "Codigo_SII": "CMM030", "UF_m2": "99.17", "Rango": "50-99", "UFm2_2018": "38", "Territorio": "CentroOriente", "Barrio": null, "Comparativ": "Sube" }, "geometry": { "type": "Polygon", "coordinates": [ [ [ -70.6556047, -33.4447765 ], [ -70.6606611, -33.4459449 ], [ -70.6602049, -33.4474711 ], [ -70.6589919, -33.4473074 ], [ -70.6590481, -33.4469756 ], [ -70.6587666, -33.4469752 ], [ -70.6588272, -33.4467017 ], [ -70.6582934, -33.446653 ], [ -70.6582578, -33.4468067 ], [ -70.6571694, -33.4466764 ], [ -70.6572593, -33.4461522 ], [ -70.6569022, -33.4460916 ], [ -70.6568089, -33.4464209 ], [ -70.6563297, -33.4462961 ], [ -70.6562823, -33.446422 ], [ -70.6561179, -33.4463824 ], [ -70.6561763, -33.4460834 ], [ -70.6558907, -33.4460335 ], [ -70.6558145, -33.4465177 ], [ -70.6552414, -33.4464525 ], [ -70.6554339, -33.4452788 ], [ -70.6556047, -33.4447765 ] ] ] } },
{ "type": "Feature", "properties": { "Id": 44, "Codigo_SII": "CMM070", "UF_m2": "32.37", "Rango": "1-49", "UFm2_2018": "29.5", "Territorio": "CentroPoniente", "Barrio": null, "Comparativ": "Sube" }, "geometry": { "type": "Polygon", "coordinates": [ [ [ -70.6638847, -33.4467001 ], [ -70.6636035, -33.4479133 ], [ -70.663559, -33.4483765 ], [ -70.6627726, -33.4483376 ], [ -70.6628211, -33.44775 ], [ -70.6623571, -33.447717 ], [ -70.6623139, -33.4479981 ], [ -70.6618514, -33.447942 ], [ -70.6618681, -33.4474765 ], [ -70.6617311, -33.4474568 ], [ -70.6618114, -33.4471909 ], [ -70.6614525, -33.4471189 ], [ -70.6611946, -33.4470846 ], [ -70.6611391, -33.4473073 ], [ -70.6602674, -33.4471327 ], [ -70.6605052, -33.4464952 ], [ -70.6606611, -33.4459449 ], [ -70.6617364, -33.4462062 ], [ -70.6625937, -33.4464054 ], [ -70.6638847, -33.4467001 ] ] ] } },
{ "type": "Feature", "properties": { "Id": 45, "Codigo_SII": "EMM028", "UF_m2": "37", "Rango": "1-49", "UFm2_2018": "26.88", "Territorio": "CentroPoniente", "Barrio": null, "Comparativ": "Sube" }, "geometry": { "type": "Polygon", "coordinates": [ [ [ -70.6645521, -33.4468583 ], [ -70.6647923, -33.4475235 ], [ -70.6646728, -33.4502839 ], [ -70.6633909, -33.4500215 ], [ -70.663559, -33.4483765 ], [ -70.6636035, -33.4479133 ], [ -70.6638847, -33.4467001 ], [ -70.6645521, -33.4468583 ] ] ] } },
{ "type": "Feature", "properties": { "Id": 46, "Codigo_SII": "XMM029", "UF_m2": "33.47", "Rango": "1-49", "UFm2_2018": "31.76", "Territorio": "CentroPoniente", "Barrio": null, "Comparativ": "Sube" }, "geometry": { "type": "Polygon", "coordinates": [ [ [ -70.663559, -33.4483765 ], [ -70.6633909, -33.4500215 ], [ -70.6620391, -33.449747 ], [ -70.6609867, -33.4495379 ], [ -70.65997, -33.4493162 ], [ -70.6596332, -33.4492672 ], [ -70.6602049, -33.4474711 ], [ -70.6602674, -33.4471327 ], [ -70.6611391, -33.4473073 ], [ -70.6611946, -33.4470846 ], [ -70.6618114, -33.4471909 ], [ -70.6617311, -33.4474568 ], [ -70.6618681, -33.4474765 ], [ -70.6618514, -33.447942 ], [ -70.6623139, -33.4479981 ], [ -70.6623571, -33.447717 ], [ -70.6628211, -33.44775 ], [ -70.6627726, -33.4483376 ], [ -70.663559, -33.4483765 ] ] ] } },
{ "type": "Feature", "properties": { "Id": 47, "Codigo_SII": "HMM049", "UF_m2": "27.85", "Rango": "1-49", "UFm2_2018": "30", "Territorio": "CentroPoniente", "Barrio": null, "Comparativ": "Baja" }, "geometry": { "type": "Polygon", "coordinates": [ [ [ -70.6646728, -33.4502839 ], [ -70.6645327, -33.4515573 ], [ -70.6645806, -33.4513222 ], [ -70.6648004, -33.4516169 ], [ -70.6648512, -33.4517424 ], [ -70.6649976, -33.4528046 ], [ -70.665037, -33.4528943 ], [ -70.6650251, -33.4540848 ], [ -70.6649926, -33.4552486 ], [ -70.6649761, -33.4564122 ], [ -70.664939, -33.4571251 ], [ -70.6640176, -33.4570473 ], [ -70.6625042, -33.4569226 ], [ -70.6609847, -33.4567838 ], [ -70.6604057, -33.456718 ], [ -70.6596453, -33.4566435 ], [ -70.6598605, -33.4554046 ], [ -70.6600793, -33.4542735 ], [ -70.6603033, -33.4531382 ], [ -70.6614754, -33.453375 ], [ -70.6616613, -33.4521804 ], [ -70.6618521, -33.4509499 ], [ -70.6626272, -33.4511335 ], [ -70.6627387, -33.4504086 ], [ -70.6626127, -33.4504027 ], [ -70.6626346, -33.4502068 ], [ -70.6627628, -33.4502122 ], [ -70.6628091, -33.4499034 ], [ -70.6646728, -33.4502839 ] ] ] } },
{ "type": "Feature", "properties": { "Id": 48, "Codigo_SII": "EMM043", "UF_m2": "30.04", "Rango": "1-49", "UFm2_2018": "22.5", "Territorio": "CentroPoniente", "Barrio": null, "Comparativ": "Sube" }, "geometry": { "type": "Polygon", "coordinates": [ [ [ -70.6618521, -33.4509499 ], [ -70.6607537, -33.4507026 ], [ -70.6596512, -33.4504767 ], [ -70.6593158, -33.4504176 ], [ -70.6596332, -33.4492672 ], [ -70.6597734, -33.4492971 ], [ -70.6599167, -33.4493122 ], [ -70.6609867, -33.4495379 ], [ -70.6620391, -33.449747 ], [ -70.6628091, -33.4499034 ], [ -70.6627628, -33.4502122 ], [ -70.6626346, -33.4502068 ], [ -70.6626127, -33.4504027 ], [ -70.6627387, -33.4504086 ], [ -70.6626272, -33.4511335 ], [ -70.6618521, -33.4509499 ] ] ] } },
{ "type": "Feature", "properties": { "Id": 49, "Codigo_SII": "XMM048", "UF_m2": "30.09", "Rango": "1-49", "UFm2_2018": "31.12", "Territorio": "CentroPoniente", "Barrio": null, "Comparativ": "Baja" }, "geometry": { "type": "Polygon", "coordinates": [ [ [ -70.6618521, -33.4509499 ], [ -70.6616613, -33.4521804 ], [ -70.6614754, -33.453375 ], [ -70.6603033, -33.4531382 ], [ -70.6598605, -33.4554046 ], [ -70.6596453, -33.4566435 ], [ -70.6577943, -33.4564809 ], [ -70.658191, -33.4550873 ], [ -70.6585329, -33.4542985 ], [ -70.6591653, -33.4520061 ], [ -70.6588874, -33.45197 ], [ -70.6593158, -33.4504176 ], [ -70.6618521, -33.4509499 ] ] ] } },
{ "type": "Feature", "properties": { "Id": 50, "Codigo_SII": "CMM006", "UF_m2": "34.95", "Rango": "1-49", "UFm2_2018": "30.58", "Territorio": "CentroOriente", "Barrio": null, "Comparativ": "Sube" }, "geometry": { "type": "Polygon", "coordinates": [ [ [ -70.6324698, -33.4516452 ], [ -70.6319209, -33.453497 ], [ -70.6312986, -33.4557017 ], [ -70.6312241, -33.4556906 ], [ -70.6299341, -33.4553895 ], [ -70.6309756, -33.4519131 ], [ -70.6324698, -33.4516452 ] ] ] } },
{ "type": "Feature", "properties": { "Id": 51, "Codigo_SII": "XBM009", "UF_m2": "33.7", "Rango": "1-49", "UFm2_2018": "17.45", "Territorio": "CentroOriente", "Barrio": null, "Comparativ": "Sube" }, "geometry": { "type": "Polygon", "coordinates": [ [ [ -70.6374582, -33.4546166 ], [ -70.6348874, -33.4540802 ], [ -70.6351649, -33.4528861 ], [ -70.6377269, -33.4534348 ], [ -70.6374582, -33.4546166 ] ] ] } },
{ "type": "Feature", "properties": { "Id": 52, "Codigo_SII": "CMM004", "UF_m2": "19.4", "Rango": "1-49", "UFm2_2018": "17.45", "Territorio": "CentroOriente", "Barrio": null, "Comparativ": "Sube" }, "geometry": { "type": "Polygon", "coordinates": [ [ [ -70.6319209, -33.453497 ], [ -70.6324698, -33.4516452 ], [ -70.6333724, -33.4516336 ], [ -70.6342673, -33.4516477 ], [ -70.6345709, -33.4515808 ], [ -70.6354504, -33.4517136 ], [ -70.635836, -33.4517625 ], [ -70.6369193, -33.4519529 ], [ -70.6380363, -33.4521361 ], [ -70.6384628, -33.4522621 ], [ -70.6403065, -33.452626 ], [ -70.6407565, -33.4527154 ], [ -70.6408705, -33.452729 ], [ -70.641881, -33.4529153 ], [ -70.6424274, -33.4530144 ], [ -70.6426775, -33.4530561 ], [ -70.6430663, -33.4531208 ], [ -70.6434907, -33.4531945 ], [ -70.6438923, -33.4532643 ], [ -70.6439773, -33.4532979 ], [ -70.6445447, -33.4533989 ], [ -70.6453147, -33.453537 ], [ -70.6459869, -33.4536639 ], [ -70.6464189, -33.4537454 ], [ -70.6465017, -33.4537125 ], [ -70.6470991, -33.4537979 ], [ -70.6473739, -33.4538371 ], [ -70.6475745, -33.4538661 ], [ -70.6478968, -33.4539174 ], [ -70.6482084, -33.4539669 ], [ -70.6483187, -33.4539599 ], [ -70.6484251, -33.453959 ], [ -70.6489322, -33.4539548 ], [ -70.6491721, -33.4539872 ], [ -70.6500371, -33.4541345 ], [ -70.6514684, -33.4543835 ], [ -70.6512871, -33.4556487 ], [ -70.6510696, -33.4571664 ], [ -70.6508517, -33.4586808 ], [ -70.6506948, -33.4597596 ], [ -70.6491259, -33.4595821 ], [ -70.6492801, -33.4586791 ], [ -70.6495809, -33.4569066 ], [ -70.6487327, -33.4567646 ], [ -70.6489581, -33.4553728 ], [ -70.6480803, -33.4552131 ], [ -70.6477809, -33.4566059 ], [ -70.647681, -33.4565712 ], [ -70.6468876, -33.4564284 ], [ -70.6472766, -33.4550434 ], [ -70.6462753, -33.4548634 ], [ -70.6438173, -33.4544215 ], [ -70.6436257, -33.4557785 ], [ -70.6425943, -33.4555903 ], [ -70.6428507, -33.4542422 ], [ -70.6419896, -33.4540928 ], [ -70.6416528, -33.4554039 ], [ -70.6401732, -33.4551186 ], [ -70.6374582, -33.4546166 ], [ -70.6377269, -33.4534348 ], [ -70.6351649, -33.4528861 ], [ -70.6341822, -33.4526917 ], [ -70.6338773, -33.453859 ], [ -70.6319209, -33.453497 ] ] ] } },
{ "type": "Feature", "properties": { "Id": 53, "Codigo_SII": "XBM009", "UF_m2": "33.7", "Rango": "1-49", "UFm2_2018": "11.93", "Territorio": "CentroOriente", "Barrio": null, "Comparativ": "Sube" }, "geometry": { "type": "Polygon", "coordinates": [ [ [ -70.6491259, -33.4595821 ], [ -70.6472686, -33.4591739 ], [ -70.6462036, -33.4589374 ], [ -70.6453218, -33.4587706 ], [ -70.6408924, -33.4578278 ], [ -70.6395282, -33.4575429 ], [ -70.6369446, -33.457011 ], [ -70.6358159, -33.45675 ], [ -70.634325, -33.4564504 ], [ -70.6332748, -33.4562207 ], [ -70.6321344, -33.4559923 ], [ -70.6312885, -33.455796 ], [ -70.6319209, -33.453497 ], [ -70.6338773, -33.453859 ], [ -70.6341822, -33.4526917 ], [ -70.6351649, -33.4528861 ], [ -70.6348874, -33.4540802 ], [ -70.6345733, -33.4554294 ], [ -70.6360461, -33.4557513 ], [ -70.6363623, -33.4543913 ], [ -70.6374582, -33.4546166 ], [ -70.6383818, -33.4547807 ], [ -70.6400076, -33.455088 ], [ -70.6416528, -33.4554039 ], [ -70.6419896, -33.4540928 ], [ -70.6428507, -33.4542422 ], [ -70.6425943, -33.4555903 ], [ -70.6436257, -33.4557785 ], [ -70.6438173, -33.4544215 ], [ -70.6462753, -33.4548634 ], [ -70.6472766, -33.4550434 ], [ -70.6468876, -33.4564284 ], [ -70.6477809, -33.4566059 ], [ -70.6480803, -33.4552131 ], [ -70.6489222, -33.4553663 ], [ -70.6487327, -33.4567646 ], [ -70.6495809, -33.4569066 ], [ -70.6491259, -33.4595821 ] ] ] } },
{ "type": "Feature", "properties": { "Id": 54, "Codigo_SII": "XBM003", "UF_m2": "14.19", "Rango": "1-49", "UFm2_2018": "13.63", "Territorio": "CentroOriente", "Barrio": null, "Comparativ": "Sube" }, "geometry": { "type": "Polygon", "coordinates": [ [ [ -70.6557658, -33.4562457 ], [ -70.6556103, -33.4579355 ], [ -70.656514, -33.4580777 ], [ -70.6567592, -33.458129 ], [ -70.6568139, -33.4584429 ], [ -70.6568996, -33.4589347 ], [ -70.6569937, -33.4594319 ], [ -70.657108, -33.4600955 ], [ -70.6571246, -33.4601867 ], [ -70.6571143, -33.4606195 ], [ -70.6567002, -33.4605551 ], [ -70.6562862, -33.4604114 ], [ -70.6560686, -33.4603558 ], [ -70.6554279, -33.460232 ], [ -70.654192, -33.4601048 ], [ -70.6525432, -33.4598881 ], [ -70.6507114, -33.4596841 ], [ -70.6508517, -33.4586808 ], [ -70.6510696, -33.4571664 ], [ -70.6512871, -33.4556487 ], [ -70.6514684, -33.4543835 ], [ -70.6525255, -33.4544054 ], [ -70.6540648, -33.4544383 ], [ -70.6549211, -33.4544521 ], [ -70.6555032, -33.4544774 ], [ -70.6559035, -33.4544858 ], [ -70.6566071, -33.4545145 ], [ -70.6576511, -33.4545546 ], [ -70.6575561, -33.4547394 ], [ -70.6572912, -33.4550987 ], [ -70.6570794, -33.4553858 ], [ -70.6568636, -33.4557164 ], [ -70.6567865, -33.4558653 ], [ -70.6566863, -33.4563805 ], [ -70.6557658, -33.4562457 ] ] ] } },
{ "type": "Feature", "properties": { "Id": 55, "Codigo_SII": "HMB008", "UF_m2": "13.56", "Rango": "1-49", "UFm2_2018": "7.21", "Territorio": "CentroOriente", "Barrio": null, "Comparativ": "Sube" }, "geometry": { "type": "Polygon", "coordinates": [ [ [ -70.6363623, -33.4543913 ], [ -70.6360461, -33.4557513 ], [ -70.6345733, -33.4554294 ], [ -70.6348874, -33.4540802 ], [ -70.6363623, -33.4543913 ] ] ] } },
{ "type": "Feature", "properties": { "Id": 56, "Codigo_SII": "CMM029", "UF_m2": "28.55", "Rango": "1-49", "UFm2_2018": "18.39", "Territorio": "SurOriente", "Barrio": null, "Comparativ": "Sube" }, "geometry": { "type": "Polygon", "coordinates": [ [ [ -70.6312885, -33.455796 ], [ -70.6285787, -33.4651294 ], [ -70.627862, -33.4675247 ], [ -70.6275617, -33.4685598 ], [ -70.6268035, -33.4711846 ], [ -70.6267075, -33.4715121 ], [ -70.6261305, -33.4710624 ], [ -70.6258637, -33.4707721 ], [ -70.6254513, -33.4701249 ], [ -70.6251078, -33.4696103 ], [ -70.6252696, -33.4694374 ], [ -70.6255976, -33.4692355 ], [ -70.6257091, -33.4691416 ], [ -70.6258526, -33.4690207 ], [ -70.6259583, -33.4688365 ], [ -70.6260303, -33.4687491 ], [ -70.6260948, -33.4686829 ], [ -70.6262034, -33.4684562 ], [ -70.6262617, -33.4682166 ], [ -70.6264593, -33.467391 ], [ -70.6270175, -33.4653282 ], [ -70.6291458, -33.4576792 ], [ -70.6297486, -33.455534 ], [ -70.6297937, -33.4553752 ], [ -70.6299341, -33.4553895 ], [ -70.631191, -33.4556807 ], [ -70.6312986, -33.4557017 ], [ -70.6312885, -33.455796 ] ] ] } },
{ "type": "Feature", "properties": { "Id": 58, "Codigo_SII": "EMB002", "UF_m2": "14.85", "Rango": "1-49", "UFm2_2018": "14.85", "Territorio": "SurPoniente", "Barrio": null, "Comparativ": "Igual" }, "geometry": { "type": "Polygon", "coordinates": [ [ [ -70.664939, -33.4571251 ], [ -70.6649705, -33.4586238 ], [ -70.663607, -33.4585322 ], [ -70.6603047, -33.4583154 ], [ -70.6570645, -33.4580655 ], [ -70.6567592, -33.458129 ], [ -70.6556103, -33.4579355 ], [ -70.6557658, -33.4562457 ], [ -70.6566863, -33.4563805 ], [ -70.6567865, -33.4558653 ], [ -70.6570794, -33.4553858 ], [ -70.6576511, -33.4545546 ], [ -70.6578434, -33.4542133 ], [ -70.6585329, -33.4542985 ], [ -70.658191, -33.4550873 ], [ -70.6577943, -33.4564809 ], [ -70.6596453, -33.4566435 ], [ -70.664939, -33.4571251 ] ] ] } },
{ "type": "Feature", "properties": { "Id": 57, "Codigo_SII": "XMM017", "UF_m2": "15.27", "Rango": "1-49", "UFm2_2018": "11.66", "Territorio": "SurOriente", "Barrio": null, "Comparativ": "Sube" }, "geometry": { "type": "Polygon", "coordinates": [ [ [ -70.6319921, -33.4735084 ], [ -70.6305666, -33.4730694 ], [ -70.6298131, -33.4727939 ], [ -70.628391, -33.4722398 ], [ -70.6267077, -33.4715122 ], [ -70.6268035, -33.4711846 ], [ -70.6275617, -33.4685598 ], [ -70.6285787, -33.4651294 ], [ -70.6296211, -33.4615413 ], [ -70.630368, -33.4590006 ], [ -70.6312885, -33.455796 ], [ -70.6321344, -33.4559923 ], [ -70.6332748, -33.4562207 ], [ -70.634325, -33.4564504 ], [ -70.6358159, -33.45675 ], [ -70.6369446, -33.457011 ], [ -70.6379019, -33.4572081 ], [ -70.6378675, -33.4572964 ], [ -70.6377644, -33.4576642 ], [ -70.6368396, -33.4574562 ], [ -70.6367751, -33.4577298 ], [ -70.6362368, -33.4576442 ], [ -70.6362915, -33.457459 ], [ -70.635688, -33.4573223 ], [ -70.6357489, -33.4571114 ], [ -70.6356598, -33.4570907 ], [ -70.6354561, -33.4570427 ], [ -70.6354193, -33.4571684 ], [ -70.6351225, -33.4570985 ], [ -70.634798, -33.4582606 ], [ -70.6344994, -33.4582261 ], [ -70.6346304, -33.4577932 ], [ -70.6342166, -33.4577385 ], [ -70.6336343, -33.4575809 ], [ -70.6336636, -33.457472 ], [ -70.6330442, -33.4573456 ], [ -70.6325005, -33.4593963 ], [ -70.6331239, -33.4595234 ], [ -70.6325998, -33.4614587 ], [ -70.6319763, -33.461345 ], [ -70.6321534, -33.4606815 ], [ -70.631512, -33.4605457 ], [ -70.6309715, -33.4624702 ], [ -70.6316388, -33.4626092 ], [ -70.6313815, -33.4635775 ], [ -70.6305975, -33.4665112 ], [ -70.629915, -33.4690438 ], [ -70.6311152, -33.4692705 ], [ -70.6307026, -33.4708281 ], [ -70.6294911, -33.4706006 ], [ -70.629208, -33.4716233 ], [ -70.630429, -33.4718582 ], [ -70.6310274, -33.4719662 ], [ -70.6316162, -33.4720786 ], [ -70.6322911, -33.472205 ], [ -70.6319921, -33.4735084 ] ] ] } },
{ "type": "Feature", "properties": { "Id": 60, "Codigo_SII": "EMM015", "UF_m2": "19.93", "Rango": "1-49", "UFm2_2018": "9.48", "Territorio": "SurOriente", "Barrio": null, "Comparativ": "Sube" }, "geometry": { "type": "Polygon", "coordinates": [ [ [ -70.6417332, -33.4620245 ], [ -70.6408734, -33.4619432 ], [ -70.6399666, -33.4618552 ], [ -70.6404949, -33.4599131 ], [ -70.6430072, -33.4604848 ], [ -70.6431302, -33.4594909 ], [ -70.6418676, -33.4592682 ], [ -70.640258, -33.4589255 ], [ -70.6401466, -33.4589899 ], [ -70.6391983, -33.4587823 ], [ -70.6387087, -33.4606581 ], [ -70.6370496, -33.4602562 ], [ -70.6374662, -33.4587287 ], [ -70.6365834, -33.4585426 ], [ -70.6368396, -33.4574562 ], [ -70.6377644, -33.4576642 ], [ -70.6379019, -33.4572081 ], [ -70.6395282, -33.4575429 ], [ -70.6420996, -33.4580833 ], [ -70.6432686, -33.4583511 ], [ -70.6447844, -33.4586562 ], [ -70.6447653, -33.4587661 ], [ -70.6445562, -33.4596241 ], [ -70.6451222, -33.4598249 ], [ -70.6449961, -33.4608554 ], [ -70.6448895, -33.461761 ], [ -70.6439755, -33.4615173 ], [ -70.6439088, -33.4622035 ], [ -70.643396, -33.4621653 ], [ -70.6428159, -33.4621098 ], [ -70.6417332, -33.4620245 ] ] ] } },
{ "type": "Feature", "properties": { "Id": 59, "Codigo_SII": "HBM019", "UF_m2": "14.72", "Rango": "1-49", "UFm2_2018": "11.26", "Territorio": "SurOriente", "Barrio": null, "Comparativ": "Sube" }, "geometry": { "type": "Polygon", "coordinates": [ [ [ -70.6419731, -33.4764519 ], [ -70.641052, -33.4763642 ], [ -70.6401691, -33.4762799 ], [ -70.6396006, -33.4761563 ], [ -70.638861, -33.4759954 ], [ -70.6384261, -33.4758377 ], [ -70.6362259, -33.4751051 ], [ -70.6319766, -33.4735342 ], [ -70.6322911, -33.472205 ], [ -70.629208, -33.4716233 ], [ -70.6294911, -33.4706006 ], [ -70.6307026, -33.4708281 ], [ -70.6311152, -33.4692705 ], [ -70.629915, -33.4690438 ], [ -70.6308988, -33.4653906 ], [ -70.6316388, -33.4626092 ], [ -70.6309715, -33.4624702 ], [ -70.631512, -33.4605457 ], [ -70.6321534, -33.4606815 ], [ -70.6319763, -33.461345 ], [ -70.6325998, -33.4614587 ], [ -70.6331239, -33.4595234 ], [ -70.6325005, -33.4593963 ], [ -70.6328631, -33.458012 ], [ -70.6330442, -33.4573456 ], [ -70.6336636, -33.457472 ], [ -70.6336343, -33.4575809 ], [ -70.6342166, -33.4577385 ], [ -70.6346304, -33.4577932 ], [ -70.6344994, -33.4582261 ], [ -70.634798, -33.4582606 ], [ -70.6351225, -33.4570985 ], [ -70.6354193, -33.4571684 ], [ -70.6354561, -33.4570427 ], [ -70.6357489, -33.4571114 ], [ -70.635688, -33.4573223 ], [ -70.6362915, -33.457459 ], [ -70.6362368, -33.4576442 ], [ -70.6367751, -33.4577298 ], [ -70.6365834, -33.4585426 ], [ -70.6374662, -33.4587287 ], [ -70.6370496, -33.4602562 ], [ -70.6371783, -33.4602874 ], [ -70.6387087, -33.4606581 ], [ -70.6391983, -33.4587823 ], [ -70.6401466, -33.4589899 ], [ -70.640258, -33.4589255 ], [ -70.6418676, -33.4592682 ], [ -70.6431302, -33.4594909 ], [ -70.6430729, -33.4599602 ], [ -70.6430072, -33.4604848 ], [ -70.6416782, -33.460186 ], [ -70.6404949, -33.4599131 ], [ -70.6402086, -33.4609549 ], [ -70.6399666, -33.4618552 ], [ -70.6401207, -33.4618672 ], [ -70.6404099, -33.4618956 ], [ -70.6407403, -33.4619299 ], [ -70.6410594, -33.4619617 ], [ -70.6413755, -33.4619899 ], [ -70.6417332, -33.4620245 ], [ -70.6415402, -33.4641025 ], [ -70.6425625, -33.4642325 ], [ -70.6424484, -33.465404 ], [ -70.6414379, -33.4652033 ], [ -70.6400874, -33.4649988 ], [ -70.639405, -33.4648875 ], [ -70.6391445, -33.4663065 ], [ -70.6383003, -33.4662188 ], [ -70.6379874, -33.4673698 ], [ -70.637648, -33.4686172 ], [ -70.6366225, -33.4684955 ], [ -70.6362484, -33.4698983 ], [ -70.6358699, -33.4713372 ], [ -70.6355787, -33.4724503 ], [ -70.6353691, -33.4732647 ], [ -70.6371457, -33.4734306 ], [ -70.6368093, -33.4750095 ], [ -70.6420086, -33.4752889 ], [ -70.6419731, -33.4764519 ] ] ] } },
{ "type": "Feature", "properties": { "Id": 60, "Codigo_SII": "CBM014", "UF_m2": "17.45", "Rango": "1-49", "UFm2_2018": "9.66", "Territorio": "SurOriente", "Barrio": null, "Comparativ": "Sube" }, "geometry": { "type": "Polygon", "coordinates": [ [ [ -70.6447653, -33.4587661 ], [ -70.6447844, -33.4586562 ], [ -70.646548, -33.4590138 ], [ -70.6491259, -33.4595821 ], [ -70.6506948, -33.4597596 ], [ -70.6507114, -33.4596841 ], [ -70.6531804, -33.4599615 ], [ -70.6554279, -33.460232 ], [ -70.6553302, -33.4613614 ], [ -70.6542215, -33.4613366 ], [ -70.6532317, -33.4613005 ], [ -70.6523555, -33.4612775 ], [ -70.6514607, -33.4612484 ], [ -70.6505292, -33.4612172 ], [ -70.6490279, -33.4611524 ], [ -70.6471739, -33.4610399 ], [ -70.6460766, -33.4609427 ], [ -70.6449961, -33.4608554 ], [ -70.6451222, -33.4598249 ], [ -70.6445562, -33.4596241 ], [ -70.6447653, -33.4587661 ] ] ] } },
{ "type": "Feature", "properties": { "Id": 61, "Codigo_SII": "XMM010", "UF_m2": "18.89", "Rango": "1-49", "UFm2_2018": "10.48", "Territorio": "SurPoniente", "Barrio": null, "Comparativ": "Sube" }, "geometry": { "type": "Polygon", "coordinates": [ [ [ -70.6649705, -33.4586238 ], [ -70.6649733, -33.4609935 ], [ -70.6648919, -33.4692913 ], [ -70.6648829, -33.4705089 ], [ -70.6648644, -33.4717897 ], [ -70.6648657, -33.4736247 ], [ -70.6633042, -33.4735362 ], [ -70.6633593, -33.4720584 ], [ -70.6608876, -33.4719213 ], [ -70.6609121, -33.471711 ], [ -70.6608152, -33.4717075 ], [ -70.6609496, -33.4702641 ], [ -70.6634487, -33.470456 ], [ -70.6634423, -33.4700142 ], [ -70.6635612, -33.467226 ], [ -70.6636032, -33.4664318 ], [ -70.6636386, -33.4653672 ], [ -70.6637295, -33.4634956 ], [ -70.6637917, -33.4622719 ], [ -70.6638321, -33.4609547 ], [ -70.6638325, -33.4608572 ], [ -70.6638432, -33.4585431 ], [ -70.6649705, -33.4586238 ] ] ] } },
{ "type": "Feature", "properties": { "Id": 62, "Codigo_SII": "CBM021", "UF_m2": "15.86", "Rango": "1-49", "UFm2_2018": "12.37", "Territorio": "SurOriente", "Barrio": null, "Comparativ": "Sube" }, "geometry": { "type": "Polygon", "coordinates": [ [ [ -70.6481826, -33.4764958 ], [ -70.6421054, -33.4762763 ], [ -70.6419731, -33.4764519 ], [ -70.6420086, -33.4752889 ], [ -70.6405413, -33.475205 ], [ -70.6390363, -33.4751291 ], [ -70.6391784, -33.4736021 ], [ -70.6406464, -33.473736 ], [ -70.6420509, -33.4738527 ], [ -70.6420238, -33.4746621 ], [ -70.642823, -33.4746249 ], [ -70.64278, -33.4753359 ], [ -70.6436504, -33.4753963 ], [ -70.6438023, -33.4730265 ], [ -70.6466376, -33.4731876 ], [ -70.646603, -33.4738055 ], [ -70.6483032, -33.473866 ], [ -70.6482919, -33.4744552 ], [ -70.6482772, -33.4756639 ], [ -70.6481826, -33.4764958 ] ] ] } },
{ "type": "Feature", "properties": { "Id": 65, "Codigo_SII": "TAM024", "UF_m2": "13.04", "Rango": "1-49", "UFm2_2018": "10.66", "Territorio": "SurOriente", "Barrio": null, "Comparativ": "Sube" }, "geometry": { "type": "Polygon", "coordinates": [ [ [ -70.6492452, -33.4756781 ], [ -70.6496671, -33.4756976 ], [ -70.6494928, -33.4766611 ], [ -70.6491234, -33.4767002 ], [ -70.6492452, -33.4756781 ] ] ] } },
{ "type": "Feature", "properties": { "Id": 67, "Codigo_SII": "EMM026CMM050", "UF_m2": "43.88", "Rango": "1-49", "UFm2_2018": "21.60", "Territorio": "SurPoniente", "Barrio": null, "Comparativ": "Sube" }, "geometry": { "type": "Polygon", "coordinates": [ [ [ -70.6648657, -33.4736247 ], [ -70.6648412, -33.4744036 ], [ -70.664819, -33.4751759 ], [ -70.6648126, -33.4757099 ], [ -70.6647517, -33.4757321 ], [ -70.6646556, -33.4757383 ], [ -70.6640716, -33.4757332 ], [ -70.663034, -33.4757227 ], [ -70.6616272, -33.4757062 ], [ -70.6605087, -33.4757882 ], [ -70.6587031, -33.4759685 ], [ -70.6577706, -33.4760528 ], [ -70.6571491, -33.4761055 ], [ -70.6567057, -33.4761642 ], [ -70.6561065, -33.4762432 ], [ -70.6556982, -33.476299 ], [ -70.6550653, -33.4763456 ], [ -70.6549698, -33.4761393 ], [ -70.6548634, -33.4759198 ], [ -70.6547584, -33.475623 ], [ -70.6546701, -33.4751846 ], [ -70.654656, -33.4748283 ], [ -70.6547165, -33.4744172 ], [ -70.6548773, -33.4739512 ], [ -70.6549443, -33.4738223 ], [ -70.6552348, -33.4734022 ], [ -70.6554641, -33.4730604 ], [ -70.6559875, -33.4731171 ], [ -70.6570382, -33.4731587 ], [ -70.6581459, -33.4732273 ], [ -70.659453, -33.4733125 ], [ -70.6612849, -33.4734099 ], [ -70.6633042, -33.4735362 ], [ -70.6648657, -33.4736247 ] ] ] } },
{ "type": "Feature", "properties": { "Id": 63, "Codigo_SII": "IMB030", "UF_m2": "10.97", "Rango": "1-49", "UFm2_2018": "12.15", "Territorio": "SurOriente", "Barrio": null, "Comparativ": "Baja" }, "geometry": { "type": "Polygon", "coordinates": [ [ [ -70.6547297, -33.4764989 ], [ -70.6494928, -33.4766611 ], [ -70.6496671, -33.4756976 ], [ -70.6492452, -33.4756781 ], [ -70.6494006, -33.4745216 ], [ -70.6495581, -33.4733562 ], [ -70.6506319, -33.473414 ], [ -70.6505569, -33.4745694 ], [ -70.6504576, -33.475734 ], [ -70.6519961, -33.4758232 ], [ -70.6520934, -33.4746571 ], [ -70.654158, -33.474732 ], [ -70.6542637, -33.4747463 ], [ -70.6543002, -33.4752454 ], [ -70.6543989, -33.4756977 ], [ -70.6547297, -33.4764989 ] ] ] } },
{ "type": "Feature", "properties": { "Id": 67, "Codigo_SII": "HBM025", "UF_m2": "18.89", "Rango": "1-49", "UFm2_2018": "9.08", "Territorio": "SurPoniente", "Barrio": null, "Comparativ": "Sube" }, "geometry": { "type": "Polygon", "coordinates": [ [ [ -70.6566234, -33.4701155 ], [ -70.6566252, -33.4700567 ], [ -70.6571994, -33.4700737 ], [ -70.6596466, -33.4702094 ], [ -70.6595454, -33.4717258 ], [ -70.6582872, -33.4716615 ], [ -70.6581459, -33.4732273 ], [ -70.6570382, -33.4731587 ], [ -70.6559875, -33.4731171 ], [ -70.6554641, -33.4730604 ], [ -70.6564759, -33.4715661 ], [ -70.6565715, -33.4711631 ], [ -70.656612, -33.4705822 ], [ -70.6566234, -33.4701155 ] ] ] } },
{ "type": "Feature", "properties": { "Id": 68, "Codigo_SII": "XMM018", "UF_m2": "18.89", "Rango": "1-49", "UFm2_2018": "10.48", "Territorio": "SurPoniente", "Barrio": null, "Comparativ": "Sube" }, "geometry": { "type": "Polygon", "coordinates": [ [ [ -70.6581459, -33.4732273 ], [ -70.6582872, -33.4716615 ], [ -70.6595454, -33.4717258 ], [ -70.6596466, -33.4702094 ], [ -70.6609496, -33.4702641 ], [ -70.6609405, -33.470514 ], [ -70.6608927, -33.471115 ], [ -70.6608152, -33.4717075 ], [ -70.6609121, -33.471711 ], [ -70.6608876, -33.4719213 ], [ -70.6633593, -33.4720584 ], [ -70.6633042, -33.4735362 ], [ -70.6612849, -33.4734099 ], [ -70.659453, -33.4733125 ], [ -70.6581459, -33.4732273 ] ] ] } },
{ "type": "Feature", "properties": { "Id": 69, "Codigo_SII": "TAM022", "UF_m2": "17.76", "Rango": "1-49", "UFm2_2018": "15.52", "Territorio": "SurOriente", "Barrio": null, "Comparativ": "Sube" }, "geometry": { "type": "Polygon", "coordinates": [ [ [ -70.6566234, -33.4701155 ], [ -70.656612, -33.4705822 ], [ -70.6559583, -33.4705393 ], [ -70.6559703, -33.4703815 ], [ -70.6559964, -33.4700304 ], [ -70.656022, -33.469329 ], [ -70.6560307, -33.4690539 ], [ -70.656686, -33.4690724 ], [ -70.6566234, -33.4701155 ] ] ] } },
{ "type": "Feature", "properties": { "Id": 66, "Codigo_SII": "XBM020", "UF_m2": "13.04", "Rango": "1-49", "UFm2_2018": "10.71", "Territorio": "SurOriente", "Barrio": null, "Comparativ": "Sube" }, "geometry": { "type": "Polygon", "coordinates": [ [ [ -70.6491234, -33.4767002 ], [ -70.6481485, -33.4767306 ], [ -70.6481826, -33.4764958 ], [ -70.6482796, -33.4754621 ], [ -70.6483032, -33.473866 ], [ -70.646603, -33.4738055 ], [ -70.6466376, -33.4731876 ], [ -70.6438023, -33.4730265 ], [ -70.6436504, -33.4753963 ], [ -70.64278, -33.4753359 ], [ -70.642823, -33.4746249 ], [ -70.6420238, -33.4746621 ], [ -70.6420509, -33.4738527 ], [ -70.6391784, -33.4736021 ], [ -70.6390363, -33.4751291 ], [ -70.6368093, -33.4750095 ], [ -70.6371318, -33.4734939 ], [ -70.6353691, -33.4732647 ], [ -70.6366225, -33.4684955 ], [ -70.637648, -33.4686172 ], [ -70.6383003, -33.4662188 ], [ -70.6391445, -33.4663065 ], [ -70.639405, -33.4648875 ], [ -70.6424484, -33.465404 ], [ -70.6425625, -33.4642325 ], [ -70.6415402, -33.4641025 ], [ -70.6417332, -33.4620245 ], [ -70.6439088, -33.4622035 ], [ -70.6439755, -33.4615173 ], [ -70.6448895, -33.461761 ], [ -70.6449961, -33.4608554 ], [ -70.6471739, -33.4610399 ], [ -70.6490279, -33.4611524 ], [ -70.6505292, -33.4612172 ], [ -70.6514607, -33.4612484 ], [ -70.6523555, -33.4612775 ], [ -70.6532317, -33.4613005 ], [ -70.6542215, -33.4613366 ], [ -70.6553302, -33.4613614 ], [ -70.6552195, -33.4626663 ], [ -70.6550764, -33.4644267 ], [ -70.6548789, -33.46672 ], [ -70.6546734, -33.4692659 ], [ -70.6546219, -33.4698978 ], [ -70.6559978, -33.4699944 ], [ -70.6559737, -33.4703036 ], [ -70.6559583, -33.4705393 ], [ -70.656612, -33.4705822 ], [ -70.6565946, -33.4709276 ], [ -70.656566, -33.4712191 ], [ -70.6564759, -33.4715661 ], [ -70.6562125, -33.4719614 ], [ -70.6559292, -33.4723851 ], [ -70.6555074, -33.4729975 ], [ -70.6553787, -33.4731844 ], [ -70.655075, -33.4736321 ], [ -70.6548951, -33.4739068 ], [ -70.6547165, -33.4744172 ], [ -70.654656, -33.4748283 ], [ -70.6546701, -33.4751846 ], [ -70.6547614, -33.4756315 ], [ -70.6548634, -33.4759198 ], [ -70.6550653, -33.4763456 ], [ -70.6547297, -33.4764989 ], [ -70.6543989, -33.4756977 ], [ -70.6543002, -33.4752454 ], [ -70.6542637, -33.4747463 ], [ -70.654158, -33.474732 ], [ -70.6520934, -33.4746571 ], [ -70.6519961, -33.4758232 ], [ -70.6504576, -33.475734 ], [ -70.6506319, -33.473414 ], [ -70.6495581, -33.4733562 ], [ -70.6495283, -33.4735764 ], [ -70.6491234, -33.4767002 ] ] ] } },
{ "type": "Feature", "properties": { "Id": 71, "Codigo_SII": "TAM012", "UF_m2": "17.76", "Rango": "1-49", "UFm2_2018": "24.79", "Territorio": "SurOriente", "Barrio": null, "Comparativ": "Baja" }, "geometry": { "type": "Polygon", "coordinates": [ [ [ -70.6570813, -33.461147 ], [ -70.656646, -33.4611466 ], [ -70.6567002, -33.4605551 ], [ -70.6571143, -33.4606195 ], [ -70.6570813, -33.461147 ] ] ] } },
{ "type": "Feature", "properties": { "Id": 72, "Codigo_SII": "HMM013", "UF_m2": "17.76", "Rango": "1-49", "UFm2_2018": "12.46", "Territorio": "SurOriente", "Barrio": null, "Comparativ": "Sube" }, "geometry": { "type": "Polygon", "coordinates": [ [ [ -70.6570813, -33.461147 ], [ -70.6568282, -33.4653417 ], [ -70.656686, -33.4690724 ], [ -70.6560307, -33.4690539 ], [ -70.6559964, -33.4700304 ], [ -70.6546219, -33.4698978 ], [ -70.6546734, -33.4692659 ], [ -70.6547353, -33.4685075 ], [ -70.6548789, -33.46672 ], [ -70.6550056, -33.4652303 ], [ -70.6553302, -33.4613614 ], [ -70.6554279, -33.460232 ], [ -70.6557255, -33.4602895 ], [ -70.6560686, -33.4603558 ], [ -70.6562862, -33.4604114 ], [ -70.6567002, -33.4605551 ], [ -70.656646, -33.4611466 ], [ -70.6570813, -33.461147 ] ] ] } },
{ "type": "Feature", "properties": { "Id": 73, "Codigo_SII": "IBB001", "UF_m2": "4.89", "Rango": "1-49", "UFm2_2018": "4.37", "Territorio": "SurPoniente", "Barrio": null, "Comparativ": "Sube" }, "geometry": { "type": "Polygon", "coordinates": [ [ [ -70.6805998, -33.4768798 ], [ -70.6806991, -33.4783563 ], [ -70.6731931, -33.4784445 ], [ -70.6715858, -33.4784683 ], [ -70.6715777, -33.4767684 ], [ -70.6731183, -33.4767288 ], [ -70.6758482, -33.4768814 ], [ -70.6805998, -33.4768798 ] ] ] } },
{ "type": "Feature", "properties": { "Id": 74, "Codigo_SII": "IMB003", "UF_m2": "8.17", "Rango": "1-49", "UFm2_2018": "4.89", "Territorio": "SurPoniente", "Barrio": null, "Comparativ": "Sube" }, "geometry": { "type": "Polygon", "coordinates": [ [ [ -70.6715931, -33.4758343 ], [ -70.6715918, -33.4763444 ], [ -70.6711856, -33.476382 ], [ -70.6707103, -33.4765388 ], [ -70.6701052, -33.4766114 ], [ -70.6692259, -33.4766375 ], [ -70.6678582, -33.4765844 ], [ -70.6666947, -33.4764855 ], [ -70.6660006, -33.4763731 ], [ -70.6656659, -33.4762917 ], [ -70.6652441, -33.4761184 ], [ -70.6647745, -33.4760696 ], [ -70.6648126, -33.4757099 ], [ -70.6648402, -33.4744396 ], [ -70.6648534, -33.4740137 ], [ -70.6648657, -33.4736247 ], [ -70.6660453, -33.4723727 ], [ -70.6665395, -33.4718658 ], [ -70.6666736, -33.4718746 ], [ -70.6667935, -33.4720278 ], [ -70.6672808, -33.4724863 ], [ -70.6672804, -33.4725779 ], [ -70.6672862, -33.4728929 ], [ -70.6672736, -33.4736599 ], [ -70.6672885, -33.4738764 ], [ -70.6679115, -33.4739041 ], [ -70.6678539, -33.475771 ], [ -70.6715931, -33.4758343 ] ] ] } },
{ "type": "Feature", "properties": { "Id": 75, "Codigo_SII": "HBM004", "UF_m2": "13.81", "Rango": "1-49", "UFm2_2018": "7.03", "Territorio": "SurPoniente", "Barrio": null, "Comparativ": "Sube" }, "geometry": { "type": "Polygon", "coordinates": [ [ [ -70.6666736, -33.4718746 ], [ -70.6695786, -33.4719018 ], [ -70.6695753, -33.471948 ], [ -70.6695556, -33.4724815 ], [ -70.6696708, -33.4724764 ], [ -70.6696924, -33.4731433 ], [ -70.6693803, -33.473139 ], [ -70.669382, -33.473229 ], [ -70.6696998, -33.4732276 ], [ -70.6697445, -33.475803 ], [ -70.6678539, -33.475771 ], [ -70.6679115, -33.4739041 ], [ -70.6672885, -33.4738764 ], [ -70.6672239, -33.4737129 ], [ -70.6672328, -33.4725038 ], [ -70.6666736, -33.4718746 ] ] ] } },
{ "type": "Feature", "properties": { "Id": 76, "Codigo_SII": "HBB005", "UF_m2": "7.31", "Rango": "1-49", "UFm2_2018": "5.93", "Territorio": "SurPoniente", "Barrio": null, "Comparativ": "Sube" }, "geometry": { "type": "Polygon", "coordinates": [ [ [ -70.6697445, -33.475803 ], [ -70.6696998, -33.4732276 ], [ -70.669382, -33.473229 ], [ -70.6693803, -33.473139 ], [ -70.6696924, -33.4731433 ], [ -70.6696708, -33.4724764 ], [ -70.6695556, -33.4724815 ], [ -70.6695786, -33.4719018 ], [ -70.6665395, -33.4718658 ], [ -70.6648657, -33.4736247 ], [ -70.6648829, -33.4705089 ], [ -70.6668192, -33.4705441 ], [ -70.6674515, -33.4705555 ], [ -70.6677114, -33.4705881 ], [ -70.6679089, -33.4705584 ], [ -70.670244, -33.4705878 ], [ -70.6702435, -33.470536 ], [ -70.6702636, -33.4694084 ], [ -70.6716703, -33.4694165 ], [ -70.6716448, -33.4706073 ], [ -70.6729447, -33.4706267 ], [ -70.6729074, -33.4730142 ], [ -70.6728678, -33.4742676 ], [ -70.6728456, -33.4748903 ], [ -70.6728128, -33.4750924 ], [ -70.672477, -33.4755862 ], [ -70.6717127, -33.4759013 ], [ -70.6715931, -33.4758343 ], [ -70.6697445, -33.475803 ] ] ] } },
{ "type": "Feature", "properties": { "Id": 77, "Codigo_SII": "XBM039", "UF_m2": "10.84", "Rango": "1-49", "UFm2_2018": "4.86", "Territorio": "SurPoniente", "Barrio": null, "Comparativ": "Sube" }, "geometry": { "type": "Polygon", "coordinates": [ [ [ -70.6729447, -33.4706267 ], [ -70.672986, -33.4683436 ], [ -70.6742594, -33.4683625 ], [ -70.6755626, -33.468372 ], [ -70.6755775, -33.4671904 ], [ -70.676841, -33.4672003 ], [ -70.6773975, -33.4671658 ], [ -70.678209, -33.4673991 ], [ -70.6790093, -33.4674479 ], [ -70.6790676, -33.4686413 ], [ -70.6790958, -33.4691086 ], [ -70.6791326, -33.4693385 ], [ -70.6791814, -33.4695178 ], [ -70.6793235, -33.4697552 ], [ -70.6798454, -33.4705004 ], [ -70.6798593, -33.4706177 ], [ -70.6797867, -33.4706776 ], [ -70.6775727, -33.4706724 ], [ -70.6729447, -33.4706267 ] ] ] } },
{ "type": "Feature", "properties": { "Id": 78, "Codigo_SII": "XMM010", "UF_m2": "5.78", "Rango": "1-49", "UFm2_2018": "6.27", "Territorio": "SurPoniente", "Barrio": null, "Comparativ": "Baja" }, "geometry": { "type": "Polygon", "coordinates": [ [ [ -70.6789655, -33.4666701 ], [ -70.677023, -33.4665937 ], [ -70.6770361, -33.4659225 ], [ -70.6770117, -33.4655411 ], [ -70.6769938, -33.4652571 ], [ -70.676962, -33.4652349 ], [ -70.6769501, -33.4650721 ], [ -70.6769123, -33.4650192 ], [ -70.6769573, -33.4639305 ], [ -70.6769585, -33.4638732 ], [ -70.6769764, -33.4633201 ], [ -70.6763229, -33.4632574 ], [ -70.6767547, -33.4622345 ], [ -70.6767612, -33.4621768 ], [ -70.6777533, -33.4623351 ], [ -70.6777918, -33.4615319 ], [ -70.6778943, -33.4615341 ], [ -70.6778477, -33.4613308 ], [ -70.677835, -33.4612598 ], [ -70.6770008, -33.4610929 ], [ -70.6770538, -33.4608693 ], [ -70.6774221, -33.4609394 ], [ -70.6776294, -33.4600616 ], [ -70.6777453, -33.4600845 ], [ -70.67783, -33.4597799 ], [ -70.6778548, -33.4597766 ], [ -70.6778574, -33.4592501 ], [ -70.6775465, -33.4591827 ], [ -70.6776201, -33.4588678 ], [ -70.6782288, -33.4589117 ], [ -70.6784084, -33.4589285 ], [ -70.6785798, -33.4613002 ], [ -70.6789655, -33.4666701 ] ] ] } },
{ "type": "Feature", "properties": { "Id": 79, "Codigo_SII": "CMM040", "UF_m2": "5.43", "Rango": "1-49", "UFm2_2018": "7.26", "Territorio": "SurPoniente", "Barrio": null, "Comparativ": "Baja" }, "geometry": { "type": "Polygon", "coordinates": [ [ [ -70.6770008, -33.4610929 ], [ -70.677835, -33.4612598 ], [ -70.6778943, -33.4615341 ], [ -70.6777918, -33.4615319 ], [ -70.6777533, -33.4623351 ], [ -70.6767612, -33.4621768 ], [ -70.6770008, -33.4610929 ] ] ] } },
{ "type": "Feature", "properties": { "Id": 70, "Codigo_SII": "EMM011", "UF_m2": "14.35", "Rango": "1-49", "UFm2_2018": "13.42", "Territorio": "SurPoniente", "Barrio": null, "Comparativ": "Sube" }, "geometry": { "type": "Polygon", "coordinates": [ [ [ -70.6638432, -33.4585431 ], [ -70.6638321, -33.4609547 ], [ -70.6637917, -33.4622719 ], [ -70.6635919, -33.4666456 ], [ -70.6634663, -33.4694526 ], [ -70.6634487, -33.470456 ], [ -70.6609496, -33.4702641 ], [ -70.6596466, -33.4702094 ], [ -70.6566234, -33.4701155 ], [ -70.656686, -33.4690724 ], [ -70.6568429, -33.4649569 ], [ -70.6571143, -33.4606195 ], [ -70.657108, -33.4600955 ], [ -70.6567592, -33.458129 ], [ -70.6570645, -33.4580655 ], [ -70.6638432, -33.4585431 ] ] ] } },
{ "type": "Feature", "properties": { "Id": 80, "Codigo_SII": "EMB009", "UF_m2": "Sin valor $256381m2", "Rango": "1-49", "UFm2_2018": "8.17", "Territorio": "SurPoniente", "Barrio": null, "Comparativ": "SV" }, "geometry": { "type": "Polygon", "coordinates": [ [ [ -70.6721394, -33.45839 ], [ -70.6719269, -33.4601019 ], [ -70.6717826, -33.4612535 ], [ -70.6716323, -33.4623919 ], [ -70.6715207, -33.463514 ], [ -70.6715577, -33.4646745 ], [ -70.6715395, -33.4647925 ], [ -70.6715668, -33.4662165 ], [ -70.6716384, -33.4665311 ], [ -70.6714512, -33.4665926 ], [ -70.670946, -33.4671267 ], [ -70.6698188, -33.468318 ], [ -70.6688247, -33.4693748 ], [ -70.6677114, -33.4705881 ], [ -70.6674515, -33.4705555 ], [ -70.6648829, -33.4705089 ], [ -70.664891, -33.4695908 ], [ -70.6649361, -33.4643789 ], [ -70.6649645, -33.4615726 ], [ -70.6649705, -33.4586238 ], [ -70.664939, -33.4571251 ], [ -70.6721394, -33.45839 ] ] ] } },
{ "type": "Feature", "properties": { "Id": 81, "Codigo_SII": "HBM006", "UF_m2": "51.9", "Rango": "1-49", "UFm2_2018": "15.63", "Territorio": "SurPoniente", "Barrio": null, "Comparativ": "Sube" }, "geometry": { "type": "Polygon", "coordinates": [ [ [ -70.6693822, -33.4705837 ], [ -70.6679026, -33.4705593 ], [ -70.6677114, -33.4705881 ], [ -70.6688247, -33.4693748 ], [ -70.6696704, -33.4684758 ], [ -70.6699106, -33.4686612 ], [ -70.6693374, -33.4692692 ], [ -70.6693092, -33.4693215 ], [ -70.669424, -33.4693927 ], [ -70.6694097, -33.4697782 ], [ -70.6693822, -33.4705837 ] ] ] } },
{ "type": "Feature", "properties": { "Id": 82, "Codigo_SII": "HBM007", "UF_m2": "15.48", "Rango": "1-49", "UFm2_2018": "6.77", "Territorio": "SurPoniente", "Barrio": null, "Comparativ": "Sube" }, "geometry": { "type": "Polygon", "coordinates": [ [ [ -70.6693822, -33.4705837 ], [ -70.669424, -33.4693927 ], [ -70.6693092, -33.4693215 ], [ -70.6693374, -33.4692692 ], [ -70.6699106, -33.4686612 ], [ -70.6696704, -33.4684758 ], [ -70.670946, -33.4671267 ], [ -70.6714512, -33.4665926 ], [ -70.6716384, -33.4665311 ], [ -70.6715668, -33.4662165 ], [ -70.6715395, -33.464792 ], [ -70.6715577, -33.4646745 ], [ -70.6715485, -33.4643843 ], [ -70.6715289, -33.4637701 ], [ -70.6715207, -33.463514 ], [ -70.6718325, -33.4608547 ], [ -70.6721394, -33.45839 ], [ -70.6735963, -33.4584966 ], [ -70.6748555, -33.4585697 ], [ -70.6761456, -33.4586425 ], [ -70.6772598, -33.458696 ], [ -70.6772395, -33.4588365 ], [ -70.6776201, -33.4588678 ], [ -70.6775465, -33.4591827 ], [ -70.6778574, -33.4592501 ], [ -70.6778548, -33.4597766 ], [ -70.67783, -33.4597799 ], [ -70.6777453, -33.4600845 ], [ -70.6776294, -33.4600616 ], [ -70.6774221, -33.4609394 ], [ -70.6770538, -33.4608693 ], [ -70.6769423, -33.4613576 ], [ -70.6767612, -33.4621768 ], [ -70.6767547, -33.4622345 ], [ -70.6766237, -33.4625448 ], [ -70.6764788, -33.462888 ], [ -70.6763229, -33.4632574 ], [ -70.6769764, -33.4633201 ], [ -70.6769644, -33.4636921 ], [ -70.6769492, -33.4641283 ], [ -70.6769381, -33.4643949 ], [ -70.6769123, -33.4650192 ], [ -70.6769501, -33.4650721 ], [ -70.676962, -33.4652349 ], [ -70.6769938, -33.4652571 ], [ -70.6770077, -33.4654783 ], [ -70.6770333, -33.4658787 ], [ -70.6770361, -33.4659225 ], [ -70.6770323, -33.4661161 ], [ -70.6770276, -33.4663574 ], [ -70.6770244, -33.466521 ], [ -70.677023, -33.4665937 ], [ -70.6789655, -33.4666701 ], [ -70.6790093, -33.4674479 ], [ -70.678209, -33.4673991 ], [ -70.6773975, -33.4671658 ], [ -70.676841, -33.4672003 ], [ -70.6755775, -33.4671904 ], [ -70.6755626, -33.468372 ], [ -70.672986, -33.4683436 ], [ -70.6729447, -33.4706267 ], [ -70.6716448, -33.4706073 ], [ -70.6716703, -33.4694165 ], [ -70.6702636, -33.4694084 ], [ -70.6703077, -33.4705892 ], [ -70.6693822, -33.4705837 ] ] ] } },
{ "type": "Feature", "properties": { "Id": 83, "Codigo_SII": "XBM013", "UF_m2": "47.72", "Rango": "1-49", "UFm2_2018": "18.81", "Territorio": "CentroPoniente", "Barrio": null, "Comparativ": "Sube" }, "geometry": { "type": "MultiPolygon", "coordinates": [ [ [ [ -70.678408, -33.4589284 ], [ -70.6784084, -33.4589285 ], [ -70.6787272, -33.4633926 ], [ -70.678408, -33.4589284 ] ] ], [ [ [ -70.6780964, -33.4545708 ], [ -70.678408, -33.4589284 ], [ -70.6776201, -33.4588678 ], [ -70.6772395, -33.4588365 ], [ -70.6772598, -33.458696 ], [ -70.6761456, -33.4586425 ], [ -70.6748555, -33.4585697 ], [ -70.6748773, -33.4584805 ], [ -70.6751705, -33.4572759 ], [ -70.6754344, -33.4561763 ], [ -70.6766545, -33.4564245 ], [ -70.6768922, -33.455395 ], [ -70.6771393, -33.4543724 ], [ -70.6780964, -33.4545708 ] ] ] ] } },
{ "type": "Feature", "properties": { "Id": 84, "Codigo_SII": "CBM035", "UF_m2": "47.72", "Rango": "1-49", "UFm2_2018": "19.44", "Territorio": "CentroPoniente", "Barrio": null, "Comparativ": "Sube" }, "geometry": { "type": "Polygon", "coordinates": [ [ [ -70.6780161, -33.4534867 ], [ -70.6780964, -33.4545708 ], [ -70.6771393, -33.4543724 ], [ -70.6766545, -33.4564245 ], [ -70.6754344, -33.4561763 ], [ -70.6748555, -33.4585697 ], [ -70.6735963, -33.4584966 ], [ -70.6739331, -33.4570401 ], [ -70.6741994, -33.4559348 ], [ -70.6744566, -33.4548867 ], [ -70.6730956, -33.4546075 ], [ -70.6733585, -33.4535217 ], [ -70.6747052, -33.4538282 ], [ -70.6759237, -33.4541003 ], [ -70.6761727, -33.4530598 ], [ -70.6772017, -33.4532981 ], [ -70.6780161, -33.4534867 ] ] ] } },
{ "type": "Feature", "properties": { "Id": 85, "Codigo_SII": "CMM014", "UF_m2": "29.49", "Rango": "1-49", "UFm2_2018": "26.67", "Territorio": "CentroPoniente", "Barrio": null, "Comparativ": "Sube" }, "geometry": { "type": "Polygon", "coordinates": [ [ [ -70.6733557, -33.4535218 ], [ -70.6736023, -33.4524633 ], [ -70.6738521, -33.4514138 ], [ -70.6743506, -33.4494298 ], [ -70.6756729, -33.4497627 ], [ -70.6769201, -33.4500996 ], [ -70.6777754, -33.45032 ], [ -70.6779102, -33.4505323 ], [ -70.6780133, -33.4534868 ], [ -70.6761698, -33.4530599 ], [ -70.6759209, -33.4541003 ], [ -70.6733557, -33.4535218 ] ] ] } },
{ "type": "Feature", "properties": { "Id": 86, "Codigo_SII": "XMM012", "UF_m2": "27.79", "Rango": "1-49", "UFm2_2018": "11", "Territorio": "CentroPoniente", "Barrio": null, "Comparativ": "Sube" }, "geometry": { "type": "Polygon", "coordinates": [ [ [ -70.6735963, -33.4584966 ], [ -70.6729284, -33.4584477 ], [ -70.6721394, -33.45839 ], [ -70.6683345, -33.4577216 ], [ -70.6683539, -33.4576481 ], [ -70.6684974, -33.4570322 ], [ -70.6687397, -33.4560032 ], [ -70.6698444, -33.4562227 ], [ -70.6698748, -33.4550692 ], [ -70.6697459, -33.4549729 ], [ -70.6699105, -33.4544266 ], [ -70.669943, -33.4539287 ], [ -70.6699398, -33.4535082 ], [ -70.670116, -33.4531228 ], [ -70.6700345, -33.4531025 ], [ -70.6701259, -33.4528033 ], [ -70.6733585, -33.4535217 ], [ -70.6730956, -33.4546075 ], [ -70.6744566, -33.4548867 ], [ -70.6735963, -33.4584966 ] ] ] } },
{ "type": "Feature", "properties": { "Id": 87, "Codigo_SII": "EMM037", "UF_m2": "21.93", "Rango": "1-49", "UFm2_2018": "15.54", "Territorio": "CentroPoniente", "Barrio": null, "Comparativ": "Sube" }, "geometry": { "type": "Polygon", "coordinates": [ [ [ -70.6671765, -33.4479222 ], [ -70.6674405, -33.4476609 ], [ -70.6683572, -33.4479089 ], [ -70.6683556, -33.4481666 ], [ -70.668355, -33.4482506 ], [ -70.6683463, -33.4482943 ], [ -70.6682522, -33.4487635 ], [ -70.6681664, -33.4491914 ], [ -70.668786, -33.4492995 ], [ -70.6687582, -33.4494491 ], [ -70.6688531, -33.4495022 ], [ -70.6688328, -33.4495998 ], [ -70.6687703, -33.4499056 ], [ -70.6689666, -33.4499461 ], [ -70.6689044, -33.4501999 ], [ -70.6688534, -33.4502278 ], [ -70.668731, -33.450784 ], [ -70.6686902, -33.4507656 ], [ -70.6685935, -33.4513156 ], [ -70.6690652, -33.4514232 ], [ -70.6689898, -33.451657 ], [ -70.6695616, -33.4517865 ], [ -70.6694926, -33.4519932 ], [ -70.6688818, -33.4518672 ], [ -70.6688616, -33.4519271 ], [ -70.6686547, -33.4519031 ], [ -70.668579, -33.4524646 ], [ -70.669405, -33.4526542 ], [ -70.6691595, -33.4535662 ], [ -70.6685737, -33.45345 ], [ -70.6686229, -33.4532308 ], [ -70.6682913, -33.4531566 ], [ -70.6683243, -33.452803 ], [ -70.6680533, -33.4527684 ], [ -70.6679035, -33.4535022 ], [ -70.6680703, -33.4535369 ], [ -70.6679753, -33.4538981 ], [ -70.6681109, -33.4539201 ], [ -70.6679958, -33.4544138 ], [ -70.667528, -33.4543247 ], [ -70.667454, -33.4545842 ], [ -70.6681132, -33.4547156 ], [ -70.6680535, -33.4551975 ], [ -70.6669707, -33.455045 ], [ -70.667073, -33.4545082 ], [ -70.6664459, -33.4543711 ], [ -70.6666539, -33.4532374 ], [ -70.6667347, -33.4532548 ], [ -70.666836, -33.4520716 ], [ -70.6668761, -33.4518118 ], [ -70.6663246, -33.451708 ], [ -70.6663592, -33.4507663 ], [ -70.6672471, -33.4509945 ], [ -70.6672834, -33.4507856 ], [ -70.667006, -33.4507279 ], [ -70.667048, -33.4502087 ], [ -70.6673076, -33.4502627 ], [ -70.6674371, -33.4498282 ], [ -70.6673108, -33.4497955 ], [ -70.6673672, -33.4495854 ], [ -70.6672, -33.4495519 ], [ -70.6672441, -33.449401 ], [ -70.6673556, -33.4494281 ], [ -70.6674946, -33.44866 ], [ -70.6670561, -33.4485655 ], [ -70.6671765, -33.4479222 ] ] ] } },
{ "type": "Feature", "properties": { "Id": 88, "Codigo_SII": "TAM016", "UF_m2": "Sin valor $518387 m2", "Rango": "1-49", "UFm2_2018": "38.66", "Territorio": "CentroPoniente", "Barrio": null, "Comparativ": "SV" }, "geometry": { "type": "Polygon", "coordinates": [ [ [ -70.6735081, -33.4493317 ], [ -70.6734085, -33.449306 ], [ -70.6732909, -33.4492756 ], [ -70.6733994, -33.4490142 ], [ -70.6736056, -33.4490712 ], [ -70.6735081, -33.4493317 ] ] ] } },
{ "type": "Feature", "properties": { "Id": 89, "Codigo_SII": "CMM036", "UF_m2": "26.96", "Rango": "1-49", "UFm2_2018": "25.17", "Territorio": "CentroPoniente", "Barrio": null, "Comparativ": "Sube" }, "geometry": { "type": "Polygon", "coordinates": [ [ [ -70.6733454, -33.4535227 ], [ -70.6701128, -33.4528043 ], [ -70.6699038, -33.4527585 ], [ -70.6699529, -33.4525468 ], [ -70.670185, -33.4525884 ], [ -70.6702109, -33.4522719 ], [ -70.6703504, -33.4517212 ], [ -70.6704812, -33.4517513 ], [ -70.6705141, -33.4516053 ], [ -70.6707568, -33.4509006 ], [ -70.6705336, -33.4508392 ], [ -70.6705978, -33.4506235 ], [ -70.6708839, -33.4506931 ], [ -70.6709753, -33.4504228 ], [ -70.6711411, -33.4504587 ], [ -70.6712545, -33.4501375 ], [ -70.6707452, -33.4500012 ], [ -70.6707619, -33.4498085 ], [ -70.6706215, -33.4497746 ], [ -70.6706748, -33.4495965 ], [ -70.67026, -33.449486 ], [ -70.6704417, -33.4487371 ], [ -70.6704091, -33.4486336 ], [ -70.6704556, -33.4484488 ], [ -70.6716356, -33.4486989 ], [ -70.6727566, -33.4489897 ], [ -70.6733396, -33.4491584 ], [ -70.6732909, -33.4492756 ], [ -70.6735081, -33.4493317 ], [ -70.6735604, -33.4492091 ], [ -70.6743506, -33.4494298 ], [ -70.6742356, -33.4498873 ], [ -70.6733454, -33.4535227 ] ] ] } },
{ "type": "Feature", "properties": { "Id": 90, "Codigo_SII": "TAM015", "UF_m2": "Sin valor $555260m2", "Rango": "1-49", "UFm2_2018": "28.53", "Territorio": "CentroPoniente", "Barrio": null, "Comparativ": "SV" }, "geometry": { "type": "Polygon", "coordinates": [ [ [ -70.6671144, -33.4475583 ], [ -70.6670151, -33.4478313 ], [ -70.6665215, -33.4477502 ], [ -70.6665917, -33.4473937 ], [ -70.6668968, -33.4474898 ], [ -70.6671144, -33.4475583 ] ] ] } },
{ "type": "Feature", "properties": { "Id": 91, "Codigo_SII": "XMM011", "UF_m2": "39.09", "Rango": "1-49", "UFm2_2018": "24.61", "Territorio": "CentroPoniente", "Barrio": null, "Comparativ": "Sube" }, "geometry": { "type": "Polygon", "coordinates": [ [ [ -70.6673215, -33.4476235 ], [ -70.6674405, -33.4476609 ], [ -70.6671765, -33.4479222 ], [ -70.6670561, -33.4485655 ], [ -70.6674946, -33.44866 ], [ -70.6674466, -33.4489251 ], [ -70.6673556, -33.4494281 ], [ -70.6672441, -33.449401 ], [ -70.6672, -33.4495519 ], [ -70.6673672, -33.4495854 ], [ -70.6673108, -33.4497955 ], [ -70.6674371, -33.4498282 ], [ -70.6673076, -33.4502627 ], [ -70.667048, -33.4502087 ], [ -70.667006, -33.4507279 ], [ -70.6672834, -33.4507856 ], [ -70.6672471, -33.4509945 ], [ -70.6685941, -33.4513121 ], [ -70.6686902, -33.4507656 ], [ -70.668731, -33.450784 ], [ -70.6688534, -33.4502278 ], [ -70.6689044, -33.4501999 ], [ -70.6689666, -33.4499461 ], [ -70.6687703, -33.4499056 ], [ -70.6688531, -33.4495022 ], [ -70.6687582, -33.4494491 ], [ -70.668786, -33.4492995 ], [ -70.6681664, -33.4491914 ], [ -70.6683463, -33.4482943 ], [ -70.6683572, -33.4479089 ], [ -70.6704567, -33.4484496 ], [ -70.6704161, -33.4486334 ], [ -70.6704548, -33.4487361 ], [ -70.6702671, -33.4494859 ], [ -70.6706819, -33.4495964 ], [ -70.6706286, -33.4497745 ], [ -70.670769, -33.4498084 ], [ -70.6707523, -33.4500011 ], [ -70.6712616, -33.4501374 ], [ -70.6711482, -33.4504586 ], [ -70.6709824, -33.4504227 ], [ -70.670891, -33.450693 ], [ -70.6706049, -33.4506234 ], [ -70.6705407, -33.4508391 ], [ -70.6707639, -33.4509005 ], [ -70.6706344, -33.4512764 ], [ -70.6705212, -33.4516052 ], [ -70.6704883, -33.4517512 ], [ -70.6703575, -33.4517211 ], [ -70.6702181, -33.4522718 ], [ -70.6701921, -33.4525883 ], [ -70.66996, -33.4525467 ], [ -70.6699109, -33.4527584 ], [ -70.6701259, -33.4528033 ], [ -70.6700345, -33.4531025 ], [ -70.670116, -33.4531228 ], [ -70.6699398, -33.4535082 ], [ -70.6699105, -33.4544266 ], [ -70.6697459, -33.4549729 ], [ -70.6698748, -33.4550692 ], [ -70.6698444, -33.4562227 ], [ -70.6687397, -33.4560032 ], [ -70.6683393, -33.4577107 ], [ -70.664939, -33.4571251 ], [ -70.6649926, -33.4552486 ], [ -70.6650251, -33.4540848 ], [ -70.665037, -33.4528943 ], [ -70.6649976, -33.4528046 ], [ -70.6648512, -33.4517424 ], [ -70.6648004, -33.4516169 ], [ -70.6645806, -33.4513222 ], [ -70.6646728, -33.4502839 ], [ -70.6647924, -33.4475231 ], [ -70.6645052, -33.4468472 ], [ -70.6665917, -33.4473937 ], [ -70.6665215, -33.4477502 ], [ -70.6670151, -33.4478313 ], [ -70.6671144, -33.4475583 ], [ -70.6673215, -33.4476235 ] ], [ [ -70.6690652, -33.4514232 ], [ -70.6685941, -33.4513121 ], [ -70.6685935, -33.4513156 ], [ -70.6690652, -33.4514232 ] ] ] } },
{ "type": "Feature", "properties": { "Id": 92, "Codigo_SII": "CBM028", "UF_m2": "11.18", "Rango": "1-49", "UFm2_2018": "5.7", "Territorio": "NorPoniente", "Barrio": null, "Comparativ": "Sube" }, "geometry": { "type": "Polygon", "coordinates": [ [ [ -70.6651832, -33.4305121 ], [ -70.6642076, -33.4285337 ], [ -70.6646213, -33.4284078 ], [ -70.6707232, -33.4262171 ], [ -70.6715901, -33.4256344 ], [ -70.6717081, -33.4268501 ], [ -70.6718408, -33.4282186 ], [ -70.6751614, -33.4271308 ], [ -70.6754747, -33.4270431 ], [ -70.6754609, -33.4271024 ], [ -70.6752722, -33.429099 ], [ -70.6734827, -33.4290108 ], [ -70.6734902, -33.4293997 ], [ -70.671679, -33.4296996 ], [ -70.669437, -33.4297136 ], [ -70.6693979, -33.4299982 ], [ -70.667877, -33.4300445 ], [ -70.6678105, -33.4305867 ], [ -70.6665347, -33.430591 ], [ -70.666527, -33.4309906 ], [ -70.6651426, -33.4309448 ], [ -70.6651832, -33.4305121 ] ] ] } },
{ "type": "Feature", "properties": { "Id": 93, "Codigo_SII": "XBB030", "UF_m2": "Sin Valor m2179201", "Rango": "1-49", "UFm2_2018": "9.14", "Territorio": "NorPoniente", "Barrio": null, "Comparativ": "SV" }, "geometry": { "type": "Polygon", "coordinates": [ [ [ -70.6754609, -33.4271024 ], [ -70.6754747, -33.4270431 ], [ -70.6762087, -33.4268379 ], [ -70.6766502, -33.4267869 ], [ -70.6769142, -33.4267565 ], [ -70.6778697, -33.4268426 ], [ -70.678193, -33.4269065 ], [ -70.6787575, -33.4271389 ], [ -70.6792724, -33.4273509 ], [ -70.6796643, -33.4276206 ], [ -70.6799725, -33.4279461 ], [ -70.6802002, -33.4281866 ], [ -70.6803966, -33.4285292 ], [ -70.6806228, -33.4289238 ], [ -70.6807438, -33.4295708 ], [ -70.6806854, -33.430345 ], [ -70.6806385, -33.4316279 ], [ -70.6806017, -33.4325537 ], [ -70.6805915, -33.4330572 ], [ -70.6794301, -33.4328961 ], [ -70.679545, -33.431605 ], [ -70.6796655, -33.4302825 ], [ -70.6786114, -33.4302244 ], [ -70.6786963, -33.4292635 ], [ -70.6767003, -33.4291995 ], [ -70.6752703, -33.4291197 ], [ -70.6754609, -33.4271024 ] ] ] } },
{ "type": "Feature", "properties": { "Id": 94, "Codigo_SII": "HMB027", "UF_m2": "13.17", "Rango": "1-49", "UFm2_2018": "7.3", "Territorio": "NorPoniente", "Barrio": null, "Comparativ": "Sube" }, "geometry": { "type": "Polygon", "coordinates": [ [ [ -70.6794301, -33.4328961 ], [ -70.6783605, -33.4327963 ], [ -70.6783004, -33.433619 ], [ -70.6793635, -33.4336816 ], [ -70.6792948, -33.4344762 ], [ -70.6782247, -33.4344144 ], [ -70.6771604, -33.4343337 ], [ -70.676205, -33.4342745 ], [ -70.6762803, -33.4334889 ], [ -70.6763645, -33.432602 ], [ -70.6749352, -33.432497 ], [ -70.6740346, -33.432437 ], [ -70.6731932, -33.4323716 ], [ -70.6723113, -33.432301 ], [ -70.67132, -33.4322373 ], [ -70.6702504, -33.4321622 ], [ -70.6701855, -33.4330751 ], [ -70.669111, -33.4330084 ], [ -70.6690529, -33.4338028 ], [ -70.6683699, -33.4337556 ], [ -70.6683597, -33.4349034 ], [ -70.6673889, -33.4348623 ], [ -70.6674217, -33.4345285 ], [ -70.6670615, -33.4345016 ], [ -70.6670727, -33.4341965 ], [ -70.6667, -33.4341714 ], [ -70.6666998, -33.4344306 ], [ -70.6667022, -33.4345565 ], [ -70.6663535, -33.4345369 ], [ -70.6656548, -33.4345176 ], [ -70.6656848, -33.4341221 ], [ -70.6657176, -33.4335804 ], [ -70.6651028, -33.4335403 ], [ -70.6649944, -33.4334683 ], [ -70.6650934, -33.4320434 ], [ -70.6651592, -33.4309366 ], [ -70.6665293, -33.4309636 ], [ -70.6665477, -33.4305809 ], [ -70.6678281, -33.4306088 ], [ -70.667892, -33.4299586 ], [ -70.6694092, -33.4299923 ], [ -70.6694305, -33.429712 ], [ -70.670387, -33.4297176 ], [ -70.6716571, -33.4297055 ], [ -70.6734902, -33.4293997 ], [ -70.6734827, -33.4290108 ], [ -70.6752551, -33.4290971 ], [ -70.6767003, -33.4291995 ], [ -70.6786963, -33.4292635 ], [ -70.6786114, -33.4302244 ], [ -70.6796655, -33.4302825 ], [ -70.6794301, -33.4328961 ] ] ] } },
{ "type": "Feature", "properties": { "Id": 95, "Codigo_SII": "CBB032", "UF_m2": "11.43", "Rango": "1-49", "UFm2_2018": "10.3", "Territorio": "NorPoniente", "Barrio": null, "Comparativ": "Sube" }, "geometry": { "type": "Polygon", "coordinates": [ [ [ -70.6770676, -33.4354352 ], [ -70.6775291, -33.4355031 ], [ -70.6776124, -33.4350054 ], [ -70.6781736, -33.4350205 ], [ -70.6792377, -33.4351072 ], [ -70.6792948, -33.4344762 ], [ -70.6793635, -33.4336816 ], [ -70.6783004, -33.433619 ], [ -70.6783605, -33.4327963 ], [ -70.6794301, -33.4328961 ], [ -70.6805915, -33.4330572 ], [ -70.6802758, -33.4358369 ], [ -70.6801082, -33.4374032 ], [ -70.679037, -33.4373384 ], [ -70.6791258, -33.4363486 ], [ -70.6688737, -33.4356067 ], [ -70.6673317, -33.4354968 ], [ -70.6662523, -33.4354661 ], [ -70.666305, -33.4348306 ], [ -70.6649088, -33.4347694 ], [ -70.6649944, -33.4334683 ], [ -70.6651028, -33.4335403 ], [ -70.6657176, -33.4335804 ], [ -70.6656548, -33.4345176 ], [ -70.6663604, -33.4345373 ], [ -70.6667022, -33.4345565 ], [ -70.6667, -33.4341714 ], [ -70.6670727, -33.4341965 ], [ -70.6670615, -33.4345016 ], [ -70.6674217, -33.4345285 ], [ -70.6673889, -33.4348623 ], [ -70.6683597, -33.4349034 ], [ -70.6683516, -33.4346094 ], [ -70.6700218, -33.4346665 ], [ -70.6709706, -33.4347156 ], [ -70.6721037, -33.4347416 ], [ -70.6728918, -33.4347516 ], [ -70.6738039, -33.4348116 ], [ -70.6738726, -33.4345423 ], [ -70.6747113, -33.4346238 ], [ -70.6761539, -33.4347811 ], [ -70.6765503, -33.4348289 ], [ -70.6766511, -33.4347417 ], [ -70.6771205, -33.4348072 ], [ -70.6770676, -33.4354352 ] ] ] } },
{ "type": "Feature", "properties": { "Id": 96, "Codigo_SII": "CMM017", "UF_m2": "26.87", "Rango": "1-49", "UFm2_2018": "26", "Territorio": "NorPoniente", "Barrio": null, "Comparativ": "Sube" }, "geometry": { "type": "Polygon", "coordinates": [ [ [ -70.6674662, -33.447668 ], [ -70.6648888, -33.4469476 ], [ -70.6645052, -33.4468472 ], [ -70.6648159, -33.4448327 ], [ -70.6677617, -33.4451741 ], [ -70.6674662, -33.447668 ] ] ] } },
{ "type": "Feature", "properties": { "Id": 103, "Codigo_SII": "CBM019", "UF_m2": "26.86", "Rango": "1-49", "UFm2_2018": "16.7", "Territorio": "NorPoniente", "Barrio": null, "Comparativ": "Sube" }, "geometry": { "type": "Polygon", "coordinates": [ [ [ -70.6649071, -33.4442537 ], [ -70.6650481, -33.4433438 ], [ -70.6650447, -33.4425026 ], [ -70.6650418, -33.4418012 ], [ -70.6650388, -33.4410624 ], [ -70.6660231, -33.4411349 ], [ -70.6658846, -33.4422447 ], [ -70.6657245, -33.4434132 ], [ -70.6655927, -33.4443257 ], [ -70.6649071, -33.4442537 ] ] ] } },
{ "type": "Feature", "properties": { "Id": 104, "Codigo_SII": "XBM034", "UF_m2": "15.59", "Rango": "1-49", "UFm2_2018": "12.11", "Territorio": "NorPoniente", "Barrio": null, "Comparativ": "Sube" }, "geometry": { "type": "Polygon", "coordinates": [ [ [ -70.6648159, -33.4448327 ], [ -70.6649071, -33.4442537 ], [ -70.6655927, -33.4443257 ], [ -70.6660231, -33.4411349 ], [ -70.6650388, -33.4410624 ], [ -70.6648713, -33.4399004 ], [ -70.6647495, -33.4393257 ], [ -70.666881, -33.4395688 ], [ -70.666807, -33.4401108 ], [ -70.6684757, -33.440287 ], [ -70.6702066, -33.4404995 ], [ -70.6698895, -33.4428909 ], [ -70.6753545, -33.4435206 ], [ -70.6763346, -33.4436336 ], [ -70.6784597, -33.4438798 ], [ -70.6783639, -33.4449612 ], [ -70.6780331, -33.4487781 ], [ -70.6759029, -33.4485454 ], [ -70.6760017, -33.4481329 ], [ -70.6750401, -33.4480219 ], [ -70.6746535, -33.447977 ], [ -70.67366, -33.4477634 ], [ -70.6733, -33.4476858 ], [ -70.6728496, -33.4475836 ], [ -70.672632, -33.4475905 ], [ -70.6724538, -33.4484996 ], [ -70.6722894, -33.448466 ], [ -70.6723502, -33.4481103 ], [ -70.6717716, -33.4480604 ], [ -70.6716356, -33.4486989 ], [ -70.6704567, -33.4484496 ], [ -70.6683572, -33.4479089 ], [ -70.6674662, -33.447668 ], [ -70.6677617, -33.4451741 ], [ -70.6648159, -33.4448327 ] ] ] } },
{ "type": "Feature", "properties": { "Id": 105, "Codigo_SII": "CBM018", "UF_m2": "29.03", "Rango": "1-49", "UFm2_2018": "23.67", "Territorio": "NorPoniente", "Barrio": null, "Comparativ": "Sube" }, "geometry": { "type": "Polygon", "coordinates": [ [ [ -70.6716356, -33.4486989 ], [ -70.6717716, -33.4480604 ], [ -70.6723502, -33.4481103 ], [ -70.6722894, -33.448466 ], [ -70.6724538, -33.4484996 ], [ -70.672632, -33.4475905 ], [ -70.6727237, -33.4475876 ], [ -70.6728496, -33.4475836 ], [ -70.6746535, -33.447977 ], [ -70.6760017, -33.4481329 ], [ -70.6759029, -33.4485454 ], [ -70.6780331, -33.4487781 ], [ -70.6784597, -33.4438798 ], [ -70.6785808, -33.442525 ], [ -70.6775069, -33.4424544 ], [ -70.6775993, -33.4413349 ], [ -70.6786765, -33.4414299 ], [ -70.6787873, -33.4402138 ], [ -70.6799007, -33.4403197 ], [ -70.6795703, -33.443962 ], [ -70.6790214, -33.4507271 ], [ -70.6778779, -33.4505398 ], [ -70.6777954, -33.4503315 ], [ -70.6743506, -33.4494298 ], [ -70.6716356, -33.4486989 ] ] ] } },
{ "type": "Feature", "properties": { "Id": 97, "Codigo_SII": "TAM022", "UF_m2": "29.03", "Rango": "1-49", "UFm2_2018": "17.78", "Territorio": "NorPoniente", "Barrio": null, "Comparativ": "Sube" }, "geometry": { "type": "Polygon", "coordinates": [ [ [ -70.6787873, -33.4402138 ], [ -70.6787955, -33.440114 ], [ -70.6804971, -33.4402639 ], [ -70.6804907, -33.440375 ], [ -70.6787873, -33.4402138 ] ] ] } },
{ "type": "Feature", "properties": { "Id": 98, "Codigo_SII": "HBB025", "UF_m2": "6.34", "Rango": "1-49", "UFm2_2018": "3.11", "Territorio": "NorPoniente", "Barrio": null, "Comparativ": "Sube" }, "geometry": { "type": "Polygon", "coordinates": [ [ [ -70.6837459, -33.4386796 ], [ -70.6875972, -33.4389436 ], [ -70.6910562, -33.439178 ], [ -70.6911415, -33.4397577 ], [ -70.6893613, -33.4396865 ], [ -70.6836916, -33.4393699 ], [ -70.6837459, -33.4386796 ] ] ] } },
{ "type": "Feature", "properties": { "Id": 99, "Codigo_SII": "EBB024", "UF_m2": "6.95", "Rango": "1-49", "UFm2_2018": "6.4", "Territorio": "NorPoniente", "Barrio": null, "Comparativ": "Sube" }, "geometry": { "type": "Polygon", "coordinates": [ [ [ -70.6911415, -33.4397577 ], [ -70.6910562, -33.439178 ], [ -70.6916268, -33.4392464 ], [ -70.6917503, -33.439403 ], [ -70.6917443, -33.4401193 ], [ -70.6918393, -33.4419308 ], [ -70.6920306, -33.4444849 ], [ -70.6900817, -33.4443856 ], [ -70.6865485, -33.4442188 ], [ -70.6829928, -33.4440486 ], [ -70.6795801, -33.4438431 ], [ -70.6799007, -33.4403197 ], [ -70.6804907, -33.440375 ], [ -70.6804971, -33.4402639 ], [ -70.6787955, -33.440114 ], [ -70.6789404, -33.4383588 ], [ -70.6805714, -33.438468 ], [ -70.6806922, -33.4373104 ], [ -70.6823742, -33.4374546 ], [ -70.6823025, -33.438583 ], [ -70.6837459, -33.4386796 ], [ -70.6836916, -33.4393699 ], [ -70.6860462, -33.4395015 ], [ -70.6911415, -33.4397577 ] ] ] } },
{ "type": "Feature", "properties": { "Id": 100, "Codigo_SII": "HBM020", "UF_m2": "18.19", "Rango": "1-49", "UFm2_2018": "10.33", "Territorio": "NorPoniente", "Barrio": null, "Comparativ": "Sube" }, "geometry": { "type": "Polygon", "coordinates": [ [ [ -70.6801082, -33.4374032 ], [ -70.6800695, -33.4384393 ], [ -70.6789404, -33.4383588 ], [ -70.6786765, -33.4414299 ], [ -70.6775993, -33.4413349 ], [ -70.6775069, -33.4424544 ], [ -70.6785783, -33.4425302 ], [ -70.6784597, -33.4438798 ], [ -70.6698895, -33.4428909 ], [ -70.6702066, -33.4404995 ], [ -70.666807, -33.4401108 ], [ -70.666881, -33.4395688 ], [ -70.6669515, -33.4389895 ], [ -70.6659641, -33.4388765 ], [ -70.6660417, -33.4377662 ], [ -70.6686005, -33.4379302 ], [ -70.6687835, -33.4366382 ], [ -70.6741267, -33.4370023 ], [ -70.679037, -33.4373384 ], [ -70.6801082, -33.4374032 ] ] ] } },
{ "type": "Feature", "properties": { "Id": 101, "Codigo_SII": "XBB033", "UF_m2": "17.03", "Rango": "1-49", "UFm2_2018": "9.88", "Territorio": "NorPoniente", "Barrio": null, "Comparativ": "Sube" }, "geometry": { "type": "Polygon", "coordinates": [ [ [ -70.6683516, -33.4346094 ], [ -70.6683699, -33.4337556 ], [ -70.6690529, -33.4338028 ], [ -70.669111, -33.4330084 ], [ -70.6701855, -33.4330751 ], [ -70.6702504, -33.4321622 ], [ -70.6763645, -33.432602 ], [ -70.676205, -33.4342745 ], [ -70.6792948, -33.4344762 ], [ -70.6792377, -33.4351072 ], [ -70.6776124, -33.4350054 ], [ -70.6775291, -33.4355031 ], [ -70.6770676, -33.4354352 ], [ -70.6771205, -33.4348072 ], [ -70.6766511, -33.4347417 ], [ -70.6765503, -33.4348289 ], [ -70.6738726, -33.4345423 ], [ -70.6738039, -33.4348116 ], [ -70.6708177, -33.4347077 ], [ -70.6683516, -33.4346094 ] ] ] } },
{ "type": "Feature", "properties": { "Id": 102, "Codigo_SII": "XBB038", "UF_m2": "12.75", "Rango": "1-49", "UFm2_2018": "10.5", "Territorio": "NorPoniente", "Barrio": null, "Comparativ": "Sube" }, "geometry": { "type": "Polygon", "coordinates": [ [ [ -70.679037, -33.4373384 ], [ -70.6765903, -33.4371627 ], [ -70.6719483, -33.4368539 ], [ -70.6687835, -33.4366382 ], [ -70.6686005, -33.4379302 ], [ -70.6660417, -33.4377662 ], [ -70.6659641, -33.4388765 ], [ -70.6669515, -33.4389895 ], [ -70.666881, -33.4395688 ], [ -70.6647495, -33.4393257 ], [ -70.6644089, -33.4375988 ], [ -70.6645765, -33.4362759 ], [ -70.6648362, -33.4359927 ], [ -70.6649088, -33.4347694 ], [ -70.6663094, -33.4348237 ], [ -70.6662523, -33.4354661 ], [ -70.6710747, -33.4357661 ], [ -70.6791258, -33.4363486 ], [ -70.679037, -33.4373384 ] ] ] } }
]
}
