{
"type": "FeatureCollection",
"name": "URB_PTO_PERMISOS_CARGA_DESCARGA_2026",
"features": [
{ "type": "Feature", "properties": { "original": "SAN PABLO 2741, SANTIAGO, REGION METROPOLITANA, CHILE", "normaliz": "San Pablo 2741, SANTIAGO, Region METROPOLITANA, Chile", "score": 35.0, "precisio": "regular", "comuna": "SANTIAGO", "region": null, "api": "Nominatim", "found": 1.0, "COD_MZN": "13101081002015" }, "geometry": { "type": "Point", "coordinates": [ -70.6742003, -33.4349989 ] } },
{ "type": "Feature", "properties": { "original": "GRAJALES 2030, SANTIAGO, REGION METROPOLITANA, CHILE", "normaliz": "Grajales 2030, SANTIAGO, Region METROPOLITANA, Chile", "score": 33.0, "precisio": "bajo", "comuna": "SANTIAGO", "region": null, "api": "Nominatim", "found": 1.0, "COD_MZN": "13101261001019" }, "geometry": { "type": "Point", "coordinates": [ -70.6728362, -33.4534121 ] } },
{ "type": "Feature", "properties": { "original": "ZENTENO 1485, SANTIAGO, REGION METROPOLITANA, CHILE", "normaliz": "Zenteno 1485, SANTIAGO, Region METROPOLITANA, Chile", "score": 35.0, "precisio": "regular", "comuna": "SANTIAGO", "region": null, "api": "Nominatim", "found": 1.0, "COD_MZN": "13101191003002" }, "geometry": { "type": "Point", "coordinates": [ -70.6500231, -33.4658003 ] } },
{ "type": "Feature", "properties": { "original": "EYZAGUIRRE 1062, SANTIAGO, REGION METROPOLITANA, CHILE", "normaliz": "Eyzaguirre 1062, SANTIAGO, Region METROPOLITANA, Chile", "score": 33.0, "precisio": "bajo", "comuna": "SANTIAGO", "region": null, "api": "Nominatim", "found": 1.0, "COD_MZN": "13101121004007" }, "geometry": { "type": "Point", "coordinates": [ -70.6495382, -33.4527115 ] } },
{ "type": "Feature", "properties": { "original": "GRAJALES 2936, SANTIAGO, REGION METROPOLITANA, CHILE", "normaliz": "Grajales 2936, SANTIAGO, Region METROPOLITANA, Chile", "score": 35.0, "precisio": "regular", "comuna": "SANTIAGO", "region": null, "api": "Nominatim", "found": 1.0, "COD_MZN": "13101261001028" }, "geometry": { "type": "Point", "coordinates": [ -70.6763891, -33.4542979 ] } },
{ "type": "Feature", "properties": { "original": "AGUSTINAS 1055, SANTIAGO, REGION METROPOLITANA, CHILE", "normaliz": "Agustinas 1055, SANTIAGO, Region METROPOLITANA, Chile", "score": 35.0, "precisio": "regular", "comuna": "SANTIAGO", "region": null, "api": "Nominatim", "found": 1.0, "COD_MZN": "13101021005012" }, "geometry": { "type": "Point", "coordinates": [ -70.6515217, -33.4407439 ] } },
{ "type": "Feature", "properties": { "original": "EXPOSICION 422, SANTIAGO, REGION METROPOLITANA, CHILE", "normaliz": "Exposicion 422, SANTIAGO, Region METROPOLITANA, Chile", "score": 31.0, "precisio": "bajo", "comuna": "SANTIAGO", "region": null, "api": "Nominatim", "found": 1.0, "COD_MZN": "13101261001036" }, "geometry": { "type": "Point", "coordinates": [ -70.6779897, -33.4558469 ] } },
{ "type": "Feature", "properties": { "original": "GRAJALES 2660, SANTIAGO, REGION METROPOLITANA, CHILE", "normaliz": "Grajales 2660, SANTIAGO, Region METROPOLITANA, Chile", "score": 35.0, "precisio": "regular", "comuna": "SANTIAGO", "region": null, "api": "Nominatim", "found": 1.0, "COD_MZN": "13101261001025" }, "geometry": { "type": "Point", "coordinates": [ -70.6729224, -33.4535224 ] } },
{ "type": "Feature", "properties": { "original": "UNION AMERICANA 242, SANTIAGO, REGION METROPOLITANA, CHILE", "normaliz": "Union Americana 242, SANTIAGO, Region METROPOLITANA, Chile", "score": 32.0, "precisio": "bajo", "comuna": "SANTIAGO", "region": null, "api": "Nominatim", "found": 1.0, "COD_MZN": "13101261001019" }, "geometry": { "type": "Point", "coordinates": [ -70.6733477, -33.452903 ] } },
{ "type": "Feature", "properties": { "original": "AVENIDA MANUEL ANTONIO MATTA 421, SANTIAGO, REGION METROPOLITANA, CHILE", "normaliz": "Avenida Manuel Antonio Matta 421, Santiago, Region Metropolitana, Chile", "score": 36.0, "precisio": "regular", "comuna": "SANTIAGO", "region": null, "api": "Nominatim", "found": 1.0, "COD_MZN": null }, "geometry": { "type": "Point", "coordinates": [ -70.729894, -33.3658334 ] } },
{ "type": "Feature", "properties": { "original": "ROGELIO UGARTE 2037, SANTIAGO, REGION METROPOLITANA, CHILE", "normaliz": "Rogelio Ugarte 2037, SANTIAGO, Region METROPOLITANA, Chile", "score": 35.0, "precisio": "regular", "comuna": "SANTIAGO", "region": null, "api": "Nominatim", "found": 1.0, "COD_MZN": "13101201001031" }, "geometry": { "type": "Point", "coordinates": [ -70.6312688, -33.4714495 ] } },
{ "type": "Feature", "properties": { "original": "BIO BIO 661, SANTIAGO, REGION METROPOLITANA, CHILE", "normaliz": "Bio Bio 661, SANTIAGO, Region METROPOLITANA, Chile", "score": 35.0, "precisio": "regular", "comuna": "SANTIAGO", "region": null, "api": "Nominatim", "found": 1.0, "COD_MZN": "13101201002013" }, "geometry": { "type": "Point", "coordinates": [ -70.6407671, -33.4736707 ] } },
{ "type": "Feature", "properties": { "original": "SAN PABLO 2737, SANTIAGO, REGION METROPOLITANA, CHILE", "normaliz": "San Pablo 2737, SANTIAGO, Region METROPOLITANA, Chile", "score": 35.0, "precisio": "regular", "comuna": "SANTIAGO", "region": null, "api": "Nominatim", "found": 1.0, "COD_MZN": "13101081002015" }, "geometry": { "type": "Point", "coordinates": [ -70.674177, -33.4349972 ] } },
{ "type": "Feature", "properties": { "original": "EXPOSICION 442, SANTIAGO, REGION METROPOLITANA, CHILE", "normaliz": "Exposicion 442, SANTIAGO, Region METROPOLITANA, Chile", "score": 31.0, "precisio": "bajo", "comuna": "SANTIAGO", "region": null, "api": "Nominatim", "found": 1.0, "COD_MZN": "13101261001036" }, "geometry": { "type": "Point", "coordinates": [ -70.6780022, -33.4560336 ] } },
{ "type": "Feature", "properties": { "original": "NUBLE 1055, SANTIAGO, REGION METROPOLITANA, CHILE", "normaliz": "Nuble 1055, SANTIAGO, Region METROPOLITANA, Chile", "score": 31.0, "precisio": "bajo", "comuna": "SANTIAGO", "region": null, "api": "Nominatim", "found": 1.0, "COD_MZN": "13101181002016" }, "geometry": { "type": "Point", "coordinates": [ -70.6478476, -33.469447 ] } },
{ "type": "Feature", "properties": { "original": "GRAJALES 2146, SANTIAGO, REGION METROPOLITANA, CHILE", "normaliz": "Grajales 2146, SANTIAGO, Region METROPOLITANA, Chile", "score": 35.0, "precisio": "regular", "comuna": "SANTIAGO", "region": null, "api": "Nominatim", "found": 1.0, "COD_MZN": "13101271002009" }, "geometry": { "type": "Point", "coordinates": [ -70.6657514, -33.4519729 ] } },
{ "type": "Feature", "properties": { "original": "ZENTENO 1043, SANTIAGO, REGION METROPOLITANA, CHILE", "normaliz": "Zenteno 1043, SANTIAGO, Region METROPOLITANA, Chile", "score": 35.0, "precisio": "regular", "comuna": "SANTIAGO", "region": null, "api": "Nominatim", "found": 1.0, "COD_MZN": "13101151004011" }, "geometry": { "type": "Point", "coordinates": [ -70.6508634, -33.4592549 ] } },
{ "type": "Feature", "properties": { "original": "VERGARA 18, SANTIAGO, REGION METROPOLITANA, CHILE", "normaliz": "Vergara 18, SANTIAGO, Region METROPOLITANA, Chile", "score": 35.0, "precisio": "regular", "comuna": "SANTIAGO", "region": null, "api": "Nominatim", "found": 1.0, "COD_MZN": "13101281001007" }, "geometry": { "type": "Point", "coordinates": [ -70.662327, -33.4471977 ] } },
{ "type": "Feature", "properties": { "original": "PORVENIR 970, SANTIAGO, REGION METROPOLITANA, CHILE", "normaliz": "Porvenir 970, SANTIAGO, Region METROPOLITANA, Chile", "score": 31.0, "precisio": "bajo", "comuna": "SANTIAGO", "region": null, "api": "Nominatim", "found": 1.0, "COD_MZN": "13101151001022" }, "geometry": { "type": "Point", "coordinates": [ -70.6472095, -33.4577897 ] } },
{ "type": "Feature", "properties": { "original": "ACONCAGUA 1137, SANTIAGO, REGION METROPOLITANA, CHILE", "normaliz": "Aconcagua 1137, SANTIAGO, Region METROPOLITANA, Chile", "score": 31.0, "precisio": "bajo", "comuna": "SANTIAGO", "region": null, "api": "Nominatim", "found": 1.0, "COD_MZN": "13101151004006" }, "geometry": { "type": "Point", "coordinates": [ -70.6496878, -33.4585962 ] } },
{ "type": "Feature", "properties": { "original": "SAN ALFONSO 80, SANTIAGO, REGION METROPOLITANA, CHILE", "normaliz": "San Alfonso 80, SANTIAGO, Region METROPOLITANA, Chile", "score": 35.0, "precisio": "regular", "comuna": "SANTIAGO", "region": null, "api": "Nominatim", "found": 1.0, "COD_MZN": "13101261001008" }, "geometry": { "type": "Point", "coordinates": [ -70.6762868, -33.451605 ] } },
{ "type": "Feature", "properties": { "original": "BASCUÑAN GUERRERO 135, SANTIAGO, REGION METROPOLITANA, CHILE", "normaliz": "Bascunan Guerrero 135, SANTIAGO, Region METROPOLITANA, Chile", "score": 32.0, "precisio": "bajo", "comuna": "SANTIAGO", "region": null, "api": "Nominatim", "found": 1.0, "COD_MZN": "13101261001017" }, "geometry": { "type": "Point", "coordinates": [ -70.6751925, -33.4521416 ] } },
{ "type": "Feature", "properties": { "original": "ERASMO ESCALA 2535, SANTIAGO, REGION METROPOLITANA, CHILE", "normaliz": "Erasmo Escala 2535, SANTIAGO, Region METROPOLITANA, Chile", "score": 31.0, "precisio": "bajo", "comuna": "SANTIAGO", "region": null, "api": "Nominatim", "found": 1.0, "COD_MZN": "13101051003010" }, "geometry": { "type": "Point", "coordinates": [ -70.6712017, -33.4454702 ] } },
{ "type": "Feature", "properties": { "original": "MEIGGS 58, SANTIAGO, REGION METROPOLITANA, CHILE", "normaliz": "Meiggs 58, SANTIAGO, Region METROPOLITANA, Chile", "score": 35.0, "precisio": "regular", "comuna": "SANTIAGO", "region": null, "api": "Nominatim", "found": 1.0, "COD_MZN": "13101261001011" }, "geometry": { "type": "Point", "coordinates": [ -70.6770013, -33.4515246 ] } },
{ "type": "Feature", "properties": { "original": "MAULE 149, SANTIAGO, REGION METROPOLITANA, CHILE", "normaliz": "Maule 149, SANTIAGO, Region METROPOLITANA, Chile", "score": 31.0, "precisio": "bajo", "comuna": "SANTIAGO", "region": null, "api": "Nominatim", "found": 1.0, "COD_MZN": "13101161003002" }, "geometry": { "type": "Point", "coordinates": [ -70.6293669, -33.4651478 ] } },
{ "type": "Feature", "properties": { "original": "COQUIMBO 558, SANTIAGO, REGION METROPOLITANA, CHILE", "normaliz": "Coquimbo 558, SANTIAGO, Region METROPOLITANA, Chile", "score": 35.0, "precisio": "regular", "comuna": "SANTIAGO", "region": null, "api": "Nominatim", "found": 1.0, "COD_MZN": "13101141001020" }, "geometry": { "type": "Point", "coordinates": [ -70.6411204, -33.4554392 ] } },
{ "type": "Feature", "properties": { "original": "CLAUDIO GAY 2511, SANTIAGO, REGION METROPOLITANA, CHILE", "normaliz": "Claudio Gay 2511, SANTIAGO, Region METROPOLITANA, Chile", "score": 35.0, "precisio": "regular", "comuna": "SANTIAGO", "region": null, "api": "Nominatim", "found": 1.0, "COD_MZN": "13101271004005" }, "geometry": { "type": "Point", "coordinates": [ -70.6703997, -33.4562065 ] } },
{ "type": "Feature", "properties": { "original": "CLAUDIO GAY 2803, SANTIAGO, REGION METROPOLITANA, CHILE", "normaliz": "Claudio Gay 2803, SANTIAGO, Region METROPOLITANA, Chile", "score": 35.0, "precisio": "regular", "comuna": "SANTIAGO", "region": null, "api": "Nominatim", "found": 1.0, "COD_MZN": "13101261001039" }, "geometry": { "type": "Point", "coordinates": [ -70.6741038, -33.4569982 ] } },
{ "type": "Feature", "properties": { "original": "ARAUCO 740, SANTIAGO, REGION METROPOLITANA, CHILE", "normaliz": "Arauco 740, SANTIAGO, Region METROPOLITANA, Chile", "score": 35.0, "precisio": "regular", "comuna": "SANTIAGO", "region": null, "api": "Nominatim", "found": 1.0, "COD_MZN": "13101211001017" }, "geometry": { "type": "Point", "coordinates": [ -70.6426573, -33.4718255 ] } },
{ "type": "Feature", "properties": { "original": "GORBEA 2873, SANTIAGO, REGION METROPOLITANA, CHILE", "normaliz": "Gorbea 2873, SANTIAGO, Region METROPOLITANA, Chile", "score": 35.0, "precisio": "regular", "comuna": "SANTIAGO", "region": null, "api": "Nominatim", "found": 1.0, "COD_MZN": "13101261001027" }, "geometry": { "type": "Point", "coordinates": [ -70.6752523, -33.4549759 ] } },
{ "type": "Feature", "properties": { "original": "GRAJALES 2264, SANTIAGO, REGION METROPOLITANA, CHILE", "normaliz": "Grajales 2264, SANTIAGO, Region METROPOLITANA, Chile", "score": 33.0, "precisio": "bajo", "comuna": "SANTIAGO", "region": null, "api": "Nominatim", "found": 1.0, "COD_MZN": "13101261001019" }, "geometry": { "type": "Point", "coordinates": [ -70.6728362, -33.4534121 ] } }
]
}
