{
"type": "FeatureCollection",
"name": "URB_POL_LIMITE_COMUNA_STGO",
"features": [
{ "type": "Feature", "properties": { "CUT_REG": "13", "CUT_PROV": "131", "CUT_COM": "13101", "PROVINCIA": "Santiago", "COMUNA": "Santiago", "SUPERFICIE": 23.18 }, "geometry": { "type": "Polygon", "coordinates": [ [ [ -70.6717362, -33.4758949 ], [ -70.671733, -33.4762471 ], [ -70.6718445, -33.4762654 ], [ -70.6723391, -33.4764448 ], [ -70.6729119, -33.4764729 ], [ -70.6737743, -33.4764541 ], [ -70.6745449, -33.476551 ], [ -70.6755976, -33.4766585 ], [ -70.676247, -33.4766712 ], [ -70.6773737, -33.4766273 ], [ -70.6779877, -33.476576 ], [ -70.6789345, -33.4765059 ], [ -70.6799425, -33.4765138 ], [ -70.6806818, -33.4765104 ], [ -70.6807018, -33.4768398 ], [ -70.6808132, -33.4784095 ], [ -70.6787852, -33.4784442 ], [ -70.6770899, -33.4784564 ], [ -70.6753392, -33.4784801 ], [ -70.6736826, -33.478506 ], [ -70.6715858, -33.47852 ], [ -70.6715881, -33.4768629 ], [ -70.6715861, -33.475903 ], [ -70.6694227, -33.4759051 ], [ -70.6683243, -33.475894 ], [ -70.6653926, -33.4758246 ], [ -70.6640567, -33.4757976 ], [ -70.6618407, -33.4758183 ], [ -70.6604974, -33.475902 ], [ -70.6595012, -33.4760176 ], [ -70.6580573, -33.4761619 ], [ -70.656751, -33.4762623 ], [ -70.6557397, -33.4763591 ], [ -70.6549218, -33.4764374 ], [ -70.6537684, -33.4765402 ], [ -70.6503208, -33.4768014 ], [ -70.647193, -33.4768921 ], [ -70.6448755, -33.4766998 ], [ -70.6426599, -33.4765704 ], [ -70.6419877, -33.4765312 ], [ -70.641974, -33.4765289 ], [ -70.6417789, -33.4764965 ], [ -70.6404861, -33.4762994 ], [ -70.6394653, -33.4761434 ], [ -70.6387, -33.4759356 ], [ -70.637166, -33.4754243 ], [ -70.6350497, -33.4747449 ], [ -70.631934, -33.4735234 ], [ -70.6285896, -33.4723091 ], [ -70.6278023, -33.4719773 ], [ -70.626751, -33.471587 ], [ -70.6261326, -33.4710432 ], [ -70.625897, -33.470809 ], [ -70.625413, -33.470119 ], [ -70.6251066, -33.4695612 ], [ -70.6256301, -33.4692396 ], [ -70.6258675, -33.4690325 ], [ -70.6259515, -33.4689109 ], [ -70.6260407, -33.4687247 ], [ -70.6261269, -33.4684611 ], [ -70.6263657, -33.4675035 ], [ -70.6268183, -33.4659438 ], [ -70.6269758, -33.4654533 ], [ -70.6272518, -33.4644479 ], [ -70.6276193, -33.4632851 ], [ -70.6279907, -33.4619432 ], [ -70.6288688, -33.4589479 ], [ -70.6297866, -33.4556965 ], [ -70.630083, -33.4547142 ], [ -70.6302895, -33.4540956 ], [ -70.6305664, -33.4532189 ], [ -70.6309533, -33.4519065 ], [ -70.6315554, -33.4498304 ], [ -70.6316344, -33.4495836 ], [ -70.631985, -33.4484014 ], [ -70.6322603, -33.4473791 ], [ -70.6328478, -33.4454249 ], [ -70.6332335, -33.4442171 ], [ -70.63348, -33.4434351 ], [ -70.6339267, -33.4417634 ], [ -70.6344292, -33.4400149 ], [ -70.6347753, -33.4389056 ], [ -70.6350102, -33.4379246 ], [ -70.6352201, -33.4371664 ], [ -70.6353893, -33.4364606 ], [ -70.6353764, -33.4356953 ], [ -70.635401, -33.4356908 ], [ -70.6357159, -33.4356324 ], [ -70.6367087, -33.4354075 ], [ -70.6387839, -33.4349344 ], [ -70.6403543, -33.4345603 ], [ -70.6423651, -33.4340844 ], [ -70.643294, -33.4338865 ], [ -70.6449574, -33.4334927 ], [ -70.6465386, -33.4331121 ], [ -70.6483433, -33.4326637 ], [ -70.6493528, -33.4324364 ], [ -70.6494109, -33.4324245 ], [ -70.6502995, -33.4322434 ], [ -70.6515263, -33.4319505 ], [ -70.6516073, -33.4319312 ], [ -70.653365, -33.4314736 ], [ -70.655386, -33.4309912 ], [ -70.6561916, -33.4307989 ], [ -70.6570424, -33.4305327 ], [ -70.6577614, -33.4304242 ], [ -70.6585882, -33.4302268 ], [ -70.6596777, -33.4299465 ], [ -70.6601409, -33.429654 ], [ -70.6607098, -33.4293849 ], [ -70.6612424, -33.4291439 ], [ -70.6618286, -33.4290414 ], [ -70.6625848, -33.4288647 ], [ -70.6631097, -33.4288093 ], [ -70.6638027, -33.4287246 ], [ -70.6642372, -33.4285997 ], [ -70.6648071, -33.4283873 ], [ -70.6654834, -33.4280862 ], [ -70.6664926, -33.4276778 ], [ -70.6677973, -33.4272106 ], [ -70.6688446, -33.4268497 ], [ -70.6697817, -33.4264973 ], [ -70.6704717, -33.4262388 ], [ -70.6705362, -33.4262146 ], [ -70.6706952, -33.4261551 ], [ -70.6711463, -33.4260384 ], [ -70.6715901, -33.4256344 ], [ -70.67166, -33.4262152 ], [ -70.6716881, -33.4264518 ], [ -70.6717139, -33.4266697 ], [ -70.6717599, -33.4270566 ], [ -70.6717731, -33.4274332 ], [ -70.6717973, -33.427714 ], [ -70.6718184, -33.4279582 ], [ -70.6718408, -33.4282186 ], [ -70.6737206, -33.4276062 ], [ -70.6755241, -33.4270119 ], [ -70.6762203, -33.426833 ], [ -70.6765252, -33.4267777 ], [ -70.6767486, -33.4267554 ], [ -70.6771653, -33.4267644 ], [ -70.6775492, -33.4267876 ], [ -70.6777994, -33.4268211 ], [ -70.6782268, -33.4269138 ], [ -70.6789583, -33.4272158 ], [ -70.6793811, -33.4273967 ], [ -70.6796643, -33.4276206 ], [ -70.6799557, -33.4278874 ], [ -70.6802942, -33.4283015 ], [ -70.6804241, -33.4285035 ], [ -70.6806229, -33.4289238 ], [ -70.6807275, -33.4293199 ], [ -70.6807581, -33.4297893 ], [ -70.6807266, -33.4302573 ], [ -70.6806653, -33.4310442 ], [ -70.6805527, -33.4325415 ], [ -70.6804184, -33.4343649 ], [ -70.680266, -33.436117 ], [ -70.6800926, -33.4382043 ], [ -70.680083, -33.4383729 ], [ -70.681735, -33.4384882 ], [ -70.6817827, -33.4378766 ], [ -70.6818845, -33.4378831 ], [ -70.6819211, -33.4373869 ], [ -70.6814302, -33.4373564 ], [ -70.6814263, -33.4374023 ], [ -70.6813236, -33.4373958 ], [ -70.6813343, -33.4372654 ], [ -70.6807994, -33.4372233 ], [ -70.6809105, -33.4359525 ], [ -70.6819205, -33.4360917 ], [ -70.6822996, -33.4361647 ], [ -70.6834789, -33.4363917 ], [ -70.6833808, -33.437357 ], [ -70.6833349, -33.4378088 ], [ -70.6832563, -33.4385818 ], [ -70.6841851, -33.4386426 ], [ -70.6858397, -33.4387509 ], [ -70.6864207, -33.4387889 ], [ -70.6867421, -33.4388099 ], [ -70.6886347, -33.4389338 ], [ -70.6914993, -33.4391211 ], [ -70.6919103, -33.4391969 ], [ -70.6919379, -33.4395339 ], [ -70.6919598, -33.4398011 ], [ -70.6919981, -33.4402705 ], [ -70.6921415, -33.4420231 ], [ -70.6923414, -33.4444675 ], [ -70.6901402, -33.444388 ], [ -70.6868671, -33.4442268 ], [ -70.6836781, -33.4440737 ], [ -70.6805541, -33.4439279 ], [ -70.67977, -33.44384 ], [ -70.6795761, -33.4438412 ], [ -70.6795014, -33.4448578 ], [ -70.6792439, -33.4478618 ], [ -70.6790966, -33.4496576 ], [ -70.6790312, -33.4507223 ], [ -70.6778936, -33.4504586 ], [ -70.6778325, -33.4509819 ], [ -70.6778289, -33.4512253 ], [ -70.6779044, -33.4518814 ], [ -70.6780265, -33.4538226 ], [ -70.6781471, -33.4552377 ], [ -70.6782704, -33.4574057 ], [ -70.6784074, -33.4591407 ], [ -70.6785056, -33.4605624 ], [ -70.6786176, -33.4618011 ], [ -70.6786799, -33.4627207 ], [ -70.6787643, -33.4638161 ], [ -70.6788303, -33.4649122 ], [ -70.678937, -33.4665538 ], [ -70.679088, -33.4690472 ], [ -70.6791388, -33.4693812 ], [ -70.6791888, -33.4695488 ], [ -70.6797407, -33.4703907 ], [ -70.6798437, -33.4704919 ], [ -70.6798472, -33.4705271 ], [ -70.6798389, -33.4705725 ], [ -70.6798093, -33.4706246 ], [ -70.6797618, -33.4706736 ], [ -70.679253, -33.470671 ], [ -70.6772472, -33.4706524 ], [ -70.6751784, -33.4706339 ], [ -70.6729434, -33.4706321 ], [ -70.6729167, -33.4718351 ], [ -70.6729125, -33.4726661 ], [ -70.6729127, -33.4727346 ], [ -70.6729161, -33.4739202 ], [ -70.6728785, -33.4748825 ], [ -70.6728524, -33.475035 ], [ -70.6727478, -33.4752547 ], [ -70.6725954, -33.4755036 ], [ -70.6724428, -33.4756193 ], [ -70.6720821, -33.4757449 ], [ -70.6717362, -33.4758949 ] ] ] } }
]
}
