{
"type": "FeatureCollection",
"name": "URB_PTO_SITIOS_ERIAZOS_STGO",
"features": [
{ "type": "Feature", "properties": { "FID_1": 903, "nombre_com": "SANTIAGO", "region": 13, "manzana": 135, "predio": 25, "direccion": "COMPANIA 1214", "avaluo_tot": 1805787600, "cont_semes": 13332102, "destino": "Sitio Eriazo", "sup_tot_te": 3671, "avaluo_exe": 0, "exentas": "0", "x": 344885.213, "y": 6299434.924, "mr": "1", "id": 11, "name_1": "STGO_11", "gabinete": "SI", "terreno": "NO", "encontrado": "SI", "poligono_s": "NO", "nom_c": "N/A", "id1": "N/A", "terreno1": "N/A", "rol": null, "direcc": "N/A", "comuna": "N/A", "distrito": "S/I", "manz": "S/I", "long": 0.0, "lat": 0.0, "observ": "N/A", "direcc_c": "N/A", "via": "N/A", "frentem": "S/I", "fondom": "S/I", "pendient": "N/A", "topograf": "N/A", "forma": "N/A", "uso1_p": "N/A", "uso2_p": "N/A", "uso3_p": "N/A", "usootro_p": "N/A", "obra": "N/A", "est_obr": "N/A", "uso1_ent": "N/A", "uso2_ent": "N/A", "uso3_ent": "N/A", "usootro_en": "N/A", "edif_ent": "N/A", "alt1_ent": 0, "alt2_ent": "N/A", "est_ep": "N/A", "und1_ent": "N/A", "und2_ent": "N/A", "und3_ent": "N/A", "undotro_en": "N/A", "avisos": "N/A", "uf_ent": "N/A", "proy_inm": "N/A", "tel": "N/A", "f63": null, "distrito_1": "MAPOCHO", "uf_prom": 12.42 }, "geometry": { "type": "Point", "coordinates": [ -70.6685865, -33.4332651 ] } },
{ "type": "Feature", "properties": { "FID_1": 904, "nombre_com": "SANTIAGO", "region": 13, "manzana": 3055, "predio": 14, "direccion": "STA ELVIRA 645", "avaluo_tot": 308335107, "cont_semes": 0, "destino": "Sitio Eriazo", "sup_tot_te": 3690, "avaluo_exe": 308335107, "exentas": "EXENTAS", "x": 347479.45969300001, "y": 6296392.2439599996, "mr": "1", "id": 36, "name_1": "STGO_36", "gabinete": "SI", "terreno": "NO", "encontrado": "SI", "poligono_s": "NO", "nom_c": "N/A", "id1": "N/A", "terreno1": "N/A", "rol": null, "direcc": "N/A", "comuna": "N/A", "distrito": "S/I", "manz": "S/I", "long": 0.0, "lat": 0.0, "observ": "N/A", "direcc_c": "N/A", "via": "N/A", "frentem": "S/I", "fondom": "S/I", "pendient": "N/A", "topograf": "N/A", "forma": "N/A", "uso1_p": "N/A", "uso2_p": "N/A", "uso3_p": "N/A", "usootro_p": "N/A", "obra": "N/A", "est_obr": "N/A", "uso1_ent": "N/A", "uso2_ent": "N/A", "uso3_ent": "N/A", "usootro_en": "N/A", "edif_ent": "N/A", "alt1_ent": 0, "alt2_ent": "N/A", "est_ep": "N/A", "und1_ent": "N/A", "und2_ent": "N/A", "und3_ent": "N/A", "undotro_en": "N/A", "avisos": "N/A", "uf_ent": "N/A", "proy_inm": "N/A", "tel": "N/A", "f63": null, "distrito_1": "CARMEN", "uf_prom": 11.63 }, "geometry": { "type": "Point", "coordinates": [ -70.6412067, -33.4610702 ] } },
{ "type": "Feature", "properties": { "FID_1": 905, "nombre_com": "SANTIAGO", "region": 13, "manzana": 3767, "predio": 2, "direccion": "SAN IGNACIO 2204 2338", "avaluo_tot": 82338702, "cont_semes": 1007994, "destino": "Sitio Eriazo", "sup_tot_te": 3610, "avaluo_exe": 0, "exentas": "0", "x": 346409.29035800003, "y": 6294750.6790199997, "mr": "1", "id": 39, "name_1": "STGO_39", "gabinete": "SI", "terreno": "NO", "encontrado": "SI", "poligono_s": "NO", "nom_c": "N/A", "id1": "N/A", "terreno1": "N/A", "rol": null, "direcc": "N/A", "comuna": "N/A", "distrito": "S/I", "manz": "S/I", "long": 0.0, "lat": 0.0, "observ": "N/A", "direcc_c": "N/A", "via": "N/A", "frentem": "S/I", "fondom": "S/I", "pendient": "N/A", "topograf": "N/A", "forma": "N/A", "uso1_p": "N/A", "uso2_p": "N/A", "uso3_p": "N/A", "usootro_p": "N/A", "obra": "N/A", "est_obr": "N/A", "uso1_ent": "N/A", "uso2_ent": "N/A", "uso3_ent": "N/A", "usootro_en": "N/A", "edif_ent": "N/A", "alt1_ent": 0, "alt2_ent": "N/A", "est_ep": "N/A", "und1_ent": "N/A", "und2_ent": "N/A", "und3_ent": "N/A", "undotro_en": "N/A", "avisos": "N/A", "uf_ent": "N/A", "proy_inm": "N/A", "tel": "N/A", "f63": null, "distrito_1": "MATADERO", "uf_prom": 9.85 }, "geometry": { "type": "Point", "coordinates": [ -70.6529991, -33.4757175 ] } },
{ "type": "Feature", "properties": { "FID_1": 906, "nombre_com": "SANTIAGO", "region": 13, "manzana": 303, "predio": 38, "direccion": "ALAMEDA LIB. B. OHIGGINS 98", "avaluo_tot": 54652652300, "cont_semes": 0, "destino": "Sitio Eriazo", "sup_tot_te": 63707, "avaluo_exe": 54652652300, "exentas": "EXENTAS", "x": 347992.99999600003, "y": 6298835.9998899996, "mr": "9", "id": 1, "name_1": "STGO_1", "gabinete": "SI", "terreno": "SI", "encontrado": "SI", "poligono_s": "NO", "nom_c": "CV", "id1": "STGO_1", "terreno1": "SI", "rol": null, "direcc": "ALAMEDA LIB. B. OHIGGINS, 98", "comuna": "SANTIAGO", "distrito": "S/I", "manz": "S/I", "long": 347992.99999600003, "lat": 6298835.9998899996, "observ": null, "direcc_c": null, "via": "CALLE SEGUND", "frentem": "S/I", "fondom": "S/I", "pendient": "NO TIENE", "topograf": "REGULAR", "forma": "REGULAR", "uso1_p": "RESIDENCIAL", "uso2_p": null, "uso3_p": null, "usootro_p": null, "obra": "SI", "est_obr": "TERMINADA", "uso1_ent": null, "uso2_ent": null, "uso3_ent": null, "usootro_en": null, "edif_ent": null, "alt1_ent": 0, "alt2_ent": "0", "est_ep": null, "und1_ent": null, "und2_ent": null, "und3_ent": null, "undotro_en": null, "avisos": null, "uf_ent": null, "proy_inm": null, "tel": null, "f63": null, "distrito_1": "VICUNA MACKENNA", "uf_prom": 12.39 }, "geometry": { "type": "Point", "coordinates": [ -70.635269, -33.4391102 ] } },
{ "type": "Feature", "properties": { "FID_1": 907, "nombre_com": "SANTIAGO", "region": 13, "manzana": 329, "predio": 11, "direccion": "PORTALES 3890", "avaluo_tot": 3200457300, "cont_semes": 0, "destino": "Sitio Eriazo", "sup_tot_te": 44460, "avaluo_exe": 3200457300, "exentas": "EXENTAS", "x": 347069.77064399997, "y": 6298349.8472600002, "mr": "3", "id": 2, "name_1": "STGO_2", "gabinete": "SI", "terreno": "NO", "encontrado": "SI", "poligono_s": "NO", "nom_c": "N/A", "id1": "N/A", "terreno1": "N/A", "rol": null, "direcc": "N/A", "comuna": "N/A", "distrito": "S/I", "manz": "S/I", "long": 0.0, "lat": 0.0, "observ": "N/A", "direcc_c": "N/A", "via": "N/A", "frentem": "S/I", "fondom": "S/I", "pendient": "N/A", "topograf": "N/A", "forma": "N/A", "uso1_p": "N/A", "uso2_p": "N/A", "uso3_p": "N/A", "usootro_p": "N/A", "obra": "N/A", "est_obr": "N/A", "uso1_ent": "N/A", "uso2_ent": "N/A", "uso3_ent": "N/A", "usootro_en": "N/A", "edif_ent": "N/A", "alt1_ent": 0, "alt2_ent": "N/A", "est_ep": "N/A", "und1_ent": "N/A", "und2_ent": "N/A", "und3_ent": "N/A", "undotro_en": "N/A", "avisos": "N/A", "uf_ent": "N/A", "proy_inm": "N/A", "tel": "N/A", "f63": null, "distrito_1": "SAN ISIDRO", "uf_prom": 12.94 }, "geometry": { "type": "Point", "coordinates": [ -70.6452802, -33.443362 ] } },
{ "type": "Feature", "properties": { "FID_1": 908, "nombre_com": "SANTIAGO", "region": 13, "manzana": 42, "predio": 909, "direccion": "SAN MARTIN 35 37 LTA 1", "avaluo_tot": 781598135, "cont_semes": 5778706, "destino": "Sitio Eriazo", "sup_tot_te": 3120, "avaluo_exe": 0, "exentas": "0", "x": 345970.28357700002, "y": 6298267.3484899998, "mr": "2", "id": 9, "name_1": "STGO_9", "gabinete": "SI", "terreno": "SI", "encontrado": "SI", "poligono_s": "NO", "nom_c": "CV", "id1": "STGO_9", "terreno1": "SI", "rol": null, "direcc": "SAN MARTIN, 35 37 LTA 1", "comuna": "SANTIAGO", "distrito": "S/I", "manz": "S/I", "long": 345970.28357700002, "lat": 6298267.3484899998, "observ": null, "direcc_c": null, "via": "CALLE SEGUND", "frentem": "S/I", "fondom": "S/I", "pendient": "NO TIENE", "topograf": "REGULAR", "forma": "IRREGULAR", "uso1_p": "RESIDENCIAL", "uso2_p": null, "uso3_p": null, "usootro_p": null, "obra": "SI", "est_obr": "EN OBRA", "uso1_ent": null, "uso2_ent": null, "uso3_ent": null, "usootro_en": null, "edif_ent": null, "alt1_ent": 0, "alt2_ent": "0", "est_ep": null, "und1_ent": null, "und2_ent": null, "und3_ent": null, "undotro_en": null, "avisos": null, "uf_ent": null, "proy_inm": null, "tel": null, "f63": null, "distrito_1": "AMUNATEGUI", "uf_prom": 17.67 }, "geometry": { "type": "Point", "coordinates": [ -70.6571187, -33.4439484 ] } },
{ "type": "Feature", "properties": { "FID_1": 909, "nombre_com": "SANTIAGO", "region": 13, "manzana": 190, "predio": 37, "direccion": "HERMANOS AMUNATEGUI 550 584", "avaluo_tot": 740501173, "cont_semes": 9918624, "destino": "Sitio Eriazo", "sup_tot_te": 6051, "avaluo_exe": 0, "exentas": "0", "x": 345946.99999500002, "y": 6298989.9998899996, "mr": "6", "id": 12, "name_1": "STGO_12", "gabinete": "SI", "terreno": "SI", "encontrado": "SI", "poligono_s": "NO", "nom_c": "CV", "id1": "STGO_12", "terreno1": "SI", "rol": null, "direcc": "HERMANOS AMUNATEGUI, 550 584", "comuna": "SANTIAGO", "distrito": "S/I", "manz": "S/I", "long": 345946.99999500002, "lat": 6298989.9998899996, "observ": null, "direcc_c": null, "via": "CALLE SEGUND", "frentem": "S/I", "fondom": "S/I", "pendient": "NO TIENE", "topograf": "IRREGULAR", "forma": "REGULAR", "uso1_p": "RESIDENCIAL", "uso2_p": null, "uso3_p": null, "usootro_p": null, "obra": "SI", "est_obr": "EN OBRA", "uso1_ent": null, "uso2_ent": null, "uso3_ent": null, "usootro_en": null, "edif_ent": null, "alt1_ent": 0, "alt2_ent": "0", "est_ep": null, "und1_ent": null, "und2_ent": null, "und3_ent": null, "undotro_en": null, "avisos": null, "uf_ent": null, "proy_inm": null, "tel": null, "f63": null, "distrito_1": "AMUNATEGUI", "uf_prom": 17.67 }, "geometry": { "type": "Point", "coordinates": [ -70.6572452, -33.4374296 ] } },
{ "type": "Feature", "properties": { "FID_1": 910, "nombre_com": "SANTIAGO", "region": 13, "manzana": 237, "predio": 15, "direccion": "SN PABLO 1522", "avaluo_tot": 376075475, "cont_semes": 5044430, "destino": "Sitio Eriazo", "sup_tot_te": 3014, "avaluo_exe": 0, "exentas": "0", "x": 345752.99999500002, "y": 6299234.9998899996, "mr": "2", "id": 14, "name_1": "STGO_14", "gabinete": "SI", "terreno": "SI", "encontrado": "SI", "poligono_s": "NO", "nom_c": "CV", "id1": "STGO_14", "terreno1": "SI", "rol": null, "direcc": "SN PABLO, 1522", "comuna": "SANTIAGO", "distrito": "S/I", "manz": "S/I", "long": 345752.99999500002, "lat": 6299234.9998899996, "observ": null, "direcc_c": null, "via": "CALLE SEGUND", "frentem": "S/I", "fondom": "S/I", "pendient": "NO TIENE", "topograf": "IRREGULAR", "forma": "REGULAR", "uso1_p": "RESIDENCIAL", "uso2_p": null, "uso3_p": null, "usootro_p": null, "obra": "SI", "est_obr": "EN OBRA", "uso1_ent": null, "uso2_ent": null, "uso3_ent": null, "usootro_en": null, "edif_ent": null, "alt1_ent": 0, "alt2_ent": "0", "est_ep": null, "und1_ent": null, "und2_ent": null, "und3_ent": null, "undotro_en": null, "avisos": null, "uf_ent": null, "proy_inm": null, "tel": null, "f63": null, "distrito_1": "AMUNATEGUI", "uf_prom": 17.67 }, "geometry": { "type": "Point", "coordinates": [ -70.6592893, -33.4351928 ] } },
{ "type": "Feature", "properties": { "FID_1": 911, "nombre_com": "SANTIAGO", "region": 13, "manzana": 284, "predio": 28, "direccion": "MAPOCHO 1538 1542", "avaluo_tot": 353740535, "cont_semes": 3293712, "destino": "Sitio Eriazo", "sup_tot_te": 3276, "avaluo_exe": 0, "exentas": "0", "x": 345722.99999500002, "y": 6299540.9998899996, "mr": "2", "id": 16, "name_1": "STGO_16", "gabinete": "SI", "terreno": "SI", "encontrado": "SI", "poligono_s": "NO", "nom_c": "CV", "id1": "STGO_16", "terreno1": "SI", "rol": null, "direcc": "MAPOCHO, 1538 1542", "comuna": "SANTIAGO", "distrito": "S/I", "manz": "S/I", "long": 345722.99999500002, "lat": 6299540.9998899996, "observ": null, "direcc_c": null, "via": "CARRETERA AUTOP", "frentem": "S/I", "fondom": "S/I", "pendient": "NO TIENE", "topograf": "IRREGULAR", "forma": "IRREGULAR", "uso1_p": "RESIDENCIAL", "uso2_p": null, "uso3_p": null, "usootro_p": null, "obra": "SI", "est_obr": "EN OBRA", "uso1_ent": null, "uso2_ent": null, "uso3_ent": null, "usootro_en": null, "edif_ent": null, "alt1_ent": 0, "alt2_ent": "0", "est_ep": null, "und1_ent": null, "und2_ent": null, "und3_ent": null, "undotro_en": null, "avisos": null, "uf_ent": null, "proy_inm": null, "tel": null, "f63": null, "distrito_1": "AMUNATEGUI", "uf_prom": 17.67 }, "geometry": { "type": "Point", "coordinates": [ -70.6595594, -33.4324296 ] } },
{ "type": "Feature", "properties": { "FID_1": 912, "nombre_com": "SANTIAGO", "region": 13, "manzana": 303, "predio": 6, "direccion": "V MACKENNA 37", "avaluo_tot": 1603780180, "cont_semes": 21464980, "destino": "Sitio Eriazo", "sup_tot_te": 4209, "avaluo_exe": 0, "exentas": "0", "x": 347992.99999600003, "y": 6298835.9998899996, "mr": "9", "id": 17, "name_1": "STGO_17", "gabinete": "SI", "terreno": "SI", "encontrado": "SI", "poligono_s": "NO", "nom_c": "CV", "id1": "STGO_17", "terreno1": "SI", "rol": null, "direcc": "V MACKENNA, 37", "comuna": "SANTIAGO", "distrito": "S/I", "manz": "S/I", "long": 347992.99999600003, "lat": 6298835.9998899996, "observ": null, "direcc_c": null, "via": "AVENIDA", "frentem": "S/I", "fondom": "S/I", "pendient": "NO TIENE", "topograf": "REGULAR", "forma": "REGULAR", "uso1_p": "RESIDENCIAL", "uso2_p": null, "uso3_p": null, "usootro_p": null, "obra": "SI", "est_obr": "EN OBRA", "uso1_ent": null, "uso2_ent": null, "uso3_ent": null, "usootro_en": null, "edif_ent": null, "alt1_ent": 0, "alt2_ent": "0", "est_ep": null, "und1_ent": null, "und2_ent": null, "und3_ent": null, "undotro_en": null, "avisos": null, "uf_ent": null, "proy_inm": null, "tel": null, "f63": null, "distrito_1": "VICUNA MACKENNA", "uf_prom": 12.39 }, "geometry": { "type": "Point", "coordinates": [ -70.635269, -33.4391102 ] } },
{ "type": "Feature", "properties": { "FID_1": 913, "nombre_com": "SANTIAGO", "region": 13, "manzana": 303, "predio": 72, "direccion": "RENACA 50 90", "avaluo_tot": 513026760, "cont_semes": 0, "destino": "Sitio Eriazo", "sup_tot_te": 2244, "avaluo_exe": 513026760, "exentas": "EXENTAS", "x": 347960.99999600003, "y": 6298935.9998899996, "mr": "9", "id": 18, "name_1": "STGO_18", "gabinete": "SI", "terreno": "SI", "encontrado": "SI", "poligono_s": "NO", "nom_c": "CV", "id1": "STGO_18", "terreno1": "SI", "rol": null, "direcc": "RENACA, 50 90", "comuna": "SANTIAGO", "distrito": "S/I", "manz": "S/I", "long": 347960.99999600003, "lat": 6298935.9998899996, "observ": null, "direcc_c": null, "via": "CALLE SEGUND", "frentem": "S/I", "fondom": "S/I", "pendient": "NO TIENE", "topograf": "REGULAR", "forma": "REGULAR", "uso1_p": "RESIDENCIAL", "uso2_p": null, "uso3_p": null, "usootro_p": null, "obra": "SI", "est_obr": "TERMINADA", "uso1_ent": null, "uso2_ent": null, "uso3_ent": null, "usootro_en": null, "edif_ent": null, "alt1_ent": 0, "alt2_ent": "0", "est_ep": null, "und1_ent": null, "und2_ent": null, "und3_ent": null, "undotro_en": null, "avisos": null, "uf_ent": null, "proy_inm": null, "tel": null, "f63": null, "distrito_1": "VICUNA MACKENNA", "uf_prom": 12.39 }, "geometry": { "type": "Point", "coordinates": [ -70.6355962, -33.4382041 ] } },
{ "type": "Feature", "properties": { "FID_1": 914, "nombre_com": "SANTIAGO", "region": 13, "manzana": 474, "predio": 7, "direccion": "SAN FRANCISCO 259 AL 269", "avaluo_tot": 99401599, "cont_semes": 1343916, "destino": "Sitio Eriazo", "sup_tot_te": 2351, "avaluo_exe": 0, "exentas": "0", "x": 346838.58106400003, "y": 6297856.7968100002, "mr": "2", "id": 22, "name_1": "STGO_22", "gabinete": "SI", "terreno": "SI", "encontrado": "SI", "poligono_s": "NO", "nom_c": "CV", "id1": "STGO_22", "terreno1": "SI", "rol": null, "direcc": "SAN FRANCISCO, 259 AL 269", "comuna": "SANTIAGO", "distrito": "S/I", "manz": "S/I", "long": 346838.58106400003, "lat": 6297856.7968100002, "observ": null, "direcc_c": null, "via": "CALLE SEGUND", "frentem": "S/I", "fondom": "S/I", "pendient": "NO TIENE", "topograf": "IRREGULAR", "forma": "REGULAR", "uso1_p": "RESIDENCIAL", "uso2_p": null, "uso3_p": null, "usootro_p": null, "obra": "SI", "est_obr": "EN OBRA", "uso1_ent": null, "uso2_ent": null, "uso3_ent": null, "usootro_en": null, "edif_ent": null, "alt1_ent": 0, "alt2_ent": "0", "est_ep": null, "und1_ent": null, "und2_ent": null, "und3_ent": null, "undotro_en": null, "avisos": null, "uf_ent": null, "proy_inm": null, "tel": null, "f63": null, "distrito_1": "UNIVERSIDAD", "uf_prom": 12.4 }, "geometry": { "type": "Point", "coordinates": [ -70.6478506, -33.4477744 ] } },
{ "type": "Feature", "properties": { "FID_1": 915, "nombre_com": "SANTIAGO", "region": 13, "manzana": 474, "predio": 8, "direccion": "SAN FRANCISCO 271 289", "avaluo_tot": 119264214, "cont_semes": 1609578, "destino": "Sitio Eriazo", "sup_tot_te": 2579, "avaluo_exe": 0, "exentas": "0", "x": 346838.58106400003, "y": 6297856.7968100002, "mr": "2", "id": 23, "name_1": "STGO_23", "gabinete": "SI", "terreno": "SI", "encontrado": "SI", "poligono_s": "NO", "nom_c": "CV", "id1": "STGO_23", "terreno1": "SI", "rol": null, "direcc": "SAN FRANCISCO, 271 289", "comuna": "SANTIAGO", "distrito": "S/I", "manz": "S/I", "long": 346838.58106400003, "lat": 6297856.7968100002, "observ": null, "direcc_c": null, "via": "CALLE SEGUND", "frentem": "S/I", "fondom": "S/I", "pendient": "NO TIENE", "topograf": "REGULAR", "forma": "REGULAR", "uso1_p": "RESIDENCIAL", "uso2_p": null, "uso3_p": null, "usootro_p": null, "obra": "SI", "est_obr": "EN OBRA", "uso1_ent": null, "uso2_ent": null, "uso3_ent": null, "usootro_en": null, "edif_ent": null, "alt1_ent": 0, "alt2_ent": "0", "est_ep": null, "und1_ent": null, "und2_ent": null, "und3_ent": null, "undotro_en": null, "avisos": null, "uf_ent": null, "proy_inm": null, "tel": null, "f63": null, "distrito_1": "UNIVERSIDAD", "uf_prom": 12.4 }, "geometry": { "type": "Point", "coordinates": [ -70.6478506, -33.4477744 ] } },
{ "type": "Feature", "properties": { "FID_1": 916, "nombre_com": "SANTIAGO", "region": 13, "manzana": 474, "predio": 20, "direccion": "SERRANO 202 222 TARAPACA 868 890", "avaluo_tot": 234041000, "cont_semes": 3144716, "destino": "Sitio Eriazo", "sup_tot_te": 2859, "avaluo_exe": 0, "exentas": "0", "x": 346838.58106400003, "y": 6297856.7968100002, "mr": "2", "id": 24, "name_1": "STGO_24", "gabinete": "SI", "terreno": "SI", "encontrado": "SI", "poligono_s": "NO", "nom_c": "CV", "id1": "STGO_24", "terreno1": "SI", "rol": null, "direcc": "SERRANO, 202 222 TARAPACA, 868 890", "comuna": "SANTIAGO", "distrito": "S/I", "manz": "S/I", "long": 346838.58106400003, "lat": 6297856.7968100002, "observ": null, "direcc_c": null, "via": "CALLE SEGUND", "frentem": "S/I", "fondom": "S/I", "pendient": "NO TIENE", "topograf": "IRREGULAR", "forma": "REGULAR", "uso1_p": "RESIDENCIAL", "uso2_p": null, "uso3_p": null, "usootro_p": null, "obra": "SI", "est_obr": "EN OBRA", "uso1_ent": null, "uso2_ent": null, "uso3_ent": null, "usootro_en": null, "edif_ent": null, "alt1_ent": 0, "alt2_ent": "0", "est_ep": null, "und1_ent": null, "und2_ent": null, "und3_ent": null, "undotro_en": null, "avisos": null, "uf_ent": null, "proy_inm": null, "tel": null, "f63": null, "distrito_1": "UNIVERSIDAD", "uf_prom": 12.4 }, "geometry": { "type": "Point", "coordinates": [ -70.6478506, -33.4477744 ] } },
{ "type": "Feature", "properties": { "FID_1": 917, "nombre_com": "SANTIAGO", "region": 13, "manzana": 641, "predio": 1, "direccion": "NATANIEL 403 405", "avaluo_tot": 281332958, "cont_semes": 3772466, "destino": "Sitio Eriazo", "sup_tot_te": 2804, "avaluo_exe": 0, "exentas": "0", "x": 346306.99999500002, "y": 6297528.9998899996, "mr": "2", "id": 27, "name_1": "STGO_27", "gabinete": "SI", "terreno": "SI", "encontrado": "SI", "poligono_s": "NO", "nom_c": "CV", "id1": "STGO_27", "terreno1": "SI", "rol": null, "direcc": "NATANIEL COX, 403 405", "comuna": "SANTIAGO", "distrito": "S/I", "manz": "S/I", "long": 346306.99999500002, "lat": 6297528.9998899996, "observ": null, "direcc_c": null, "via": "AVENIDA", "frentem": "S/I", "fondom": "S/I", "pendient": "NO TIENE", "topograf": "REGULAR", "forma": "REGULAR", "uso1_p": "ERIAZO", "uso2_p": null, "uso3_p": null, "usootro_p": null, "obra": "NO", "est_obr": null, "uso1_ent": "ERIAZO", "uso2_ent": "RESIDENCIAL", "uso3_ent": "EQUIP", "usootro_en": null, "edif_ent": "BUENO", "alt1_ent": 0, "alt2_ent": "0", "est_ep": "BUENO", "und1_ent": null, "und2_ent": null, "und3_ent": null, "undotro_en": null, "avisos": "NO", "uf_ent": null, "proy_inm": null, "tel": null, "f63": null, "distrito_1": "ALMAGRO", "uf_prom": 11.73 }, "geometry": { "type": "Point", "coordinates": [ -70.6536238, -33.4506536 ] } },
{ "type": "Feature", "properties": { "FID_1": 918, "nombre_com": "SANTIAGO", "region": 13, "manzana": 1012, "predio": 256, "direccion": "BARON P COUBERTIN LOTE 1", "avaluo_tot": 577537229, "cont_semes": 0, "destino": "Sitio Eriazo", "sup_tot_te": 2456, "avaluo_exe": 577537229, "exentas": "EXENTAS", "x": 347945.99471699999, "y": 6298701.8149699997, "mr": "4", "id": 29, "name_1": "STGO_29", "gabinete": "SI", "terreno": "SI", "encontrado": "SI", "poligono_s": "NO", "nom_c": "CV", "id1": "STGO_29", "terreno1": "SI", "rol": null, "direcc": "BARON P COUBERTIN, LOTE 1", "comuna": "SANTIAGO", "distrito": "S/I", "manz": "S/I", "long": 347945.99471699999, "lat": 6298701.8149699997, "observ": null, "direcc_c": null, "via": "CALLE SEGUND", "frentem": "S/I", "fondom": "S/I", "pendient": "NO TIENE", "topograf": "REGULAR", "forma": "REGULAR", "uso1_p": "EQUIP", "uso2_p": "AREA VERDE", "uso3_p": null, "usootro_p": null, "obra": "SI", "est_obr": "TERMINADA", "uso1_ent": null, "uso2_ent": null, "uso3_ent": null, "usootro_en": null, "edif_ent": null, "alt1_ent": 0, "alt2_ent": "0", "est_ep": null, "und1_ent": null, "und2_ent": null, "und3_ent": null, "undotro_en": null, "avisos": null, "uf_ent": null, "proy_inm": null, "tel": null, "f63": null, "distrito_1": "VICUNA MACKENNA", "uf_prom": 12.39 }, "geometry": { "type": "Point", "coordinates": [ -70.6357972, -33.4403134 ] } },
{ "type": "Feature", "properties": { "FID_1": 919, "nombre_com": "SANTIAGO", "region": 13, "manzana": 325, "predio": 19, "direccion": "MATUCANA 340 INT SECTOR LAGUNA", "avaluo_tot": 68791836, "cont_semes": 430990, "destino": "Sitio Eriazo", "sup_tot_te": 6826, "avaluo_exe": 0, "exentas": "0", "x": 343731.99999500002, "y": 6298452.9998899996, "mr": "2", "id": 33, "name_1": "STGO_33", "gabinete": "SI", "terreno": "SI", "encontrado": "SI", "poligono_s": "NO", "nom_c": "CV", "id1": "STGO_33", "terreno1": "SI", "rol": null, "direcc": "MATUCANA, 340 INT SECTOR LAGUNA", "comuna": "SANTIAGO", "distrito": "S/I", "manz": "S/I", "long": 343731.99999500002, "lat": 6298452.9998899996, "observ": null, "direcc_c": null, "via": "AVENIDA", "frentem": "S/I", "fondom": "S/I", "pendient": "NO TIENE", "topograf": "REGULAR", "forma": "IRREGULAR", "uso1_p": "AREA VERDE", "uso2_p": "EP", "uso3_p": "EQUIP", "usootro_p": null, "obra": "SI", "est_obr": "TERMINADA", "uso1_ent": null, "uso2_ent": null, "uso3_ent": null, "usootro_en": null, "edif_ent": null, "alt1_ent": 0, "alt2_ent": "0", "est_ep": null, "und1_ent": null, "und2_ent": null, "und3_ent": null, "undotro_en": null, "avisos": null, "uf_ent": null, "proy_inm": null, "tel": null, "f63": null, "distrito_1": "QUINTA NORMAL", "uf_prom": 9.266667 }, "geometry": { "type": "Point", "coordinates": [ -70.6811579, -33.4419505 ] } },
{ "type": "Feature", "properties": { "FID_1": 920, "nombre_com": "SANTIAGO", "region": 13, "manzana": 3771, "predio": 39, "direccion": "FRANKLIN 1441", "avaluo_tot": 368324766, "cont_semes": 4935984, "destino": "Sitio Eriazo", "sup_tot_te": 5652, "avaluo_exe": 0, "exentas": "0", "x": 346394.99999500002, "y": 6295020.9998899996, "mr": "2", "id": 40, "name_1": "STGO_40", "gabinete": "SI", "terreno": "SI", "encontrado": "SI", "poligono_s": "NO", "nom_c": "CV", "id1": "STGO_40", "terreno1": "SI", "rol": null, "direcc": "FRANKLIN, 1441", "comuna": "SANTIAGO", "distrito": "S/I", "manz": "S/I", "long": 346394.99999500002, "lat": 6295020.9998899996, "observ": null, "direcc_c": null, "via": "CALLE SEGUND", "frentem": "S/I", "fondom": "S/I", "pendient": "NO TIENE", "topograf": "REGULAR", "forma": "REGULAR", "uso1_p": "ERIAZO", "uso2_p": null, "uso3_p": null, "usootro_p": null, "obra": "NO", "est_obr": null, "uso1_ent": "RESIDENCIAL", "uso2_ent": "BODEGA TALLER", "uso3_ent": null, "usootro_en": null, "edif_ent": "REGULAR", "alt1_ent": 1, "alt2_ent": "0", "est_ep": "BUENO", "und1_ent": "TALLERES AUTO", "und2_ent": null, "und3_ent": null, "undotro_en": null, "avisos": "NO", "uf_ent": null, "proy_inm": null, "tel": null, "f63": null, "distrito_1": "MATADERO", "uf_prom": 9.85 }, "geometry": { "type": "Point", "coordinates": [ -70.6531066, -33.4732782 ] } },
{ "type": "Feature", "properties": { "FID_1": 921, "nombre_com": "SANTIAGO", "region": 13, "manzana": 0, "predio": 0, "direccion": "MORANDE, 910 914", "avaluo_tot": 0, "cont_semes": 0, "destino": null, "sup_tot_te": 0, "avaluo_exe": 0, "exentas": null, "x": 346203.43264000001, "y": 6299497.1799699999, "mr": null, "id": 45, "name_1": "STGO_45", "gabinete": "N/A", "terreno": "SI", "encontrado": "SI", "poligono_s": "NO", "nom_c": "CV", "id1": "STGO_45", "terreno1": "SI", "rol": null, "direcc": "MORANDE, 910 914", "comuna": "SANTIAGO", "distrito": "S/I", "manz": "S/I", "long": 346203.43264000001, "lat": 6299497.1799699999, "observ": "localizacion en kmz", "direcc_c": null, "via": "AVENIDA", "frentem": "S/I", "fondom": "S/I", "pendient": "NO TIENE", "topograf": "IRREGULAR", "forma": "REGULAR", "uso1_p": "ERIAZO", "uso2_p": null, "uso3_p": null, "usootro_p": null, "obra": "NO", "est_obr": null, "uso1_ent": "RESIDENCIAL", "uso2_ent": "EQUIP", "uso3_ent": null, "usootro_en": null, "edif_ent": "BUENO", "alt1_ent": 0, "alt2_ent": "5 A 8", "est_ep": "REGULAR", "und1_ent": null, "und2_ent": null, "und3_ent": null, "undotro_en": null, "avisos": "NO", "uf_ent": null, "proy_inm": null, "tel": null, "f63": null, "distrito_1": "MONEDA", "uf_prom": 18.84 }, "geometry": { "type": "Point", "coordinates": [ -70.6544008, -33.4328937 ] } },
{ "type": "Feature", "properties": { "FID_1": 922, "nombre_com": "SANTIAGO", "region": 13, "manzana": 0, "predio": 0, "direccion": "ROSAS, 1910", "avaluo_tot": 0, "cont_semes": 0, "destino": null, "sup_tot_te": 0, "avaluo_exe": 0, "exentas": null, "x": 345287.727457, "y": 6299089.7429600004, "mr": null, "id": 47, "name_1": "STGO_47", "gabinete": "N/A", "terreno": "SI", "encontrado": "SI", "poligono_s": "NO", "nom_c": "CV", "id1": "STGO_47", "terreno1": "SI", "rol": null, "direcc": "ROSAS, 1910", "comuna": "SANTIAGO", "distrito": "S/I", "manz": "S/I", "long": 345287.727457, "lat": 6299089.7429600004, "observ": "localizacion en kmz", "direcc_c": null, "via": "AVENIDA", "frentem": "S/I", "fondom": "S/I", "pendient": "NO TIENE", "topograf": "REGULAR", "forma": "REGULAR", "uso1_p": "ERIAZO", "uso2_p": null, "uso3_p": null, "usootro_p": null, "obra": "NO", "est_obr": null, "uso1_ent": "RESIDENCIAL", "uso2_ent": "EQUIP", "uso3_ent": "AREA VERDE", "usootro_en": null, "edif_ent": "BUENO", "alt1_ent": 1, "alt2_ent": "0", "est_ep": "BUENO", "und1_ent": null, "und2_ent": null, "und3_ent": null, "undotro_en": null, "avisos": "NO", "uf_ent": null, "proy_inm": null, "tel": null, "f63": null, "distrito_1": "MAPOCHO", "uf_prom": 12.42 }, "geometry": { "type": "Point", "coordinates": [ -70.6643176, -33.4364354 ] } },
{ "type": "Feature", "properties": { "FID_1": 923, "nombre_com": "SANTIAGO", "region": 13, "manzana": 0, "predio": 0, "direccion": "COMPANIA", "avaluo_tot": 0, "cont_semes": 0, "destino": null, "sup_tot_te": 0, "avaluo_exe": 0, "exentas": null, "x": 344576.91007400001, "y": 6298627.4951499999, "mr": null, "id": 48, "name_1": "STGO_48", "gabinete": "N/A", "terreno": "SI", "encontrado": "SI", "poligono_s": "NO", "nom_c": "CV", "id1": "STGO_48", "terreno1": "SI", "rol": null, "direcc": "COMPANIA", "comuna": "SANTIAGO", "distrito": "S/I", "manz": "S/I", "long": 344576.91007400001, "lat": 6298627.4951499999, "observ": "localizacion en kmz", "direcc_c": null, "via": "AVENIDA", "frentem": "S/I", "fondom": "S/I", "pendient": "NO TIENE", "topograf": "REGULAR", "forma": "IRREGULAR", "uso1_p": "ERIAZO", "uso2_p": null, "uso3_p": null, "usootro_p": null, "obra": "NO", "est_obr": null, "uso1_ent": "ERIAZO", "uso2_ent": "RESIDENCIAL", "uso3_ent": "EQUIP", "usootro_en": null, "edif_ent": "BUENO", "alt1_ent": 0, "alt2_ent": "0", "est_ep": "BUENO", "und1_ent": null, "und2_ent": null, "und3_ent": null, "undotro_en": null, "avisos": "SI", "uf_ent": null, "proy_inm": "MANQUEHUE", "tel": "9461050", "f63": null, "distrito_1": "PORTALES", "uf_prom": 8.822222 }, "geometry": { "type": "Point", "coordinates": [ -70.6720414, -33.4405001 ] } },
{ "type": "Feature", "properties": { "FID_1": 924, "nombre_com": "SANTIAGO", "region": 13, "manzana": 0, "predio": 0, "direccion": "MANUEL RODRIGUEZ ESQUINA COMPANIA", "avaluo_tot": 0, "cont_semes": 0, "destino": null, "sup_tot_te": 0, "avaluo_exe": 0, "exentas": null, "x": 345783.87774099997, "y": 6298745.7258900004, "mr": null, "id": 49, "name_1": "STGO_49", "gabinete": "N/A", "terreno": "SI", "encontrado": "SI", "poligono_s": "NO", "nom_c": "CV", "id1": "STGO_49", "terreno1": "SI", "rol": null, "direcc": "MANUEL RODRIGUEZ ESQUINA COMPANIA", "comuna": "SANTIAGO", "distrito": "S/I", "manz": "S/I", "long": 345783.87774099997, "lat": 6298745.7258900004, "observ": "localizacion en kmz ESQUINA COMPANIA CON MANUEL RODRIGUEZ", "direcc_c": null, "via": "CALLE SEGUND", "frentem": "S/I", "fondom": "S/I", "pendient": "NO TIENE", "topograf": "IRREGULAR", "forma": "REGULAR", "uso1_p": "ERIAZO", "uso2_p": null, "uso3_p": null, "usootro_p": null, "obra": "NO", "est_obr": null, "uso1_ent": "ERIAZO", "uso2_ent": "RESIDENCIAL", "uso3_ent": "INFRAESTRUCTURA", "usootro_en": null, "edif_ent": "BUENO", "alt1_ent": 0, "alt2_ent": "0", "est_ep": "BUENO", "und1_ent": null, "und2_ent": null, "und3_ent": null, "undotro_en": null, "avisos": "NO", "uf_ent": null, "proy_inm": null, "tel": null, "f63": null, "distrito_1": "AMUNATEGUI", "uf_prom": 17.67 }, "geometry": { "type": "Point", "coordinates": [ -70.6590413, -33.4396085 ] } },
{ "type": "Feature", "properties": { "FID_1": 925, "nombre_com": "SANTIAGO", "region": 13, "manzana": 0, "predio": 0, "direccion": "ALAMEDA LIB. B. OHIGGINS, 1991", "avaluo_tot": 0, "cont_semes": 0, "destino": null, "sup_tot_te": 0, "avaluo_exe": 0, "exentas": null, "x": 345390.43711699999, "y": 6298025.642, "mr": null, "id": 50, "name_1": "STGO_50", "gabinete": "N/A", "terreno": "SI", "encontrado": "SI", "poligono_s": "NO", "nom_c": "CV", "id1": "STGO_50", "terreno1": "SI", "rol": null, "direcc": "ALAMEDA LIB. B. OHIGGINS, 1991", "comuna": "SANTIAGO", "distrito": "S/I", "manz": "S/I", "long": 345390.43711699999, "lat": 6298025.642, "observ": "localizacion en kmz", "direcc_c": null, "via": "AVENIDA", "frentem": "S/I", "fondom": "S/I", "pendient": "NO TIENE", "topograf": "REGULAR", "forma": "REGULAR", "uso1_p": "ERIAZO", "uso2_p": null, "uso3_p": null, "usootro_p": null, "obra": "NO", "est_obr": null, "uso1_ent": "EQUIP", "uso2_ent": "EP", "uso3_ent": "AREA VERDE", "usootro_en": null, "edif_ent": "BUENO", "alt1_ent": 0, "alt2_ent": "0", "est_ep": "BUENO", "und1_ent": null, "und2_ent": null, "und3_ent": null, "undotro_en": null, "avisos": "NO", "uf_ent": null, "proy_inm": null, "tel": null, "f63": null, "distrito_1": "BRASIL", "uf_prom": 11.0 }, "geometry": { "type": "Point", "coordinates": [ -70.6633963, -33.446044 ] } },
{ "type": "Feature", "properties": { "FID_1": 926, "nombre_com": "SANTIAGO", "region": 13, "manzana": 0, "predio": 0, "direccion": "ALAMEDA LIB. B. OHIGGINS, 1961", "avaluo_tot": 0, "cont_semes": 0, "destino": null, "sup_tot_te": 0, "avaluo_exe": 0, "exentas": null, "x": 345444.49239000003, "y": 6297894.0579899997, "mr": null, "id": 51, "name_1": "STGO_51", "gabinete": "N/A", "terreno": "SI", "encontrado": "SI", "poligono_s": "NO", "nom_c": "CV", "id1": "STGO_51", "terreno1": "SI", "rol": null, "direcc": "ALAMEDA LIB. B. OHIGGINS, 1961", "comuna": "SANTIAGO", "distrito": "S/I", "manz": "S/I", "long": 345444.49239000003, "lat": 6297894.0579899997, "observ": "localizacion en kmz", "direcc_c": null, "via": "AVENIDA", "frentem": "S/I", "fondom": "S/I", "pendient": "NO TIENE", "topograf": "REGULAR", "forma": "REGULAR", "uso1_p": "ERIAZO", "uso2_p": null, "uso3_p": null, "usootro_p": null, "obra": "NO", "est_obr": null, "uso1_ent": "BODEGA TALLER", "uso2_ent": "EQUIP", "uso3_ent": "EP", "usootro_en": null, "edif_ent": "BUENO", "alt1_ent": 0, "alt2_ent": "0", "est_ep": "BUENO", "und1_ent": null, "und2_ent": null, "und3_ent": null, "undotro_en": null, "avisos": "NO", "uf_ent": null, "proy_inm": null, "tel": null, "f63": null, "distrito_1": "EJERCITO", "uf_prom": 9.892308 }, "geometry": { "type": "Point", "coordinates": [ -70.6628375, -33.4472382 ] } },
{ "type": "Feature", "properties": { "FID_1": 927, "nombre_com": "SANTIAGO", "region": 13, "manzana": 0, "predio": 0, "direccion": "MENSIA DE LOS NIDOS", "avaluo_tot": 0, "cont_semes": 0, "destino": null, "sup_tot_te": 0, "avaluo_exe": 0, "exentas": null, "x": 346391.75312900002, "y": 6297459.0110099996, "mr": null, "id": 52, "name_1": "STGO_52", "gabinete": "N/A", "terreno": "SI", "encontrado": "SI", "poligono_s": "NO", "nom_c": "CV", "id1": "STGO_52", "terreno1": "SI", "rol": null, "direcc": "MENSIA DE LOS NIDOS", "comuna": "SANTIAGO", "distrito": "S/I", "manz": "S/I", "long": 346391.75312900002, "lat": 6297459.0110099996, "observ": "localizacion en kmz", "direcc_c": null, "via": "AVENIDA", "frentem": "S/I", "fondom": "S/I", "pendient": "NO TIENE", "topograf": "REGULAR", "forma": "IRREGULAR", "uso1_p": "ERIAZO", "uso2_p": null, "uso3_p": null, "usootro_p": null, "obra": "NO", "est_obr": null, "uso1_ent": "ERIAZO", "uso2_ent": "RESIDENCIAL", "uso3_ent": "EQUIP", "usootro_en": "AREAVERDE", "edif_ent": "BUENO", "alt1_ent": 0, "alt2_ent": "0", "est_ep": "BUENO", "und1_ent": null, "und2_ent": null, "und3_ent": null, "undotro_en": null, "avisos": "NO", "uf_ent": null, "proy_inm": null, "tel": null, "f63": null, "distrito_1": "ALMAGRO", "uf_prom": 11.73 }, "geometry": { "type": "Point", "coordinates": [ -70.6527242, -33.4512968 ] } },
{ "type": "Feature", "properties": { "FID_1": 928, "nombre_com": "SANTIAGO", "region": 13, "manzana": 1618, "predio": 1, "direccion": "CENTENARIO 2558", "avaluo_tot": 390977272, "cont_semes": 5238960, "destino": "Sitio Eriazo", "sup_tot_te": 18300, "avaluo_exe": 0, "exentas": "0", "x": 344979.58831299999, "y": 6294689.3832700001, "mr": "1", "id": 3, "name_1": "STGO_3", "gabinete": "SI", "terreno": "SI", "encontrado": "SI", "poligono_s": "SI", "nom_c": "CV", "id1": "STGO_3", "terreno1": "SI", "rol": null, "direcc": "CENTENARIO, 2558", "comuna": "SANTIAGO", "distrito": "S/I", "manz": "S/I", "long": 344979.58831299999, "lat": 6294689.3832700001, "observ": null, "direcc_c": null, "via": "AVENIDA", "frentem": "S/I", "fondom": "S/I", "pendient": "NO TIENE", "topograf": "REGULAR", "forma": "REGULAR", "uso1_p": "AREA VERDE", "uso2_p": "EP", "uso3_p": null, "usootro_p": null, "obra": "SI", "est_obr": "TERMINADA", "uso1_ent": null, "uso2_ent": null, "uso3_ent": null, "usootro_en": null, "edif_ent": null, "alt1_ent": 0, "alt2_ent": "0", "est_ep": null, "und1_ent": null, "und2_ent": null, "und3_ent": null, "undotro_en": null, "avisos": null, "uf_ent": null, "proy_inm": null, "tel": null, "f63": null, "distrito_1": "ESTADIO YARUR", "uf_prom": 9.95 }, "geometry": { "type": "Point", "coordinates": [ -70.6683911, -33.476064 ] } },
{ "type": "Feature", "properties": { "FID_1": 929, "nombre_com": "SANTIAGO", "region": 13, "manzana": 3189, "predio": 56, "direccion": "P OHIGGINS GRADERIAS PRESID", "avaluo_tot": 1230935170, "cont_semes": 0, "destino": "Sitio Eriazo", "sup_tot_te": 10200, "avaluo_exe": 1230935170, "exentas": "EXENTAS", "x": 345604.30216600001, "y": 6296180.7216299996, "mr": "1", "id": 4, "name_1": "STGO_4", "gabinete": "SI", "terreno": "SI", "encontrado": "SI", "poligono_s": "SI", "nom_c": "CV", "id1": "STGO_4", "terreno1": "SI", "rol": null, "direcc": "P OHIGGINS GRADERIAS PRESID", "comuna": "SANTIAGO", "distrito": "S/I", "manz": "S/I", "long": 345604.30216600001, "lat": 6296180.7216299996, "observ": null, "direcc_c": null, "via": "CALLE SEGUND", "frentem": "S/I", "fondom": "S/I", "pendient": "NO TIENE", "topograf": "REGULAR", "forma": "REGULAR", "uso1_p": "AREA VERDE", "uso2_p": "EP", "uso3_p": null, "usootro_p": null, "obra": "SI", "est_obr": "TERMINADA", "uso1_ent": null, "uso2_ent": null, "uso3_ent": null, "usootro_en": null, "edif_ent": null, "alt1_ent": 0, "alt2_ent": "0", "est_ep": null, "und1_ent": null, "und2_ent": null, "und3_ent": null, "undotro_en": null, "avisos": null, "uf_ent": null, "proy_inm": null, "tel": null, "f63": null, "distrito_1": "PARQUE OHIGGINS", "uf_prom": 9.413333 }, "geometry": { "type": "Point", "coordinates": [ -70.6614135, -33.4627085 ] } },
{ "type": "Feature", "properties": { "FID_1": 930, "nombre_com": "SANTIAGO", "region": 13, "manzana": 3732, "predio": 2, "direccion": "SANTA ROSA 2389", "avaluo_tot": 2875339840, "cont_semes": 0, "destino": "Sitio Eriazo", "sup_tot_te": 22520, "avaluo_exe": 2875339840, "exentas": "EXENTAS", "x": 347382.19020399998, "y": 6294652.1045899997, "mr": "1", "id": 5, "name_1": "STGO_5", "gabinete": "SI", "terreno": "SI", "encontrado": "SI", "poligono_s": "SI", "nom_c": "CV", "id1": "STGO_5", "terreno1": "SI", "rol": null, "direcc": "SANTA ROSA, 2389", "comuna": "SANTIAGO", "distrito": "S/I", "manz": "S/I", "long": 347382.19020399998, "lat": 6294652.1045899997, "observ": null, "direcc_c": null, "via": "AVENIDA", "frentem": "S/I", "fondom": "S/I", "pendient": "NO TIENE", "topograf": "REGULAR", "forma": "IRREGULAR", "uso1_p": "ERIAZO", "uso2_p": "INFRAESTRUCTURA", "uso3_p": null, "usootro_p": null, "obra": "SI", "est_obr": "TERMINADA", "uso1_ent": "RESIDENCIAL", "uso2_ent": "EQUIP", "uso3_ent": null, "usootro_en": null, "edif_ent": "REGULAR", "alt1_ent": 1, "alt2_ent": "0", "est_ep": "MALO", "und1_ent": "MICROBASURAL", "und2_ent": "TALLERES AUTO", "und3_ent": "BOMBA", "undotro_en": null, "avisos": "NO", "uf_ent": null, "proy_inm": null, "tel": null, "f63": null, "distrito_1": "BARROS LUCO", "uf_prom": 10.0 }, "geometry": { "type": "Point", "coordinates": [ -70.642549, -33.4767454 ] } },
{ "type": "Feature", "properties": { "FID_1": 931, "nombre_com": "SANTIAGO", "region": 13, "manzana": 89, "predio": 8, "direccion": "TUCAPEL JIMENEZ 136", "avaluo_tot": 350150220, "cont_semes": 4697678, "destino": "Sitio Eriazo", "sup_tot_te": 2289, "avaluo_exe": 0, "exentas": "0", "x": 345751.70339099999, "y": 6298424.9166000001, "mr": "1", "id": 10, "name_1": "STGO_10", "gabinete": "SI", "terreno": "SI", "encontrado": "SI", "poligono_s": "SI", "nom_c": "CV", "id1": "STGO_10", "terreno1": "SI", "rol": null, "direcc": "TUCAPEL JIMENEZ, 136", "comuna": "SANTIAGO", "distrito": "S/I", "manz": "S/I", "long": 345751.70339099999, "lat": 6298424.9166000001, "observ": null, "direcc_c": null, "via": "AVENIDA", "frentem": "S/I", "fondom": "S/I", "pendient": "NO TIENE", "topograf": "REGULAR", "forma": "REGULAR", "uso1_p": "RESIDENCIAL", "uso2_p": null, "uso3_p": null, "usootro_p": null, "obra": "SI", "est_obr": "EN OBRA", "uso1_ent": null, "uso2_ent": null, "uso3_ent": null, "usootro_en": null, "edif_ent": null, "alt1_ent": 0, "alt2_ent": "0", "est_ep": null, "und1_ent": null, "und2_ent": null, "und3_ent": null, "undotro_en": null, "avisos": null, "uf_ent": null, "proy_inm": null, "tel": null, "f63": null, "distrito_1": "AMUNATEGUI", "uf_prom": 17.67 }, "geometry": { "type": "Point", "coordinates": [ -70.6594424, -33.4424963 ] } },
{ "type": "Feature", "properties": { "FID_1": 932, "nombre_com": "SANTIAGO", "region": 13, "manzana": 191, "predio": 4, "direccion": "CATEDRAL 1575", "avaluo_tot": 383672427, "cont_semes": 5146040, "destino": "Sitio Eriazo", "sup_tot_te": 2538, "avaluo_exe": 0, "exentas": "0", "x": 345761.50350699999, "y": 6298940.0331899999, "mr": "1", "id": 13, "name_1": "STGO_13", "gabinete": "SI", "terreno": "SI", "encontrado": "SI", "poligono_s": "SI", "nom_c": "CV", "id1": "STGO_13", "terreno1": "SI", "rol": null, "direcc": "CATEDRAL, 1575", "comuna": "SANTIAGO", "distrito": "S/I", "manz": "S/I", "long": 345761.50350699999, "lat": 6298940.0331899999, "observ": null, "direcc_c": null, "via": "CALLE SEGUND", "frentem": "S/I", "fondom": "S/I", "pendient": "NO TIENE", "topograf": "REGULAR", "forma": "REGULAR", "uso1_p": "ERIAZO", "uso2_p": null, "uso3_p": null, "usootro_p": null, "obra": "NO", "est_obr": null, "uso1_ent": "RESIDENCIAL", "uso2_ent": "EQUIP", "uso3_ent": "INFRAESTRUCTURA", "usootro_en": null, "edif_ent": "BUENO", "alt1_ent": 0, "alt2_ent": "0", "est_ep": "BUENO", "und1_ent": null, "und2_ent": null, "und3_ent": null, "undotro_en": null, "avisos": "NO", "uf_ent": null, "proy_inm": null, "tel": null, "f63": null, "distrito_1": "AMUNATEGUI", "uf_prom": 17.67 }, "geometry": { "type": "Point", "coordinates": [ -70.6592485, -33.4378534 ] } },
{ "type": "Feature", "properties": { "FID_1": 933, "nombre_com": "SANTIAGO", "region": 13, "manzana": 272, "predio": 14, "direccion": "BRASIL 809 - 899", "avaluo_tot": 104686652, "cont_semes": 0, "destino": "Sitio Eriazo", "sup_tot_te": 2108, "avaluo_exe": 104686652, "exentas": "EXENTAS", "x": 345266.639234, "y": 6299386.3263400001, "mr": "1", "id": 15, "name_1": "STGO_15", "gabinete": "SI", "terreno": "SI", "encontrado": "SI", "poligono_s": "SI", "nom_c": "CV", "id1": "STGO_15", "terreno1": "SI", "rol": null, "direcc": "BRASIL, 809 - 899", "comuna": "SANTIAGO", "distrito": "S/I", "manz": "S/I", "long": 345266.639234, "lat": 6299386.3263400001, "observ": null, "direcc_c": "BRASIL, 875", "via": "AVENIDA", "frentem": "S/I", "fondom": "S/I", "pendient": "NO TIENE", "topograf": "REGULAR", "forma": "REGULAR", "uso1_p": "RESIDENCIAL", "uso2_p": "AREA VERDE", "uso3_p": "EP", "usootro_p": null, "obra": "SI", "est_obr": "TERMINADA", "uso1_ent": null, "uso2_ent": null, "uso3_ent": null, "usootro_en": null, "edif_ent": null, "alt1_ent": 0, "alt2_ent": "0", "est_ep": null, "und1_ent": null, "und2_ent": null, "und3_ent": null, "undotro_en": null, "avisos": null, "uf_ent": null, "proy_inm": null, "tel": null, "f63": null, "distrito_1": "MAPOCHO", "uf_prom": 12.42 }, "geometry": { "type": "Point", "coordinates": [ -70.6644933, -33.4337584 ] } },
{ "type": "Feature", "properties": { "FID_1": 934, "nombre_com": "SANTIAGO", "region": 13, "manzana": 347, "predio": 156, "direccion": "DIAGONAL PARAGUAY 79", "avaluo_tot": 1196951390, "cont_semes": 8841934, "destino": "Sitio Eriazo", "sup_tot_te": 3593, "avaluo_exe": 0, "exentas": "0", "x": 347919.41936399997, "y": 6298556.2674500002, "mr": "1", "id": 19, "name_1": "STGO_19", "gabinete": "SI", "terreno": "SI", "encontrado": "SI", "poligono_s": "SI", "nom_c": "CV", "id1": "STGO_19", "terreno1": "SI", "rol": null, "direcc": "DIAGONAL PARAGUAY, 79", "comuna": "SANTIAGO", "distrito": "S/I", "manz": "S/I", "long": 347919.41936399997, "lat": 6298556.2674500002, "observ": "FEN UCHILE", "direcc_c": null, "via": "AVENIDA", "frentem": "S/I", "fondom": "S/I", "pendient": "NO TIENE", "topograf": "IRREGULAR", "forma": "REGULAR", "uso1_p": "INFRAESTRUCTURA", "uso2_p": null, "uso3_p": null, "usootro_p": null, "obra": "SI", "est_obr": "TERMINADA", "uso1_ent": null, "uso2_ent": null, "uso3_ent": null, "usootro_en": null, "edif_ent": null, "alt1_ent": 0, "alt2_ent": "0", "est_ep": null, "und1_ent": null, "und2_ent": null, "und3_ent": null, "undotro_en": null, "avisos": null, "uf_ent": null, "proy_inm": null, "tel": null, "f63": null, "distrito_1": "VICUNA MACKENNA", "uf_prom": 12.39 }, "geometry": { "type": "Point", "coordinates": [ -70.6361076, -33.4416219 ] } },
{ "type": "Feature", "properties": { "FID_1": 935, "nombre_com": "SANTIAGO", "region": 13, "manzana": 405, "predio": 36, "direccion": "JOSE MIGUEL CARRERA 110 120 130 134", "avaluo_tot": 366327290, "cont_semes": 2716082, "destino": "Sitio Eriazo", "sup_tot_te": 2885, "avaluo_exe": 0, "exentas": "0", "x": 345424.92011900002, "y": 6297690.0995100001, "mr": "1", "id": 20, "name_1": "STGO_20", "gabinete": "SI", "terreno": "SI", "encontrado": "SI", "poligono_s": "SI", "nom_c": "CV", "id1": "STGO_20", "terreno1": "SI", "rol": null, "direcc": "JOSE MIGUEL CARRERA, 110 120 130 134", "comuna": "SANTIAGO", "distrito": "S/I", "manz": "S/I", "long": 345424.92011900002, "lat": 6297690.0995100001, "observ": null, "direcc_c": null, "via": "CALLE SEGUND", "frentem": "S/I", "fondom": "S/I", "pendient": "NO TIENE", "topograf": "IRREGULAR", "forma": "REGULAR", "uso1_p": "RESIDENCIAL", "uso2_p": null, "uso3_p": null, "usootro_p": null, "obra": "SI", "est_obr": "TERMINADA", "uso1_ent": null, "uso2_ent": null, "uso3_ent": null, "usootro_en": null, "edif_ent": null, "alt1_ent": 0, "alt2_ent": "0", "est_ep": null, "und1_ent": null, "und2_ent": null, "und3_ent": null, "undotro_en": null, "avisos": null, "uf_ent": null, "proy_inm": null, "tel": null, "f63": null, "distrito_1": "EJERCITO", "uf_prom": 9.892308 }, "geometry": { "type": "Point", "coordinates": [ -70.6630831, -33.4490742 ] } },
{ "type": "Feature", "properties": { "FID_1": 936, "nombre_com": "SANTIAGO", "region": 13, "manzana": 438, "predio": 613, "direccion": "SN DIEGO 141 153 161 163 167 169 171", "avaluo_tot": 704643463, "cont_semes": 5211164, "destino": "Sitio Eriazo", "sup_tot_te": 2124, "avaluo_exe": 0, "exentas": "0", "x": 346494.04882299999, "y": 6297956.0219099997, "mr": "1", "id": 21, "name_1": "STGO_21", "gabinete": "SI", "terreno": "SI", "encontrado": "SI", "poligono_s": "SI", "nom_c": "CV", "id1": "STGO_21", "terreno1": "SI", "rol": null, "direcc": "SN DIEGO, 141 153 161 163 167 169 171", "comuna": "SANTIAGO", "distrito": "S/I", "manz": "S/I", "long": 346494.04882299999, "lat": 6297956.0219099997, "observ": null, "direcc_c": null, "via": "AVENIDA", "frentem": "S/I", "fondom": "S/I", "pendient": "NO TIENE", "topograf": "REGULAR", "forma": "REGULAR", "uso1_p": "RESIDENCIAL", "uso2_p": null, "uso3_p": null, "usootro_p": null, "obra": "SI", "est_obr": "EN OBRA", "uso1_ent": null, "uso2_ent": null, "uso3_ent": null, "usootro_en": null, "edif_ent": null, "alt1_ent": 0, "alt2_ent": "0", "est_ep": null, "und1_ent": null, "und2_ent": null, "und3_ent": null, "undotro_en": null, "avisos": null, "uf_ent": null, "proy_inm": null, "tel": null, "f63": null, "distrito_1": "ALMAGRO", "uf_prom": 11.73 }, "geometry": { "type": "Point", "coordinates": [ -70.651539, -33.4468304 ] } },
{ "type": "Feature", "properties": { "FID_1": 937, "nombre_com": "SANTIAGO", "region": 13, "manzana": 520, "predio": 1, "direccion": "ANGAMOS 315", "avaluo_tot": 100178259, "cont_semes": 748454, "destino": "Sitio Eriazo", "sup_tot_te": 2171, "avaluo_exe": 0, "exentas": "0", "x": 347688.83944700001, "y": 6297940.6907099998, "mr": "1", "id": 25, "name_1": "STGO_25", "gabinete": "SI", "terreno": "SI", "encontrado": "SI", "poligono_s": "SI", "nom_c": "CV", "id1": "STGO_25", "terreno1": "SI", "rol": null, "direcc": "ANGAMOS, 315", "comuna": "SANTIAGO", "distrito": "S/I", "manz": "S/I", "long": 347688.83944700001, "lat": 6297940.6907099998, "observ": null, "direcc_c": null, "via": "CALLE SEGUND", "frentem": "S/I", "fondom": "S/I", "pendient": "NO TIENE", "topograf": "IRREGULAR", "forma": "IRREGULAR", "uso1_p": "RESIDENCIAL", "uso2_p": null, "uso3_p": null, "usootro_p": null, "obra": "SI", "est_obr": "POR ETAPA", "uso1_ent": null, "uso2_ent": null, "uso3_ent": null, "usootro_en": null, "edif_ent": null, "alt1_ent": 0, "alt2_ent": "0", "est_ep": null, "und1_ent": null, "und2_ent": null, "und3_ent": null, "undotro_en": null, "avisos": null, "uf_ent": null, "proy_inm": null, "tel": null, "f63": null, "distrito_1": "SAN ISIDRO", "uf_prom": 12.94 }, "geometry": { "type": "Point", "coordinates": [ -70.6386917, -33.4471392 ] } },
{ "type": "Feature", "properties": { "FID_1": 938, "nombre_com": "SANTIAGO", "region": 13, "manzana": 592, "predio": 17, "direccion": "STA VICTORIA 562", "avaluo_tot": 161083411, "cont_semes": 2154489, "destino": "Sitio Eriazo", "sup_tot_te": 2724, "avaluo_exe": 0, "exentas": "0", "x": 347325.22553599998, "y": 6297695.2649800004, "mr": "1", "id": 26, "name_1": "STGO_26", "gabinete": "SI", "terreno": "SI", "encontrado": "SI", "poligono_s": "SI", "nom_c": "CV", "id1": "STGO_26", "terreno1": "SI", "rol": null, "direcc": "STA VICTORIA, 562", "comuna": "SANTIAGO", "distrito": "S/I", "manz": "S/I", "long": 347325.22553599998, "lat": 6297695.2649800004, "observ": null, "direcc_c": null, "via": "CALLE SEGUND", "frentem": "S/I", "fondom": "S/I", "pendient": "NO TIENE", "topograf": "MUY IRREGULAR", "forma": "REGULAR", "uso1_p": "RESIDENCIAL", "uso2_p": null, "uso3_p": null, "usootro_p": null, "obra": "SI", "est_obr": "EN OBRA", "uso1_ent": null, "uso2_ent": null, "uso3_ent": null, "usootro_en": null, "edif_ent": null, "alt1_ent": 0, "alt2_ent": "0", "est_ep": null, "und1_ent": null, "und2_ent": null, "und3_ent": null, "undotro_en": null, "avisos": null, "uf_ent": null, "proy_inm": null, "tel": null, "f63": null, "distrito_1": "SAN ISIDRO", "uf_prom": 12.94 }, "geometry": { "type": "Point", "coordinates": [ -70.6426441, -33.4493002 ] } },
{ "type": "Feature", "properties": { "FID_1": 939, "nombre_com": "SANTIAGO", "region": 13, "manzana": 712, "predio": 2, "direccion": "LORD COCHRANE 641 651", "avaluo_tot": 203265908, "cont_semes": 2429028, "destino": "Sitio Eriazo", "sup_tot_te": 2206, "avaluo_exe": 0, "exentas": "0", "x": 346236.86594300001, "y": 6297166.8002899997, "mr": "1", "id": 28, "name_1": "STGO_28", "gabinete": "SI", "terreno": "SI", "encontrado": "SI", "poligono_s": "SI", "nom_c": "CV", "id1": "STGO_28", "terreno1": "SI", "rol": null, "direcc": "LORD COCHRANE, 641 651", "comuna": "SANTIAGO", "distrito": "S/I", "manz": "S/I", "long": 346236.86594300001, "lat": 6297166.8002899997, "observ": null, "direcc_c": null, "via": "CALLE SEGUND", "frentem": "S/I", "fondom": "S/I", "pendient": "NO TIENE", "topograf": "IRREGULAR", "forma": "REGULAR", "uso1_p": "RESIDENCIAL", "uso2_p": null, "uso3_p": null, "usootro_p": null, "obra": "SI", "est_obr": "EN OBRA", "uso1_ent": null, "uso2_ent": null, "uso3_ent": null, "usootro_en": null, "edif_ent": null, "alt1_ent": 0, "alt2_ent": "0", "est_ep": null, "und1_ent": null, "und2_ent": null, "und3_ent": null, "undotro_en": null, "avisos": null, "uf_ent": null, "proy_inm": null, "tel": null, "f63": null, "distrito_1": "ALMAGRO", "uf_prom": 11.73 }, "geometry": { "type": "Point", "coordinates": [ -70.6544402, -33.4539091 ] } },
{ "type": "Feature", "properties": { "FID_1": 940, "nombre_com": "SANTIAGO", "region": 13, "manzana": 10, "predio": 1, "direccion": "AV PRESID BALMACEDA 2325 LT 2", "avaluo_tot": 225481539, "cont_semes": 0, "destino": "Sitio Eriazo", "sup_tot_te": 7619, "avaluo_exe": 225481539, "exentas": "EXENTAS", "x": 344773.99305599998, "y": 6299966.8099100003, "mr": "1", "id": 30, "name_1": "STGO_30", "gabinete": "SI", "terreno": "SI", "encontrado": "SI", "poligono_s": "SI", "nom_c": "CV", "id1": "STGO_30", "terreno1": "SI", "rol": null, "direcc": "AV PRESID BALMACEDA, 2325 LT 2", "comuna": "SANTIAGO", "distrito": "S/I", "manz": "S/I", "long": 344773.99305599998, "lat": 6299966.8099100003, "observ": null, "direcc_c": null, "via": "AVENIDA", "frentem": "S/I", "fondom": "S/I", "pendient": "NO TIENE", "topograf": "REGULAR", "forma": "REGULAR", "uso1_p": "AREA VERDE", "uso2_p": "EQUIP", "uso3_p": "EP", "usootro_p": null, "obra": "SI", "est_obr": "TERMINADA", "uso1_ent": null, "uso2_ent": null, "uso3_ent": null, "usootro_en": null, "edif_ent": null, "alt1_ent": 0, "alt2_ent": "0", "est_ep": null, "und1_ent": null, "und2_ent": null, "und3_ent": null, "undotro_en": null, "avisos": null, "uf_ent": null, "proy_inm": null, "tel": null, "f63": null, "distrito_1": "MAPOCHO", "uf_prom": 12.42 }, "geometry": { "type": "Point", "coordinates": [ -70.6696906, -33.4284535 ] } },
{ "type": "Feature", "properties": { "FID_1": 941, "nombre_com": "SANTIAGO", "region": 13, "manzana": 278, "predio": 28, "direccion": "MATUCANA 573", "avaluo_tot": 723191054, "cont_semes": 0, "destino": "Sitio Eriazo", "sup_tot_te": 6279, "avaluo_exe": 723191054, "exentas": "EXENTAS", "x": 343885.84053300001, "y": 6298792.5105499998, "mr": "1", "id": 31, "name_1": "STGO_31", "gabinete": "SI", "terreno": "SI", "encontrado": "SI", "poligono_s": "SI", "nom_c": "CV", "id1": "STGO_31", "terreno1": "SI", "rol": null, "direcc": "MATUCANA, 573", "comuna": "SANTIAGO", "distrito": "S/I", "manz": "S/I", "long": 343885.84053300001, "lat": 6298792.5105499998, "observ": null, "direcc_c": null, "via": "AVENIDA", "frentem": "S/I", "fondom": "S/I", "pendient": "NO TIENE", "topograf": "MUY IRREGULAR", "forma": "REGULAR", "uso1_p": "INFRAESTRUCTURA", "uso2_p": "EP", "uso3_p": null, "usootro_p": null, "obra": "SI", "est_obr": "TERMINADA", "uso1_ent": null, "uso2_ent": null, "uso3_ent": null, "usootro_en": null, "edif_ent": null, "alt1_ent": 0, "alt2_ent": "0", "est_ep": null, "und1_ent": null, "und2_ent": null, "und3_ent": null, "undotro_en": null, "avisos": null, "uf_ent": null, "proy_inm": null, "tel": null, "f63": null, "distrito_1": "PORTALES", "uf_prom": 8.822222 }, "geometry": { "type": "Point", "coordinates": [ -70.6794444, -33.4389119 ] } },
{ "type": "Feature", "properties": { "FID_1": 942, "nombre_com": "SANTIAGO", "region": 13, "manzana": 897, "predio": 12, "direccion": "SN ALFONSO 679", "avaluo_tot": 523522196, "cont_semes": 7016530, "destino": "Sitio Eriazo", "sup_tot_te": 4557, "avaluo_exe": 0, "exentas": "0", "x": 344285.21133800002, "y": 6296678.7645699997, "mr": "1", "id": 34, "name_1": "STGO_34", "gabinete": "SI", "terreno": "SI", "encontrado": "SI", "poligono_s": "SI", "nom_c": "CV", "id1": "STGO_34", "terreno1": "SI", "rol": null, "direcc": "SN ALFONSO, 679", "comuna": "SANTIAGO", "distrito": "S/I", "manz": "S/I", "long": 344285.21133800002, "lat": 6296678.7645699997, "observ": null, "direcc_c": null, "via": "AVENIDA", "frentem": "S/I", "fondom": "S/I", "pendient": "NO TIENE", "topograf": "MUY IRREGULAR", "forma": "REGULAR", "uso1_p": "ERIAZO", "uso2_p": null, "uso3_p": null, "usootro_p": null, "obra": "NO", "est_obr": null, "uso1_ent": "RESIDENCIAL", "uso2_ent": "BODEGA TALLER", "uso3_ent": "EQUIP", "usootro_en": null, "edif_ent": "REGULAR", "alt1_ent": 1, "alt2_ent": "2 A 4", "est_ep": "REGULAR", "und1_ent": "MICROBASURAL", "und2_ent": null, "und3_ent": null, "undotro_en": null, "avisos": "SI", "uf_ent": null, "proy_inm": "bodega san alfonso", "tel": "6897428", "f63": null, "distrito_1": "SAN ALFONSO", "uf_prom": 9.766667 }, "geometry": { "type": "Point", "coordinates": [ -70.6755162, -33.4580272 ] } },
{ "type": "Feature", "properties": { "FID_1": 943, "nombre_com": "SANTIAGO", "region": 13, "manzana": 2796, "predio": 3, "direccion": "STA ROSA 827", "avaluo_tot": 193319363, "cont_semes": 1435368, "destino": "Sitio Eriazo", "sup_tot_te": 2163, "avaluo_exe": 0, "exentas": "0", "x": 347192.82012400002, "y": 6297052.5377799999, "mr": "1", "id": 35, "name_1": "STGO_35", "gabinete": "SI", "terreno": "SI", "encontrado": "SI", "poligono_s": "SI", "nom_c": "CV", "id1": "STGO_35", "terreno1": "SI", "rol": null, "direcc": "STA ROSA, 827", "comuna": "SANTIAGO", "distrito": "S/I", "manz": "S/I", "long": 347192.82012400002, "lat": 6297052.5377799999, "observ": null, "direcc_c": null, "via": "AVENIDA", "frentem": "S/I", "fondom": "S/I", "pendient": "NO TIENE", "topograf": "REGULAR", "forma": "REGULAR", "uso1_p": "RESIDENCIAL", "uso2_p": null, "uso3_p": null, "usootro_p": null, "obra": "SI", "est_obr": "EN OBRA", "uso1_ent": null, "uso2_ent": null, "uso3_ent": null, "usootro_en": null, "edif_ent": null, "alt1_ent": 0, "alt2_ent": "0", "est_ep": null, "und1_ent": null, "und2_ent": null, "und3_ent": null, "undotro_en": null, "avisos": null, "uf_ent": null, "proy_inm": null, "tel": null, "f63": null, "distrito_1": "SAN DIEGO", "uf_prom": 10.98 }, "geometry": { "type": "Point", "coordinates": [ -70.6441776, -33.4550761 ] } },
{ "type": "Feature", "properties": { "FID_1": 944, "nombre_com": "SANTIAGO", "region": 13, "manzana": 3153, "predio": 7, "direccion": "LORD COCHRANE 1425 AL 1433", "avaluo_tot": 129856419, "cont_semes": 1746470, "destino": "Sitio Eriazo", "sup_tot_te": 2135, "avaluo_exe": 0, "exentas": "0", "x": 346372.78680300002, "y": 6295933.6907099998, "mr": "1", "id": 37, "name_1": "STGO_37", "gabinete": "SI", "terreno": "SI", "encontrado": "SI", "poligono_s": "SI", "nom_c": "CV", "id1": "STGO_37", "terreno1": "SI", "rol": null, "direcc": "LORD COCHRANE, 1425 AL 1433", "comuna": "SANTIAGO", "distrito": "S/I", "manz": "S/I", "long": 346372.78680300002, "lat": 6295933.6907099998, "observ": "estacionamientos", "direcc_c": null, "via": "CALLE SEGUND", "frentem": "S/I", "fondom": "S/I", "pendient": "NO TIENE", "topograf": "REGULAR", "forma": "REGULAR", "uso1_p": "OTROS", "uso2_p": null, "uso3_p": null, "usootro_p": null, "obra": "NO", "est_obr": null, "uso1_ent": null, "uso2_ent": null, "uso3_ent": null, "usootro_en": null, "edif_ent": null, "alt1_ent": 0, "alt2_ent": "0", "est_ep": null, "und1_ent": null, "und2_ent": null, "und3_ent": null, "undotro_en": null, "avisos": null, "uf_ent": null, "proy_inm": null, "tel": null, "f63": null, "distrito_1": "VALPARAISO", "uf_prom": 9.1 }, "geometry": { "type": "Point", "coordinates": [ -70.6531893, -33.4650463 ] } },
{ "type": "Feature", "properties": { "FID_1": 945, "nombre_com": "SANTIAGO", "region": 13, "manzana": 3605, "predio": 4, "direccion": "STA ELENA 2098", "avaluo_tot": 159575056, "cont_semes": 0, "destino": "Sitio Eriazo", "sup_tot_te": 2228, "avaluo_exe": 159575056, "exentas": "EXENTAS", "x": 348897.58432600001, "y": 6295360.1705099996, "mr": "1", "id": 38, "name_1": "STGO_38", "gabinete": "SI", "terreno": "SI", "encontrado": "SI", "poligono_s": "SI", "nom_c": "CV", "id1": "STGO_38", "terreno1": "SI", "rol": null, "direcc": "STA ELENA, 2098", "comuna": "SANTIAGO", "distrito": "S/I", "manz": "S/I", "long": 348897.58432600001, "lat": 6295360.1705099996, "observ": null, "direcc_c": null, "via": "AVENIDA", "frentem": "S/I", "fondom": "S/I", "pendient": "MODERADA", "topograf": "IRREGULAR", "forma": "IRREGULAR", "uso1_p": "BODEGA TALLER", "uso2_p": null, "uso3_p": null, "usootro_p": null, "obra": "SI", "est_obr": "TERMINADA", "uso1_ent": null, "uso2_ent": null, "uso3_ent": null, "usootro_en": null, "edif_ent": null, "alt1_ent": 0, "alt2_ent": "0", "est_ep": null, "und1_ent": null, "und2_ent": null, "und3_ent": null, "undotro_en": null, "avisos": null, "uf_ent": null, "proy_inm": null, "tel": null, "f63": null, "distrito_1": "FRANKLIN", "uf_prom": 10.49 }, "geometry": { "type": "Point", "coordinates": [ -70.626126, -33.4705765 ] } },
{ "type": "Feature", "properties": { "FID_1": 946, "nombre_com": "SANTIAGO", "region": 13, "manzana": 3787, "predio": 19, "direccion": "GRAL GANA 1728 1738", "avaluo_tot": 140162485, "cont_semes": 1043338, "destino": "Sitio Eriazo", "sup_tot_te": 2074, "avaluo_exe": 0, "exentas": "0", "x": 345977.99429399997, "y": 6295168.6308599999, "mr": "1", "id": 41, "name_1": "STGO_41", "gabinete": "SI", "terreno": "SI", "encontrado": "SI", "poligono_s": "SI", "nom_c": "CV", "id1": "STGO_41", "terreno1": "SI", "rol": null, "direcc": "GRAL GANA, 1728 1738", "comuna": "SANTIAGO", "distrito": "S/I", "manz": "S/I", "long": 345977.99429399997, "lat": 6295168.6308599999, "observ": "juzgados", "direcc_c": null, "via": "CALLE SEGUND", "frentem": "S/I", "fondom": "S/I", "pendient": "NO TIENE", "topograf": "REGULAR", "forma": "REGULAR", "uso1_p": "INFRAESTRUCTURA", "uso2_p": null, "uso3_p": null, "usootro_p": null, "obra": "SI", "est_obr": "TERMINADA", "uso1_ent": null, "uso2_ent": null, "uso3_ent": null, "usootro_en": null, "edif_ent": null, "alt1_ent": 0, "alt2_ent": "0", "est_ep": null, "und1_ent": null, "und2_ent": null, "und3_ent": null, "undotro_en": null, "avisos": null, "uf_ent": null, "proy_inm": null, "tel": null, "f63": null, "distrito_1": "PARQUE OHIGGINS", "uf_prom": 9.413333 }, "geometry": { "type": "Point", "coordinates": [ -70.6575674, -33.4718873 ] } }
]
}
