{
"type": "FeatureCollection",
"name": "URB_LIN_MURO_CIEGO",
"features": [
{ "type": "Feature", "properties": { "Id": 0, "BARRIO": "BALMACEDA" }, "geometry": { "type": "LineString", "coordinates": [ [ -70.679266, -33.428849 ], [ -70.680402, -33.428884 ], [ -70.680258, -33.428514 ], [ -70.680057, -33.428244 ], [ -70.679908, -33.428075 ], [ -70.678884, -33.428096 ], [ -70.678857, -33.428461 ], [ -70.678857, -33.428468 ] ] } },
{ "type": "Feature", "properties": { "Id": 0, "BARRIO": "BALMACEDA" }, "geometry": { "type": "LineString", "coordinates": [ [ -70.678674, -33.428693 ], [ -70.678663, -33.428149 ], [ -70.678143, -33.428149 ], [ -70.678021, -33.428909 ] ] } },
{ "type": "Feature", "properties": { "Id": 0, "BARRIO": "BALMACEDA" }, "geometry": { "type": "LineString", "coordinates": [ [ -70.677961, -33.428487 ], [ -70.67794, -33.428681 ], [ -70.677128, -33.428671 ] ] } },
{ "type": "Feature", "properties": { "Id": 0, "BARRIO": "BALMACEDA" }, "geometry": { "type": "LineString", "coordinates": [ [ -70.676102, -33.428082 ], [ -70.676693, -33.428041 ], [ -70.676775, -33.426942 ], [ -70.676485, -33.426965 ], [ -70.676156, -33.427017 ], [ -70.675889, -33.427078 ], [ -70.675703, -33.427133 ], [ -70.675589, -33.427163 ], [ -70.675573, -33.427211 ] ] } },
{ "type": "Feature", "properties": { "Id": 0, "BARRIO": "BALMACEDA" }, "geometry": { "type": "LineString", "coordinates": [ [ -70.677103, -33.428213 ], [ -70.677007, -33.428215 ], [ -70.676806, -33.428301 ], [ -70.676797, -33.428431 ] ] } },
{ "type": "Feature", "properties": { "Id": 0, "BARRIO": "BALMACEDA" }, "geometry": { "type": "LineString", "coordinates": [ [ -70.676798, -33.428757 ], [ -70.676795, -33.428853 ] ] } },
{ "type": "Feature", "properties": { "Id": 0, "BARRIO": "BALMACEDA" }, "geometry": { "type": "LineString", "coordinates": [ [ -70.676217, -33.428265 ], [ -70.676701, -33.428253 ], [ -70.676624, -33.429027 ], [ -70.676626, -33.429094 ], [ -70.676244, -33.429085 ] ] } },
{ "type": "Feature", "properties": { "Id": 0, "BARRIO": "BALMACEDA" }, "geometry": { "type": "LineString", "coordinates": [ [ -70.673728, -33.428177 ], [ -70.673693, -33.428583 ] ] } },
{ "type": "Feature", "properties": { "Id": 0, "BARRIO": "BALMACEDA" }, "geometry": { "type": "LineString", "coordinates": [ [ -70.679035, -33.430174 ], [ -70.679577, -33.430209 ], [ -70.679613, -33.42985 ], [ -70.679606, -33.429856 ] ] } },
{ "type": "Feature", "properties": { "Id": 0, "BARRIO": "BALMACEDA" }, "geometry": { "type": "LineString", "coordinates": [ [ -70.679765, -33.429991 ], [ -70.679747, -33.430206 ], [ -70.680553, -33.430267 ], [ -70.680604, -33.429974 ] ] } },
{ "type": "Feature", "properties": { "Id": 0, "BARRIO": "BALMACEDA" }, "geometry": { "type": "LineString", "coordinates": [ [ -70.67335, -33.431588 ], [ -70.673481, -33.430835 ] ] } },
{ "type": "Feature", "properties": { "Id": 0, "BARRIO": "BALMACEDA" }, "geometry": { "type": "LineString", "coordinates": [ [ -70.672517, -33.429638 ], [ -70.671841, -33.429761 ], [ -70.671713, -33.429777 ], [ -70.67165, -33.43048 ] ] } },
{ "type": "Feature", "properties": { "Id": 0, "BARRIO": "BALMACEDA" }, "geometry": { "type": "LineString", "coordinates": [ [ -70.669428, -33.430992 ], [ -70.669453, -33.430788 ], [ -70.669504, -33.430762 ], [ -70.67024, -33.430849 ], [ -70.670196, -33.431913 ], [ -70.670172, -33.431956 ], [ -70.669988, -33.431958 ] ] } },
{ "type": "Feature", "properties": { "Id": 0, "BARRIO": "YUNGAY" }, "geometry": { "type": "LineString", "coordinates": [ [ -70.680331, -33.4338 ], [ -70.679854, -33.433783 ], [ -70.679845, -33.433825 ], [ -70.679435, -33.433795 ] ] } },
{ "type": "Feature", "properties": { "Id": 0, "BARRIO": "YUNGAY" }, "geometry": { "type": "LineString", "coordinates": [ [ -70.676367, -33.433127 ], [ -70.676338, -33.433399 ], [ -70.676369, -33.433452 ], [ -70.676912, -33.433481 ] ] } },
{ "type": "Feature", "properties": { "Id": 0, "BARRIO": "YUNGAY" }, "geometry": { "type": "LineString", "coordinates": [ [ -70.676184, -33.433863 ], [ -70.676209, -33.433567 ], [ -70.676186, -33.433545 ], [ -70.675135, -33.433469 ] ] } },
{ "type": "Feature", "properties": { "Id": 0, "BARRIO": "YUNGAY" }, "geometry": { "type": "LineString", "coordinates": [ [ -70.68323, -33.438746 ], [ -70.680161, -33.438559 ] ] } },
{ "type": "Feature", "properties": { "Id": 0, "BARRIO": "YUNGAY" }, "geometry": { "type": "LineString", "coordinates": [ [ -70.683243, -33.438539 ], [ -70.681781, -33.438451 ] ] } },
{ "type": "Feature", "properties": { "Id": 0, "BARRIO": "YUNGAY" }, "geometry": { "type": "LineString", "coordinates": [ [ -70.679925, -33.438506 ], [ -70.679846, -33.439273 ], [ -70.679838, -33.439287 ] ] } },
{ "type": "Feature", "properties": { "Id": 0, "BARRIO": "YUNGAY" }, "geometry": { "type": "LineString", "coordinates": [ [ -70.678985, -33.438433 ], [ -70.678931, -33.439214 ] ] } },
{ "type": "Feature", "properties": { "Id": 0, "BARRIO": "YUNGAY" }, "geometry": { "type": "LineString", "coordinates": [ [ -70.678756, -33.438515 ], [ -70.678742, -33.439109 ] ] } },
{ "type": "Feature", "properties": { "Id": 0, "BARRIO": "YUNGAY" }, "geometry": { "type": "LineString", "coordinates": [ [ -70.680979, -33.444069 ], [ -70.680295, -33.444035 ], [ -70.679807, -33.443956 ], [ -70.679723, -33.444007 ], [ -70.679559, -33.445713 ] ] } },
{ "type": "Feature", "properties": { "Id": 0, "BARRIO": "YUNGAY" }, "geometry": { "type": "LineString", "coordinates": [ [ -70.679301, -33.446067 ], [ -70.679297, -33.446275 ], [ -70.67834, -33.446245 ], [ -70.678362, -33.446044 ] ] } },
{ "type": "Feature", "properties": { "Id": 0, "BARRIO": "YUNGAY" }, "geometry": { "type": "LineString", "coordinates": [ [ -70.678389, -33.4457 ], [ -70.678401, -33.445428 ] ] } },
{ "type": "Feature", "properties": { "Id": 0, "BARRIO": "YUNGAY" }, "geometry": { "type": "LineString", "coordinates": [ [ -70.677432, -33.444354 ], [ -70.677419, -33.444569 ] ] } },
{ "type": "Feature", "properties": { "Id": 0, "BARRIO": "YUNGAY" }, "geometry": { "type": "LineString", "coordinates": [ [ -70.677318, -33.443792 ], [ -70.677307, -33.443926 ], [ -70.677286, -33.443932 ], [ -70.677244, -33.444553 ] ] } },
{ "type": "Feature", "properties": { "Id": 0, "BARRIO": "YUNGAY" }, "geometry": { "type": "LineString", "coordinates": [ [ -70.675477, -33.443774 ], [ -70.675478, -33.443618 ], [ -70.675545, -33.443588 ], [ -70.676237, -33.443686 ], [ -70.676222, -33.444411 ], [ -70.676221, -33.444679 ], [ -70.676164, -33.444707 ], [ -70.675612, -33.444672 ] ] } },
{ "type": "Feature", "properties": { "Id": 0, "BARRIO": "YUNGAY" }, "geometry": { "type": "LineString", "coordinates": [ [ -70.675241, -33.44355 ], [ -70.675288, -33.443589 ], [ -70.675168, -33.444643 ], [ -70.675121, -33.444661 ], [ -70.674693, -33.444617 ], [ -70.673927, -33.444534 ], [ -70.673897, -33.444513 ], [ -70.673935, -33.444237 ] ] } },
{ "type": "Feature", "properties": { "Id": 0, "BARRIO": "YUNGAY" }, "geometry": { "type": "LineString", "coordinates": [ [ -70.672067, -33.443203 ], [ -70.672107, -33.443238 ], [ -70.67201, -33.444295 ], [ -70.671985, -33.444313 ], [ -70.671811, -33.444298 ], [ -70.671814, -33.444271 ], [ -70.671682, -33.444255 ], [ -70.671675, -33.444288 ], [ -70.67144, -33.444264 ] ] } },
{ "type": "Feature", "properties": { "Id": 0, "BARRIO": "YUNGAY" }, "geometry": { "type": "LineString", "coordinates": [ [ -70.671464, -33.443127 ], [ -70.671358, -33.443117 ], [ -70.671322, -33.443141 ], [ -70.671287, -33.443681 ] ] } },
{ "type": "Feature", "properties": { "Id": 0, "BARRIO": "YUNGAY" }, "geometry": { "type": "LineString", "coordinates": [ [ -70.671108, -33.443672 ], [ -70.671168, -33.44309 ], [ -70.670837, -33.443055 ] ] } },
{ "type": "Feature", "properties": { "Id": 0, "BARRIO": "YUNGAY" }, "geometry": { "type": "LineString", "coordinates": [ [ -70.670667, -33.444171 ], [ -70.670391, -33.444134 ] ] } },
{ "type": "Feature", "properties": { "Id": 0, "BARRIO": "YUNGAY" }, "geometry": { "type": "LineString", "coordinates": [ [ -70.669174, -33.442724 ], [ -70.668692, -33.442629 ] ] } },
{ "type": "Feature", "properties": { "Id": 0, "BARRIO": "YUNGAY" }, "geometry": { "type": "LineString", "coordinates": [ [ -70.667706, -33.447592 ], [ -70.668337, -33.447756 ] ] } },
{ "type": "Feature", "properties": { "Id": 0, "BARRIO": "YUNGAY" }, "geometry": { "type": "LineString", "coordinates": [ [ -70.669221, -33.446867 ], [ -70.669202, -33.447015 ], [ -70.669134, -33.447424 ], [ -70.669122, -33.447515 ] ] } },
{ "type": "Feature", "properties": { "Id": 0, "BARRIO": "YUNGAY" }, "geometry": { "type": "LineString", "coordinates": [ [ -70.671459, -33.447236 ], [ -70.67183, -33.447317 ], [ -70.671875, -33.447279 ], [ -70.672014, -33.446816 ] ] } },
{ "type": "Feature", "properties": { "Id": 0, "BARRIO": "YUNGAY" }, "geometry": { "type": "LineString", "coordinates": [ [ -70.673709, -33.446469 ], [ -70.673826, -33.445948 ], [ -70.67386, -33.445925 ], [ -70.674302, -33.445973 ], [ -70.674307, -33.445965 ], [ -70.674994, -33.446039 ], [ -70.675008, -33.446052 ], [ -70.674958, -33.44627 ], [ -70.67484, -33.446776 ], [ -70.674772, -33.447138 ], [ -70.674728, -33.447295 ] ] } },
{ "type": "Feature", "properties": { "Id": 0, "BARRIO": "YUNGAY" }, "geometry": { "type": "LineString", "coordinates": [ [ -70.675888, -33.448041 ], [ -70.676098, -33.448064 ], [ -70.676135, -33.448045 ], [ -70.676161, -33.447847 ], [ -70.676176, -33.447486 ], [ -70.676173, -33.447314 ], [ -70.676161, -33.447189 ] ] } },
{ "type": "Feature", "properties": { "Id": 0, "BARRIO": "YUNGAY" }, "geometry": { "type": "LineString", "coordinates": [ [ -70.676348, -33.446401 ], [ -70.676265, -33.448052 ], [ -70.676296, -33.448101 ], [ -70.678009, -33.448219 ], [ -70.678037, -33.448195 ], [ -70.678092, -33.447486 ], [ -70.678027, -33.447477 ], [ -70.678054, -33.447065 ], [ -70.678088, -33.447063 ], [ -70.67811, -33.446898 ], [ -70.678124, -33.446895 ], [ -70.678175, -33.446434 ], [ -70.678008, -33.446423 ], [ -70.678019, -33.44635 ], [ -70.676953, -33.446235 ] ] } },
{ "type": "Feature", "properties": { "Id": 0, "BARRIO": "YUNGAY" }, "geometry": { "type": "LineString", "coordinates": [ [ -70.678391, -33.446375 ], [ -70.678353, -33.446413 ], [ -70.678191, -33.448209 ], [ -70.678215, -33.448227 ], [ -70.679113, -33.448305 ], [ -70.679198, -33.447155 ], [ -70.679267, -33.446438 ], [ -70.679248, -33.446391 ], [ -70.678414, -33.446375 ] ] } },
{ "type": "Feature", "properties": { "Id": 0, "BARRIO": "PANAMA" }, "geometry": { "type": "LineString", "coordinates": [ [ -70.664127, -33.43093 ], [ -70.664882, -33.430777 ], [ -70.664824, -33.431344 ], [ -70.664988, -33.431399 ], [ -70.665005, -33.431878 ], [ -70.663802, -33.431923 ] ] } },
{ "type": "Feature", "properties": { "Id": 0, "BARRIO": "PANAMA" }, "geometry": { "type": "LineString", "coordinates": [ [ -70.663667, -33.431929 ], [ -70.663154, -33.431917 ], [ -70.663252, -33.43109 ] ] } },
{ "type": "Feature", "properties": { "Id": 0, "BARRIO": "PANAMA" }, "geometry": { "type": "LineString", "coordinates": [ [ -70.663054, -33.431126 ], [ -70.663077, -33.431169 ], [ -70.663, -33.431905 ], [ -70.662966, -33.431915 ], [ -70.662175, -33.43193 ], [ -70.662257, -33.431462 ], [ -70.662294, -33.431284 ], [ -70.662339, -33.43125 ], [ -70.662798, -33.431163 ], [ -70.662986, -33.431137 ] ] } },
{ "type": "Feature", "properties": { "Id": 0, "BARRIO": "PANAMA" }, "geometry": { "type": "LineString", "coordinates": [ [ -70.661298, -33.432547 ], [ -70.661302, -33.432165 ], [ -70.661313, -33.432136 ], [ -70.661524, -33.432133 ], [ -70.661732, -33.432138 ], [ -70.661977, -33.432153 ], [ -70.662048, -33.432174 ], [ -70.661969, -33.43249 ], [ -70.661771, -33.433292 ], [ -70.661155, -33.433238 ], [ -70.661222, -33.43286 ] ] } },
{ "type": "Feature", "properties": { "Id": 0, "BARRIO": "PANAMA" }, "geometry": { "type": "LineString", "coordinates": [ [ -70.663768, -33.432767 ], [ -70.663256, -33.432738 ], [ -70.663142, -33.432731 ], [ -70.663085, -33.43277 ], [ -70.663025, -33.433162 ], [ -70.663026, -33.433189 ], [ -70.663062, -33.433215 ], [ -70.663806, -33.433265 ] ] } },
{ "type": "Feature", "properties": { "Id": 0, "BARRIO": "PANAMA" }, "geometry": { "type": "LineString", "coordinates": [ [ -70.662744, -33.434913 ], [ -70.662686, -33.43541 ] ] } },
{ "type": "Feature", "properties": { "Id": 0, "BARRIO": "PANAMA" }, "geometry": { "type": "LineString", "coordinates": [ [ -70.664847, -33.434997 ], [ -70.664803, -33.435529 ], [ -70.664773, -33.435798 ] ] } },
{ "type": "Feature", "properties": { "Id": 0, "BARRIO": "PANAMA" }, "geometry": { "type": "LineString", "coordinates": [ [ -70.664176, -33.436292 ], [ -70.664175, -33.436269 ], [ -70.664428, -33.436286 ], [ -70.664457, -33.436324 ], [ -70.664337, -33.437313 ] ] } },
{ "type": "Feature", "properties": { "Id": 0, "BARRIO": "PANAMA" }, "geometry": { "type": "LineString", "coordinates": [ [ -70.668423, -33.434617 ], [ -70.66842, -33.434777 ], [ -70.668452, -33.434807 ], [ -70.668799, -33.434817 ], [ -70.668841, -33.434783 ], [ -70.668877, -33.434279 ] ] } },
{ "type": "Feature", "properties": { "Id": 0, "BARRIO": "PANAMA" }, "geometry": { "type": "LineString", "coordinates": [ [ -70.668424, -33.434254 ], [ -70.668412, -33.43451 ] ] } },
{ "type": "Feature", "properties": { "Id": 0, "BARRIO": "BRASIL" }, "geometry": { "type": "LineString", "coordinates": [ [ -70.660429, -33.437787 ], [ -70.660363, -33.438259 ] ] } },
{ "type": "Feature", "properties": { "Id": 0, "BARRIO": "BRASIL" }, "geometry": { "type": "LineString", "coordinates": [ [ -70.66276, -33.439617 ], [ -70.663859, -33.439738 ] ] } },
{ "type": "Feature", "properties": { "Id": 0, "BARRIO": "BRASIL" }, "geometry": { "type": "LineString", "coordinates": [ [ -70.667055, -33.440095 ], [ -70.667279, -33.440119 ] ] } },
{ "type": "Feature", "properties": { "Id": 0, "BARRIO": "BRASIL" }, "geometry": { "type": "LineString", "coordinates": [ [ -70.667465, -33.440129 ], [ -70.667696, -33.440155 ] ] } },
{ "type": "Feature", "properties": { "Id": 0, "BARRIO": "BRASIL" }, "geometry": { "type": "LineString", "coordinates": [ [ -70.660434, -33.440639 ], [ -70.660387, -33.441038 ] ] } },
{ "type": "Feature", "properties": { "Id": 0, "BARRIO": "BRASIL" }, "geometry": { "type": "LineString", "coordinates": [ [ -70.661599, -33.440789 ], [ -70.662064, -33.440837 ], [ -70.66196, -33.441704 ], [ -70.661937, -33.441731 ], [ -70.66193, -33.441752 ], [ -70.661915, -33.441785 ], [ -70.661914, -33.441785 ] ] } },
{ "type": "Feature", "properties": { "Id": 0, "BARRIO": "BRASIL" }, "geometry": { "type": "LineString", "coordinates": [ [ -70.667831, -33.442477 ], [ -70.667243, -33.442378 ] ] } },
{ "type": "Feature", "properties": { "Id": 0, "BARRIO": "BRASIL" }, "geometry": { "type": "LineString", "coordinates": [ [ -70.665327, -33.446913 ], [ -70.66563, -33.446978 ], [ -70.665733, -33.446683 ], [ -70.665698, -33.446516 ] ] } },
{ "type": "Feature", "properties": { "Id": 0, "BARRIO": "BRASIL" }, "geometry": { "type": "LineString", "coordinates": [ [ -70.66581, -33.446696 ], [ -70.665699, -33.446998 ], [ -70.665902, -33.447048 ] ] } },
{ "type": "Feature", "properties": { "Id": 0, "BARRIO": "BRASIL" }, "geometry": { "type": "LineString", "coordinates": [ [ -70.666374, -33.446106 ], [ -70.666964, -33.446244 ] ] } },
{ "type": "Feature", "properties": { "Id": 0, "BARRIO": "BRASIL" }, "geometry": { "type": "LineString", "coordinates": [ [ -70.666379, -33.445751 ], [ -70.666388, -33.445936 ], [ -70.666411, -33.445958 ], [ -70.66685, -33.44606 ] ] } },
{ "type": "Feature", "properties": { "Id": 0, "BARRIO": "MEIGGS" }, "geometry": { "type": "LineString", "coordinates": [ [ -70.672374, -33.45822 ], [ -70.673525, -33.458305 ], [ -70.673564, -33.458287 ], [ -70.673858, -33.457093 ], [ -70.672661, -33.456862 ], [ -70.672345, -33.458184 ] ] } },
{ "type": "Feature", "properties": { "Id": 0, "BARRIO": "MEIGGS" }, "geometry": { "type": "LineString", "coordinates": [ [ -70.673728, -33.458306 ], [ -70.674832, -33.458368 ], [ -70.675004, -33.45765 ], [ -70.675076, -33.457354 ], [ -70.674069, -33.457138 ], [ -70.674019, -33.457162 ], [ -70.673738, -33.458276 ] ] } },
{ "type": "Feature", "properties": { "Id": 0, "BARRIO": "MEIGGS" }, "geometry": { "type": "LineString", "coordinates": [ [ -70.676614, -33.456477 ], [ -70.676381, -33.457415 ], [ -70.67635, -33.457439 ], [ -70.675268, -33.457234 ], [ -70.675494, -33.456258 ], [ -70.676588, -33.456465 ] ] } },
{ "type": "Feature", "properties": { "Id": 0, "BARRIO": "MEIGGS" }, "geometry": { "type": "LineString", "coordinates": [ [ -70.674811, -33.456136 ], [ -70.675365, -33.456231 ], [ -70.675127, -33.457184 ], [ -70.675108, -33.457197 ], [ -70.674053, -33.456977 ], [ -70.674188, -33.456358 ], [ -70.674197, -33.456315 ] ] } },
{ "type": "Feature", "properties": { "Id": 0, "BARRIO": "MEIGGS" }, "geometry": { "type": "LineString", "coordinates": [ [ -70.673909, -33.456837 ], [ -70.673572, -33.456777 ], [ -70.673537, -33.456885 ], [ -70.672652, -33.456721 ], [ -70.672926, -33.455786 ], [ -70.674123, -33.455982 ], [ -70.674035, -33.456384 ], [ -70.673962, -33.456635 ], [ -70.673742, -33.456597 ], [ -70.673723, -33.456687 ], [ -70.67393, -33.45673 ], [ -70.67391, -33.456824 ] ] } },
{ "type": "Feature", "properties": { "Id": 0, "BARRIO": "MEIGGS" }, "geometry": { "type": "LineString", "coordinates": [ [ -70.672999, -33.454661 ], [ -70.672521, -33.454584 ], [ -70.672425, -33.455504 ], [ -70.672761, -33.455583 ], [ -70.673008, -33.454733 ] ] } },
{ "type": "Feature", "properties": { "Id": 0, "BARRIO": "MEIGGS" }, "geometry": { "type": "LineString", "coordinates": [ [ -70.673185, -33.454694 ], [ -70.672968, -33.455616 ], [ -70.674097, -33.455851 ], [ -70.674146, -33.455815 ], [ -70.674364, -33.454929 ], [ -70.673235, -33.4547 ] ] } },
{ "type": "Feature", "properties": { "Id": 0, "BARRIO": "MEIGGS" }, "geometry": { "type": "LineString", "coordinates": [ [ -70.674443, -33.455272 ], [ -70.674523, -33.454949 ], [ -70.675616, -33.455181 ], [ -70.675385, -33.456068 ], [ -70.675347, -33.456094 ], [ -70.674357, -33.455889 ], [ -70.674314, -33.455861 ], [ -70.674377, -33.45561 ] ] } },
{ "type": "Feature", "properties": { "Id": 0, "BARRIO": "MEIGGS" }, "geometry": { "type": "LineString", "coordinates": [ [ -70.675693, -33.455216 ], [ -70.675476, -33.456128 ], [ -70.676509, -33.456336 ], [ -70.676564, -33.456303 ], [ -70.676765, -33.455441 ], [ -70.675724, -33.455233 ] ] } },
{ "type": "Feature", "properties": { "Id": 0, "BARRIO": "MEIGGS" }, "geometry": { "type": "LineString", "coordinates": [ [ -70.677075, -33.45446 ], [ -70.676968, -33.45488 ], [ -70.676951, -33.45488 ], [ -70.676927, -33.454977 ], [ -70.676897, -33.454988 ], [ -70.676841, -33.455182 ], [ -70.676867, -33.455179 ], [ -70.676856, -33.455265 ], [ -70.676822, -33.455308 ], [ -70.676424, -33.455231 ], [ -70.675991, -33.45513 ], [ -70.675759, -33.455079 ], [ -70.675898, -33.454533 ], [ -70.675986, -33.454221 ], [ -70.677027, -33.454418 ] ] } },
{ "type": "Feature", "properties": { "Id": 0, "BARRIO": "MEIGGS" }, "geometry": { "type": "LineString", "coordinates": [ [ -70.675848, -33.454165 ], [ -70.675631, -33.45507 ], [ -70.67461, -33.454848 ], [ -70.674571, -33.454802 ], [ -70.67478, -33.453922 ], [ -70.67581, -33.454151 ] ] } },
{ "type": "Feature", "properties": { "Id": 0, "BARRIO": "MEIGGS" }, "geometry": { "type": "LineString", "coordinates": [ [ -70.674582, -33.453886 ], [ -70.674594, -33.453902 ], [ -70.674527, -33.454086 ], [ -70.674546, -33.454098 ], [ -70.674484, -33.454324 ], [ -70.674459, -33.454442 ], [ -70.674461, -33.454462 ], [ -70.674432, -33.454624 ], [ -70.674415, -33.454711 ], [ -70.674411, -33.454763 ], [ -70.674375, -33.454784 ], [ -70.673952, -33.454705 ], [ -70.673418, -33.454585 ], [ -70.673267, -33.454554 ], [ -70.673242, -33.454525 ], [ -70.673382, -33.45396 ], [ -70.673452, -33.453967 ], [ -70.673481, -33.453861 ], [ -70.673409, -33.453838 ], [ -70.673452, -33.453636 ], [ -70.67456, -33.453881 ] ] } },
{ "type": "Feature", "properties": { "Id": 0, "BARRIO": "MEIGGS" }, "geometry": { "type": "LineString", "coordinates": [ [ -70.673219, -33.453578 ], [ -70.673248, -33.453606 ], [ -70.67306, -33.454492 ], [ -70.673021, -33.454514 ], [ -70.672524, -33.454415 ], [ -70.672539, -33.453423 ], [ -70.673182, -33.453571 ] ] } },
{ "type": "Feature", "properties": { "Id": 0, "BARRIO": "MEIGGS" }, "geometry": { "type": "LineString", "coordinates": [ [ -70.677787, -33.453499 ], [ -70.677827, -33.453541 ], [ -70.677901, -33.454428 ], [ -70.677868, -33.454462 ], [ -70.677262, -33.454322 ], [ -70.677244, -33.454284 ], [ -70.677284, -33.453434 ], [ -70.677335, -33.453414 ], [ -70.677741, -33.45349 ] ] } },
{ "type": "Feature", "properties": { "Id": 0, "BARRIO": "MEIGGS" }, "geometry": { "type": "LineString", "coordinates": [ [ -70.677106, -33.453351 ], [ -70.677124, -33.453393 ], [ -70.677095, -33.454238 ], [ -70.677056, -33.454263 ], [ -70.676084, -33.454056 ], [ -70.676043, -33.454019 ], [ -70.676226, -33.453153 ], [ -70.677106, -33.453351 ] ] } },
{ "type": "Feature", "properties": { "Id": 0, "BARRIO": "MEIGGS" }, "geometry": { "type": "LineString", "coordinates": [ [ -70.67481, -33.453741 ], [ -70.674857, -33.45378 ], [ -70.675829, -33.45399 ], [ -70.675865, -33.453978 ], [ -70.676072, -33.453154 ], [ -70.676048, -33.453116 ], [ -70.67507, -33.452886 ], [ -70.675014, -33.452911 ], [ -70.674824, -33.453686 ] ] } },
{ "type": "Feature", "properties": { "Id": 0, "BARRIO": "MEIGGS" }, "geometry": { "type": "LineString", "coordinates": [ [ -70.673859, -33.453575 ], [ -70.67466, -33.453741 ], [ -70.674881, -33.452836 ], [ -70.673698, -33.452575 ], [ -70.673549, -33.453145 ] ] } },
{ "type": "Feature", "properties": { "Id": 0, "BARRIO": "MEIGGS" }, "geometry": { "type": "LineString", "coordinates": [ [ -70.672777, -33.452345 ], [ -70.673503, -33.45253 ], [ -70.673288, -33.453459 ], [ -70.672573, -33.453283 ], [ -70.672538, -33.453231 ], [ -70.67258, -33.452462 ] ] } },
{ "type": "Feature", "properties": { "Id": 0, "BARRIO": "MEIGGS" }, "geometry": { "type": "LineString", "coordinates": [ [ -70.677794, -33.453328 ], [ -70.677745, -33.453362 ], [ -70.67727, -33.453255 ], [ -70.677255, -33.453225 ], [ -70.677293, -33.452401 ], [ -70.677324, -33.452368 ], [ -70.677739, -33.452464 ], [ -70.677776, -33.453296 ] ] } },
{ "type": "Feature", "properties": { "Id": 0, "BARRIO": "MEIGGS" }, "geometry": { "type": "LineString", "coordinates": [ [ -70.677121, -33.452353 ], [ -70.677106, -33.452309 ], [ -70.676681, -33.452216 ], [ -70.676452, -33.452147 ], [ -70.676431, -33.452174 ], [ -70.676208, -33.452995 ], [ -70.676223, -33.453024 ], [ -70.67647, -33.453081 ], [ -70.676999, -33.453205 ], [ -70.67708, -33.453192 ], [ -70.677132, -33.452386 ] ] } },
{ "type": "Feature", "properties": { "Id": 0, "BARRIO": "MEIGGS" }, "geometry": { "type": "LineString", "coordinates": [ [ -70.676293, -33.452073 ], [ -70.676076, -33.452962 ], [ -70.675386, -33.452813 ], [ -70.675039, -33.45274 ], [ -70.675011, -33.452708 ], [ -70.675166, -33.452026 ], [ -70.675236, -33.451829 ], [ -70.676271, -33.452053 ] ] } },
{ "type": "Feature", "properties": { "Id": 0, "BARRIO": "MEIGGS" }, "geometry": { "type": "LineString", "coordinates": [ [ -70.67508, -33.451762 ], [ -70.675098, -33.451795 ], [ -70.674909, -33.452655 ], [ -70.674884, -33.452674 ], [ -70.673709, -33.45242 ], [ -70.673945, -33.451494 ], [ -70.675054, -33.451756 ] ] } },
{ "type": "Feature", "properties": { "Id": 0, "BARRIO": "MEIGGS" }, "geometry": { "type": "LineString", "coordinates": [ [ -70.672867, -33.451229 ], [ -70.672671, -33.451175 ], [ -70.672625, -33.451203 ], [ -70.672565, -33.452164 ], [ -70.673537, -33.452377 ], [ -70.673765, -33.451474 ], [ -70.673747, -33.45145 ], [ -70.673078, -33.451283 ] ] } },
{ "type": "Feature", "properties": { "Id": 0, "BARRIO": "MEIGGS" }, "geometry": { "type": "LineString", "coordinates": [ [ -70.673794, -33.450258 ], [ -70.67358, -33.450974 ], [ -70.673538, -33.450971 ], [ -70.673475, -33.451211 ], [ -70.673482, -33.451237 ], [ -70.673772, -33.451314 ], [ -70.673803, -33.451284 ], [ -70.67414, -33.449886 ], [ -70.674132, -33.44986 ], [ -70.673907, -33.449797 ], [ -70.673868, -33.449809 ] ] } },
{ "type": "Feature", "properties": { "Id": 0, "BARRIO": "MEIGGS" }, "geometry": { "type": "LineString", "coordinates": [ [ -70.673723, -33.449821 ], [ -70.673666, -33.450121 ], [ -70.673371, -33.451186 ], [ -70.672784, -33.451032 ], [ -70.672824, -33.450877 ], [ -70.672613, -33.45082 ], [ -70.672641, -33.449495 ], [ -70.672683, -33.449468 ], [ -70.673402, -33.449652 ], [ -70.673392, -33.449712 ], [ -70.6737, -33.449806 ] ] } },
{ "type": "Feature", "properties": { "Id": 0, "BARRIO": "MEIGGS" }, "geometry": { "type": "LineString", "coordinates": [ [ -70.677652, -33.45085 ], [ -70.677451, -33.450793 ], [ -70.67741, -33.450869 ], [ -70.677223, -33.451315 ], [ -70.677234, -33.451342 ], [ -70.677434, -33.451393 ], [ -70.677721, -33.451327 ], [ -70.67768, -33.450862 ] ] } },
{ "type": "Feature", "properties": { "Id": 0, "BARRIO": "MEIGGS" }, "geometry": { "type": "LineString", "coordinates": [ [ -70.677498, -33.451512 ], [ -70.677669, -33.451531 ], [ -70.677714, -33.452188 ], [ -70.677807, -33.452197 ], [ -70.677807, -33.452277 ], [ -70.677771, -33.452292 ], [ -70.677372, -33.452197 ], [ -70.677371, -33.452179 ], [ -70.677282, -33.452181 ], [ -70.677276, -33.452084 ], [ -70.677253, -33.452078 ], [ -70.677484, -33.45151 ] ] } },
{ "type": "Feature", "properties": { "Id": 0, "BARRIO": "MEIGGS" }, "geometry": { "type": "LineString", "coordinates": [ [ -70.677396, -33.451494 ], [ -70.677152, -33.452116 ], [ -70.677106, -33.452123 ], [ -70.676952, -33.452092 ], [ -70.676941, -33.452058 ], [ -70.677198, -33.45144 ], [ -70.677382, -33.45149 ] ] } },
{ "type": "Feature", "properties": { "Id": 0, "BARRIO": "MEIGGS" }, "geometry": { "type": "LineString", "coordinates": [ [ -70.677249, -33.450698 ], [ -70.677272, -33.450747 ], [ -70.677194, -33.450911 ], [ -70.677269, -33.450944 ], [ -70.676846, -33.452045 ], [ -70.676819, -33.452051 ], [ -70.676421, -33.451961 ], [ -70.676493, -33.451773 ], [ -70.676399, -33.451738 ], [ -70.676719, -33.450843 ], [ -70.67672, -33.450774 ], [ -70.676766, -33.450577 ], [ -70.677235, -33.450687 ] ] } },
{ "type": "Feature", "properties": { "Id": 0, "BARRIO": "MEIGGS" }, "geometry": { "type": "LineString", "coordinates": [ [ -70.676704, -33.450585 ], [ -70.676674, -33.450671 ], [ -70.676624, -33.450853 ], [ -70.676577, -33.450947 ], [ -70.676249, -33.451777 ], [ -70.676217, -33.451885 ], [ -70.676189, -33.451899 ], [ -70.675308, -33.451687 ], [ -70.675296, -33.451666 ], [ -70.675449, -33.451041 ], [ -70.675435, -33.451041 ], [ -70.675633, -33.450265 ], [ -70.676692, -33.450554 ] ] } },
{ "type": "Feature", "properties": { "Id": 0, "BARRIO": "MEIGGS" }, "geometry": { "type": "LineString", "coordinates": [ [ -70.675417, -33.450254 ], [ -70.675472, -33.450315 ], [ -70.675144, -33.451615 ], [ -70.675113, -33.451637 ], [ -70.674001, -33.451371 ], [ -70.674093, -33.450985 ], [ -70.674059, -33.450974 ], [ -70.674194, -33.450328 ], [ -70.674266, -33.450229 ], [ -70.674322, -33.450009 ], [ -70.674404, -33.449969 ], [ -70.675388, -33.450247 ] ] } },
{ "type": "Feature", "properties": { "Id": 0, "BARRIO": "PARQUE ALMAGRO" }, "geometry": { "type": "LineString", "coordinates": [ [ -70.660252, -33.446602 ], [ -70.65999, -33.447393 ] ] } },
{ "type": "Feature", "properties": { "Id": 0, "BARRIO": "PARQUE ALMAGRO" }, "geometry": { "type": "LineString", "coordinates": [ [ -70.659152, -33.448502 ], [ -70.659083, -33.448783 ], [ -70.659087, -33.448825 ], [ -70.659004, -33.449327 ], [ -70.658961, -33.449331 ], [ -70.658927, -33.449406 ], [ -70.658367, -33.449312 ] ] } },
{ "type": "Feature", "properties": { "Id": 0, "BARRIO": "PARQUE ALMAGRO" }, "geometry": { "type": "LineString", "coordinates": [ [ -70.657465, -33.451531 ], [ -70.657517, -33.451285 ], [ -70.65741, -33.451245 ], [ -70.657541, -33.450683 ], [ -70.657566, -33.450664 ], [ -70.658696, -33.450804 ], [ -70.658751, -33.450842 ], [ -70.658638, -33.451303 ], [ -70.658511, -33.451696 ], [ -70.658428, -33.452016 ] ] } },
{ "type": "Feature", "properties": { "Id": 0, "BARRIO": "REPUBLICA" }, "geometry": { "type": "LineString", "coordinates": [ [ -70.671261, -33.449088 ], [ -70.672428, -33.44938 ], [ -70.672471, -33.44943 ], [ -70.672424, -33.450969 ], [ -70.670932, -33.45066 ], [ -70.670924, -33.45066 ], [ -70.670914, -33.450624 ] ] } },
{ "type": "Feature", "properties": { "Id": 0, "BARRIO": "REPUBLICA" }, "geometry": { "type": "LineString", "coordinates": [ [ -70.670403, -33.44978 ], [ -70.670211, -33.450441 ], [ -70.670305, -33.450482 ], [ -70.670443, -33.450516 ] ] } },
{ "type": "Feature", "properties": { "Id": 0, "BARRIO": "REPUBLICA" }, "geometry": { "type": "LineString", "coordinates": [ [ -70.671604, -33.450944 ], [ -70.67018, -33.450606 ], [ -70.669951, -33.451568 ], [ -70.671692, -33.451967 ] ] } },
{ "type": "Feature", "properties": { "Id": 0, "BARRIO": "REPUBLICA" }, "geometry": { "type": "LineString", "coordinates": [ [ -70.671705, -33.456673 ], [ -70.671025, -33.456559 ] ] } },
{ "type": "Feature", "properties": { "Id": 0, "BARRIO": "REPUBLICA" }, "geometry": { "type": "LineString", "coordinates": [ [ -70.672329, -33.453562 ], [ -70.672301, -33.45435 ], [ -70.67177, -33.454249 ] ] } },
{ "type": "Feature", "properties": { "Id": 0, "BARRIO": "REPUBLICA" }, "geometry": { "type": "LineString", "coordinates": [ [ -70.672145, -33.456753 ], [ -70.672145, -33.457088 ] ] } },
{ "type": "Feature", "properties": { "Id": 0, "BARRIO": "REPUBLICA" }, "geometry": { "type": "LineString", "coordinates": [ [ -70.668491, -33.456383 ], [ -70.668554, -33.456106 ], [ -70.668527, -33.456053 ], [ -70.668021, -33.455956 ] ] } },
{ "type": "Feature", "properties": { "Id": 0, "BARRIO": "EJERCITO" }, "geometry": { "type": "LineString", "coordinates": [ [ -70.66459, -33.449061 ], [ -70.664652, -33.447561 ], [ -70.664286, -33.447471 ] ] } },
{ "type": "Feature", "properties": { "Id": 0, "BARRIO": "EJERCITO" }, "geometry": { "type": "LineString", "coordinates": [ [ -70.663758, -33.44786 ], [ -70.663664, -33.448873 ] ] } },
{ "type": "Feature", "properties": { "Id": 0, "BARRIO": "EJERCITO" }, "geometry": { "type": "LineString", "coordinates": [ [ -70.664449, -33.452128 ], [ -70.66449, -33.451612 ], [ -70.663718, -33.45144 ] ] } },
{ "type": "Feature", "properties": { "Id": 0, "BARRIO": "EJERCITO" }, "geometry": { "type": "LineString", "coordinates": [ [ -70.659217, -33.454183 ], [ -70.658832, -33.454098 ], [ -70.658732, -33.45413 ], [ -70.658598, -33.454537 ] ] } },
{ "type": "Feature", "properties": { "Id": 0, "BARRIO": "EJERCITO" }, "geometry": { "type": "LineString", "coordinates": [ [ -70.659974, -33.455508 ], [ -70.6605, -33.455608 ] ] } },
{ "type": "Feature", "properties": { "Id": 0, "BARRIO": "EJERCITO" }, "geometry": { "type": "LineString", "coordinates": [ [ -70.65716, -33.456634 ], [ -70.659475, -33.456813 ], [ -70.659451, -33.457343 ] ] } },
{ "type": "Feature", "properties": { "Id": 0, "BARRIO": "RONDIZZONI" }, "geometry": { "type": "LineString", "coordinates": [ [ -70.659287, -33.472727 ], [ -70.659251, -33.473085 ], [ -70.659216, -33.473122 ], [ -70.658297, -33.473062 ] ] } },
{ "type": "Feature", "properties": { "Id": 0, "BARRIO": "PARQUE O'HIGGINS" }, "geometry": { "type": "LineString", "coordinates": [ [ -70.659604, -33.47008 ], [ -70.659465, -33.470131 ], [ -70.657284, -33.469959 ], [ -70.657296, -33.468808 ], [ -70.657281, -33.468613 ], [ -70.657204, -33.468423 ], [ -70.657023, -33.468211 ], [ -70.656876, -33.46796 ], [ -70.656826, -33.467717 ], [ -70.656989, -33.465743 ], [ -70.657224, -33.463056 ], [ -70.657411, -33.460925 ], [ -70.657697, -33.46072 ], [ -70.657783, -33.45986 ], [ -70.65784, -33.458807 ], [ -70.65784, -33.458356 ], [ -70.663361, -33.458689 ], [ -70.663652, -33.459059 ], [ -70.663546, -33.462883 ], [ -70.663481, -33.464881 ], [ -70.663246, -33.470301 ], [ -70.659861, -33.470161 ], [ -70.659717, -33.470079 ] ] } },
{ "type": "Feature", "properties": { "Id": 0, "BARRIO": "PARQUE O'HIGGINS" }, "geometry": { "type": "LineString", "coordinates": [ [ -70.657225, -33.461067 ], [ -70.656964, -33.464115 ] ] } },
{ "type": "Feature", "properties": { "Id": 0, "BARRIO": null }, "geometry": { "type": "LineString", "coordinates": [ [ -70.656975, -33.456399 ], [ -70.656887, -33.456737 ], [ -70.656795, -33.45749 ], [ -70.656811, -33.457883 ], [ -70.656885, -33.458401 ], [ -70.656947, -33.458783 ] ] } },
{ "type": "Feature", "properties": { "Id": 0, "BARRIO": "VIEL" }, "geometry": { "type": "LineString", "coordinates": [ [ -70.656527, -33.458479 ], [ -70.656572, -33.460216 ], [ -70.656526, -33.461429 ], [ -70.656354, -33.464024 ], [ -70.656244, -33.466309 ], [ -70.656231, -33.466997 ] ] } },
{ "type": "Feature", "properties": { "Id": 0, "BARRIO": "CLUB HIPICO" }, "geometry": { "type": "LineString", "coordinates": [ [ -70.664968, -33.457296 ], [ -70.66498, -33.46301 ], [ -70.664947, -33.470423 ], [ -70.667599, -33.470459 ], [ -70.670728, -33.467124 ], [ -70.671505, -33.466344 ], [ -70.671439, -33.463825 ], [ -70.671453, -33.463261 ], [ -70.671625, -33.461763 ], [ -70.672011, -33.458698 ], [ -70.671865, -33.458543 ], [ -70.670483, -33.4583 ], [ -70.668438, -33.457937 ], [ -70.668395, -33.457961 ], [ -70.668235, -33.457942 ], [ -70.66817, -33.457916 ], [ -70.668138, -33.457878 ], [ -70.665114, -33.457333 ] ] } },
{ "type": "Feature", "properties": { "Id": 0, "BARRIO": "SAN VICENTE" }, "geometry": { "type": "LineString", "coordinates": [ [ -70.675251, -33.457365 ], [ -70.675003, -33.458392 ], [ -70.676132, -33.45846 ], [ -70.676308, -33.457584 ], [ -70.675263, -33.457381 ] ] } },
{ "type": "Feature", "properties": { "Id": 0, "BARRIO": "SAN VICENTE" }, "geometry": { "type": "LineString", "coordinates": [ [ -70.676318, -33.458388 ], [ -70.676364, -33.458433 ], [ -70.678122, -33.458065 ], [ -70.678151, -33.458029 ], [ -70.678085, -33.456799 ], [ -70.678037, -33.456764 ], [ -70.676765, -33.456523 ], [ -70.676339, -33.458354 ] ] } },
{ "type": "Feature", "properties": { "Id": 0, "BARRIO": "SAN VICENTE" }, "geometry": { "type": "LineString", "coordinates": [ [ -70.677476, -33.459441 ], [ -70.677611, -33.458924 ], [ -70.678222, -33.458959 ], [ -70.678315, -33.46002 ], [ -70.678262, -33.460118 ], [ -70.677379, -33.45994 ] ] } },
{ "type": "Feature", "properties": { "Id": 0, "BARRIO": "SAN VICENTE" }, "geometry": { "type": "LineString", "coordinates": [ [ -70.677607, -33.460169 ], [ -70.678326, -33.460274 ], [ -70.678398, -33.46126 ], [ -70.678373, -33.461286 ], [ -70.677803, -33.461175 ], [ -70.677138, -33.461041 ] ] } },
{ "type": "Feature", "properties": { "Id": 0, "BARRIO": "SAN VICENTE" }, "geometry": { "type": "LineString", "coordinates": [ [ -70.678407, -33.461524 ], [ -70.678501, -33.46153 ], [ -70.678568, -33.462363 ], [ -70.678531, -33.462396 ], [ -70.677284, -33.462209 ], [ -70.676908, -33.462149 ], [ -70.676877, -33.4621 ], [ -70.677103, -33.461202 ], [ -70.677304, -33.461231 ], [ -70.67841, -33.461449 ], [ -70.678411, -33.461499 ] ] } },
{ "type": "Feature", "properties": { "Id": 0, "BARRIO": "SAN VICENTE" }, "geometry": { "type": "LineString", "coordinates": [ [ -70.678571, -33.462563 ], [ -70.678645, -33.463285 ], [ -70.678625, -33.463328 ], [ -70.678023, -33.463347 ], [ -70.676479, -33.463199 ], [ -70.676448, -33.463175 ], [ -70.676845, -33.462282 ], [ -70.676888, -33.462267 ], [ -70.678571, -33.462534 ] ] } },
{ "type": "Feature", "properties": { "Id": 0, "BARRIO": "SAN VICENTE" }, "geometry": { "type": "LineString", "coordinates": [ [ -70.677527, -33.463452 ], [ -70.678055, -33.463481 ], [ -70.678656, -33.463461 ], [ -70.67874, -33.464709 ], [ -70.678733, -33.46487 ], [ -70.678541, -33.464915 ], [ -70.678317, -33.46493 ], [ -70.676907, -33.465029 ] ] } },
{ "type": "Feature", "properties": { "Id": 0, "BARRIO": "SAN VICENTE" }, "geometry": { "type": "LineString", "coordinates": [ [ -70.677021, -33.465114 ], [ -70.678783, -33.465033 ], [ -70.678827, -33.465995 ], [ -70.678729, -33.466011 ], [ -70.678744, -33.466554 ], [ -70.677381, -33.466508 ], [ -70.677137, -33.466497 ] ] } },
{ "type": "Feature", "properties": { "Id": 0, "BARRIO": "SAN VICENTE" }, "geometry": { "type": "LineString", "coordinates": [ [ -70.674545, -33.459564 ], [ -70.674327, -33.460473 ], [ -70.673277, -33.460285 ], [ -70.673509, -33.459351 ], [ -70.674501, -33.45954 ] ] } },
{ "type": "Feature", "properties": { "Id": 0, "BARRIO": "SAN VICENTE" }, "geometry": { "type": "LineString", "coordinates": [ [ -70.674221, -33.46094 ], [ -70.674283, -33.460629 ], [ -70.673241, -33.460446 ], [ -70.673092, -33.461033 ] ] } },
{ "type": "Feature", "properties": { "Id": 0, "BARRIO": "SAN VICENTE" }, "geometry": { "type": "LineString", "coordinates": [ [ -70.672148, -33.460218 ], [ -70.673056, -33.460397 ], [ -70.672914, -33.460998 ] ] } },
{ "type": "Feature", "properties": { "Id": 0, "BARRIO": "SAN VICENTE" }, "geometry": { "type": "LineString", "coordinates": [ [ -70.676697, -33.458848 ], [ -70.676526, -33.459769 ], [ -70.676022, -33.459665 ], [ -70.676179, -33.458971 ], [ -70.676215, -33.45881 ], [ -70.676668, -33.458845 ] ] } },
{ "type": "Feature", "properties": { "Id": 0, "BARRIO": "SAN EUGENIO" }, "geometry": { "type": "LineString", "coordinates": [ [ -70.678504, -33.46674 ], [ -70.677239, -33.466693 ], [ -70.677215, -33.466776 ], [ -70.678264, -33.467989 ] ] } },
{ "type": "Feature", "properties": { "Id": 0, "BARRIO": "SAN EUGENIO" }, "geometry": { "type": "LineString", "coordinates": [ [ -70.678946, -33.469573 ], [ -70.678227, -33.469567 ], [ -70.678189, -33.469604 ], [ -70.678182, -33.470552 ], [ -70.678207, -33.470576 ], [ -70.678556, -33.470592 ] ] } },
{ "type": "Feature", "properties": { "Id": 0, "BARRIO": "SAN EUGENIO" }, "geometry": { "type": "LineString", "coordinates": [ [ -70.673078, -33.469557 ], [ -70.673059, -33.470538 ], [ -70.674131, -33.470541 ], [ -70.67415, -33.469539 ], [ -70.673103, -33.469521 ] ] } },
{ "type": "Feature", "properties": { "Id": 0, "BARRIO": "SAN EUGENIO" }, "geometry": { "type": "LineString", "coordinates": [ [ -70.673147, -33.469359 ], [ -70.674129, -33.46936 ], [ -70.67415, -33.469331 ], [ -70.674166, -33.468464 ], [ -70.673115, -33.46845 ], [ -70.67309, -33.468514 ], [ -70.673054, -33.469309 ] ] } },
{ "type": "Feature", "properties": { "Id": 0, "BARRIO": "SAN EUGENIO" }, "geometry": { "type": "LineString", "coordinates": [ [ -70.672889, -33.467628 ], [ -70.672883, -33.467291 ], [ -70.672852, -33.467252 ], [ -70.671819, -33.467255 ], [ -70.671798, -33.467277 ], [ -70.671797, -33.46766 ] ] } },
{ "type": "Feature", "properties": { "Id": 0, "BARRIO": "SAN EUGENIO" }, "geometry": { "type": "LineString", "coordinates": [ [ -70.676378, -33.470732 ], [ -70.673076, -33.470743 ], [ -70.673029, -33.473058 ], [ -70.673034, -33.473616 ], [ -70.673035, -33.474403 ], [ -70.673041, -33.474725 ], [ -70.673002, -33.474946 ], [ -70.672915, -33.47524 ], [ -70.672742, -33.475475 ], [ -70.67256, -33.475638 ], [ -70.672355, -33.475731 ], [ -70.672193, -33.475804 ] ] } },
{ "type": "Feature", "properties": { "Id": 0, "BARRIO": "SAN EUGENIO" }, "geometry": { "type": "LineString", "coordinates": [ [ -70.666499, -33.474116 ], [ -70.667624, -33.474143 ], [ -70.667586, -33.475467 ], [ -70.667632, -33.475676 ], [ -70.665062, -33.475633 ], [ -70.665086, -33.4754 ], [ -70.665103, -33.474087 ], [ -70.666257, -33.474113 ] ] } },
{ "type": "Feature", "properties": { "Id": 0, "BARRIO": "SAN EUGENIO" }, "geometry": { "type": "LineString", "coordinates": [ [ -70.667204, -33.472859 ], [ -70.667161, -33.472622 ], [ -70.667007, -33.472385 ], [ -70.666624, -33.472022 ], [ -70.665544, -33.473157 ] ] } },
{ "type": "Feature", "properties": { "Id": 0, "BARRIO": "SAN EUGENIO" }, "geometry": { "type": "LineString", "coordinates": [ [ -70.66528, -33.472999 ], [ -70.664975, -33.473307 ], [ -70.664902, -33.473294 ], [ -70.664915, -33.472403 ] ] } },
{ "type": "Feature", "properties": { "Id": 0, "BARRIO": "SAN EUGENIO" }, "geometry": { "type": "LineString", "coordinates": [ [ -70.663257, -33.472315 ], [ -70.663213, -33.473348 ], [ -70.659693, -33.473156 ], [ -70.659621, -33.473104 ], [ -70.659649, -33.472721 ] ] } },
{ "type": "Feature", "properties": { "Id": 0, "BARRIO": "SAN EUGENIO" }, "geometry": { "type": "LineString", "coordinates": [ [ -70.66463, -33.471008 ], [ -70.664648, -33.470755 ], [ -70.663593, -33.470692 ], [ -70.663543, -33.47075 ], [ -70.663523, -33.471218 ], [ -70.663505, -33.471772 ] ] } },
{ "type": "Feature", "properties": { "Id": 0, "BARRIO": "SAN EUGENIO" }, "geometry": { "type": "LineString", "coordinates": [ [ -70.664766, -33.471287 ], [ -70.664754, -33.471579 ] ] } },
{ "type": "Feature", "properties": { "Id": 0, "BARRIO": "RONDIZZONI" }, "geometry": { "type": "LineString", "coordinates": [ [ -70.657644, -33.475565 ], [ -70.657624, -33.475971 ], [ -70.660508, -33.475694 ], [ -70.662557, -33.475619 ], [ -70.664636, -33.475675 ], [ -70.664802, -33.473767 ], [ -70.660327, -33.473656 ], [ -70.658318, -33.47354 ], [ -70.655838, -33.473418 ], [ -70.655375, -33.473753 ], [ -70.655186, -33.473929 ], [ -70.655044, -33.47433 ], [ -70.654993, -33.475011 ], [ -70.654967, -33.475494 ], [ -70.655219, -33.476039 ], [ -70.655578, -33.47619 ], [ -70.65589, -33.47615 ] ] } },
{ "type": "Feature", "properties": { "Id": 0, "BARRIO": "RONDIZZONI" }, "geometry": { "type": "LineString", "coordinates": [ [ -70.655332, -33.473366 ], [ -70.655215, -33.473576 ], [ -70.654995, -33.473997 ], [ -70.65488, -33.474297 ], [ -70.654854, -33.474458 ], [ -70.654837, -33.474685 ], [ -70.654828, -33.474947 ], [ -70.654834, -33.47524 ], [ -70.654857, -33.475353 ] ] } },
{ "type": "Feature", "properties": { "Id": 0, "BARRIO": "HUEMUL" }, "geometry": { "type": "LineString", "coordinates": [ [ -70.652168, -33.474764 ], [ -70.652031, -33.47651 ], [ -70.653913, -33.476494 ], [ -70.654078, -33.475051 ], [ -70.654075, -33.474893 ], [ -70.65402, -33.474831 ], [ -70.652435, -33.474739 ], [ -70.6522, -33.47473 ] ] } },
{ "type": "Feature", "properties": { "Id": 0, "BARRIO": "FRANKLIN" }, "geometry": { "type": "LineString", "coordinates": [ [ -70.648159, -33.474542 ], [ -70.648133, -33.475452 ], [ -70.648042, -33.475567 ], [ -70.646699, -33.475499 ], [ -70.64663, -33.475443 ], [ -70.646672, -33.47449 ], [ -70.64809, -33.474514 ] ] } },
{ "type": "Feature", "properties": { "Id": 0, "BARRIO": "FRANKLIN" }, "geometry": { "type": "LineString", "coordinates": [ [ -70.648096, -33.475738 ], [ -70.6481, -33.476411 ], [ -70.646588, -33.476374 ], [ -70.6466, -33.475644 ], [ -70.648053, -33.475703 ] ] } },
{ "type": "Feature", "properties": { "Id": 0, "BARRIO": "FRANKLIN" }, "geometry": { "type": "LineString", "coordinates": [ [ -70.646454, -33.475624 ], [ -70.646365, -33.476356 ], [ -70.643706, -33.476219 ], [ -70.64376, -33.475467 ], [ -70.646385, -33.475604 ] ] } },
{ "type": "Feature", "properties": { "Id": 0, "BARRIO": "FRANKLIN" }, "geometry": { "type": "LineString", "coordinates": [ [ -70.646523, -33.474458 ], [ -70.646499, -33.475448 ], [ -70.64646, -33.475465 ], [ -70.643781, -33.475318 ], [ -70.643812, -33.474691 ], [ -70.646027, -33.474757 ], [ -70.646026, -33.474709 ], [ -70.646392, -33.474472 ], [ -70.646455, -33.474453 ] ] } },
{ "type": "Feature", "properties": { "Id": 0, "BARRIO": "FRANKLIN" }, "geometry": { "type": "LineString", "coordinates": [ [ -70.643344, -33.475442 ], [ -70.643369, -33.475468 ], [ -70.643334, -33.475884 ], [ -70.643537, -33.475901 ], [ -70.643521, -33.476224 ], [ -70.642107, -33.476167 ], [ -70.642112, -33.475698 ], [ -70.642136, -33.475407 ], [ -70.642179, -33.47537 ], [ -70.643322, -33.475439 ] ] } },
{ "type": "Feature", "properties": { "Id": 0, "BARRIO": "FRANKLIN" }, "geometry": { "type": "LineString", "coordinates": [ [ -70.646542, -33.47429 ], [ -70.645952, -33.474287 ], [ -70.645932, -33.474563 ], [ -70.643808, -33.474502 ], [ -70.643868, -33.473145 ], [ -70.643888, -33.473112 ], [ -70.644987, -33.473162 ], [ -70.644997, -33.47323 ], [ -70.645886, -33.473275 ], [ -70.645867, -33.4732 ], [ -70.646534, -33.473235 ], [ -70.64656, -33.473252 ], [ -70.646532, -33.474247 ] ] } },
{ "type": "Feature", "properties": { "Id": 0, "BARRIO": "FRANKLIN" }, "geometry": { "type": "LineString", "coordinates": [ [ -70.645134, -33.471963 ], [ -70.645111, -33.472477 ], [ -70.64519, -33.472479 ], [ -70.645159, -33.472911 ], [ -70.645095, -33.472909 ], [ -70.645086, -33.472996 ], [ -70.645033, -33.47302 ], [ -70.643882, -33.472949 ], [ -70.64385, -33.472938 ], [ -70.643908, -33.471899 ], [ -70.64395, -33.471851 ], [ -70.645109, -33.471952 ] ] } },
{ "type": "Feature", "properties": { "Id": 0, "BARRIO": "FRANKLIN" }, "geometry": { "type": "LineString", "coordinates": [ [ -70.643771, -33.471873 ], [ -70.643783, -33.471908 ], [ -70.643737, -33.472899 ], [ -70.643685, -33.472936 ], [ -70.642274, -33.472859 ], [ -70.642238, -33.472827 ], [ -70.642273, -33.472045 ], [ -70.642289, -33.471791 ], [ -70.642317, -33.471758 ], [ -70.643746, -33.471867 ] ] } },
{ "type": "Feature", "properties": { "Id": 0, "BARRIO": "SIERRA BELLA" }, "geometry": { "type": "LineString", "coordinates": [ [ -70.641871, -33.473951 ], [ -70.641773, -33.475187 ], [ -70.640676, -33.475142 ], [ -70.640758, -33.473846 ], [ -70.641806, -33.473934 ] ] } },
{ "type": "Feature", "properties": { "Id": 0, "BARRIO": "SIERRA BELLA" }, "geometry": { "type": "LineString", "coordinates": [ [ -70.640538, -33.473849 ], [ -70.640447, -33.475073 ], [ -70.640412, -33.475116 ], [ -70.63918, -33.47506 ], [ -70.639297, -33.473728 ], [ -70.640487, -33.473814 ] ] } },
{ "type": "Feature", "properties": { "Id": 0, "BARRIO": "SIERRA BELLA" }, "geometry": { "type": "LineString", "coordinates": [ [ -70.64063, -33.472922 ], [ -70.640554, -33.473614 ], [ -70.64052, -33.473636 ], [ -70.640054, -33.473599 ], [ -70.640032, -33.473571 ], [ -70.640104, -33.472872 ], [ -70.6406, -33.472901 ] ] } },
{ "type": "Feature", "properties": { "Id": 0, "BARRIO": "SIERRA BELLA" }, "geometry": { "type": "LineString", "coordinates": [ [ -70.639937, -33.472853 ], [ -70.639873, -33.473551 ], [ -70.639848, -33.47358 ], [ -70.639339, -33.473537 ], [ -70.639309, -33.473509 ], [ -70.639402, -33.47281 ], [ -70.639911, -33.472842 ] ] } },
{ "type": "Feature", "properties": { "Id": 0, "BARRIO": "SIERRA BELLA" }, "geometry": { "type": "LineString", "coordinates": [ [ -70.640938, -33.469066 ], [ -70.640972, -33.469098 ], [ -70.640886, -33.470198 ], [ -70.639668, -33.47011 ], [ -70.639795, -33.468956 ], [ -70.640886, -33.46906 ] ] } },
{ "type": "Feature", "properties": { "Id": 0, "BARRIO": "SIERRA BELLA" }, "geometry": { "type": "LineString", "coordinates": [ [ -70.642106, -33.469218 ], [ -70.642069, -33.469185 ], [ -70.641236, -33.469103 ], [ -70.641185, -33.469128 ], [ -70.641091, -33.470193 ], [ -70.641115, -33.470229 ], [ -70.642005, -33.470317 ], [ -70.642055, -33.470293 ], [ -70.642104, -33.46924 ] ] } },
{ "type": "Feature", "properties": { "Id": 0, "BARRIO": "FRANKLIN" }, "geometry": { "type": "LineString", "coordinates": [ [ -70.642402, -33.469433 ], [ -70.642374, -33.470398 ], [ -70.64384, -33.470488 ], [ -70.64387, -33.469681 ] ] } },
{ "type": "Feature", "properties": { "Id": 0, "BARRIO": "BOGOTA" }, "geometry": { "type": "LineString", "coordinates": [ [ -70.642238, -33.467933 ], [ -70.642209, -33.469007 ], [ -70.642192, -33.469017 ], [ -70.641243, -33.46892 ], [ -70.641217, -33.468899 ], [ -70.641308, -33.467855 ], [ -70.641325, -33.467836 ], [ -70.642212, -33.467927 ] ] } },
{ "type": "Feature", "properties": { "Id": 0, "BARRIO": "BOGOTA" }, "geometry": { "type": "LineString", "coordinates": [ [ -70.643994, -33.468447 ], [ -70.643911, -33.469207 ], [ -70.64388, -33.469232 ], [ -70.642962, -33.469141 ], [ -70.64293, -33.469113 ], [ -70.642516, -33.469059 ], [ -70.64249, -33.469035 ], [ -70.642477, -33.468935 ], [ -70.642414, -33.468929 ], [ -70.642432, -33.468547 ] ] } },
{ "type": "Feature", "properties": { "Id": 0, "BARRIO": "BOGOTA" }, "geometry": { "type": "LineString", "coordinates": [ [ -70.64421, -33.468398 ], [ -70.644072, -33.469244 ], [ -70.645264, -33.469352 ], [ -70.645287, -33.469338 ], [ -70.645374, -33.468521 ] ] } },
{ "type": "Feature", "properties": { "Id": 0, "BARRIO": "VIEL" }, "geometry": { "type": "LineString", "coordinates": [ [ -70.648748, -33.468001 ], [ -70.64873, -33.468514 ], [ -70.648816, -33.468579 ], [ -70.649508, -33.468653 ], [ -70.649562, -33.468116 ] ] } },
{ "type": "Feature", "properties": { "Id": 0, "BARRIO": "SIERRA BELLA" }, "geometry": { "type": "LineString", "coordinates": [ [ -70.629274, -33.468287 ], [ -70.629147, -33.468823 ], [ -70.627685, -33.468575 ] ] } },
{ "type": "Feature", "properties": { "Id": 0, "BARRIO": "SIERRA BELLA" }, "geometry": { "type": "LineString", "coordinates": [ [ -70.631381, -33.468136 ], [ -70.631334, -33.468101 ], [ -70.630931, -33.468056 ], [ -70.630845, -33.468394 ] ] } },
{ "type": "Feature", "properties": { "Id": 0, "BARRIO": "SIERRA BELLA" }, "geometry": { "type": "LineString", "coordinates": [ [ -70.633244, -33.468697 ], [ -70.633366, -33.468247 ], [ -70.633954, -33.46831 ], [ -70.633821, -33.468804 ] ] } },
{ "type": "Feature", "properties": { "Id": 0, "BARRIO": "SANTA ELENA" }, "geometry": { "type": "LineString", "coordinates": [ [ -70.627204, -33.464864 ], [ -70.626555, -33.467062 ] ] } },
{ "type": "Feature", "properties": { "Id": 0, "BARRIO": "MATTA SUR" }, "geometry": { "type": "LineString", "coordinates": [ [ -70.63383, -33.461212 ], [ -70.633729, -33.461557 ], [ -70.633696, -33.46158 ], [ -70.633307, -33.461509 ], [ -70.633279, -33.461485 ], [ -70.633377, -33.461126 ] ] } },
{ "type": "Feature", "properties": { "Id": 0, "BARRIO": "MATTA SUR" }, "geometry": { "type": "LineString", "coordinates": [ [ -70.638627, -33.460572 ], [ -70.63901, -33.459126 ], [ -70.637535, -33.458826 ], [ -70.637155, -33.4601 ] ] } },
{ "type": "Feature", "properties": { "Id": 0, "BARRIO": "MATTA SUR" }, "geometry": { "type": "LineString", "coordinates": [ [ -70.639391, -33.457738 ], [ -70.639014, -33.458996 ], [ -70.637556, -33.458686 ], [ -70.637916, -33.457385 ], [ -70.639348, -33.457696 ] ] } },
{ "type": "Feature", "properties": { "Id": 0, "BARRIO": "MATTA SUR" }, "geometry": { "type": "LineString", "coordinates": [ [ -70.637739, -33.457456 ], [ -70.637758, -33.457383 ], [ -70.637744, -33.457354 ], [ -70.63701, -33.457194 ], [ -70.636983, -33.457219 ], [ -70.636959, -33.457288 ] ] } },
{ "type": "Feature", "properties": { "Id": 0, "BARRIO": "MATTA SUR" }, "geometry": { "type": "LineString", "coordinates": [ [ -70.636325, -33.457081 ], [ -70.636145, -33.457044 ], [ -70.636149, -33.457019 ], [ -70.636025, -33.456985 ], [ -70.635892, -33.456972 ], [ -70.635858, -33.457005 ] ] } },
{ "type": "Feature", "properties": { "Id": 0, "BARRIO": "MATTA SUR" }, "geometry": { "type": "LineString", "coordinates": [ [ -70.635717, -33.456963 ], [ -70.635417, -33.456895 ], [ -70.635413, -33.456868 ], [ -70.635298, -33.456837 ], [ -70.635267, -33.45687 ] ] } },
{ "type": "Feature", "properties": { "Id": 0, "BARRIO": "MATTA SUR" }, "geometry": { "type": "LineString", "coordinates": [ [ -70.635097, -33.456852 ], [ -70.635103, -33.456793 ], [ -70.634711, -33.45672 ], [ -70.634675, -33.456745 ] ] } },
{ "type": "Feature", "properties": { "Id": 0, "BARRIO": "MATTA SUR" }, "geometry": { "type": "LineString", "coordinates": [ [ -70.633815, -33.456555 ], [ -70.633803, -33.456519 ], [ -70.633422, -33.456441 ], [ -70.633387, -33.456458 ], [ -70.633374, -33.456502 ] ] } },
{ "type": "Feature", "properties": { "Id": 0, "BARRIO": "MATTA SUR" }, "geometry": { "type": "LineString", "coordinates": [ [ -70.634498, -33.456753 ], [ -70.634518, -33.456687 ], [ -70.634182, -33.456602 ], [ -70.634003, -33.456563 ], [ -70.633968, -33.456573 ] ] } },
{ "type": "Feature", "properties": { "Id": 0, "BARRIO": "SANTA ELENA" }, "geometry": { "type": "LineString", "coordinates": [ [ -70.633183, -33.456413 ], [ -70.633164, -33.456382 ], [ -70.632797, -33.456304 ], [ -70.632761, -33.456323 ] ] } },
{ "type": "Feature", "properties": { "Id": 0, "BARRIO": "SANTA ELENA" }, "geometry": { "type": "LineString", "coordinates": [ [ -70.632615, -33.456294 ], [ -70.632582, -33.456252 ], [ -70.631368, -33.456005 ], [ -70.631334, -33.456022 ] ] } },
{ "type": "Feature", "properties": { "Id": 0, "BARRIO": "MATTA SUR" }, "geometry": { "type": "LineString", "coordinates": [ [ -70.64316, -33.458543 ], [ -70.642151, -33.458325 ] ] } },
{ "type": "Feature", "properties": { "Id": 0, "BARRIO": "MATTA SUR" }, "geometry": { "type": "LineString", "coordinates": [ [ -70.641967, -33.458306 ], [ -70.64194, -33.458277 ], [ -70.641182, -33.458119 ], [ -70.640552, -33.457988 ] ] } },
{ "type": "Feature", "properties": { "Id": 0, "BARRIO": "MATTA SUR" }, "geometry": { "type": "LineString", "coordinates": [ [ -70.645077, -33.458957 ], [ -70.643351, -33.458603 ], [ -70.643243, -33.459545 ] ] } },
{ "type": "Feature", "properties": { "Id": 0, "BARRIO": "MATTA SUR" }, "geometry": { "type": "LineString", "coordinates": [ [ -70.646156, -33.459257 ], [ -70.646159, -33.459189 ], [ -70.646137, -33.459146 ], [ -70.645344, -33.459006 ], [ -70.645313, -33.459171 ] ] } },
{ "type": "Feature", "properties": { "Id": 0, "BARRIO": "MATTA SUR" }, "geometry": { "type": "LineString", "coordinates": [ [ -70.646327, -33.459247 ], [ -70.646365, -33.459211 ], [ -70.647166, -33.459379 ], [ -70.647168, -33.45949 ] ] } },
{ "type": "Feature", "properties": { "Id": 0, "BARRIO": "MATTA SUR" }, "geometry": { "type": "LineString", "coordinates": [ [ -70.649013, -33.459818 ], [ -70.649015, -33.459761 ], [ -70.648978, -33.459732 ], [ -70.647917, -33.459515 ], [ -70.647417, -33.45941 ], [ -70.647352, -33.459439 ] ] } },
{ "type": "Feature", "properties": { "Id": 0, "BARRIO": "VIEL" }, "geometry": { "type": "LineString", "coordinates": [ [ -70.650614, -33.460094 ], [ -70.650611, -33.459955 ], [ -70.64923, -33.459797 ], [ -70.649204, -33.459907 ] ] } },
{ "type": "Feature", "properties": { "Id": 0, "BARRIO": "VIEL" }, "geometry": { "type": "LineString", "coordinates": [ [ -70.651542, -33.460115 ], [ -70.651535, -33.460043 ], [ -70.650776, -33.459958 ], [ -70.650726, -33.460035 ] ] } },
{ "type": "Feature", "properties": { "Id": 0, "BARRIO": "VIEL" }, "geometry": { "type": "LineString", "coordinates": [ [ -70.652437, -33.460199 ], [ -70.652438, -33.460144 ], [ -70.651785, -33.460063 ], [ -70.651742, -33.460081 ], [ -70.651734, -33.460146 ] ] } },
{ "type": "Feature", "properties": { "Id": 0, "BARRIO": "VIEL" }, "geometry": { "type": "LineString", "coordinates": [ [ -70.653295, -33.460408 ], [ -70.653312, -33.460261 ], [ -70.65328, -33.460229 ], [ -70.652597, -33.460143 ], [ -70.652566, -33.460162 ], [ -70.652539, -33.46032 ] ] } },
{ "type": "Feature", "properties": { "Id": 0, "BARRIO": "VIEL" }, "geometry": { "type": "LineString", "coordinates": [ [ -70.654254, -33.460524 ], [ -70.654265, -33.460375 ], [ -70.654241, -33.460343 ], [ -70.653851, -33.460304 ], [ -70.653548, -33.460272 ], [ -70.653548, -33.460295 ], [ -70.653491, -33.460282 ], [ -70.653451, -33.460312 ], [ -70.653416, -33.46052 ] ] } },
{ "type": "Feature", "properties": { "Id": 0, "BARRIO": "VIEL" }, "geometry": { "type": "LineString", "coordinates": [ [ -70.65531, -33.460648 ], [ -70.655319, -33.460519 ], [ -70.655288, -33.460489 ], [ -70.654727, -33.460427 ], [ -70.654429, -33.46039 ], [ -70.65439, -33.460409 ], [ -70.654378, -33.460595 ] ] } },
{ "type": "Feature", "properties": { "Id": 0, "BARRIO": "MATTA NORTE" }, "geometry": { "type": "LineString", "coordinates": [ [ -70.65537, -33.459989 ], [ -70.655364, -33.460106 ], [ -70.65533, -33.460126 ], [ -70.654438, -33.460018 ], [ -70.65442, -33.459985 ], [ -70.654425, -33.459877 ] ] } },
{ "type": "Feature", "properties": { "Id": 0, "BARRIO": "MATTA NORTE" }, "geometry": { "type": "LineString", "coordinates": [ [ -70.654312, -33.459931 ], [ -70.654307, -33.459987 ], [ -70.654286, -33.460003 ], [ -70.653494, -33.459905 ], [ -70.653476, -33.459885 ], [ -70.653492, -33.459727 ] ] } },
{ "type": "Feature", "properties": { "Id": 0, "BARRIO": "MATTA NORTE" }, "geometry": { "type": "LineString", "coordinates": [ [ -70.653391, -33.459685 ], [ -70.653373, -33.459846 ], [ -70.653345, -33.459843 ], [ -70.653342, -33.459861 ], [ -70.653306, -33.459884 ], [ -70.652631, -33.459802 ], [ -70.652612, -33.459788 ], [ -70.652626, -33.459682 ] ] } },
{ "type": "Feature", "properties": { "Id": 0, "BARRIO": "MATTA NORTE" }, "geometry": { "type": "LineString", "coordinates": [ [ -70.652156, -33.459558 ], [ -70.652125, -33.459737 ], [ -70.651808, -33.459704 ], [ -70.651774, -33.459672 ], [ -70.651791, -33.459574 ] ] } },
{ "type": "Feature", "properties": { "Id": 0, "BARRIO": "MATTA NORTE" }, "geometry": { "type": "LineString", "coordinates": [ [ -70.651665, -33.459601 ], [ -70.651644, -33.459693 ], [ -70.650991, -33.45961 ], [ -70.650788, -33.459603 ], [ -70.650801, -33.459421 ] ] } },
{ "type": "Feature", "properties": { "Id": 0, "BARRIO": "MATTA NORTE" }, "geometry": { "type": "LineString", "coordinates": [ [ -70.650694, -33.459396 ], [ -70.650668, -33.459572 ], [ -70.650625, -33.459603 ], [ -70.650299, -33.459562 ] ] } },
{ "type": "Feature", "properties": { "Id": 0, "BARRIO": "MATTA NORTE" }, "geometry": { "type": "LineString", "coordinates": [ [ -70.648438, -33.45919 ], [ -70.64901, -33.459316 ], [ -70.649061, -33.459277 ], [ -70.649471, -33.456968 ], [ -70.64895, -33.456879 ] ] } },
{ "type": "Feature", "properties": { "Id": 0, "BARRIO": "MATTA NORTE" }, "geometry": { "type": "LineString", "coordinates": [ [ -70.649526, -33.458715 ], [ -70.649407, -33.458715 ], [ -70.649376, -33.458746 ], [ -70.649256, -33.459409 ], [ -70.649273, -33.459437 ], [ -70.649474, -33.459462 ] ] } },
{ "type": "Feature", "properties": { "Id": 0, "BARRIO": "MATTA NORTE" }, "geometry": { "type": "LineString", "coordinates": [ [ -70.649851, -33.458608 ], [ -70.649425, -33.458614 ], [ -70.649392, -33.458588 ], [ -70.649467, -33.458172 ], [ -70.649541, -33.457739 ], [ -70.649664, -33.457017 ], [ -70.649685, -33.456995 ], [ -70.64986, -33.457021 ] ] } },
{ "type": "Feature", "properties": { "Id": 0, "BARRIO": "MATTA NORTE" }, "geometry": { "type": "LineString", "coordinates": [ [ -70.649689, -33.455536 ], [ -70.649724, -33.455564 ], [ -70.649534, -33.4568 ], [ -70.649489, -33.456825 ], [ -70.64888, -33.456723 ], [ -70.648848, -33.456688 ], [ -70.649025, -33.455478 ], [ -70.649053, -33.455454 ], [ -70.649084, -33.455449 ], [ -70.649161, -33.455457 ], [ -70.649478, -33.455508 ], [ -70.649498, -33.455498 ], [ -70.649655, -33.455522 ] ] } },
{ "type": "Feature", "properties": { "Id": 0, "BARRIO": "MATTA NORTE" }, "geometry": { "type": "LineString", "coordinates": [ [ -70.650541, -33.455639 ], [ -70.649914, -33.45557 ], [ -70.649898, -33.455653 ], [ -70.649858, -33.455645 ], [ -70.649834, -33.455887 ], [ -70.649728, -33.456643 ] ] } },
{ "type": "Feature", "properties": { "Id": 0, "BARRIO": "MATTA NORTE" }, "geometry": { "type": "LineString", "coordinates": [ [ -70.653693, -33.456896 ], [ -70.653701, -33.456837 ], [ -70.653728, -33.456837 ], [ -70.653786, -33.456174 ], [ -70.65381, -33.455998 ], [ -70.653721, -33.455978 ], [ -70.653461, -33.455956 ], [ -70.653253, -33.455927 ], [ -70.65321, -33.455933 ], [ -70.653201, -33.455962 ], [ -70.653167, -33.455978 ], [ -70.653049, -33.456813 ] ] } },
{ "type": "Feature", "properties": { "Id": 0, "BARRIO": "MATTA NORTE" }, "geometry": { "type": "LineString", "coordinates": [ [ -70.647257, -33.458765 ], [ -70.64723, -33.45892 ], [ -70.647201, -33.458938 ], [ -70.646969, -33.458891 ] ] } },
{ "type": "Feature", "properties": { "Id": 0, "BARRIO": "MATTA NORTE" }, "geometry": { "type": "LineString", "coordinates": [ [ -70.645298, -33.458432 ], [ -70.645277, -33.45851 ], [ -70.645252, -33.45853 ], [ -70.644877, -33.458458 ] ] } },
{ "type": "Feature", "properties": { "Id": 0, "BARRIO": "MATTA NORTE" }, "geometry": { "type": "LineString", "coordinates": [ [ -70.644815, -33.458415 ], [ -70.644779, -33.458443 ], [ -70.644434, -33.458363 ] ] } },
{ "type": "Feature", "properties": { "Id": 0, "BARRIO": "MATTA NORTE" }, "geometry": { "type": "LineString", "coordinates": [ [ -70.643823, -33.45823 ], [ -70.643441, -33.458145 ], [ -70.643393, -33.458143 ], [ -70.643363, -33.458113 ], [ -70.643391, -33.457952 ] ] } },
{ "type": "Feature", "properties": { "Id": 0, "BARRIO": "DIEZ DE JULIO" }, "geometry": { "type": "LineString", "coordinates": [ [ -70.643163, -33.457684 ], [ -70.643144, -33.457821 ], [ -70.642923, -33.4578 ], [ -70.642845, -33.458019 ] ] } },
{ "type": "Feature", "properties": { "Id": 0, "BARRIO": "DIEZ DE JULIO" }, "geometry": { "type": "LineString", "coordinates": [ [ -70.64205, -33.457815 ], [ -70.642003, -33.45784 ], [ -70.641189, -33.457681 ], [ -70.641164, -33.457651 ], [ -70.641172, -33.457601 ] ] } },
{ "type": "Feature", "properties": { "Id": 0, "BARRIO": "DIEZ DE JULIO" }, "geometry": { "type": "LineString", "coordinates": [ [ -70.641004, -33.457581 ], [ -70.640993, -33.457602 ], [ -70.640954, -33.457614 ], [ -70.639852, -33.457391 ], [ -70.63972, -33.457365 ], [ -70.639698, -33.457335 ], [ -70.639745, -33.457186 ] ] } },
{ "type": "Feature", "properties": { "Id": 0, "BARRIO": "DIEZ DE JULIO" }, "geometry": { "type": "LineString", "coordinates": [ [ -70.63905, -33.457248 ], [ -70.639022, -33.457258 ], [ -70.638714, -33.45719 ] ] } },
{ "type": "Feature", "properties": { "Id": 0, "BARRIO": "DIEZ DE JULIO" }, "geometry": { "type": "LineString", "coordinates": [ [ -70.63864, -33.457155 ], [ -70.638611, -33.457174 ], [ -70.638325, -33.457111 ], [ -70.6383, -33.457088 ] ] } },
{ "type": "Feature", "properties": { "Id": 0, "BARRIO": "DIEZ DE JULIO" }, "geometry": { "type": "LineString", "coordinates": [ [ -70.638204, -33.457092 ], [ -70.637724, -33.45698 ] ] } },
{ "type": "Feature", "properties": { "Id": 0, "BARRIO": "DIEZ DE JULIO" }, "geometry": { "type": "LineString", "coordinates": [ [ -70.637639, -33.45696 ], [ -70.637301, -33.456886 ], [ -70.637306, -33.456859 ], [ -70.637175, -33.456831 ], [ -70.637178, -33.456795 ], [ -70.637082, -33.456782 ] ] } },
{ "type": "Feature", "properties": { "Id": 0, "BARRIO": "DIEZ DE JULIO" }, "geometry": { "type": "LineString", "coordinates": [ [ -70.636889, -33.456702 ], [ -70.636868, -33.456768 ], [ -70.63683, -33.456784 ], [ -70.636162, -33.45664 ] ] } },
{ "type": "Feature", "properties": { "Id": 0, "BARRIO": "DIEZ DE JULIO" }, "geometry": { "type": "LineString", "coordinates": [ [ -70.635752, -33.456529 ], [ -70.63571, -33.456538 ], [ -70.634492, -33.456283 ], [ -70.634498, -33.456217 ] ] } },
{ "type": "Feature", "properties": { "Id": 0, "BARRIO": "DIEZ DE JULIO" }, "geometry": { "type": "LineString", "coordinates": [ [ -70.633235, -33.455959 ], [ -70.633217, -33.45598 ], [ -70.633128, -33.455973 ], [ -70.632896, -33.455919 ] ] } },
{ "type": "Feature", "properties": { "Id": 0, "BARRIO": "DIEZ DE JULIO" }, "geometry": { "type": "LineString", "coordinates": [ [ -70.632696, -33.455892 ], [ -70.632665, -33.45591 ], [ -70.632296, -33.455817 ], [ -70.632285, -33.455793 ] ] } },
{ "type": "Feature", "properties": { "Id": 0, "BARRIO": "DIEZ DE JULIO" }, "geometry": { "type": "LineString", "coordinates": [ [ -70.63211, -33.455721 ], [ -70.632103, -33.455739 ], [ -70.632075, -33.455757 ], [ -70.631925, -33.455735 ], [ -70.631414, -33.455625 ] ] } },
{ "type": "Feature", "properties": { "Id": 0, "BARRIO": "MATTA NORTE" }, "geometry": { "type": "LineString", "coordinates": [ [ -70.648931, -33.45532 ], [ -70.649556, -33.455397 ], [ -70.649605, -33.455253 ], [ -70.649793, -33.455272 ], [ -70.649944, -33.454232 ], [ -70.64901, -33.454087 ], [ -70.648987, -33.454209 ], [ -70.648361, -33.454096 ] ] } },
{ "type": "Feature", "properties": { "Id": 0, "BARRIO": "MATTA NORTE" }, "geometry": { "type": "LineString", "coordinates": [ [ -70.651404, -33.454471 ], [ -70.650646, -33.454352 ], [ -70.650128, -33.454266 ], [ -70.650094, -33.454295 ], [ -70.649966, -33.455184 ] ] } },
{ "type": "Feature", "properties": { "Id": 0, "BARRIO": "MATTA NORTE" }, "geometry": { "type": "LineString", "coordinates": [ [ -70.656505, -33.454612 ], [ -70.656015, -33.454595 ], [ -70.65602, -33.454604 ] ] } },
{ "type": "Feature", "properties": { "Id": 0, "BARRIO": "MATTA NORTE" }, "geometry": { "type": "LineString", "coordinates": [ [ -70.655816, -33.454626 ], [ -70.655485, -33.454587 ] ] } },
{ "type": "Feature", "properties": { "Id": 0, "BARRIO": "MATTA NORTE" }, "geometry": { "type": "LineString", "coordinates": [ [ -70.655371, -33.454584 ], [ -70.655069, -33.454569 ] ] } },
{ "type": "Feature", "properties": { "Id": 0, "BARRIO": "MATTA NORTE" }, "geometry": { "type": "LineString", "coordinates": [ [ -70.654876, -33.454581 ], [ -70.654175, -33.454548 ] ] } },
{ "type": "Feature", "properties": { "Id": 0, "BARRIO": "MATTA NORTE" }, "geometry": { "type": "LineString", "coordinates": [ [ -70.653976, -33.454574 ], [ -70.653953, -33.454536 ], [ -70.653388, -33.45451 ], [ -70.653338, -33.454559 ] ] } },
{ "type": "Feature", "properties": { "Id": 0, "BARRIO": "MATTA NORTE" }, "geometry": { "type": "LineString", "coordinates": [ [ -70.653173, -33.454542 ], [ -70.65262, -33.454511 ], [ -70.652564, -33.45456 ] ] } },
{ "type": "Feature", "properties": { "Id": 0, "BARRIO": "MATTA NORTE" }, "geometry": { "type": "LineString", "coordinates": [ [ -70.65195, -33.454496 ], [ -70.651576, -33.454483 ], [ -70.651548, -33.454508 ], [ -70.651522, -33.454642 ] ] } },
{ "type": "Feature", "properties": { "Id": 0, "BARRIO": "MATTA NORTE" }, "geometry": { "type": "LineString", "coordinates": [ [ -70.64821, -33.454078 ], [ -70.647609, -33.453974 ] ] } },
{ "type": "Feature", "properties": { "Id": 0, "BARRIO": "MATTA NORTE" }, "geometry": { "type": "LineString", "coordinates": [ [ -70.647406, -33.453946 ], [ -70.646554, -33.453805 ] ] } },
{ "type": "Feature", "properties": { "Id": 0, "BARRIO": "MATTA NORTE" }, "geometry": { "type": "LineString", "coordinates": [ [ -70.6464, -33.453795 ], [ -70.644058, -33.453382 ] ] } },
{ "type": "Feature", "properties": { "Id": 0, "BARRIO": "DIEZ DE JULIO" }, "geometry": { "type": "LineString", "coordinates": [ [ -70.643886, -33.453352 ], [ -70.64315, -33.453218 ] ] } },
{ "type": "Feature", "properties": { "Id": 0, "BARRIO": "DIEZ DE JULIO" }, "geometry": { "type": "LineString", "coordinates": [ [ -70.642965, -33.453197 ], [ -70.642401, -33.453085 ] ] } },
{ "type": "Feature", "properties": { "Id": 0, "BARRIO": "DIEZ DE JULIO" }, "geometry": { "type": "LineString", "coordinates": [ [ -70.642261, -33.453059 ], [ -70.640899, -33.452812 ] ] } },
{ "type": "Feature", "properties": { "Id": 0, "BARRIO": "DIEZ DE JULIO" }, "geometry": { "type": "LineString", "coordinates": [ [ -70.640664, -33.452776 ], [ -70.639393, -33.452523 ] ] } },
{ "type": "Feature", "properties": { "Id": 0, "BARRIO": "DIEZ DE JULIO" }, "geometry": { "type": "LineString", "coordinates": [ [ -70.639221, -33.45251 ], [ -70.639195, -33.452483 ], [ -70.638131, -33.45225 ] ] } },
{ "type": "Feature", "properties": { "Id": 0, "BARRIO": "DIEZ DE JULIO" }, "geometry": { "type": "LineString", "coordinates": [ [ -70.637896, -33.452227 ], [ -70.637879, -33.452212 ], [ -70.637036, -33.45207 ], [ -70.636989, -33.452095 ] ] } },
{ "type": "Feature", "properties": { "Id": 0, "BARRIO": "DIEZ DE JULIO" }, "geometry": { "type": "LineString", "coordinates": [ [ -70.636776, -33.452043 ], [ -70.635636, -33.451856 ] ] } },
{ "type": "Feature", "properties": { "Id": 0, "BARRIO": "DIEZ DE JULIO" }, "geometry": { "type": "LineString", "coordinates": [ [ -70.634292, -33.451815 ], [ -70.634262, -33.451779 ], [ -70.633412, -33.451765 ], [ -70.633375, -33.451845 ] ] } },
{ "type": "Feature", "properties": { "Id": 0, "BARRIO": "DIEZ DE JULIO" }, "geometry": { "type": "LineString", "coordinates": [ [ -70.635294, -33.451824 ], [ -70.635278, -33.4518 ], [ -70.635193, -33.451779 ], [ -70.635069, -33.451766 ], [ -70.634866, -33.451738 ], [ -70.634545, -33.451684 ], [ -70.634515, -33.451703 ] ] } },
{ "type": "Feature", "properties": { "Id": 0, "BARRIO": "DIEZ DE JULIO" }, "geometry": { "type": "LineString", "coordinates": [ [ -70.633048, -33.452262 ], [ -70.633148, -33.451891 ], [ -70.633189, -33.451803 ], [ -70.633156, -33.451762 ], [ -70.632502, -33.451768 ], [ -70.632477, -33.45178 ], [ -70.632444, -33.451921 ] ] } },
{ "type": "Feature", "properties": { "Id": 0, "BARRIO": "DIEZ DE JULIO" }, "geometry": { "type": "LineString", "coordinates": [ [ -70.632258, -33.452057 ], [ -70.632342, -33.451818 ], [ -70.632303, -33.451791 ], [ -70.631708, -33.451924 ], [ -70.631673, -33.451955 ], [ -70.631666, -33.451991 ] ] } },
{ "type": "Feature", "properties": { "Id": 0, "BARRIO": "DIEZ DE JULIO" }, "geometry": { "type": "LineString", "coordinates": [ [ -70.631548, -33.452089 ], [ -70.631563, -33.451996 ], [ -70.631532, -33.451965 ], [ -70.631352, -33.452005 ], [ -70.631161, -33.452042 ] ] } },
{ "type": "Feature", "properties": { "Id": 0, "BARRIO": "SANTA ISABEL" }, "geometry": { "type": "LineString", "coordinates": [ [ -70.631653, -33.450199 ], [ -70.631525, -33.450645 ] ] } },
{ "type": "Feature", "properties": { "Id": 0, "BARRIO": "SANTA ISABEL" }, "geometry": { "type": "LineString", "coordinates": [ [ -70.634136, -33.449429 ], [ -70.634805, -33.449563 ], [ -70.634831, -33.449585 ], [ -70.634661, -33.450214 ] ] } },
{ "type": "Feature", "properties": { "Id": 0, "BARRIO": "SANTA ISABEL" }, "geometry": { "type": "LineString", "coordinates": [ [ -70.631195, -33.451697 ], [ -70.631187, -33.451726 ], [ -70.631204, -33.45175 ], [ -70.631227, -33.451753 ], [ -70.631254, -33.451751 ], [ -70.6315, -33.451704 ], [ -70.631624, -33.451681 ], [ -70.631816, -33.451646 ], [ -70.632574, -33.451504 ], [ -70.634256, -33.451507 ], [ -70.634397, -33.451491 ], [ -70.634451, -33.451125 ] ] } },
{ "type": "Feature", "properties": { "Id": 0, "BARRIO": "SANTA ISABEL" }, "geometry": { "type": "LineString", "coordinates": [ [ -70.6348, -33.450605 ], [ -70.634583, -33.451443 ], [ -70.634669, -33.45148 ], [ -70.635622, -33.451616 ], [ -70.635667, -33.45161 ] ] } },
{ "type": "Feature", "properties": { "Id": 0, "BARRIO": "SANTA ISABEL" }, "geometry": { "type": "LineString", "coordinates": [ [ -70.636102, -33.451706 ], [ -70.637455, -33.451896 ], [ -70.63757, -33.451923 ], [ -70.637726, -33.451352 ] ] } },
{ "type": "Feature", "properties": { "Id": 0, "BARRIO": "SANTA ISABEL" }, "geometry": { "type": "LineString", "coordinates": [ [ -70.637742, -33.451967 ], [ -70.637999, -33.452021 ] ] } },
{ "type": "Feature", "properties": { "Id": 0, "BARRIO": "SANTA ISABEL" }, "geometry": { "type": "LineString", "coordinates": [ [ -70.638187, -33.452104 ], [ -70.638483, -33.452175 ], [ -70.638529, -33.452156 ] ] } },
{ "type": "Feature", "properties": { "Id": 0, "BARRIO": "SANTA ISABEL" }, "geometry": { "type": "LineString", "coordinates": [ [ -70.638624, -33.45217 ], [ -70.638663, -33.452205 ], [ -70.639255, -33.452344 ], [ -70.63931, -33.452332 ] ] } },
{ "type": "Feature", "properties": { "Id": 0, "BARRIO": "SANTA ISABEL" }, "geometry": { "type": "LineString", "coordinates": [ [ -70.639435, -33.452381 ], [ -70.64066, -33.452619 ] ] } },
{ "type": "Feature", "properties": { "Id": 0, "BARRIO": "SANTA ISABEL" }, "geometry": { "type": "LineString", "coordinates": [ [ -70.642294, -33.452899 ], [ -70.642269, -33.452911 ], [ -70.641466, -33.452767 ], [ -70.641116, -33.452706 ], [ -70.640927, -33.452682 ], [ -70.640906, -33.45267 ] ] } },
{ "type": "Feature", "properties": { "Id": 0, "BARRIO": "MATTA NORTE" }, "geometry": { "type": "LineString", "coordinates": [ [ -70.644055, -33.453235 ], [ -70.644729, -33.453352 ], [ -70.645163, -33.453439 ], [ -70.645209, -33.45342 ] ] } },
{ "type": "Feature", "properties": { "Id": 0, "BARRIO": "MATTA NORTE" }, "geometry": { "type": "LineString", "coordinates": [ [ -70.646449, -33.45367 ], [ -70.646149, -33.453616 ], [ -70.6458, -33.453557 ], [ -70.645462, -33.453496 ] ] } },
{ "type": "Feature", "properties": { "Id": 0, "BARRIO": "MATTA NORTE" }, "geometry": { "type": "LineString", "coordinates": [ [ -70.647525, -33.453734 ], [ -70.646664, -33.453598 ], [ -70.646613, -33.453562 ] ] } },
{ "type": "Feature", "properties": { "Id": 0, "BARRIO": "MATTA NORTE" }, "geometry": { "type": "LineString", "coordinates": [ [ -70.649942, -33.453976 ], [ -70.649903, -33.453994 ], [ -70.649141, -33.453868 ] ] } },
{ "type": "Feature", "properties": { "Id": 0, "BARRIO": "MATTA NORTE" }, "geometry": { "type": "LineString", "coordinates": [ [ -70.649021, -33.45386 ], [ -70.648481, -33.453779 ], [ -70.648426, -33.453715 ] ] } },
{ "type": "Feature", "properties": { "Id": 0, "BARRIO": "MATTA NORTE" }, "geometry": { "type": "LineString", "coordinates": [ [ -70.648283, -33.453831 ], [ -70.648246, -33.453851 ], [ -70.647661, -33.453761 ], [ -70.647632, -33.453725 ] ] } },
{ "type": "Feature", "properties": { "Id": 0, "BARRIO": "PARQUE ALMAGRO" }, "geometry": { "type": "LineString", "coordinates": [ [ -70.650433, -33.454088 ], [ -70.650128, -33.454044 ], [ -70.650158, -33.453846 ] ] } },
{ "type": "Feature", "properties": { "Id": 0, "BARRIO": "PARQUE ALMAGRO" }, "geometry": { "type": "LineString", "coordinates": [ [ -70.651495, -33.454262 ], [ -70.652415, -33.454283 ], [ -70.652552, -33.4533 ], [ -70.652286, -33.45323 ], [ -70.651829, -33.45315 ] ] } },
{ "type": "Feature", "properties": { "Id": 0, "BARRIO": "PARQUE ALMAGRO" }, "geometry": { "type": "LineString", "coordinates": [ [ -70.650459, -33.452036 ], [ -70.650358, -33.452694 ], [ -70.65254, -33.453151 ], [ -70.652678, -33.452699 ], [ -70.652693, -33.452585 ] ] } },
{ "type": "Feature", "properties": { "Id": 0, "BARRIO": "PARQUE ALMAGRO" }, "geometry": { "type": "LineString", "coordinates": [ [ -70.654814, -33.454313 ], [ -70.654788, -33.454335 ], [ -70.654216, -33.454323 ] ] } },
{ "type": "Feature", "properties": { "Id": 0, "BARRIO": "PARQUE ALMAGRO" }, "geometry": { "type": "LineString", "coordinates": [ [ -70.655554, -33.454334 ], [ -70.655526, -33.454351 ], [ -70.65501, -33.454339 ], [ -70.654987, -33.454308 ] ] } },
{ "type": "Feature", "properties": { "Id": 0, "BARRIO": "PARQUE ALMAGRO" }, "geometry": { "type": "LineString", "coordinates": [ [ -70.656589, -33.454392 ], [ -70.655963, -33.454377 ] ] } },
{ "type": "Feature", "properties": { "Id": 0, "BARRIO": "PARQUE ALMAGRO" }, "geometry": { "type": "LineString", "coordinates": [ [ -70.656518, -33.453201 ], [ -70.655962, -33.453153 ], [ -70.655887, -33.453541 ] ] } },
{ "type": "Feature", "properties": { "Id": 0, "BARRIO": "PARQUE ALMAGRO" }, "geometry": { "type": "LineString", "coordinates": [ [ -70.655757, -33.453421 ], [ -70.655679, -33.453708 ], [ -70.65564, -33.453745 ], [ -70.655583, -33.45375 ], [ -70.655038, -33.453638 ], [ -70.655145, -33.453121 ], [ -70.655518, -33.453162 ], [ -70.655523, -33.45314 ], [ -70.655627, -33.453145 ], [ -70.655629, -33.453127 ], [ -70.655804, -33.453147 ] ] } },
{ "type": "Feature", "properties": { "Id": 0, "BARRIO": "PARQUE ALMAGRO" }, "geometry": { "type": "LineString", "coordinates": [ [ -70.655904, -33.452722 ], [ -70.655835, -33.452986 ], [ -70.655397, -33.45293 ], [ -70.65539, -33.452962 ], [ -70.655165, -33.452936 ], [ -70.655176, -33.452868 ], [ -70.654714, -33.452799 ], [ -70.654729, -33.452695 ], [ -70.655076, -33.452748 ], [ -70.655196, -33.452771 ], [ -70.655231, -33.452595 ], [ -70.655433, -33.452632 ], [ -70.655459, -33.452504 ], [ -70.655723, -33.452546 ], [ -70.655696, -33.452679 ], [ -70.655888, -33.452699 ] ] } },
{ "type": "Feature", "properties": { "Id": 0, "BARRIO": "PARQUE ALMAGRO" }, "geometry": { "type": "LineString", "coordinates": [ [ -70.656319, -33.451537 ], [ -70.656143, -33.452466 ] ] } },
{ "type": "Feature", "properties": { "Id": 0, "BARRIO": "PARQUE ALMAGRO" }, "geometry": { "type": "LineString", "coordinates": [ [ -70.652026, -33.45128 ], [ -70.651598, -33.451236 ] ] } },
{ "type": "Feature", "properties": { "Id": 0, "BARRIO": "MATTA NORTE" }, "geometry": { "type": "LineString", "coordinates": [ [ -70.650083, -33.451234 ], [ -70.65001, -33.451661 ], [ -70.649646, -33.451612 ], [ -70.648921, -33.451443 ], [ -70.649051, -33.450836 ] ] } },
{ "type": "Feature", "properties": { "Id": 0, "BARRIO": "MATTA NORTE" }, "geometry": { "type": "LineString", "coordinates": [ [ -70.648013, -33.451435 ], [ -70.648019, -33.45138 ], [ -70.647976, -33.451321 ], [ -70.647812, -33.451267 ], [ -70.647388, -33.451196 ], [ -70.647393, -33.45115 ], [ -70.646953, -33.451014 ], [ -70.646923, -33.451059 ], [ -70.64691, -33.451161 ] ] } },
{ "type": "Feature", "properties": { "Id": 0, "BARRIO": "MATTA NORTE" }, "geometry": { "type": "LineString", "coordinates": [ [ -70.64675, -33.451173 ], [ -70.646769, -33.450975 ], [ -70.645738, -33.450806 ], [ -70.644494, -33.450607 ], [ -70.644459, -33.450645 ], [ -70.64443, -33.450829 ], [ -70.644403, -33.450927 ] ] } },
{ "type": "Feature", "properties": { "Id": 0, "BARRIO": "MATTA NORTE" }, "geometry": { "type": "LineString", "coordinates": [ [ -70.645562, -33.450603 ], [ -70.644571, -33.450438 ], [ -70.644538, -33.450412 ], [ -70.644571, -33.450205 ] ] } },
{ "type": "Feature", "properties": { "Id": 0, "BARRIO": "SANTA ISABEL" }, "geometry": { "type": "LineString", "coordinates": [ [ -70.644406, -33.450256 ], [ -70.644395, -33.450339 ], [ -70.644355, -33.450331 ], [ -70.644343, -33.450377 ], [ -70.644323, -33.450393 ], [ -70.643744, -33.450312 ], [ -70.643643, -33.4503 ], [ -70.643339, -33.450256 ], [ -70.643364, -33.450147 ] ] } },
{ "type": "Feature", "properties": { "Id": 0, "BARRIO": "SANTA ISABEL" }, "geometry": { "type": "LineString", "coordinates": [ [ -70.644355, -33.450651 ], [ -70.644297, -33.450574 ], [ -70.643523, -33.450466 ], [ -70.643084, -33.450406 ] ] } },
{ "type": "Feature", "properties": { "Id": 0, "BARRIO": "SANTA ISABEL" }, "geometry": { "type": "LineString", "coordinates": [ [ -70.635349, -33.448332 ], [ -70.635383, -33.448308 ], [ -70.636413, -33.448595 ] ] } },
{ "type": "Feature", "properties": { "Id": 0, "BARRIO": "SANTA ISABEL" }, "geometry": { "type": "LineString", "coordinates": [ [ -70.636681, -33.4487 ], [ -70.636743, -33.448682 ], [ -70.638021, -33.449002 ], [ -70.638184, -33.44904 ], [ -70.638791, -33.449192 ], [ -70.638911, -33.449231 ], [ -70.638946, -33.449269 ] ] } },
{ "type": "Feature", "properties": { "Id": 0, "BARRIO": "PARQUE ALMAGRO" }, "geometry": { "type": "LineString", "coordinates": [ [ -70.655017, -33.453091 ], [ -70.654297, -33.45301 ], [ -70.654276, -33.453136 ], [ -70.654316, -33.453144 ], [ -70.654277, -33.453436 ], [ -70.654313, -33.453447 ], [ -70.65431, -33.453479 ], [ -70.654902, -33.453578 ], [ -70.654941, -33.453549 ], [ -70.655013, -33.453105 ] ] } },
{ "type": "Feature", "properties": { "Id": 0, "BARRIO": "PARQUE ALMAGRO" }, "geometry": { "type": "LineString", "coordinates": [ [ -70.65418, -33.452913 ], [ -70.653757, -33.452815 ], [ -70.653586, -33.452798 ], [ -70.653557, -33.452818 ], [ -70.653533, -33.45299 ] ] } },
{ "type": "Feature", "properties": { "Id": 0, "BARRIO": "PARQUE ALMAGRO" }, "geometry": { "type": "LineString", "coordinates": [ [ -70.65346, -33.45275 ], [ -70.652892, -33.452613 ] ] } },
{ "type": "Feature", "properties": { "Id": 0, "BARRIO": "PARQUE ALMAGRO" }, "geometry": { "type": "LineString", "coordinates": [ [ -70.651446, -33.44445 ], [ -70.651229, -33.445622 ], [ -70.651182, -33.445866 ], [ -70.651023, -33.445839 ], [ -70.650971, -33.446122 ], [ -70.650041, -33.445986 ], [ -70.650269, -33.444847 ] ] } },
{ "type": "Feature", "properties": { "Id": 0, "BARRIO": "PARQUE ALMAGRO" }, "geometry": { "type": "LineString", "coordinates": [ [ -70.649899, -33.445752 ], [ -70.649853, -33.446002 ], [ -70.649216, -33.445887 ], [ -70.649264, -33.445646 ] ] } },
{ "type": "Feature", "properties": { "Id": 0, "BARRIO": "PARQUE ALMAGRO" }, "geometry": { "type": "LineString", "coordinates": [ [ -70.651068, -33.446587 ], [ -70.651084, -33.44636 ], [ -70.651047, -33.446315 ], [ -70.650042, -33.446179 ], [ -70.65, -33.446214 ], [ -70.649941, -33.446503 ] ] } },
{ "type": "Feature", "properties": { "Id": 0, "BARRIO": "PARQUE ALMAGRO" }, "geometry": { "type": "LineString", "coordinates": [ [ -70.649798, -33.446273 ], [ -70.649829, -33.446108 ], [ -70.649805, -33.446077 ], [ -70.649254, -33.445965 ], [ -70.649199, -33.445989 ], [ -70.649171, -33.446147 ] ] } },
{ "type": "Feature", "properties": { "Id": 0, "BARRIO": "SANTA ISABEL" }, "geometry": { "type": "LineString", "coordinates": [ [ -70.637318, -33.446526 ], [ -70.636606, -33.446368 ] ] } },
{ "type": "Feature", "properties": { "Id": 0, "BARRIO": "SANTA ISABEL" }, "geometry": { "type": "LineString", "coordinates": [ [ -70.635614, -33.446794 ], [ -70.635844, -33.446168 ], [ -70.635818, -33.446132 ], [ -70.63514, -33.445989 ] ] } },
{ "type": "Feature", "properties": { "Id": 0, "BARRIO": "SANTA ISABEL" }, "geometry": { "type": "LineString", "coordinates": [ [ -70.636047, -33.445748 ], [ -70.636369, -33.445217 ], [ -70.636355, -33.445186 ] ] } },
{ "type": "Feature", "properties": { "Id": 0, "BARRIO": "SANTA ISABEL" }, "geometry": { "type": "LineString", "coordinates": [ [ -70.636496, -33.444495 ], [ -70.636677, -33.444555 ], [ -70.6367, -33.444637 ], [ -70.636649, -33.444729 ], [ -70.636615, -33.444718 ], [ -70.636573, -33.444797 ] ] } },
{ "type": "Feature", "properties": { "Id": 0, "BARRIO": "SAN BORJA" }, "geometry": { "type": "LineString", "coordinates": [ [ -70.637403, -33.443986 ], [ -70.637121, -33.444467 ], [ -70.637168, -33.444517 ], [ -70.637579, -33.444607 ] ] } },
{ "type": "Feature", "properties": { "Id": 0, "BARRIO": "SANTA ISABEL" }, "geometry": { "type": "LineString", "coordinates": [ [ -70.636073, -33.442991 ], [ -70.635966, -33.443212 ], [ -70.635941, -33.443243 ], [ -70.635343, -33.443117 ] ] } },
{ "type": "Feature", "properties": { "Id": 0, "BARRIO": "SAN BORJA" }, "geometry": { "type": "LineString", "coordinates": [ [ -70.638908, -33.44336 ], [ -70.638846, -33.44335 ], [ -70.638627, -33.443332 ], [ -70.638344, -33.44328 ], [ -70.638063, -33.443221 ], [ -70.637937, -33.443186 ] ] } },
{ "type": "Feature", "properties": { "Id": 0, "BARRIO": "SAN BORJA" }, "geometry": { "type": "LineString", "coordinates": [ [ -70.641706, -33.441304 ], [ -70.641212, -33.442676 ], [ -70.639122, -33.441836 ], [ -70.639117, -33.441738 ], [ -70.64039, -33.440394 ], [ -70.641687, -33.44128 ] ] } },
{ "type": "Feature", "properties": { "Id": 0, "BARRIO": "SAN BORJA" }, "geometry": { "type": "LineString", "coordinates": [ [ -70.641839, -33.441388 ], [ -70.641766, -33.441506 ], [ -70.641366, -33.442716 ] ] } },
{ "type": "Feature", "properties": { "Id": 0, "BARRIO": "SAN BORJA" }, "geometry": { "type": "LineString", "coordinates": [ [ -70.63506, -33.442089 ], [ -70.636743, -33.442567 ], [ -70.637636, -33.442884 ], [ -70.639545, -33.440902 ], [ -70.640156, -33.440257 ] ] } },
{ "type": "Feature", "properties": { "Id": 0, "BARRIO": "SANTA LUCIA FORESTAL" }, "geometry": { "type": "LineString", "coordinates": [ [ -70.644205, -33.441853 ], [ -70.644195, -33.441908 ], [ -70.644156, -33.441964 ], [ -70.644111, -33.441998 ], [ -70.64404, -33.442015 ], [ -70.643978, -33.442019 ], [ -70.643918, -33.442008 ], [ -70.643869, -33.441994 ], [ -70.643825, -33.441925 ], [ -70.643816, -33.441909 ], [ -70.643713, -33.441877 ], [ -70.64363, -33.441851 ], [ -70.643544, -33.441814 ] ] } },
{ "type": "Feature", "properties": { "Id": 0, "BARRIO": "SANTA LUCIA FORESTAL" }, "geometry": { "type": "LineString", "coordinates": [ [ -70.643431, -33.43809 ], [ -70.643569, -33.438475 ], [ -70.643864, -33.438986 ], [ -70.644076, -33.43937 ] ] } },
{ "type": "Feature", "properties": { "Id": 0, "BARRIO": "CASCO HISTORICO" }, "geometry": { "type": "LineString", "coordinates": [ [ -70.649063, -33.441732 ], [ -70.647965, -33.441615 ] ] } },
{ "type": "Feature", "properties": { "Id": 0, "BARRIO": "SANTA LUCIA FORESTAL" }, "geometry": { "type": "LineString", "coordinates": [ [ -70.638322, -33.437646 ], [ -70.638317, -33.437699 ], [ -70.638298, -33.437709 ], [ -70.638018, -33.437677 ] ] } },
{ "type": "Feature", "properties": { "Id": 0, "BARRIO": "SANTA LUCIA FORESTAL" }, "geometry": { "type": "LineString", "coordinates": [ [ -70.639806, -33.438293 ], [ -70.63936, -33.438301 ], [ -70.639321, -33.438301 ], [ -70.639304, -33.438302 ], [ -70.639284, -33.438309 ] ] } },
{ "type": "Feature", "properties": { "Id": 0, "BARRIO": "SANTA LUCIA FORESTAL" }, "geometry": { "type": "LineString", "coordinates": [ [ -70.642107, -33.436712 ], [ -70.64176, -33.436755 ] ] } },
{ "type": "Feature", "properties": { "Id": 0, "BARRIO": "SANTA LUCIA FORESTAL" }, "geometry": { "type": "LineString", "coordinates": [ [ -70.646215, -33.438064 ], [ -70.646976, -33.438151 ], [ -70.646893, -33.438698 ] ] } },
{ "type": "Feature", "properties": { "Id": 0, "BARRIO": "SANTA LUCIA FORESTAL" }, "geometry": { "type": "LineString", "coordinates": [ [ -70.647084, -33.43721 ], [ -70.647113, -33.43696 ], [ -70.64652, -33.436895 ] ] } },
{ "type": "Feature", "properties": { "Id": 0, "BARRIO": "CASCO HISTORICO" }, "geometry": { "type": "LineString", "coordinates": [ [ -70.650185, -33.435399 ], [ -70.65011, -33.435958 ] ] } },
{ "type": "Feature", "properties": { "Id": 0, "BARRIO": "CASCO HISTORICO" }, "geometry": { "type": "LineString", "coordinates": [ [ -70.655321, -33.433132 ], [ -70.655755, -33.433132 ], [ -70.65579, -33.433108 ], [ -70.655794, -33.432541 ], [ -70.655751, -33.432512 ], [ -70.655262, -33.432626 ] ] } },
{ "type": "Feature", "properties": { "Id": 0, "BARRIO": "CASCO HISTORICO" }, "geometry": { "type": "LineString", "coordinates": [ [ -70.656267, -33.431992 ], [ -70.656297, -33.432081 ], [ -70.653846, -33.432645 ] ] } },
{ "type": "Feature", "properties": { "Id": 0, "BARRIO": "SANTA ANA" }, "geometry": { "type": "LineString", "coordinates": [ [ -70.659595, -33.443852 ], [ -70.659564, -33.444172 ], [ -70.659598, -33.444179 ], [ -70.659556, -33.444487 ] ] } },
{ "type": "Feature", "properties": { "Id": 0, "BARRIO": "SANTA ANA" }, "geometry": { "type": "LineString", "coordinates": [ [ -70.659268, -33.44414 ], [ -70.659544, -33.444165 ] ] } },
{ "type": "Feature", "properties": { "Id": 0, "BARRIO": "DIEZ DE JULIO" }, "geometry": { "type": "LineString", "coordinates": [ [ -70.639887, -33.455671 ], [ -70.639707, -33.456368 ], [ -70.638407, -33.456117 ] ] } }
]
}
