{
"type": "FeatureCollection",
"name": "URB_PTO_PROBLEMA_SEMAFORO_LUMINARIA_2025",
"features": [
{ "type": "Feature", "properties": { "FECHA": "07-04-2025", "DIRECCION": "CALLE ALMIRANTE LATORRE", "BARRIO": "EJÉRCITO", "DIA_SEMANA": "Lunes", "TIPO_DIA": "SEMANA", "TRAMO_HORA": "18 A 20 HRS", "MES": "abril", "AÑO": 2025, "X": -70.664649999800005, "Y": -33.450371240499997 }, "geometry": { "type": "Point", "coordinates": [ -70.66465, -33.450371, 0.0 ] } },
{ "type": "Feature", "properties": { "FECHA": "06-04-2025", "DIRECCION": "PASAJE DOCTOR SOTERO DEL RIO", "BARRIO": "CASCO HISTÓRICO", "DIA_SEMANA": "Domingo", "TIPO_DIA": "FDS", "TRAMO_HORA": "18 A 20 HRS", "MES": "abril", "AÑO": 2025, "X": -70.654498780899999, "Y": -33.439744292900002 }, "geometry": { "type": "Point", "coordinates": [ -70.654499, -33.439744, 0.0 ] } },
{ "type": "Feature", "properties": { "FECHA": "08-04-2025", "DIRECCION": "CALLE SAN FRANCISCO", "BARRIO": "MATTA NORTE", "DIA_SEMANA": "Martes", "TIPO_DIA": "SEMANA", "TRAMO_HORA": "12 A 14 HRS", "MES": "abril", "AÑO": 2025, "X": -70.645836673399998, "Y": -33.456778673800002 }, "geometry": { "type": "Point", "coordinates": [ -70.645837, -33.456779, 0.0 ] } },
{ "type": "Feature", "properties": { "FECHA": "27-04-2025", "DIRECCION": "AVENIDA ALMIRANTE BLANCO ENCALADA", "BARRIO": "EJÉRCITO", "DIA_SEMANA": "Domingo", "TIPO_DIA": "FDS", "TRAMO_HORA": "14 A 16 HRS", "MES": "abril", "AÑO": 2025, "X": -70.660984696499995, "Y": -33.456783830799999 }, "geometry": { "type": "Point", "coordinates": [ -70.660985, -33.456784, 0.0 ] } },
{ "type": "Feature", "properties": { "FECHA": "03-04-2025", "DIRECCION": "CALLE AGUSTINAS", "BARRIO": "SANTA LUCIA - FORESTAL", "DIA_SEMANA": "Jueves", "TIPO_DIA": "SEMANA", "TRAMO_HORA": "08 A 10 HRS", "MES": "abril", "AÑO": 2025, "X": -70.646326593200001, "Y": -33.440424109299997 }, "geometry": { "type": "Point", "coordinates": [ -70.646327, -33.440424, 0.0 ] } },
{ "type": "Feature", "properties": { "FECHA": "10-04-2025", "DIRECCION": "PASAJE ÑUBLE", "BARRIO": "BOGOTÁ", "DIA_SEMANA": "Jueves", "TIPO_DIA": "SEMANA", "TRAMO_HORA": "08 A 10 HRS", "MES": "abril", "AÑO": 2025, "X": -70.643975760700002, "Y": -33.469298375299999 }, "geometry": { "type": "Point", "coordinates": [ -70.643976, -33.469298, 0.0 ] } },
{ "type": "Feature", "properties": { "FECHA": "15-04-2025", "DIRECCION": "CALLE DIEGO DE ROSALES", "BARRIO": "PARQUE ALMAGRO", "DIA_SEMANA": "Martes", "TIPO_DIA": "SEMANA", "TRAMO_HORA": "06 A 08 HRS", "MES": "abril", "AÑO": 2025, "X": -70.657463934700004, "Y": -33.450569875200003 }, "geometry": { "type": "Point", "coordinates": [ -70.657464, -33.45057, 0.0 ] } },
{ "type": "Feature", "properties": { "FECHA": "15-04-2025", "DIRECCION": "CALLE COPIAPO", "BARRIO": "DIEZ DE JULIO", "DIA_SEMANA": "Martes", "TIPO_DIA": "SEMANA", "TRAMO_HORA": "00 A 02 HRS", "MES": "abril", "AÑO": 2025, "X": -70.637978009899996, "Y": -33.453448902700003 }, "geometry": { "type": "Point", "coordinates": [ -70.637978, -33.453449, 0.0 ] } },
{ "type": "Feature", "properties": { "FECHA": "22-03-2025", "DIRECCION": "CALLE TEATINOS", "BARRIO": "CASCO HISTÓRICO", "DIA_SEMANA": "Sábado", "TIPO_DIA": "Fin de semana", "TRAMO_HORA": "14 A 16 HRS", "MES": "marzo", "AÑO": 2025, "X": -70.655929199699997, "Y": -33.4344755316 }, "geometry": { "type": "Point", "coordinates": [ -70.655929, -33.434476, 0.0 ] } },
{ "type": "Feature", "properties": { "FECHA": "19-06-2025", "DIRECCION": "CALLE MATUCANA", "BARRIO": "YUNGAY", "DIA_SEMANA": "Jueves", "TIPO_DIA": "SEMANA", "TRAMO_HORA": "08 A 10 HRS", "MES": "junio", "AÑO": 0, "X": -70.680427803200004, "Y": -33.434529468900003 }, "geometry": { "type": "Point", "coordinates": [ -70.680428, -33.434529, 0.0 ] } },
{ "type": "Feature", "properties": { "FECHA": "04-06-2025", "DIRECCION": "CALLE NATANIEL COX", "BARRIO": "PARQUE ALMAGRO", "DIA_SEMANA": "Miércoles", "TIPO_DIA": "SEMANA", "TRAMO_HORA": "22 A 00 HRS", "MES": "junio", "AÑO": 0, "X": -70.653210027200004, "Y": -33.450214025900003 }, "geometry": { "type": "Point", "coordinates": [ -70.65321, -33.450214, 0.0 ] } },
{ "type": "Feature", "properties": { "FECHA": "12-06-2025", "DIRECCION": "CALLE SANTA ISABEL", "BARRIO": "SANTA ISABEL", "DIA_SEMANA": "Jueves", "TIPO_DIA": "SEMANA", "TRAMO_HORA": "08 A 10 HRS", "MES": "junio", "AÑO": 0, "X": -70.639039117699994, "Y": -33.449195596199999 }, "geometry": { "type": "Point", "coordinates": [ -70.639039, -33.449196, 0.0 ] } },
{ "type": "Feature", "properties": { "FECHA": "12-06-2025", "DIRECCION": "CALLE ALAMEDA LIBERTADOR BERNARDO O'HIGGINS", "BARRIO": "YUNGAY", "DIA_SEMANA": "Jueves", "TIPO_DIA": "SEMANA", "TRAMO_HORA": "08 A 10 HRS", "MES": "junio", "AÑO": 0, "X": -70.674335658000004, "Y": -33.449487845299998 }, "geometry": { "type": "Point", "coordinates": [ -70.674336, -33.449488, 0.0 ] } },
{ "type": "Feature", "properties": { "FECHA": "16-06-2025", "DIRECCION": "CALLE MERCED", "BARRIO": "SANTA LUCIA - FORESTAL", "DIA_SEMANA": "Lunes", "TIPO_DIA": "SEMANA", "TRAMO_HORA": "10 A 12 HRS", "MES": "junio", "AÑO": 0, "X": -70.644865318900003, "Y": -33.437841704999997 }, "geometry": { "type": "Point", "coordinates": [ -70.644865, -33.437842, 0.0 ] } },
{ "type": "Feature", "properties": { "FECHA": "12-05-2025", "DIRECCION": "AVENIDA RICARDO CUMMING", "BARRIO": "YUNGAY", "DIA_SEMANA": "Lunes", "TIPO_DIA": null, "TRAMO_HORA": "08 A 10 HRS", "MES": "mayo", "AÑO": 2025, "X": -70.669010146700003, "Y": -33.435257887600002 }, "geometry": { "type": "Point", "coordinates": [ -70.66901, -33.435258, 0.0 ] } },
{ "type": "Feature", "properties": { "FECHA": "09-05-2025", "DIRECCION": "CALLE SAN DIEGO", "BARRIO": "MATTA NORTE", "DIA_SEMANA": "Viernes", "TIPO_DIA": null, "TRAMO_HORA": "12 A 14 HRS", "MES": "mayo", "AÑO": 2025, "X": -70.650339021799994, "Y": -33.451967637300001 }, "geometry": { "type": "Point", "coordinates": [ -70.650339, -33.451968, 0.0 ] } },
{ "type": "Feature", "properties": { "FECHA": "19-05-2025", "DIRECCION": "PASAJE LORD COCHRANE", "BARRIO": "PARQUE ALMAGRO", "DIA_SEMANA": "Lunes", "TIPO_DIA": null, "TRAMO_HORA": "08 A 10 HRS", "MES": "mayo", "AÑO": 2025, "X": -70.654677825600004, "Y": -33.450172138799999 }, "geometry": { "type": "Point", "coordinates": [ -70.654678, -33.450172, 0.0 ] } },
{ "type": "Feature", "properties": { "FECHA": "23-05-2025", "DIRECCION": "CALLE ARZOBISPO GONZALEZ", "BARRIO": "YUNGAY", "DIA_SEMANA": "Viernes", "TIPO_DIA": null, "TRAMO_HORA": "12 A 14 HRS", "MES": "mayo", "AÑO": 2025, "X": -70.669158969199998, "Y": -33.439911367500002 }, "geometry": { "type": "Point", "coordinates": [ -70.669159, -33.439911, 0.0 ] } },
{ "type": "Feature", "properties": { "FECHA": "31-05-2025", "DIRECCION": "Dieciocho", "BARRIO": "MATTA NORTE", "DIA_SEMANA": "Sábado", "TIPO_DIA": "FDS", "TRAMO_HORA": "16 A 18 HRS", "MES": "mayo", "AÑO": 2025, "X": -70.656690104899994, "Y": -33.455228439199999 }, "geometry": { "type": "Point", "coordinates": [ -70.65669, -33.455228, 0.0 ] } },
{ "type": "Feature", "properties": { "FECHA": "30-05-2025", "DIRECCION": "Placer", "BARRIO": "FRANKLIN", "DIA_SEMANA": "Viernes", "TIPO_DIA": "SEMANA", "TRAMO_HORA": "14 A 16 HRS", "MES": "mayo", "AÑO": 2025, "X": -70.648164711899994, "Y": -33.475586409199998 }, "geometry": { "type": "Point", "coordinates": [ -70.648165, -33.475586, 0.0 ] } },
{ "type": "Feature", "properties": { "FECHA": "30-05-2025", "DIRECCION": "Avenida Manuel Rodríguez", "BARRIO": "SANTA ANA", "DIA_SEMANA": "Viernes", "TIPO_DIA": "SEMANA", "TRAMO_HORA": "12 A 14 HRS", "MES": "mayo", "AÑO": 2025, "X": -70.660453912600005, "Y": -33.446185255300001 }, "geometry": { "type": "Point", "coordinates": [ -70.660454, -33.446185, 0.0 ] } },
{ "type": "Feature", "properties": { "FECHA": "30-05-2025", "DIRECCION": "Avenida Manuel Rodríguez", "BARRIO": "EJÉRCITO", "DIA_SEMANA": "Viernes", "TIPO_DIA": "SEMANA", "TRAMO_HORA": "06 A 08 HRS", "MES": "mayo", "AÑO": 2025, "X": -70.660023474, "Y": -33.449490502300002 }, "geometry": { "type": "Point", "coordinates": [ -70.660023, -33.449491, 0.0 ] } },
{ "type": "Feature", "properties": { "FECHA": "29-05-2025", "DIRECCION": "San Diego", "BARRIO": "BOGOTÁ", "DIA_SEMANA": "Jueves", "TIPO_DIA": "SEMANA", "TRAMO_HORA": "18 A 20 HRS", "MES": "mayo", "AÑO": 2025, "X": -70.648776591100003, "Y": -33.465369236999997 }, "geometry": { "type": "Point", "coordinates": [ -70.648777, -33.465369, 0.0 ] } },
{ "type": "Feature", "properties": { "FECHA": "29-05-2025", "DIRECCION": "San Diego", "BARRIO": "BOGOTÁ", "DIA_SEMANA": "Jueves", "TIPO_DIA": "SEMANA", "TRAMO_HORA": "18 A 20 HRS", "MES": "mayo", "AÑO": 2025, "X": -70.648776591100003, "Y": -33.465369236999997 }, "geometry": { "type": "Point", "coordinates": [ -70.648777, -33.465369, 0.0 ] } },
{ "type": "Feature", "properties": { "FECHA": "29-05-2025", "DIRECCION": "Diego de Rosales", "BARRIO": "PARQUE ALMAGRO", "DIA_SEMANA": "Jueves", "TIPO_DIA": "SEMANA", "TRAMO_HORA": "06 A 08 HRS", "MES": "mayo", "AÑO": 2025, "X": -70.6574317436, "Y": -33.450646022500003 }, "geometry": { "type": "Point", "coordinates": [ -70.657432, -33.450646, 0.0 ] } },
{ "type": "Feature", "properties": { "FECHA": "28-05-2025", "DIRECCION": "Artemio Gutiérrez", "BARRIO": "SIERRA BELLA", "DIA_SEMANA": "Miércoles", "TIPO_DIA": "SEMANA", "TRAMO_HORA": "22 A 00 HRS", "MES": "mayo", "AÑO": 2025, "X": -70.633817240699997, "Y": -33.471392512900003 }, "geometry": { "type": "Point", "coordinates": [ -70.633817, -33.471393, 0.0 ] } },
{ "type": "Feature", "properties": { "FECHA": "28-05-2025", "DIRECCION": "Almirante Barroso", "BARRIO": "PANAMÁ", "DIA_SEMANA": "Miércoles", "TIPO_DIA": "SEMANA", "TRAMO_HORA": "18 A 20 HRS", "MES": "mayo", "AÑO": 2025, "X": -70.662560463199995, "Y": -33.4372025726 }, "geometry": { "type": "Point", "coordinates": [ -70.66256, -33.437203, 0.0 ] } },
{ "type": "Feature", "properties": { "FECHA": "28-05-2025", "DIRECCION": "Sepúlveda Leyton", "BARRIO": "SAN EUGENIO", "DIA_SEMANA": "Miércoles", "TIPO_DIA": "SEMANA", "TRAMO_HORA": "14 A 16 HRS", "MES": "mayo", "AÑO": 2025, "X": -70.672999923199995, "Y": -33.469522826099997 }, "geometry": { "type": "Point", "coordinates": [ -70.673, -33.469523, 0.0 ] } },
{ "type": "Feature", "properties": { "FECHA": "28-05-2025", "DIRECCION": "Avenida Alameda Libertador Bernardo O'Higgins", "BARRIO": "EJÉRCITO", "DIA_SEMANA": "Miércoles", "TIPO_DIA": "SEMANA", "TRAMO_HORA": "10 A 12 HRS", "MES": "mayo", "AÑO": 2025, "X": -70.664689605999996, "Y": -33.447355191500002 }, "geometry": { "type": "Point", "coordinates": [ -70.66469, -33.447355, 0.0 ] } },
{ "type": "Feature", "properties": { "FECHA": "27-05-2025", "DIRECCION": "Avenida Santa Isabel", "BARRIO": "SANTA ISABEL", "DIA_SEMANA": "Martes", "TIPO_DIA": "SEMANA", "TRAMO_HORA": "10 A 12 HRS", "MES": "mayo", "AÑO": 2025, "X": -70.632495246900007, "Y": -33.4474308968 }, "geometry": { "type": "Point", "coordinates": [ -70.632495, -33.447431, 0.0 ] } },
{ "type": "Feature", "properties": { "FECHA": "27-05-2025", "DIRECCION": "San Pablo", "BARRIO": "YUNGAY", "DIA_SEMANA": "Martes", "TIPO_DIA": "SEMANA", "TRAMO_HORA": "08 A 10 HRS", "MES": "mayo", "AÑO": 2025, "X": -70.679977386499999, "Y": -33.4358769428 }, "geometry": { "type": "Point", "coordinates": [ -70.679977, -33.435877, 0.0 ] } },
{ "type": "Feature", "properties": { "FECHA": "27-05-2025", "DIRECCION": "Merced", "BARRIO": "SANTA LUCIA - FORESTAL", "DIA_SEMANA": "Martes", "TIPO_DIA": "SEMANA", "TRAMO_HORA": "08 A 10 HRS", "MES": "mayo", "AÑO": 2025, "X": -70.644128658200003, "Y": -33.437898394199998 }, "geometry": { "type": "Point", "coordinates": [ -70.644129, -33.437898, 0.0 ] } },
{ "type": "Feature", "properties": { "FECHA": "27-05-2025", "DIRECCION": "Yungay", "BARRIO": "BALMACEDA", "DIA_SEMANA": "Martes", "TIPO_DIA": "SEMANA", "TRAMO_HORA": "00 A 02 HRS", "MES": "mayo", "AÑO": 2025, "X": -70.675946069899993, "Y": -33.429073618099999 }, "geometry": { "type": "Point", "coordinates": [ -70.675946, -33.429074, 0.0 ] } },
{ "type": "Feature", "properties": { "FECHA": "27-05-2025", "DIRECCION": "Vichuquén", "BARRIO": "SANTA ISABEL", "DIA_SEMANA": "Martes", "TIPO_DIA": "SEMANA", "TRAMO_HORA": "00 A 02 HRS", "MES": "mayo", "AÑO": 2025, "X": -70.640737339899999, "Y": -33.4463057277 }, "geometry": { "type": "Point", "coordinates": [ -70.640737, -33.446306, 0.0 ] } },
{ "type": "Feature", "properties": { "FECHA": "26-05-2025", "DIRECCION": "General Jofré", "BARRIO": "SANTA ISABEL", "DIA_SEMANA": "Lunes", "TIPO_DIA": "SEMANA", "TRAMO_HORA": "22 A 00 HRS", "MES": "mayo", "AÑO": 2025, "X": -70.640879162399997, "Y": -33.446227956400001 }, "geometry": { "type": "Point", "coordinates": [ -70.640879, -33.446228, 0.0 ] } },
{ "type": "Feature", "properties": { "FECHA": "26-05-2025", "DIRECCION": "Avenida Alameda Libertador Bernardo O'Higgins", "BARRIO": "SAN BORJA", "DIA_SEMANA": "Lunes", "TIPO_DIA": "SEMANA", "TRAMO_HORA": "22 A 00 HRS", "MES": "mayo", "AÑO": 2025, "X": -70.644871293899996, "Y": -33.442845086200002 }, "geometry": { "type": "Point", "coordinates": [ -70.644871, -33.442845, 0.0 ] } },
{ "type": "Feature", "properties": { "FECHA": "26-05-2025", "DIRECCION": "Avenida Alameda Libertador Bernardo O'Higgins", "BARRIO": "SAN BORJA", "DIA_SEMANA": "Lunes", "TIPO_DIA": "SEMANA", "TRAMO_HORA": "22 A 00 HRS", "MES": "mayo", "AÑO": 2025, "X": -70.644871293899996, "Y": -33.442845086200002 }, "geometry": { "type": "Point", "coordinates": [ -70.644871, -33.442845, 0.0 ] } },
{ "type": "Feature", "properties": { "FECHA": "25-05-2025", "DIRECCION": "Vichuquén", "BARRIO": "SANTA ISABEL", "DIA_SEMANA": "Domingo", "TIPO_DIA": "FDS", "TRAMO_HORA": "22 A 00 HRS", "MES": "mayo", "AÑO": 2025, "X": -70.640722587799999, "Y": -33.446274115599998 }, "geometry": { "type": "Point", "coordinates": [ -70.640723, -33.446274, 0.0 ] } },
{ "type": "Feature", "properties": { "FECHA": "25-05-2025", "DIRECCION": "General Jofré", "BARRIO": "SANTA ISABEL", "DIA_SEMANA": "Domingo", "TIPO_DIA": "FDS", "TRAMO_HORA": "18 A 20 HRS", "MES": "mayo", "AÑO": 2025, "X": -70.640889220399998, "Y": -33.446234111499997 }, "geometry": { "type": "Point", "coordinates": [ -70.640889, -33.446234, 0.0 ] } },
{ "type": "Feature", "properties": { "FECHA": "24-05-2025", "DIRECCION": "Avenida Alameda Libertador Bernardo O'Higgins", "BARRIO": "PARQUE ALMAGRO", "DIA_SEMANA": "Sábado", "TIPO_DIA": "FDS", "TRAMO_HORA": "16 A 18 HRS", "MES": "mayo", "AÑO": 2025, "X": -70.656934193799998, "Y": -33.445824547999997 }, "geometry": { "type": "Point", "coordinates": [ -70.656934, -33.445825, 0.0 ] } },
{ "type": "Feature", "properties": { "FECHA": "24-05-2025", "DIRECCION": "Catedral", "BARRIO": "YUNGAY", "DIA_SEMANA": "Sábado", "TIPO_DIA": "FDS", "TRAMO_HORA": "14 A 16 HRS", "MES": "mayo", "AÑO": 2025, "X": -70.679680668499998, "Y": -33.440392619199997 }, "geometry": { "type": "Point", "coordinates": [ -70.679681, -33.440393, 0.0 ] } },
{ "type": "Feature", "properties": { "FECHA": "24-05-2025", "DIRECCION": "Avenida Brasil", "BARRIO": "BRASIL", "DIA_SEMANA": "Sábado", "TIPO_DIA": "FDS", "TRAMO_HORA": "14 A 16 HRS", "MES": "mayo", "AÑO": 2025, "X": -70.664863474599997, "Y": -33.439906090500003 }, "geometry": { "type": "Point", "coordinates": [ -70.664863, -33.439906, 0.0 ] } },
{ "type": "Feature", "properties": { "FECHA": "24-05-2025", "DIRECCION": "Avenida Brasil", "BARRIO": "BRASIL", "DIA_SEMANA": "Sábado", "TIPO_DIA": "FDS", "TRAMO_HORA": "14 A 16 HRS", "MES": "mayo", "AÑO": 2025, "X": -70.664888284699998, "Y": -33.441129261900002 }, "geometry": { "type": "Point", "coordinates": [ -70.664888, -33.441129, 0.0 ] } },
{ "type": "Feature", "properties": { "FECHA": "24-05-2025", "DIRECCION": "Portugal", "BARRIO": "SANTA ISABEL", "DIA_SEMANA": "Sábado", "TIPO_DIA": "FDS", "TRAMO_HORA": "06 A 08 HRS", "MES": "mayo", "AÑO": 2025, "X": -70.634624328699999, "Y": -33.450508835999997 }, "geometry": { "type": "Point", "coordinates": [ -70.634624, -33.450509, 0.0 ] } },
{ "type": "Feature", "properties": { "FECHA": "24-05-2025", "DIRECCION": "Diagonal Paraguay", "BARRIO": "SAN BORJA", "DIA_SEMANA": "Sábado", "TIPO_DIA": "FDS", "TRAMO_HORA": "04 A 06 HRS", "MES": "mayo", "AÑO": 2025, "X": -70.642563588499996, "Y": -33.442742691799999 }, "geometry": { "type": "Point", "coordinates": [ -70.642564, -33.442743, 0.0 ] } },
{ "type": "Feature", "properties": { "FECHA": "23-05-2025", "DIRECCION": "Toesca", "BARRIO": "MEIGGS", "DIA_SEMANA": "Viernes", "TIPO_DIA": "SEMANA", "TRAMO_HORA": "18 A 20 HRS", "MES": "mayo", "AÑO": 2025, "X": -70.676303767199997, "Y": -33.456313957100001 }, "geometry": { "type": "Point", "coordinates": [ -70.676304, -33.456314, 0.0 ] } },
{ "type": "Feature", "properties": { "FECHA": "22-05-2025", "DIRECCION": "Arturo Prat", "BARRIO": "MATTA NORTE", "DIA_SEMANA": "Jueves", "TIPO_DIA": "SEMANA", "TRAMO_HORA": "22 A 00 HRS", "MES": "mayo", "AÑO": 2025, "X": -70.648424463799998, "Y": -33.451478213500003 }, "geometry": { "type": "Point", "coordinates": [ -70.648424, -33.451478, 0.0 ] } },
{ "type": "Feature", "properties": { "FECHA": "21-05-2025", "DIRECCION": "Avenida Alameda Libertador Bernardo O'Higgins", "BARRIO": "EJÉRCITO", "DIA_SEMANA": "Miércoles", "TIPO_DIA": "SEMANA", "TRAMO_HORA": "02 A 04 HRS", "MES": "mayo", "AÑO": 2025, "X": -70.662684224700001, "Y": -33.447128556700001 }, "geometry": { "type": "Point", "coordinates": [ -70.662684, -33.447129, 0.0 ] } },
{ "type": "Feature", "properties": { "FECHA": "19-05-2025", "DIRECCION": "Avenida Alameda Libertador Bernardo O'Higgins", "BARRIO": "CASCO HISTÓRICO", "DIA_SEMANA": "Lunes", "TIPO_DIA": "SEMANA", "TRAMO_HORA": "20 A 22 HRS", "MES": "mayo", "AÑO": 2025, "X": -70.654398835600006, "Y": -33.444983874899997 }, "geometry": { "type": "Point", "coordinates": [ -70.654399, -33.444984, 0.0 ] } },
{ "type": "Feature", "properties": { "FECHA": "19-05-2025", "DIRECCION": "Toesca", "BARRIO": "EJÉRCITO", "DIA_SEMANA": "Lunes", "TIPO_DIA": "SEMANA", "TRAMO_HORA": "16 A 18 HRS", "MES": "mayo", "AÑO": 2025, "X": -70.660194083600004, "Y": -33.4532355499 }, "geometry": { "type": "Point", "coordinates": [ -70.660194, -33.453236, 0.0 ] } },
{ "type": "Feature", "properties": { "FECHA": "19-05-2025", "DIRECCION": "Avenida Santa Isabel", "BARRIO": "PARQUE ALMAGRO", "DIA_SEMANA": "Lunes", "TIPO_DIA": "SEMANA", "TRAMO_HORA": "14 A 16 HRS", "MES": "mayo", "AÑO": 2025, "X": -70.651757903999993, "Y": -33.451786961700002 }, "geometry": { "type": "Point", "coordinates": [ -70.651758, -33.451787, 0.0 ] } },
{ "type": "Feature", "properties": { "FECHA": "19-05-2025", "DIRECCION": "Santa Elena", "BARRIO": "DIEZ DE JULIO", "DIA_SEMANA": "Lunes", "TIPO_DIA": "FDS", "TRAMO_HORA": "06 A 08 HRS", "MES": "mayo", "AÑO": 2025, "X": -70.631434433099997, "Y": -33.454728192399998 }, "geometry": { "type": "Point", "coordinates": [ -70.631434, -33.454728, 0.0 ] } },
{ "type": "Feature", "properties": { "FECHA": "18-05-2025", "DIRECCION": "Avenida Santa Isabel", "BARRIO": "PARQUE ALMAGRO", "DIA_SEMANA": "Domingo", "TIPO_DIA": "FDS", "TRAMO_HORA": "10 A 12 HRS", "MES": "mayo", "AÑO": 2025, "X": -70.658394580099994, "Y": -33.452455362099997 }, "geometry": { "type": "Point", "coordinates": [ -70.658395, -33.452455, 0.0 ] } },
{ "type": "Feature", "properties": { "FECHA": "17-05-2025", "DIRECCION": "Avenida Alameda Libertador Bernardo O'Higgins", "BARRIO": "UNIVERSITARIO", "DIA_SEMANA": "Sábado", "TIPO_DIA": "FDS", "TRAMO_HORA": "20 A 22 HRS", "MES": "mayo", "AÑO": 2025, "X": -70.668774805799998, "Y": -33.448506535699998 }, "geometry": { "type": "Point", "coordinates": [ -70.668775, -33.448507, 0.0 ] } },
{ "type": "Feature", "properties": { "FECHA": "17-05-2025", "DIRECCION": "Avenida Alameda Libertador Bernardo O'Higgins", "BARRIO": "YUNGAY", "DIA_SEMANA": "Sábado", "TIPO_DIA": "FDS", "TRAMO_HORA": "12 A 14 HRS", "MES": "mayo", "AÑO": 2025, "X": -70.674471146499997, "Y": -33.449432217099996 }, "geometry": { "type": "Point", "coordinates": [ -70.674471, -33.449432, 0.0 ] } },
{ "type": "Feature", "properties": { "FECHA": "16-05-2025", "DIRECCION": "Libertador Bernardo O Higgins", "BARRIO": "SAN BORJA", "DIA_SEMANA": "Viernes", "TIPO_DIA": "FDS", "TRAMO_HORA": "20 A 22 HRS", "MES": "mayo", "AÑO": 2025, "X": -70.638704466500002, "Y": -33.439125644599997 }, "geometry": { "type": "Point", "coordinates": [ -70.638704, -33.439126, 0.0 ] } },
{ "type": "Feature", "properties": { "FECHA": "15-05-2025", "DIRECCION": "José Victorino Lastarria", "BARRIO": "SANTA LUCIA - FORESTAL", "DIA_SEMANA": "Jueves", "TIPO_DIA": "SEMANA", "TRAMO_HORA": "22 A 00 HRS", "MES": "mayo", "AÑO": 2025, "X": -70.641078154100001, "Y": -33.438536867499998 }, "geometry": { "type": "Point", "coordinates": [ -70.641078, -33.438537, 0.0 ] } },
{ "type": "Feature", "properties": { "FECHA": "15-05-2025", "DIRECCION": "Chacabuco", "BARRIO": "YUNGAY", "DIA_SEMANA": "Jueves", "TIPO_DIA": "SEMANA", "TRAMO_HORA": "20 A 22 HRS", "MES": "mayo", "AÑO": 2025, "X": -70.678421705900007, "Y": -33.444607037600001 }, "geometry": { "type": "Point", "coordinates": [ -70.678422, -33.444607, 0.0 ] } },
{ "type": "Feature", "properties": { "FECHA": "15-05-2025", "DIRECCION": "Pintor Cicarelli", "BARRIO": "SIERRA BELLA", "DIA_SEMANA": "Jueves", "TIPO_DIA": "SEMANA", "TRAMO_HORA": "06 A 08 HRS", "MES": "mayo", "AÑO": 2025, "X": -70.641529596799998, "Y": -33.477196401 }, "geometry": { "type": "Point", "coordinates": [ -70.64153, -33.477196, 0.0 ] } },
{ "type": "Feature", "properties": { "FECHA": "14-05-2025", "DIRECCION": "Toesca", "BARRIO": "PARQUE ALMAGRO", "DIA_SEMANA": "Miércoles", "TIPO_DIA": "SEMANA", "TRAMO_HORA": "22 A 00 HRS", "MES": "mayo", "AÑO": 2025, "X": -70.658463880300005, "Y": -33.452831575499999 }, "geometry": { "type": "Point", "coordinates": [ -70.658464, -33.452832, 0.0 ] } },
{ "type": "Feature", "properties": { "FECHA": "13-05-2025", "DIRECCION": "Romero", "BARRIO": "YUNGAY", "DIA_SEMANA": "Martes", "TIPO_DIA": "SEMANA", "TRAMO_HORA": "06 A 08 HRS", "MES": "mayo", "AÑO": 2025, "X": -70.670034774399994, "Y": -33.446909437899997 }, "geometry": { "type": "Point", "coordinates": [ -70.670035, -33.446909, 0.0 ] } },
{ "type": "Feature", "properties": { "FECHA": "12-05-2025", "DIRECCION": "Argomedo", "BARRIO": "SANTA ISABEL", "DIA_SEMANA": "Lunes", "TIPO_DIA": "SEMANA", "TRAMO_HORA": "20 A 22 HRS", "MES": "mayo", "AÑO": 2025, "X": -70.636399810100002, "Y": -33.449682287000002 }, "geometry": { "type": "Point", "coordinates": [ -70.6364, -33.449682, 0.0 ] } },
{ "type": "Feature", "properties": { "FECHA": "12-05-2025", "DIRECCION": "Avenida Santa Rosa", "BARRIO": "PARQUE ALMAGRO", "DIA_SEMANA": "Lunes", "TIPO_DIA": "SEMANA", "TRAMO_HORA": "20 A 22 HRS", "MES": "mayo", "AÑO": 2025, "X": -70.645376555799999, "Y": -33.4487356486 }, "geometry": { "type": "Point", "coordinates": [ -70.645377, -33.448736, 0.0 ] } },
{ "type": "Feature", "properties": { "FECHA": "12-05-2025", "DIRECCION": "Avenida Santa Rosa", "BARRIO": "PARQUE ALMAGRO", "DIA_SEMANA": "Lunes", "TIPO_DIA": "SEMANA", "TRAMO_HORA": "18 A 20 HRS", "MES": "mayo", "AÑO": 2025, "X": -70.646090114299994, "Y": -33.443485277500002 }, "geometry": { "type": "Point", "coordinates": [ -70.64609, -33.443485, 0.0 ] } },
{ "type": "Feature", "properties": { "FECHA": "12-05-2025", "DIRECCION": "Avenida Ricardo Cumming", "BARRIO": "PANAMÁ", "DIA_SEMANA": "Lunes", "TIPO_DIA": "SEMANA", "TRAMO_HORA": "08 A 10 HRS", "MES": "mayo", "AÑO": 2025, "X": -70.668850243099996, "Y": -33.4354936314 }, "geometry": { "type": "Point", "coordinates": [ -70.66885, -33.435494, 0.0 ] } },
{ "type": "Feature", "properties": { "FECHA": "12-05-2025", "DIRECCION": "Romero", "BARRIO": "YUNGAY", "DIA_SEMANA": "Lunes", "TIPO_DIA": "FDS", "TRAMO_HORA": "06 A 08 HRS", "MES": "mayo", "AÑO": 2025, "X": -70.669894963900006, "Y": -33.446962591099997 }, "geometry": { "type": "Point", "coordinates": [ -70.669895, -33.446963, 0.0 ] } },
{ "type": "Feature", "properties": { "FECHA": "11-05-2025", "DIRECCION": "Eyzaguirre", "BARRIO": "MATTA NORTE", "DIA_SEMANA": "Domingo", "TIPO_DIA": "FDS", "TRAMO_HORA": "20 A 22 HRS", "MES": "mayo", "AÑO": 2025, "X": -70.644364692099998, "Y": -33.451772813600002 }, "geometry": { "type": "Point", "coordinates": [ -70.644365, -33.451773, 0.0 ] } },
{ "type": "Feature", "properties": { "FECHA": "11-05-2025", "DIRECCION": "San Diego", "BARRIO": "PARQUE ALMAGRO", "DIA_SEMANA": "Domingo", "TIPO_DIA": "FDS", "TRAMO_HORA": "18 A 20 HRS", "MES": "mayo", "AÑO": 2025, "X": -70.650621661800002, "Y": -33.451741133500001 }, "geometry": { "type": "Point", "coordinates": [ -70.650622, -33.451741, 0.0 ] } },
{ "type": "Feature", "properties": { "FECHA": "11-05-2025", "DIRECCION": "Avenida Ricardo Cumming", "BARRIO": "BRASIL", "DIA_SEMANA": "Domingo", "TIPO_DIA": "FDS", "TRAMO_HORA": "18 A 20 HRS", "MES": "mayo", "AÑO": 2025, "X": -70.667771660200003, "Y": -33.443813352699998 }, "geometry": { "type": "Point", "coordinates": [ -70.667772, -33.443813, 0.0 ] } },
{ "type": "Feature", "properties": { "FECHA": "11-05-2025", "DIRECCION": "San Diego", "BARRIO": "PARQUE ALMAGRO", "DIA_SEMANA": "Domingo", "TIPO_DIA": "FDS", "TRAMO_HORA": "10 A 12 HRS", "MES": "mayo", "AÑO": 2025, "X": -70.651151191699995, "Y": -33.447353677499997 }, "geometry": { "type": "Point", "coordinates": [ -70.651151, -33.447354, 0.0 ] } },
{ "type": "Feature", "properties": { "FECHA": "10-05-2025", "DIRECCION": "Jaime Eyzaguirre", "BARRIO": "SAN BORJA", "DIA_SEMANA": "Sábado", "TIPO_DIA": "FDS", "TRAMO_HORA": "20 A 22 HRS", "MES": "mayo", "AÑO": 2025, "X": -70.638565086, "Y": -33.440280988799998 }, "geometry": { "type": "Point", "coordinates": [ -70.638565, -33.440281, 0.0 ] } },
{ "type": "Feature", "properties": { "FECHA": "10-05-2025", "DIRECCION": "Avenida Matucana", "BARRIO": "YUNGAY", "DIA_SEMANA": "Sábado", "TIPO_DIA": "FDS", "TRAMO_HORA": "18 A 20 HRS", "MES": "mayo", "AÑO": 2025, "X": -70.679813771900001, "Y": -33.4406824653 }, "geometry": { "type": "Point", "coordinates": [ -70.679814, -33.440682, 0.0 ] } },
{ "type": "Feature", "properties": { "FECHA": "10-05-2025", "DIRECCION": "Libertad", "BARRIO": "YUNGAY", "DIA_SEMANA": "Sábado", "TIPO_DIA": "FDS", "TRAMO_HORA": "18 A 20 HRS", "MES": "mayo", "AÑO": 2025, "X": -70.674642809100007, "Y": -33.4376104981 }, "geometry": { "type": "Point", "coordinates": [ -70.674643, -33.43761, 0.0 ] } },
{ "type": "Feature", "properties": { "FECHA": "10-05-2025", "DIRECCION": "Avenida Santa Isabel", "BARRIO": "SANTA ISABEL", "DIA_SEMANA": "Sábado", "TIPO_DIA": "FDS", "TRAMO_HORA": "16 A 18 HRS", "MES": "mayo", "AÑO": 2025, "X": -70.642336941699995, "Y": -33.450316488299997 }, "geometry": { "type": "Point", "coordinates": [ -70.642337, -33.450316, 0.0 ] } },
{ "type": "Feature", "properties": { "FECHA": "10-05-2025", "DIRECCION": "San Diego", "BARRIO": "PARQUE ALMAGRO", "DIA_SEMANA": "Sábado", "TIPO_DIA": "FDS", "TRAMO_HORA": "16 A 18 HRS", "MES": "mayo", "AÑO": 2025, "X": -70.650395638999996, "Y": -33.451954643299999 }, "geometry": { "type": "Point", "coordinates": [ -70.650396, -33.451955, 0.0 ] } },
{ "type": "Feature", "properties": { "FECHA": "10-05-2025", "DIRECCION": "Pilcomayo", "BARRIO": "SAN EUGENIO", "DIA_SEMANA": "Sábado", "TIPO_DIA": "FDS", "TRAMO_HORA": "12 A 14 HRS", "MES": "mayo", "AÑO": 2025, "X": -70.671661086300006, "Y": -33.473730567399997 }, "geometry": { "type": "Point", "coordinates": [ -70.671661, -33.473731, 0.0 ] } },
{ "type": "Feature", "properties": { "FECHA": "09-05-2025", "DIRECCION": "Abdón Cifuentes", "BARRIO": "UNIVERSITARIO", "DIA_SEMANA": "Viernes", "TIPO_DIA": "FDS", "TRAMO_HORA": "22 A 00 HRS", "MES": "mayo", "AÑO": 2025, "X": -70.665483432900004, "Y": -33.451664176199998 }, "geometry": { "type": "Point", "coordinates": [ -70.665483, -33.451664, 0.0 ] } },
{ "type": "Feature", "properties": { "FECHA": "09-05-2025", "DIRECCION": "Zenteno", "BARRIO": "MATTA NORTE", "DIA_SEMANA": "Viernes", "TIPO_DIA": "FDS", "TRAMO_HORA": "22 A 00 HRS", "MES": "mayo", "AÑO": 2025, "X": -70.650680288999993, "Y": -33.459321207000002 }, "geometry": { "type": "Point", "coordinates": [ -70.65068, -33.459321, 0.0 ] } },
{ "type": "Feature", "properties": { "FECHA": "09-05-2025", "DIRECCION": "Moneda", "BARRIO": "YUNGAY", "DIA_SEMANA": "Viernes", "TIPO_DIA": "SEMANA", "TRAMO_HORA": "18 A 20 HRS", "MES": "mayo", "AÑO": 2025, "X": -70.678224899200004, "Y": -33.444950582799997 }, "geometry": { "type": "Point", "coordinates": [ -70.678225, -33.444951, 0.0 ] } },
{ "type": "Feature", "properties": { "FECHA": "09-05-2025", "DIRECCION": "Avenida Vicuña Mackenna", "BARRIO": "SIERRA BELLA", "DIA_SEMANA": "Viernes", "TIPO_DIA": "SEMANA", "TRAMO_HORA": "18 A 20 HRS", "MES": "mayo", "AÑO": 2025, "X": -70.625933893099997, "Y": -33.469176624900001 }, "geometry": { "type": "Point", "coordinates": [ -70.625934, -33.469177, 0.0 ] } },
{ "type": "Feature", "properties": { "FECHA": "09-05-2025", "DIRECCION": "San Diego", "BARRIO": "PARQUE ALMAGRO", "DIA_SEMANA": "Viernes", "TIPO_DIA": "SEMANA", "TRAMO_HORA": "16 A 18 HRS", "MES": "mayo", "AÑO": 2025, "X": -70.650382562999994, "Y": -33.451930306199998 }, "geometry": { "type": "Point", "coordinates": [ -70.650383, -33.45193, 0.0 ] } },
{ "type": "Feature", "properties": { "FECHA": "09-05-2025", "DIRECCION": "Echaurren", "BARRIO": "UNIVERSITARIO", "DIA_SEMANA": "Viernes", "TIPO_DIA": "SEMANA", "TRAMO_HORA": "12 A 14 HRS", "MES": "mayo", "AÑO": 2025, "X": -70.666700117299996, "Y": -33.4500000982 }, "geometry": { "type": "Point", "coordinates": [ -70.6667, -33.45, 0.0 ] } },
{ "type": "Feature", "properties": { "FECHA": "09-05-2025", "DIRECCION": "Avenida Santa Rosa", "BARRIO": "SAN BORJA", "DIA_SEMANA": "Viernes", "TIPO_DIA": "SEMANA", "TRAMO_HORA": "06 A 08 HRS", "MES": "mayo", "AÑO": 2025, "X": -70.645942501799993, "Y": -33.443255222600001 }, "geometry": { "type": "Point", "coordinates": [ -70.645943, -33.443255, 0.0 ] } },
{ "type": "Feature", "properties": { "FECHA": "09-05-2025", "DIRECCION": "El Parque", "BARRIO": "PARQUE O'HIGGINS", "DIA_SEMANA": "Viernes", "TIPO_DIA": "SEMANA", "TRAMO_HORA": "06 A 08 HRS", "MES": "mayo", "AÑO": 2025, "X": -70.657555126000005, "Y": -33.4596395202 }, "geometry": { "type": "Point", "coordinates": [ -70.657555, -33.45964, 0.0 ] } },
{ "type": "Feature", "properties": { "FECHA": "08-05-2025", "DIRECCION": "San Vicente", "BARRIO": "SAN EUGENIO", "DIA_SEMANA": "Jueves", "TIPO_DIA": "SEMANA", "TRAMO_HORA": "22 A 00 HRS", "MES": "mayo", "AÑO": 2025, "X": -70.675600166600006, "Y": -33.469537896200002 }, "geometry": { "type": "Point", "coordinates": [ -70.6756, -33.469538, 0.0 ] } },
{ "type": "Feature", "properties": { "FECHA": "08-05-2025", "DIRECCION": "Avenida Alameda Libertador Bernardo O'Higgins", "BARRIO": "EJÉRCITO", "DIA_SEMANA": "Jueves", "TIPO_DIA": "SEMANA", "TRAMO_HORA": "18 A 20 HRS", "MES": "mayo", "AÑO": 2025, "X": -70.662025027300004, "Y": -33.446970425099998 }, "geometry": { "type": "Point", "coordinates": [ -70.662025, -33.44697, 0.0 ] } },
{ "type": "Feature", "properties": { "FECHA": "08-05-2025", "DIRECCION": "Avenida Santa Isabel", "BARRIO": "SANTA ISABEL", "DIA_SEMANA": "Jueves", "TIPO_DIA": "SEMANA", "TRAMO_HORA": "18 A 20 HRS", "MES": "mayo", "AÑO": 2025, "X": -70.634188056100001, "Y": -33.448251684799999 }, "geometry": { "type": "Point", "coordinates": [ -70.634188, -33.448252, 0.0 ] } },
{ "type": "Feature", "properties": { "FECHA": "08-05-2025", "DIRECCION": "Avenida Manuel Antonio Matta", "BARRIO": "MATTA NORTE", "DIA_SEMANA": "Jueves", "TIPO_DIA": "SEMANA", "TRAMO_HORA": "12 A 14 HRS", "MES": "mayo", "AÑO": 2025, "X": -70.656447033999996, "Y": -33.460426718100003 }, "geometry": { "type": "Point", "coordinates": [ -70.656447, -33.460427, 0.0 ] } },
{ "type": "Feature", "properties": { "FECHA": "08-05-2025", "DIRECCION": "Pedro Lagos", "BARRIO": "VIEL", "DIA_SEMANA": "Jueves", "TIPO_DIA": "SEMANA", "TRAMO_HORA": "00 A 02 HRS", "MES": "mayo", "AÑO": 2025, "X": -70.648803078200004, "Y": -33.466151256899998 }, "geometry": { "type": "Point", "coordinates": [ -70.648803, -33.466151, 0.0 ] } },
{ "type": "Feature", "properties": { "FECHA": "07-05-2025", "DIRECCION": "San Diego", "BARRIO": "VIEL", "DIA_SEMANA": "Miércoles", "TIPO_DIA": "SEMANA", "TRAMO_HORA": "22 A 00 HRS", "MES": "mayo", "AÑO": 2025, "X": -70.648783632100006, "Y": -33.467055215199998 }, "geometry": { "type": "Point", "coordinates": [ -70.648784, -33.467055, 0.0 ] } },
{ "type": "Feature", "properties": { "FECHA": "07-05-2025", "DIRECCION": "Domeyko", "BARRIO": "EJÉRCITO", "DIA_SEMANA": "Miércoles", "TIPO_DIA": "SEMANA", "TRAMO_HORA": "20 A 22 HRS", "MES": "mayo", "AÑO": 2025, "X": -70.663134537299996, "Y": -33.455997963999998 }, "geometry": { "type": "Point", "coordinates": [ -70.663135, -33.455998, 0.0 ] } },
{ "type": "Feature", "properties": { "FECHA": "07-05-2025", "DIRECCION": "Avenida Matucana", "BARRIO": "YUNGAY", "DIA_SEMANA": "Miércoles", "TIPO_DIA": "SEMANA", "TRAMO_HORA": "10 A 12 HRS", "MES": "mayo", "AÑO": 2025, "X": -70.6790214281, "Y": -33.4418302885 }, "geometry": { "type": "Point", "coordinates": [ -70.679021, -33.44183, 0.0 ] } },
{ "type": "Feature", "properties": { "FECHA": "07-05-2025", "DIRECCION": "Avenida Portales", "BARRIO": "YUNGAY", "DIA_SEMANA": "Miércoles", "TIPO_DIA": "SEMANA", "TRAMO_HORA": "08 A 10 HRS", "MES": "mayo", "AÑO": 2025, "X": -70.679165523600005, "Y": -33.442872293299999 }, "geometry": { "type": "Point", "coordinates": [ -70.679166, -33.442872, 0.0 ] } },
{ "type": "Feature", "properties": { "FECHA": "07-05-2025", "DIRECCION": "Nataniel Cox", "BARRIO": "VIEL", "DIA_SEMANA": "Miércoles", "TIPO_DIA": "SEMANA", "TRAMO_HORA": "08 A 10 HRS", "MES": "mayo", "AÑO": 2025, "X": -70.650226660399994, "Y": -33.468726057200001 }, "geometry": { "type": "Point", "coordinates": [ -70.650227, -33.468726, 0.0 ] } },
{ "type": "Feature", "properties": { "FECHA": "07-05-2025", "DIRECCION": "Avenida Manuel Rodríguez Sur", "BARRIO": "SANTA ANA", "DIA_SEMANA": "Miércoles", "TIPO_DIA": "SEMANA", "TRAMO_HORA": "04 A 06 HRS", "MES": "mayo", "AÑO": 2025, "X": -70.659570135400003, "Y": -33.439744938899999 }, "geometry": { "type": "Point", "coordinates": [ -70.65957, -33.439745, 0.0 ] } },
{ "type": "Feature", "properties": { "FECHA": "06-05-2025", "DIRECCION": "Avenida Mapocho", "BARRIO": "YUNGAY", "DIA_SEMANA": "Martes", "TIPO_DIA": "SEMANA", "TRAMO_HORA": "16 A 18 HRS", "MES": "mayo", "AÑO": 2025, "X": -70.673716775800003, "Y": -33.432432673299999 }, "geometry": { "type": "Point", "coordinates": [ -70.673717, -33.432433, 0.0 ] } },
{ "type": "Feature", "properties": { "FECHA": "03-05-2025", "DIRECCION": "Avenida Cardenal José María Caro", "BARRIO": "SANTA LUCIA - FORESTAL", "DIA_SEMANA": "Sábado", "TIPO_DIA": "FDS", "TRAMO_HORA": "22 A 00 HRS", "MES": "mayo", "AÑO": 2025, "X": -70.639280205600002, "Y": -33.435550076600002 }, "geometry": { "type": "Point", "coordinates": [ -70.63928, -33.43555, 0.0 ] } },
{ "type": "Feature", "properties": { "FECHA": "01-05-2025", "DIRECCION": "Avenida Viel", "BARRIO": "MATTA NORTE", "DIA_SEMANA": "Jueves", "TIPO_DIA": "SEMANA", "TRAMO_HORA": "20 A 22 HRS", "MES": "mayo", "AÑO": 2025, "X": -70.656876978599996, "Y": -33.456300500099999 }, "geometry": { "type": "Point", "coordinates": [ -70.656877, -33.4563, 0.0 ] } }
]
}
