{
"type": "FeatureCollection",
"name": "URB_PTO_ESTACIONAMIENTO_DISCAPACIDAD_2026",
"features": [
{ "type": "Feature", "properties": { "Join_Count": 1, "TARGET_FID": 1, "Id": 0, "OBJECTID_1": 369, "OBJECTID_2": 184300, "COMUNA": "SANTIAGO", "DISTRITO": "MATUCANA", "ID_MANZANA": 184300, "ID_MZTXT": 184300.0, "Shape_Leng": 416.15675311899997, "X": 344026.57, "Y": 6299188.54 }, "geometry": { "type": "Point", "coordinates": [ -70.677862, -33.435362 ] } },
{ "type": "Feature", "properties": { "Join_Count": 1, "TARGET_FID": 2, "Id": 0, "OBJECTID_1": 648, "OBJECTID_2": 184579, "COMUNA": "SANTIAGO", "DISTRITO": "PORTALES", "ID_MANZANA": 184579, "ID_MZTXT": 184579.0, "Shape_Leng": 410.22651062400001, "X": 343989.86, "Y": 6298412.11 }, "geometry": { "type": "Point", "coordinates": [ -70.678392, -33.442357 ] } },
{ "type": "Feature", "properties": { "Join_Count": 1, "TARGET_FID": 3, "Id": 0, "OBJECTID_1": 277, "OBJECTID_2": 184208, "COMUNA": "SANTIAGO", "DISTRITO": "CHACABUCO", "ID_MANZANA": 184208, "ID_MZTXT": 184208.0, "Shape_Leng": 412.49606673800002, "X": 344133.34, "Y": 6297798.52 }, "geometry": { "type": "Point", "coordinates": [ -70.676955, -33.44791 ] } },
{ "type": "Feature", "properties": { "Join_Count": 1, "TARGET_FID": 4, "Id": 0, "OBJECTID_1": 1486, "OBJECTID_2": 185417, "COMUNA": "SANTIAGO", "DISTRITO": "SAN ALFONSO", "ID_MANZANA": 185417, "ID_MZTXT": 185417.0, "Shape_Leng": 1107.93011925, "X": 344165.09, "Y": 6297124.15 }, "geometry": { "type": "Point", "coordinates": [ -70.676731, -33.453994 ] } },
{ "type": "Feature", "properties": { "Join_Count": 1, "TARGET_FID": 5, "Id": 0, "OBJECTID_1": 1475, "OBJECTID_2": 185406, "COMUNA": "SANTIAGO", "DISTRITO": "SAN ALFONSO", "ID_MANZANA": 185406, "ID_MZTXT": 185406.0, "Shape_Leng": 430.86021611799998, "X": 344344.48, "Y": 6296928.89 }, "geometry": { "type": "Point", "coordinates": [ -70.674835, -33.455781 ] } },
{ "type": "Feature", "properties": { "Join_Count": 1, "TARGET_FID": 6, "Id": 0, "OBJECTID_1": 1488, "OBJECTID_2": 185419, "COMUNA": "SANTIAGO", "DISTRITO": "SAN ALFONSO", "ID_MANZANA": 185419, "ID_MZTXT": 185419.0, "Shape_Leng": 672.64421653700003, "X": 344507.99, "Y": 6297152.73 }, "geometry": { "type": "Point", "coordinates": [ -70.673038, -33.453786 ] } },
{ "type": "Feature", "properties": { "Join_Count": 1, "TARGET_FID": 7, "Id": 0, "OBJECTID_1": 1517, "OBJECTID_2": 185448, "COMUNA": "SANTIAGO", "DISTRITO": "AVENIDA ESPA├æA", "ID_MANZANA": 185448, "ID_MZTXT": 185448.0, "Shape_Leng": 920.87910045399997, "X": 344585.78, "Y": 6297165.43 }, "geometry": { "type": "Point", "coordinates": [ -70.672199, -33.453683 ] } },
{ "type": "Feature", "properties": { "Join_Count": 1, "TARGET_FID": 8, "Id": 0, "OBJECTID_1": 1464, "OBJECTID_2": 185395, "COMUNA": "SANTIAGO", "DISTRITO": "SAN ALFONSO", "ID_MANZANA": 185395, "ID_MZTXT": 185395.0, "Shape_Leng": 412.46501814499999, "X": 344414.33, "Y": 6297595.64 }, "geometry": { "type": "Point", "coordinates": [ -70.673968, -33.44978 ] } },
{ "type": "Feature", "properties": { "Join_Count": 1, "TARGET_FID": 9, "Id": 0, "OBJECTID_1": 1503, "OBJECTID_2": 185434, "COMUNA": "SANTIAGO", "DISTRITO": "AVENIDA ESPA├æA", "ID_MANZANA": 185434, "ID_MZTXT": 185434.0, "Shape_Leng": 842.21586276899995, "X": 344820.73, "Y": 6297471.81 }, "geometry": { "type": "Point", "coordinates": [ -70.669619, -33.450955 ] } },
{ "type": "Feature", "properties": { "Join_Count": 1, "TARGET_FID": 10, "Id": 0, "OBJECTID_1": 1534, "OBJECTID_2": 185465, "COMUNA": "SANTIAGO", "DISTRITO": "AVENIDA ESPA├æA", "ID_MANZANA": 185465, "ID_MZTXT": 185465.0, "Shape_Leng": 563.89524433400004, "X": 344985.83, "Y": 6297052.71 }, "geometry": { "type": "Point", "coordinates": [ -70.667916, -33.454757 ] } },
{ "type": "Feature", "properties": { "Join_Count": 1, "TARGET_FID": 11, "Id": 0, "OBJECTID_1": 1534, "OBJECTID_2": 185465, "COMUNA": "SANTIAGO", "DISTRITO": "AVENIDA ESPA├æA", "ID_MANZANA": 185465, "ID_MZTXT": 185465.0, "Shape_Leng": 563.89524433400004, "X": 344989.01, "Y": 6296957.46 }, "geometry": { "type": "Point", "coordinates": [ -70.667898, -33.455617 ] } },
{ "type": "Feature", "properties": { "Join_Count": 1, "TARGET_FID": 12, "Id": 0, "OBJECTID_1": 1520, "OBJECTID_2": 185451, "COMUNA": "SANTIAGO", "DISTRITO": "AVENIDA ESPA├æA", "ID_MANZANA": 185451, "ID_MZTXT": 185451.0, "Shape_Leng": 394.451416822, "X": 345077.91, "Y": 6297155.9 }, "geometry": { "type": "Point", "coordinates": [ -70.666907, -33.45384 ] } },
{ "type": "Feature", "properties": { "Join_Count": 1, "TARGET_FID": 13, "Id": 0, "OBJECTID_1": 1500, "OBJECTID_2": 185431, "COMUNA": "SANTIAGO", "DISTRITO": "AVENIDA ESPA├æA", "ID_MANZANA": 185431, "ID_MZTXT": 185431.0, "Shape_Leng": 435.151087706, "X": 345160.46, "Y": 6297633.74 }, "geometry": { "type": "Point", "coordinates": [ -70.665937, -33.449544 ] } },
{ "type": "Feature", "properties": { "Join_Count": 1, "TARGET_FID": 14, "Id": 0, "OBJECTID_1": 1510, "OBJECTID_2": 185441, "COMUNA": "SANTIAGO", "DISTRITO": "AVENIDA ESPA├æA", "ID_MANZANA": 185441, "ID_MZTXT": 185441.0, "Shape_Leng": 374.617538744, "X": 345152.52, "Y": 6297451.18 }, "geometry": { "type": "Point", "coordinates": [ -70.666054, -33.451189 ] } },
{ "type": "Feature", "properties": { "Join_Count": 1, "TARGET_FID": 15, "Id": 0, "OBJECTID_1": 1541, "OBJECTID_2": 185472, "COMUNA": "SANTIAGO", "DISTRITO": "EJ├ëRCITO", "ID_MANZANA": 185472, "ID_MZTXT": 185472.0, "Shape_Leng": 910.96122905599998, "X": 345408.11, "Y": 6297736.93 }, "geometry": { "type": "Point", "coordinates": [ -70.663256, -33.44865 ] } },
{ "type": "Feature", "properties": { "Join_Count": 1, "TARGET_FID": 16, "Id": 0, "OBJECTID_1": 1544, "OBJECTID_2": 185475, "COMUNA": "SANTIAGO", "DISTRITO": "EJ├ëRCITO", "ID_MANZANA": 185475, "ID_MZTXT": 185475.0, "Shape_Leng": 430.31323606000001, "X": 345554.16, "Y": 6297555.95 }, "geometry": { "type": "Point", "coordinates": [ -70.661716, -33.450302 ] } },
{ "type": "Feature", "properties": { "Join_Count": 1, "TARGET_FID": 17, "Id": 0, "OBJECTID_1": 1547, "OBJECTID_2": 185478, "COMUNA": "SANTIAGO", "DISTRITO": "EJ├ëRCITO", "ID_MANZANA": 185478, "ID_MZTXT": 185478.0, "Shape_Leng": 447.93769643100001, "X": 345714.5, "Y": 6297421.01 }, "geometry": { "type": "Point", "coordinates": [ -70.660015, -33.451542 ] } },
{ "type": "Feature", "properties": { "Join_Count": 1, "TARGET_FID": 18, "Id": 0, "OBJECTID_1": 1330, "OBJECTID_2": 185261, "COMUNA": "SANTIAGO", "DISTRITO": "PARQUE O┬┤HIGGINS", "ID_MANZANA": 185261, "ID_MZTXT": 185261.0, "Shape_Leng": 5901.2147666000001, "X": 345862.13, "Y": 6295055.63 }, "geometry": { "type": "Point", "coordinates": [ -70.658833, -33.472889 ] } },
{ "type": "Feature", "properties": { "Join_Count": 0, "TARGET_FID": 19, "Id": 0, "OBJECTID_1": 0, "OBJECTID_2": 0, "COMUNA": null, "DISTRITO": null, "ID_MANZANA": 0, "ID_MZTXT": null, "Shape_Leng": 0.0, "X": 345377.93, "Y": 6295079.17 }, "geometry": { "type": "Point", "coordinates": [ -70.664038, -33.472607 ] } },
{ "type": "Feature", "properties": { "Join_Count": 1, "TARGET_FID": 20, "Id": 0, "OBJECTID_1": 1369, "OBJECTID_2": 185300, "COMUNA": "SANTIAGO", "DISTRITO": "SAN EUGENIO", "ID_MANZANA": 185300, "ID_MZTXT": 185300.0, "Shape_Leng": 476.34433351199999, "X": 344770.25, "Y": 6294966.73 }, "geometry": { "type": "Point", "coordinates": [ -70.670595, -33.473533 ] } },
{ "type": "Feature", "properties": { "Join_Count": 1, "TARGET_FID": 21, "Id": 0, "OBJECTID_1": 1463, "OBJECTID_2": 185394, "COMUNA": "SANTIAGO", "DISTRITO": "SAN ALFONSO", "ID_MANZANA": 185394, "ID_MZTXT": 185394.0, "Shape_Leng": 540.78483293500005, "X": 344488.47, "Y": 6297467.05 }, "geometry": { "type": "Point", "coordinates": [ -70.673193, -33.45095 ] } },
{ "type": "Feature", "properties": { "Join_Count": 0, "TARGET_FID": 22, "Id": 0, "OBJECTID_1": 0, "OBJECTID_2": 0, "COMUNA": null, "DISTRITO": null, "ID_MANZANA": 0, "ID_MZTXT": null, "Shape_Leng": 0.0, "X": 347020.42, "Y": 6294709.3 }, "geometry": { "type": "Point", "coordinates": [ -70.646431, -33.476178 ] } },
{ "type": "Feature", "properties": { "Join_Count": 1, "TARGET_FID": 23, "Id": 0, "OBJECTID_1": 1294, "OBJECTID_2": 185225, "COMUNA": "SANTIAGO", "DISTRITO": "MATADERO", "ID_MANZANA": 185225, "ID_MZTXT": 185225.0, "Shape_Leng": 861.63118801099995, "X": 346972.12, "Y": 6295124.85 }, "geometry": { "type": "Point", "coordinates": [ -70.64688, -33.472425 ] } },
{ "type": "Feature", "properties": { "Join_Count": 1, "TARGET_FID": 24, "Id": 0, "OBJECTID_1": 1582, "OBJECTID_2": 185527, "COMUNA": "SANTIAGO", "DISTRITO": "MATADERO", "ID_MANZANA": 185527, "ID_MZTXT": 185527.0, "Shape_Leng": 1149.9342165800001, "X": 347178.49, "Y": 6294921.65 }, "geometry": { "type": "Point", "coordinates": [ -70.644695, -33.474286 ] } },
{ "type": "Feature", "properties": { "Join_Count": 1, "TARGET_FID": 25, "Id": 0, "OBJECTID_1": 1263, "OBJECTID_2": 185194, "COMUNA": "SANTIAGO", "DISTRITO": "FRANKLIN", "ID_MANZANA": 185194, "ID_MZTXT": 185194.0, "Shape_Leng": 375.55432163, "X": 347727.77, "Y": 6295186.76 }, "geometry": { "type": "Point", "coordinates": [ -70.63874, -33.471974 ] } },
{ "type": "Feature", "properties": { "Join_Count": 0, "TARGET_FID": 26, "Id": 0, "OBJECTID_1": 0, "OBJECTID_2": 0, "COMUNA": null, "DISTRITO": null, "ID_MANZANA": 0, "ID_MZTXT": null, "Shape_Leng": 0.0, "X": 346937.7, "Y": 6296168.81 }, "geometry": { "type": "Point", "coordinates": [ -70.647072, -33.463007 ] } },
{ "type": "Feature", "properties": { "Join_Count": 0, "TARGET_FID": 27, "Id": 0, "OBJECTID_1": 0, "OBJECTID_2": 0, "COMUNA": null, "DISTRITO": null, "ID_MANZANA": 0, "ID_MZTXT": null, "Shape_Leng": 0.0, "X": 346844.01, "Y": 6296241.92 }, "geometry": { "type": "Point", "coordinates": [ -70.648068, -33.462335 ] } },
{ "type": "Feature", "properties": { "Join_Count": 0, "TARGET_FID": 28, "Id": 0, "OBJECTID_1": 0, "OBJECTID_2": 0, "COMUNA": null, "DISTRITO": null, "ID_MANZANA": 0, "ID_MZTXT": null, "Shape_Leng": 0.0, "X": 346842.12, "Y": 6296387.92 }, "geometry": { "type": "Point", "coordinates": [ -70.648063, -33.461018 ] } },
{ "type": "Feature", "properties": { "Join_Count": 1, "TARGET_FID": 29, "Id": 0, "OBJECTID_1": 834, "OBJECTID_2": 184765, "COMUNA": "SANTIAGO", "DISTRITO": "SAN DIEGO", "ID_MANZANA": 184765, "ID_MZTXT": 184765.0, "Shape_Leng": 973.73191141400002, "X": 346703.67, "Y": 6296960.96 }, "geometry": { "type": "Point", "coordinates": [ -70.649454, -33.455832 ] } },
{ "type": "Feature", "properties": { "Join_Count": 1, "TARGET_FID": 30, "Id": 0, "OBJECTID_1": 744, "OBJECTID_2": 184675, "COMUNA": "SANTIAGO", "DISTRITO": "ALMAGRO", "ID_MANZANA": 184675, "ID_MZTXT": 184675.0, "Shape_Leng": 617.32128748699995, "X": 346527.46, "Y": 6297259.41 }, "geometry": { "type": "Point", "coordinates": [ -70.651299, -33.453116 ] } },
{ "type": "Feature", "properties": { "Join_Count": 1, "TARGET_FID": 31, "Id": 0, "OBJECTID_1": 619, "OBJECTID_2": 184550, "COMUNA": "SANTIAGO", "DISTRITO": "ALMAGRO", "ID_MANZANA": 184550, "ID_MZTXT": 184550.0, "Shape_Leng": 1130.1785877299999, "X": 346441.73, "Y": 6297667.39 }, "geometry": { "type": "Point", "coordinates": [ -70.652151, -33.449425 ] } },
{ "type": "Feature", "properties": { "Join_Count": 1, "TARGET_FID": 32, "Id": 0, "OBJECTID_1": 598, "OBJECTID_2": 184529, "COMUNA": "SANTIAGO", "DISTRITO": "UNIVERSIDAD", "ID_MANZANA": 184529, "ID_MZTXT": 184529.0, "Shape_Leng": 567.28855294499999, "X": 347025.93, "Y": 6297241.94 }, "geometry": { "type": "Point", "coordinates": [ -70.64594, -33.453345 ] } },
{ "type": "Feature", "properties": { "Join_Count": 1, "TARGET_FID": 33, "Id": 0, "OBJECTID_1": 535, "OBJECTID_2": 184466, "COMUNA": "SANTIAGO", "DISTRITO": "SAN ISIDRO", "ID_MANZANA": 184466, "ID_MZTXT": 184466.0, "Shape_Leng": 595.11661476999996, "X": 347417.25, "Y": 6297330.84 }, "geometry": { "type": "Point", "coordinates": [ -70.641716, -33.452599 ] } },
{ "type": "Feature", "properties": { "Join_Count": 0, "TARGET_FID": 34, "Id": 0, "OBJECTID_1": 0, "OBJECTID_2": 0, "COMUNA": null, "DISTRITO": null, "ID_MANZANA": 0, "ID_MZTXT": null, "Shape_Leng": 0.0, "X": 347884.35, "Y": 6297442.23 }, "geometry": { "type": "Point", "coordinates": [ -70.636673, -33.451661 ] } },
{ "type": "Feature", "properties": { "Join_Count": 1, "TARGET_FID": 35, "Id": 0, "OBJECTID_1": 514, "OBJECTID_2": 184445, "COMUNA": "SANTIAGO", "DISTRITO": "VICU├æA MACKENNA", "ID_MANZANA": 184445, "ID_MZTXT": 184445.0, "Shape_Leng": 855.89639135699997, "X": 348357.85, "Y": 6297464.19 }, "geometry": { "type": "Point", "coordinates": [ -70.631577, -33.45153 ] } },
{ "type": "Feature", "properties": { "Join_Count": 1, "TARGET_FID": 36, "Id": 0, "OBJECTID_1": 555, "OBJECTID_2": 184486, "COMUNA": "SANTIAGO", "DISTRITO": "SAN ISIDRO", "ID_MANZANA": 184486, "ID_MZTXT": 184486.0, "Shape_Leng": 787.18956854800001, "X": 347846.67, "Y": 6298214.45 }, "geometry": { "type": "Point", "coordinates": [ -70.636948, -33.444693 ] } },
{ "type": "Feature", "properties": { "Join_Count": 1, "TARGET_FID": 37, "Id": 0, "OBJECTID_1": 554, "OBJECTID_2": 184485, "COMUNA": "SANTIAGO", "DISTRITO": "SAN ISIDRO", "ID_MANZANA": 184485, "ID_MZTXT": 184485.0, "Shape_Leng": 1498.35532274, "X": 347824.45, "Y": 6298255.72 }, "geometry": { "type": "Point", "coordinates": [ -70.63718, -33.444318 ] } },
{ "type": "Feature", "properties": { "Join_Count": 0, "TARGET_FID": 38, "Id": 0, "OBJECTID_1": 0, "OBJECTID_2": 0, "COMUNA": null, "DISTRITO": null, "ID_MANZANA": 0, "ID_MZTXT": null, "Shape_Leng": 0.0, "X": 347507.89, "Y": 6298221.56 }, "geometry": { "type": "Point", "coordinates": [ -70.64059, -33.444581 ] } },
{ "type": "Feature", "properties": { "Join_Count": 0, "TARGET_FID": 39, "Id": 0, "OBJECTID_1": 0, "OBJECTID_2": 0, "COMUNA": null, "DISTRITO": null, "ID_MANZANA": 0, "ID_MZTXT": null, "Shape_Leng": 0.0, "X": 347724.49, "Y": 6298581.62 }, "geometry": { "type": "Point", "coordinates": [ -70.6382, -33.441366 ] } },
{ "type": "Feature", "properties": { "Join_Count": 1, "TARGET_FID": 40, "Id": 0, "OBJECTID_1": 492, "OBJECTID_2": 184423, "COMUNA": "SANTIAGO", "DISTRITO": "VICU├æA MACKENNA", "ID_MANZANA": 184423, "ID_MZTXT": 184423.0, "Shape_Leng": 491.13230191600002, "X": 347585.21, "Y": 6298681.17 }, "geometry": { "type": "Point", "coordinates": [ -70.639681, -33.440448 ] } },
{ "type": "Feature", "properties": { "Join_Count": 0, "TARGET_FID": 41, "Id": 0, "OBJECTID_1": 0, "OBJECTID_2": 0, "COMUNA": null, "DISTRITO": null, "ID_MANZANA": 0, "ID_MZTXT": null, "Shape_Leng": 0.0, "X": 347070.39, "Y": 6298301.01 }, "geometry": { "type": "Point", "coordinates": [ -70.645282, -33.443802 ] } },
{ "type": "Feature", "properties": { "Join_Count": 0, "TARGET_FID": 42, "Id": 0, "OBJECTID_1": 0, "OBJECTID_2": 0, "COMUNA": null, "DISTRITO": null, "ID_MANZANA": 0, "ID_MZTXT": null, "Shape_Leng": 0.0, "X": 346654.52, "Y": 6298486.22 }, "geometry": { "type": "Point", "coordinates": [ -70.649723, -33.442073 ] } },
{ "type": "Feature", "properties": { "Join_Count": 1, "TARGET_FID": 43, "Id": 0, "OBJECTID_1": 585, "OBJECTID_2": 184516, "COMUNA": "SANTIAGO", "DISTRITO": "UNIVERSIDAD", "ID_MANZANA": 184516, "ID_MZTXT": 184516.0, "Shape_Leng": 628.94838280199997, "X": 346655.41, "Y": 6297864.24 }, "geometry": { "type": "Point", "coordinates": [ -70.649819, -33.447681 ] } },
{ "type": "Feature", "properties": { "Join_Count": 0, "TARGET_FID": 44, "Id": 0, "OBJECTID_1": 0, "OBJECTID_2": 0, "COMUNA": null, "DISTRITO": null, "ID_MANZANA": 0, "ID_MZTXT": null, "Shape_Leng": 0.0, "X": 346153.36, "Y": 6297982.13 }, "geometry": { "type": "Point", "coordinates": [ -70.655199, -33.446546 ] } },
{ "type": "Feature", "properties": { "Join_Count": 0, "TARGET_FID": 45, "Id": 0, "OBJECTID_1": 0, "OBJECTID_2": 0, "COMUNA": null, "DISTRITO": null, "ID_MANZANA": 0, "ID_MZTXT": null, "Shape_Leng": 0.0, "X": 345986.73, "Y": 6297871.57 }, "geometry": { "type": "Point", "coordinates": [ -70.65701, -33.447519 ] } },
{ "type": "Feature", "properties": { "Join_Count": 1, "TARGET_FID": 46, "Id": 0, "OBJECTID_1": 106, "OBJECTID_2": 183997, "COMUNA": "SANTIAGO", "DISTRITO": "AMUN├üTEGUI", "ID_MANZANA": 183997, "ID_MZTXT": 183997.0, "Shape_Leng": 552.67782158299997, "X": 345820.7, "Y": 6298467.81 }, "geometry": { "type": "Point", "coordinates": [ -70.658693, -33.442119 ] } },
{ "type": "Feature", "properties": { "Join_Count": 1, "TARGET_FID": 47, "Id": 0, "OBJECTID_1": 36, "OBJECTID_2": 183927, "COMUNA": "SANTIAGO", "DISTRITO": "MONEDA", "ID_MANZANA": 183927, "ID_MZTXT": 183927.0, "Shape_Leng": 455.045648594, "X": 346066.76, "Y": 6299099.0 }, "geometry": { "type": "Point", "coordinates": [ -70.655939, -33.436464 ] } },
{ "type": "Feature", "properties": { "Join_Count": 1, "TARGET_FID": 48, "Id": 0, "OBJECTID_1": 89, "OBJECTID_2": 183980, "COMUNA": "SANTIAGO", "DISTRITO": "AMUN├üTEGUI", "ID_MANZANA": 183980, "ID_MZTXT": 183980.0, "Shape_Leng": 754.58796698000003, "X": 345847.69, "Y": 6299566.37 }, "geometry": { "type": "Point", "coordinates": [ -70.658214, -33.432219 ] } },
{ "type": "Feature", "properties": { "Join_Count": 1, "TARGET_FID": 49, "Id": 0, "OBJECTID_1": 105, "OBJECTID_2": 183996, "COMUNA": "SANTIAGO", "DISTRITO": "AMUN├üTEGUI", "ID_MANZANA": 183996, "ID_MZTXT": 183996.0, "Shape_Leng": 366.72652874300002, "X": 345930.24, "Y": 6298534.49 }, "geometry": { "type": "Point", "coordinates": [ -70.657504, -33.441534 ] } },
{ "type": "Feature", "properties": { "Join_Count": 1, "TARGET_FID": 50, "Id": 0, "OBJECTID_1": 122, "OBJECTID_2": 184013, "COMUNA": "SANTIAGO", "DISTRITO": "BRASIL", "ID_MANZANA": 184013, "ID_MZTXT": 184013.0, "Shape_Leng": 453.58153897300002, "X": 345133.31, "Y": 6298336.69 }, "geometry": { "type": "Point", "coordinates": [ -70.666108, -33.443203 ] } },
{ "type": "Feature", "properties": { "Join_Count": 1, "TARGET_FID": 51, "Id": 0, "OBJECTID_1": 240, "OBJECTID_2": 184171, "COMUNA": "SANTIAGO", "DISTRITO": "BRASIL", "ID_MANZANA": 184171, "ID_MZTXT": 184171.0, "Shape_Leng": 499.83919995399998, "X": 345411.13, "Y": 6298376.37 }, "geometry": { "type": "Point", "coordinates": [ -70.663113, -33.442885 ] } },
{ "type": "Feature", "properties": { "Join_Count": 1, "TARGET_FID": 52, "Id": 0, "OBJECTID_1": 243, "OBJECTID_2": 184174, "COMUNA": "SANTIAGO", "DISTRITO": "BRASIL", "ID_MANZANA": 184174, "ID_MZTXT": 184174.0, "Shape_Leng": 802.46262576599997, "X": 345577.81, "Y": 6298125.55 }, "geometry": { "type": "Point", "coordinates": [ -70.661364, -33.44517 ] } },
{ "type": "Feature", "properties": { "Join_Count": 1, "TARGET_FID": 53, "Id": 0, "OBJECTID_1": 1539, "OBJECTID_2": 185470, "COMUNA": "SANTIAGO", "DISTRITO": "EJ├ëRCITO", "ID_MANZANA": 185470, "ID_MZTXT": 185470.0, "Shape_Leng": 750.42444917299997, "X": 345598.45, "Y": 6297909.65 }, "geometry": { "type": "Point", "coordinates": [ -70.661179, -33.44712 ] } },
{ "type": "Feature", "properties": { "Join_Count": 0, "TARGET_FID": 54, "Id": 0, "OBJECTID_1": 0, "OBJECTID_2": 0, "COMUNA": null, "DISTRITO": null, "ID_MANZANA": 0, "ID_MZTXT": null, "Shape_Leng": 0.0, "X": 346132.78, "Y": 6298405.37 }, "geometry": { "type": "Point", "coordinates": [ -70.655347, -33.442727 ] } },
{ "type": "Feature", "properties": { "Join_Count": 1, "TARGET_FID": 55, "Id": 0, "OBJECTID_1": 1184, "OBJECTID_2": 185115, "COMUNA": "SANTIAGO", "DISTRITO": "ALMAGRO", "ID_MANZANA": 185115, "ID_MZTXT": 185115.0, "Shape_Leng": 729.18612183799996, "X": 345971.91, "Y": 6297379.67 }, "geometry": { "type": "Point", "coordinates": [ -70.657253, -33.451952 ] } }
]
}
