{
"type": "FeatureCollection",
"name": "URB_PTO_CONCESIONES_DOM_2026",
"features": [
{ "type": "Feature", "properties": { "Join_Count": 0, "TARGET_FID": 1, "Id": 1, "Nombre": "Saba Santa Luc├¡a- De La Barra", "Actividad": "Estacionamiento Subterraneo", "ID_MANZANA": 0, "OBJECTID_1": 0, "OBJECTID_2": 0, "COMUNA": null, "DISTRITO": null, "ID_MANZA_1": 0, "ID_MZTXT": null, "Shape_Leng": 0.0, "X": 347211.64, "Y": 6298919.87 }, "geometry": { "type": "Point", "coordinates": [ -70.643657, -33.438243 ] } },
{ "type": "Feature", "properties": { "Join_Count": 1, "TARGET_FID": 2, "Id": 2, "Nombre": "Fantasilandia", "Actividad": "Entretenimientos Subterraneo", "ID_MANZANA": 0, "OBJECTID_1": 1330, "OBJECTID_2": 185261, "COMUNA": "SANTIAGO", "DISTRITO": "PARQUE O┬┤HIGGINS", "ID_MANZA_1": 185261, "ID_MZTXT": 185261.0, "Shape_Leng": 5901.2147666000001, "X": 345506.47, "Y": 6296499.21 }, "geometry": { "type": "Point", "coordinates": [ -70.662411, -33.459823 ] } },
{ "type": "Feature", "properties": { "Join_Count": 1, "TARGET_FID": 3, "Id": 3, "Nombre": "Saba Santa Rosa", "Actividad": "Estacionamiento Subterraneo", "ID_MANZANA": 0, "OBJECTID_1": 524, "OBJECTID_2": 184455, "COMUNA": "SANTIAGO", "DISTRITO": "SAN ISIDRO", "ID_MANZA_1": 184455, "ID_MZTXT": 184455.0, "Shape_Leng": 591.24446360599995, "X": 347039.87, "Y": 6298236.42 }, "geometry": { "type": "Point", "coordinates": [ -70.645621, -33.44438 ] } },
{ "type": "Feature", "properties": { "Join_Count": 1, "TARGET_FID": 4, "Id": 4, "Nombre": "21 mayo y Diagonal Cervantes", "Actividad": "Estacionamiento Subterraneo", "ID_MANZANA": 0, "OBJECTID_1": 185, "OBJECTID_2": 184116, "COMUNA": "SANTIAGO", "DISTRITO": "MONEDA", "ID_MANZA_1": 184116, "ID_MZTXT": 184116.0, "Shape_Leng": 283.47247297400003, "X": 346624.68, "Y": 6299239.01 }, "geometry": { "type": "Point", "coordinates": [ -70.649915, -33.435282 ] } },
{ "type": "Feature", "properties": { "Join_Count": 1, "TARGET_FID": 5, "Id": 5, "Nombre": "Castillito Parque Forestal", "Actividad": "Gastronomia", "ID_MANZANA": 0, "OBJECTID_1": 151, "OBJECTID_2": 184082, "COMUNA": "SANTIAGO", "DISTRITO": "HUEL├ëN", "ID_MANZA_1": 184082, "ID_MZTXT": 184082.0, "Shape_Leng": 984.59378328599996, "X": 347301.1, "Y": 6299269.65 }, "geometry": { "type": "Point", "coordinates": [ -70.642636, -33.435102 ] } },
{ "type": "Feature", "properties": { "Join_Count": 1, "TARGET_FID": 6, "Id": 6, "Nombre": "Paseo Las Delicias", "Actividad": "Comercial", "ID_MANZANA": 0, "OBJECTID_1": 735, "OBJECTID_2": 184666, "COMUNA": "SANTIAGO", "DISTRITO": "ALMAGRO", "ID_MANZA_1": 184666, "ID_MZTXT": 184666.0, "Shape_Leng": 287.47758606299999, "X": 346465.06, "Y": 6298266.17 }, "geometry": { "type": "Point", "coordinates": [ -70.651798, -33.44403 ] } },
{ "type": "Feature", "properties": { "Join_Count": 0, "TARGET_FID": 7, "Id": 7, "Nombre": "Concesi├│n Subsuelo SSHH", "Actividad": "Ba├▒os  Subterraneo", "ID_MANZANA": 0, "OBJECTID_1": 0, "OBJECTID_2": 0, "COMUNA": null, "DISTRITO": null, "ID_MANZA_1": 0, "ID_MZTXT": null, "Shape_Leng": 0.0, "X": 346524.57, "Y": 6298833.77 }, "geometry": { "type": "Point", "coordinates": [ -70.651061, -33.438921 ] } },
{ "type": "Feature", "properties": { "Join_Count": 1, "TARGET_FID": 8, "Id": 8, "Nombre": "Mantencion Mobiliario Urbano", "Actividad": "Instalaci├│n Mobiliario Urbano", "ID_MANZANA": 0, "OBJECTID_1": 202, "OBJECTID_2": 184133, "COMUNA": "SANTIAGO", "DISTRITO": "MONEDA", "ID_MANZA_1": 184133, "ID_MZTXT": 184133.0, "Shape_Leng": 465.68758531899999, "X": 346583.67, "Y": 6298955.85 }, "geometry": { "type": "Point", "coordinates": [ -70.650404, -33.437829 ] } },
{ "type": "Feature", "properties": { "Join_Count": 1, "TARGET_FID": 9, "Id": 9, "Nombre": "Concesion Paseo Bulnes", "Actividad": "Estacionamiento subterraneo", "ID_MANZANA": 0, "OBJECTID_1": 611, "OBJECTID_2": 184542, "COMUNA": "SANTIAGO", "DISTRITO": "ALMAGRO", "ID_MANZA_1": 184542, "ID_MZTXT": 184542.0, "Shape_Leng": 371.11302277099998, "X": 346349.43, "Y": 6297896.44 }, "geometry": { "type": "Point", "coordinates": [ -70.653105, -33.447347 ] } },
{ "type": "Feature", "properties": { "Join_Count": 1, "TARGET_FID": 10, "Id": 10, "Nombre": "Plaza Alcalde Mekis", "Actividad": "Estacionamiento Subterraneo", "ID_MANZANA": 0, "OBJECTID_1": 54, "OBJECTID_2": 183945, "COMUNA": "SANTIAGO", "DISTRITO": "MONEDA", "ID_MANZA_1": 183945, "ID_MZTXT": 183945.0, "Shape_Leng": 467.55560797599998, "X": 346875.1, "Y": 6298685.35 }, "geometry": { "type": "Point", "coordinates": [ -70.647317, -33.440309 ] } },
{ "type": "Feature", "properties": { "Join_Count": 1, "TARGET_FID": 11, "Id": 11, "Nombre": "Plaza Oscar Castro", "Actividad": "Estacionamiento Subterraneo", "ID_MANZANA": 0, "OBJECTID_1": 180, "OBJECTID_2": 184111, "COMUNA": "SANTIAGO", "DISTRITO": "MONEDA", "ID_MANZA_1": 184111, "ID_MZTXT": 184111.0, "Shape_Leng": 312.16884832900001, "X": 346760.72, "Y": 6299432.85 }, "geometry": { "type": "Point", "coordinates": [ -70.648419, -33.433554 ] } },
{ "type": "Feature", "properties": { "Join_Count": 1, "TARGET_FID": 12, "Id": 12, "Nombre": "Plaza de la Justicia", "Actividad": "Estacionamiento Subterraneo", "ID_MANZANA": 0, "OBJECTID_1": 69, "OBJECTID_2": 183960, "COMUNA": "SANTIAGO", "DISTRITO": "MONEDA", "ID_MANZA_1": 183960, "ID_MZTXT": 183960.0, "Shape_Leng": 924.04020990900005, "X": 346290.17, "Y": 6298841.63 }, "geometry": { "type": "Point", "coordinates": [ -70.65358, -33.438817 ] } }
]
}
