{
"type": "FeatureCollection",
"name": "ECO_PTO_CONCESIONES_TURISMO",
"features": [
{ "type": "Feature", "properties": { "Id": 1, "Nombre": "Saba Santa Lucía- De La Barra", "Actividad": "Estacionamiento Subterraneo" }, "geometry": { "type": "Point", "coordinates": [ -70.643671, -33.438317 ] } },
{ "type": "Feature", "properties": { "Id": 2, "Nombre": "Fantasilandia", "Actividad": "Entretenimientos Subterraneo" }, "geometry": { "type": "Point", "coordinates": [ -70.662425, -33.459897 ] } },
{ "type": "Feature", "properties": { "Id": 3, "Nombre": "Saba Santa Rosa", "Actividad": "Estacionamiento Subterraneo" }, "geometry": { "type": "Point", "coordinates": [ -70.645635, -33.444455 ] } },
{ "type": "Feature", "properties": { "Id": 4, "Nombre": "21 mayo y Diagonal Cervantes", "Actividad": "Estacionamiento Subterraneo" }, "geometry": { "type": "Point", "coordinates": [ -70.649929, -33.435356 ] } },
{ "type": "Feature", "properties": { "Id": 5, "Nombre": "Castillito Parque Forestal", "Actividad": "Gastronomia" }, "geometry": { "type": "Point", "coordinates": [ -70.64265, -33.435176 ] } },
{ "type": "Feature", "properties": { "Id": 6, "Nombre": "Paseo Las Delicias", "Actividad": "Comercial" }, "geometry": { "type": "Point", "coordinates": [ -70.651811, -33.444104 ] } },
{ "type": "Feature", "properties": { "Id": 7, "Nombre": "Concesión Subsuelo SSHH", "Actividad": "Baños  Subterraneo" }, "geometry": { "type": "Point", "coordinates": [ -70.651074, -33.438995 ] } },
{ "type": "Feature", "properties": { "Id": 8, "Nombre": "Mantencion Mobiliario Urbano", "Actividad": "Instalación Mobiliario Urbano" }, "geometry": { "type": "Point", "coordinates": [ -70.650418, -33.437903 ] } },
{ "type": "Feature", "properties": { "Id": 9, "Nombre": "Concesion Paseo Bulnes", "Actividad": "Estacionamiento subterraneo" }, "geometry": { "type": "Point", "coordinates": [ -70.653118, -33.447421 ] } },
{ "type": "Feature", "properties": { "Id": 10, "Nombre": "Plaza Alcalde Mekis", "Actividad": "Estacionamiento Subterraneo" }, "geometry": { "type": "Point", "coordinates": [ -70.64733, -33.440384 ] } },
{ "type": "Feature", "properties": { "Id": 11, "Nombre": "Plaza Oscar Castro", "Actividad": "Estacionamiento Subterraneo" }, "geometry": { "type": "Point", "coordinates": [ -70.648433, -33.433628 ] } },
{ "type": "Feature", "properties": { "Id": 12, "Nombre": "Plaza de la Justicia", "Actividad": "Estacionamiento Subterraneo" }, "geometry": { "type": "Point", "coordinates": [ -70.653594, -33.438891 ] } }
]
}
