{
"type": "FeatureCollection",
"name": "ECO_PTO_RUTAS_TURISTICAS_2024",
"features": [
{ "type": "Feature", "properties": { "Id": 0, "Nombre": "STGO PASO A PASO", "Barrio": "CASCO HISTORICO", "Territorio": "NOR ORIENTE" }, "geometry": { "type": "Point", "coordinates": [ -70.652447, -33.437146 ] } },
{ "type": "Feature", "properties": { "Id": 0, "Nombre": "RUTA IGLESIAS", "Barrio": "CASCO HISTORICO", "Territorio": "NOR ORIENTE" }, "geometry": { "type": "Point", "coordinates": [ -70.651755, -33.439669 ] } },
{ "type": "Feature", "properties": { "Id": 0, "Nombre": "MUSEO ARTE PRECOLOMBINO", "Barrio": "CASCO HISTORICO", "Territorio": "NOR ORIENTE" }, "geometry": { "type": "Point", "coordinates": [ -70.652287, -33.438833 ] } },
{ "type": "Feature", "properties": { "Id": 0, "Nombre": "TOUR STGO POPULAR", "Barrio": "CASCO HISTORICO", "Territorio": "NOR ORIENTE" }, "geometry": { "type": "Point", "coordinates": [ -70.652057, -33.434559 ] } },
{ "type": "Feature", "properties": { "Id": 0, "Nombre": "MUSEO HISTORICO NACIONAL", "Barrio": "CASCO HISTORICO", "Territorio": "NOR ORIENTE" }, "geometry": { "type": "Point", "coordinates": [ -70.65066, -33.437144 ] } },
{ "type": "Feature", "properties": { "Id": 0, "Nombre": "RECORRIDO MUJERES EN HISTORIA DE CHILE", "Barrio": "CASCO HISTORICO", "Territorio": "NOR ORIENTE" }, "geometry": { "type": "Point", "coordinates": [ -70.65036, -33.439003 ] } },
{ "type": "Feature", "properties": { "Id": 0, "Nombre": "STGO FUNDACIONAL", "Barrio": "CASCO HISTORICO", "Territorio": "NOR ORIENTE" }, "geometry": { "type": "Point", "coordinates": [ -70.65048, -33.437895 ] } },
{ "type": "Feature", "properties": { "Id": 0, "Nombre": "MISTERIOS EN LA HISTORIA DE STGO", "Barrio": "CASCO HISTORICO", "Territorio": "NOR ORIENTE" }, "geometry": { "type": "Point", "coordinates": [ -70.650911, -33.437173 ] } },
{ "type": "Feature", "properties": { "Id": 0, "Nombre": "CERRO SANTA LUCIA", "Barrio": "SANTA LUCIA-FORESTAL", "Territorio": "NOR ORIENTE" }, "geometry": { "type": "Point", "coordinates": [ -70.643382, -33.440385 ] } },
{ "type": "Feature", "properties": { "Id": 0, "Nombre": "BARRIO LASTARRIA", "Barrio": "SANTA LUCIA-FORESTAL", "Territorio": "NOR ORIENTE" }, "geometry": { "type": "Point", "coordinates": [ -70.637785, -33.437882 ] } },
{ "type": "Feature", "properties": { "Id": 0, "Nombre": "RECORRIDO ARTE FORESTAL", "Barrio": "SANTA LUCIA-FORESTAL", "Territorio": "NOR ORIENTE" }, "geometry": { "type": "Point", "coordinates": [ -70.639992, -33.435044 ] } },
{ "type": "Feature", "properties": { "Id": 0, "Nombre": "MUSEO DE BELLAS ARTES Y CERRO STA LUCIA", "Barrio": "SANTA LUCIA- FORESTAL", "Territorio": "NOR ORIENTE" }, "geometry": { "type": "Point", "coordinates": [ -70.643592, -33.436133 ] } },
{ "type": "Feature", "properties": { "Id": 0, "Nombre": "ALAMEDA LAS DELICIAS", "Barrio": "PARQUE ALMAGRO", "Territorio": "CENTRO ORIENTE" }, "geometry": { "type": "Point", "coordinates": [ -70.65107, -33.444467 ] } },
{ "type": "Feature", "properties": { "Id": 0, "Nombre": "BARRIO YUNGAY", "Barrio": "YUNGAY", "Territorio": "CENTRO PONIENTE" }, "geometry": { "type": "Point", "coordinates": [ -70.682949, -33.441039 ] } },
{ "type": "Feature", "properties": { "Id": 0, "Nombre": "BARRIO VICTORIA", "Barrio": "MATTA SUR", "Territorio": "SUR ORIENTE" }, "geometry": { "type": "Point", "coordinates": [ -70.646509, -33.463659 ] } },
{ "type": "Feature", "properties": { "Id": 0, "Nombre": "BARRIO FRANKLIN", "Barrio": "FRANKLIN", "Territorio": "SUR ORIENTE" }, "geometry": { "type": "Point", "coordinates": [ -70.644528, -33.472513 ] } },
{ "type": "Feature", "properties": { "Id": 0, "Nombre": "MUSEO HISTORICO Y MILITAR DE CHILE", "Barrio": "MATTA NORTE", "Territorio": "CENTRO ORIENTE" }, "geometry": { "type": "Point", "coordinates": [ -70.656194, -33.456965 ] } },
{ "type": "Feature", "properties": { "Id": 0, "Nombre": "BARRIO SAN DIEGO", "Barrio": "PARQUE ALMAGRO", "Territorio": "CENTRO ORIENTE" }, "geometry": { "type": "Point", "coordinates": [ -70.650661, -33.448465 ] } },
{ "type": "Feature", "properties": { "Id": 0, "Nombre": "BARRIO CONCHA Y TORO", "Barrio": "BRASIL", "Territorio": "NOR PONIENTE" }, "geometry": { "type": "Point", "coordinates": [ -70.665806, -33.445479 ] } },
{ "type": "Feature", "properties": { "Id": 0, "Nombre": "RUTAS PASEOS Y GALERIAS", "Barrio": "CASCO HISTORICO", "Territorio": "NOR ORIENTE" }, "geometry": { "type": "Point", "coordinates": [ -70.649461, -33.437805 ] } }
]
}
