{
"type": "FeatureCollection",
"name": "ECO_PTO_BANCOS",
"features": [
{ "type": "Feature", "properties": { "StPreType": "CALLE", "Razón_soc": "BANCO DEL ESTADO DE CHILE", "Tipo_comer": "COMERCIAL", "Giro": "BANCO COMERCIAL", "COD_MZN": "13101031003008" }, "geometry": { "type": "Point", "coordinates": [ -70.65926, -33.43709 ] } },
{ "type": "Feature", "properties": { "StPreType": "CALLE", "Razón_soc": "BANCO DEL ESTADO DE CHILE", "Tipo_comer": "COMERCIAL", "Giro": "BANCO COMERCIAL", "COD_MZN": "13101031003008" }, "geometry": { "type": "Point", "coordinates": [ -70.65926, -33.43709 ] } },
{ "type": "Feature", "properties": { "StPreType": "CALLE", "Razón_soc": "BANCO DEL ESTADO DE CHILE", "Tipo_comer": "COMERCIAL", "Giro": "BANCO COMERCIAL", "COD_MZN": "13101031003008" }, "geometry": { "type": "Point", "coordinates": [ -70.65926, -33.43709 ] } },
{ "type": "Feature", "properties": { "StPreType": "AVENIDA", "Razón_soc": "SCOTIABANK CHILE", "Tipo_comer": "COMERCIAL", "Giro": "BANCO NACIONAL OFICINA ADMINISTRATIVA", "COD_MZN": "13101031007001" }, "geometry": { "type": "Point", "coordinates": [ -70.656348, -33.444913 ] } },
{ "type": "Feature", "properties": { "StPreType": "AVENIDA", "Razón_soc": "SCOTIABANK CHILE", "Tipo_comer": "COMERCIAL", "Giro": "BANCO NACIONAL, OFICINA PRINCIPAL ADMINISTRATIVA.  (SIN ATENCION DE PUBLICO)", "COD_MZN": "13101031007001" }, "geometry": { "type": "Point", "coordinates": [ -70.656348, -33.444913 ] } },
{ "type": "Feature", "properties": { "StPreType": "PASEO", "Razón_soc": "ITAU CHILE", "Tipo_comer": "COMERCIAL", "Giro": "BANCO", "COD_MZN": "13101021005012" }, "geometry": { "type": "Point", "coordinates": [ -70.652113, -33.439774 ] } },
{ "type": "Feature", "properties": { "StPreType": "AVENIDA", "Razón_soc": "BANCO DE CHILE", "Tipo_comer": "COMERCIAL", "Giro": "BANCO SUCURSAL", "COD_MZN": "13101051002029" }, "geometry": { "type": "Point", "coordinates": [ -70.678356, -33.450548 ] } },
{ "type": "Feature", "properties": { "StPreType": "CALLE", "Razón_soc": "BANCO SANTANDER-CHILE", "Tipo_comer": "COMERCIAL", "Giro": "BANCO COMERCIAL", "COD_MZN": "13101021005026" }, "geometry": { "type": "Point", "coordinates": [ -70.652004, -33.441954 ] } },
{ "type": "Feature", "properties": { "StPreType": "CALLE", "Razón_soc": "BANCO SANTANDER-CHILE", "Tipo_comer": "COMERCIAL", "Giro": "BANCO NACIONAL", "COD_MZN": "13101021005018" }, "geometry": { "type": "Point", "coordinates": [ -70.656479, -33.440212 ] } },
{ "type": "Feature", "properties": { "StPreType": "PASEO", "Razón_soc": "BANCO DE CHILE", "Tipo_comer": "COMERCIAL", "Giro": "BANCO COMERCIAL", "COD_MZN": "13101021005039" }, "geometry": { "type": "Point", "coordinates": [ -70.650525, -33.442934 ] } },
{ "type": "Feature", "properties": { "StPreType": "CALLE", "Razón_soc": "BANCO DE CHILE", "Tipo_comer": "COMERCIAL", "Giro": "BANCO COMERCIAL", "COD_MZN": "13101021005010" }, "geometry": { "type": "Point", "coordinates": [ -70.647147, -33.440435 ] } },
{ "type": "Feature", "properties": { "StPreType": "AVENIDA", "Razón_soc": "BANCO DEL ESTADO DE CHILE", "Tipo_comer": "COMERCIAL", "Giro": "BANCO NACIONAL", "COD_MZN": "13101021005026" }, "geometry": { "type": "Point", "coordinates": [ -70.651769, -33.44392 ] } },
{ "type": "Feature", "properties": { "StPreType": "CALLE", "Razón_soc": "ITAU CHILE", "Tipo_comer": "COMERCIAL", "Giro": "BANCO COMERCIAL", "COD_MZN": "13101021005020" }, "geometry": { "type": "Point", "coordinates": [ -70.647769, -33.441663 ] } },
{ "type": "Feature", "properties": { "StPreType": "CALLE", "Razón_soc": "BANCO SANTANDER-CHILE", "Tipo_comer": "COMERCIAL", "Giro": "BANCO COMERCIAL", "COD_MZN": "13101101002002" }, "geometry": { "type": "Point", "coordinates": [ -70.637729, -33.442964 ] } },
{ "type": "Feature", "properties": { "StPreType": "AVENIDA", "Razón_soc": "BANCO DE CHILE", "Tipo_comer": "COMERCIAL", "Giro": "BANCO COMERCIAL", "COD_MZN": "13101281001010" }, "geometry": { "type": "Point", "coordinates": [ -70.664575, -33.447406 ] } },
{ "type": "Feature", "properties": { "StPreType": "CALLE", "Razón_soc": "BANCO SECURITY", "Tipo_comer": "COMERCIAL", "Giro": "BANCO", "COD_MZN": "13101011004005" }, "geometry": { "type": "Point", "coordinates": [ -70.645612, -33.440306 ] } },
{ "type": "Feature", "properties": { "StPreType": "AVENIDA", "Razón_soc": "BANCO DE CHILE", "Tipo_comer": "COMERCIAL", "Giro": "BANCO COMERCIAL", "COD_MZN": "13101141003005" }, "geometry": { "type": "Point", "coordinates": [ -70.629991, -33.455308 ] } },
{ "type": "Feature", "properties": { "StPreType": null, "Razón_soc": "BANCO DE CREDITO E INVERSIONES", "Tipo_comer": "COMERCIAL", "Giro": "BANCO COMERCIAL", "COD_MZN": null }, "geometry": null },
{ "type": "Feature", "properties": { "StPreType": "CALLE", "Razón_soc": "BANCO SANTANDER-CHILE", "Tipo_comer": "COMERCIAL", "Giro": "BANCO", "COD_MZN": "13101011004008" }, "geometry": { "type": "Point", "coordinates": [ -70.645395, -33.440337 ] } },
{ "type": "Feature", "properties": { "StPreType": "PASAJE", "Razón_soc": "BANCO DE CHILE", "Tipo_comer": "COMERCIAL", "Giro": "BANCO COMERCIAL", "COD_MZN": "13101021005026" }, "geometry": { "type": "Point", "coordinates": [ -70.651962, -33.441303 ] } },
{ "type": "Feature", "properties": { "StPreType": "CALLE", "Razón_soc": "SCOTIABANK CHILE", "Tipo_comer": "COMERCIAL", "Giro": "BANCO COMERCIAL", "COD_MZN": "13101021005011" }, "geometry": { "type": "Point", "coordinates": [ -70.648063, -33.440302 ] } },
{ "type": "Feature", "properties": { "StPreType": "PASEO", "Razón_soc": "BANCO DE CREDITO E INVERSIONES", "Tipo_comer": "COMERCIAL", "Giro": "BANCO COMERCIAL", "COD_MZN": "13101021005005" }, "geometry": { "type": "Point", "coordinates": [ -70.652974, -33.439813 ] } },
{ "type": "Feature", "properties": { "StPreType": "PASEO", "Razón_soc": "BANCO DE CREDITO E INVERSIONES", "Tipo_comer": "COMERCIAL", "Giro": "BANCO COMERCIAL", "COD_MZN": "13101021005003" }, "geometry": { "type": "Point", "coordinates": [ -70.651047, -33.438838 ] } },
{ "type": "Feature", "properties": { "StPreType": "CALLE", "Razón_soc": "BANCO DEL ESTADO DE CHILE", "Tipo_comer": "COMERCIAL", "Giro": "BANCO", "COD_MZN": "13101021005033" }, "geometry": { "type": "Point", "coordinates": [ -70.648644, -33.441788 ] } },
{ "type": "Feature", "properties": { "StPreType": "CALLE", "Razón_soc": "BANCO DE CHILE", "Tipo_comer": "COMERCIAL", "Giro": "BANCO COMERCIAL", "COD_MZN": "13101021005022" }, "geometry": { "type": "Point", "coordinates": [ -70.647988, -33.441672 ] } },
{ "type": "Feature", "properties": { "StPreType": "CALLE", "Razón_soc": "BANCO SANTANDER-CHILE", "Tipo_comer": "COMERCIAL", "Giro": "BANCO COMERCIAL", "COD_MZN": "13101011004005" }, "geometry": { "type": "Point", "coordinates": [ -70.645358, -33.440062 ] } },
{ "type": "Feature", "properties": { "StPreType": "PASEO", "Razón_soc": "BANCO SANTANDER-CHILE", "Tipo_comer": "COMERCIAL", "Giro": "BANCO COMERCIAL", "COD_MZN": "13101021005039" }, "geometry": { "type": "Point", "coordinates": [ -70.650543, -33.442804 ] } },
{ "type": "Feature", "properties": { "StPreType": "AVENIDA", "Razón_soc": "BANCO SANTANDER-CHILE", "Tipo_comer": "COMERCIAL", "Giro": "BANCO COMERCIAL", "COD_MZN": "13101051002030" }, "geometry": { "type": "Point", "coordinates": [ -70.677581, -33.450349 ] } },
{ "type": "Feature", "properties": { "StPreType": "CALLE", "Razón_soc": "BANCO SANTANDER-CHILE", "Tipo_comer": "COMERCIAL", "Giro": "BANCO COMERCIAL", "COD_MZN": "13101021005012" }, "geometry": { "type": "Point", "coordinates": [ -70.649663, -33.440704 ] } },
{ "type": "Feature", "properties": { "StPreType": "PASEO", "Razón_soc": "BANCO DE CREDITO E INVERSIONES", "Tipo_comer": "COMERCIAL", "Giro": "BANCO COMERCIAL", "COD_MZN": "13101021005002" }, "geometry": { "type": "Point", "coordinates": [ -70.648699, -33.439387 ] } },
{ "type": "Feature", "properties": { "StPreType": "AVENIDA", "Razón_soc": "SCOTIABANK CHILE", "Tipo_comer": "COMERCIAL", "Giro": "BANCO COMERCIAL", "COD_MZN": "13101021005024" }, "geometry": { "type": "Point", "coordinates": [ -70.649932, -33.443547 ] } },
{ "type": "Feature", "properties": { "StPreType": "AVENIDA", "Razón_soc": "SCOTIABANK CHILE", "Tipo_comer": "COMERCIAL", "Giro": "BANCO COMERCIAL", "COD_MZN": "13101021005024" }, "geometry": { "type": "Point", "coordinates": [ -70.649932, -33.443547 ] } },
{ "type": "Feature", "properties": { "StPreType": "AVENIDA", "Razón_soc": "SCOTIABANK CHILE", "Tipo_comer": "COMERCIAL", "Giro": "BANCO COMERCIAL", "COD_MZN": "13101021005024" }, "geometry": { "type": "Point", "coordinates": [ -70.649932, -33.443547 ] } },
{ "type": "Feature", "properties": { "StPreType": "AVENIDA", "Razón_soc": "SCOTIABANK CHILE", "Tipo_comer": "COMERCIAL", "Giro": "BANCO COMERCIAL", "COD_MZN": "13101021005024" }, "geometry": { "type": "Point", "coordinates": [ -70.649932, -33.443547 ] } },
{ "type": "Feature", "properties": { "StPreType": "AVENIDA", "Razón_soc": "SCOTIABANK CHILE", "Tipo_comer": "COMERCIAL", "Giro": "BANCO COMERCIAL", "COD_MZN": "13101021005024" }, "geometry": { "type": "Point", "coordinates": [ -70.649932, -33.443547 ] } },
{ "type": "Feature", "properties": { "StPreType": "AVENIDA", "Razón_soc": "SCOTIABANK CHILE", "Tipo_comer": "COMERCIAL", "Giro": "BANCO COMERCIAL", "COD_MZN": "13101021005024" }, "geometry": { "type": "Point", "coordinates": [ -70.649932, -33.443547 ] } },
{ "type": "Feature", "properties": { "StPreType": "AVENIDA", "Razón_soc": "SCOTIABANK CHILE", "Tipo_comer": "COMERCIAL", "Giro": "BANCO COMERCIAL", "COD_MZN": "13101021005024" }, "geometry": { "type": "Point", "coordinates": [ -70.649932, -33.443547 ] } },
{ "type": "Feature", "properties": { "StPreType": "AVENIDA", "Razón_soc": "SCOTIABANK CHILE", "Tipo_comer": "COMERCIAL", "Giro": "BANCO COMERCIAL", "COD_MZN": "13101021005024" }, "geometry": { "type": "Point", "coordinates": [ -70.649932, -33.443547 ] } },
{ "type": "Feature", "properties": { "StPreType": "AVENIDA", "Razón_soc": "ITAU CHILE", "Tipo_comer": "COMERCIAL", "Giro": "BANCO COMERCIAL", "COD_MZN": "13101051002030" }, "geometry": { "type": "Point", "coordinates": [ -70.675835, -33.449883 ] } },
{ "type": "Feature", "properties": { "StPreType": "AVENIDA", "Razón_soc": "BANCO DE CREDITO E INVERSIONES", "Tipo_comer": "COMERCIAL", "Giro": "BANCO COMERCIAL", "COD_MZN": "13101151004001" }, "geometry": { "type": "Point", "coordinates": [ -70.650449, -33.454233 ] } },
{ "type": "Feature", "properties": { "StPreType": "CALLE", "Razón_soc": "ITAU CHILE", "Tipo_comer": "COMERCIAL", "Giro": "BANCO COMERCIAL", "COD_MZN": "13101211001024" }, "geometry": { "type": "Point", "coordinates": [ -70.648494, -33.471126 ] } },
{ "type": "Feature", "properties": { "StPreType": "CALLE", "Razón_soc": "BANCO DEL ESTADO DE CHILE", "Tipo_comer": "COMERCIAL", "Giro": "BANCO COMERCIAL", "COD_MZN": "13101021004011" }, "geometry": { "type": "Point", "coordinates": [ -70.650492, -33.436128 ] } },
{ "type": "Feature", "properties": { "StPreType": "CALLE", "Razón_soc": "SCOTIABANK CHILE", "Tipo_comer": "COMERCIAL", "Giro": "BANCO COMERCIAL", "COD_MZN": "13101261001011" }, "geometry": { "type": "Point", "coordinates": [ -70.676406, -33.451651 ] } },
{ "type": "Feature", "properties": { "StPreType": "PASEO", "Razón_soc": "BANCO RIPLEY", "Tipo_comer": "COMERCIAL", "Giro": "BANCO COMERCIAL  SUCURSAL", "COD_MZN": "13101021004011" }, "geometry": { "type": "Point", "coordinates": [ -70.650118, -33.435604 ] } },
{ "type": "Feature", "properties": { "StPreType": "PASEO", "Razón_soc": "BANCO DE CHILE", "Tipo_comer": "COMERCIAL", "Giro": "BANCO COMERCIAL", "COD_MZN": "13101021005024" }, "geometry": { "type": "Point", "coordinates": [ -70.6505, -33.442653 ] } },
{ "type": "Feature", "properties": { "StPreType": "PASAJE", "Razón_soc": "BANCO SANTANDER-CHILE", "Tipo_comer": "COMERCIAL", "Giro": "BANCO COMERCIAL", "COD_MZN": "13101021005026" }, "geometry": { "type": "Point", "coordinates": [ -70.651955, -33.441357 ] } },
{ "type": "Feature", "properties": { "StPreType": "CALLE", "Razón_soc": "BANCO DE CHILE", "Tipo_comer": "COMERCIAL", "Giro": "BANCO COMERCIAL", "COD_MZN": "13101011004008" }, "geometry": { "type": "Point", "coordinates": [ -70.645861, -33.440386 ] } },
{ "type": "Feature", "properties": { "StPreType": "PASEO", "Razón_soc": "BANCO SANTANDER-CHILE", "Tipo_comer": "COMERCIAL", "Giro": "BANCO COMERCIAL", "COD_MZN": "13101021007008" }, "geometry": { "type": "Point", "coordinates": [ -70.649873, -33.437273 ] } },
{ "type": "Feature", "properties": { "StPreType": "CALLE", "Razón_soc": "BANCO RIPLEY", "Tipo_comer": "COMERCIAL", "Giro": "BANCO", "COD_MZN": "13101021005033" }, "geometry": { "type": "Point", "coordinates": [ -70.649002, -33.441822 ] } },
{ "type": "Feature", "properties": { "StPreType": "AVENIDA", "Razón_soc": "ITAU CHILE", "Tipo_comer": "COMERCIAL", "Giro": "BANCO COMERCIAL", "COD_MZN": "13101141003005" }, "geometry": { "type": "Point", "coordinates": [ -70.629991, -33.455308 ] } },
{ "type": "Feature", "properties": { "StPreType": "PASEO", "Razón_soc": "BANCO DEL ESTADO DE CHILE", "Tipo_comer": "COMERCIAL", "Giro": "BANCO", "COD_MZN": "13101021005003" }, "geometry": { "type": "Point", "coordinates": [ -70.64965, -33.43895 ] } },
{ "type": "Feature", "properties": { "StPreType": "PASEO", "Razón_soc": "BANCO DEL ESTADO DE CHILE", "Tipo_comer": "COMERCIAL", "Giro": "BANCO", "COD_MZN": "13101021005005" }, "geometry": { "type": "Point", "coordinates": [ -70.653233, -33.43984 ] } },
{ "type": "Feature", "properties": { "StPreType": "CALLE", "Razón_soc": "BANCO DEL ESTADO DE CHILE", "Tipo_comer": "COMERCIAL", "Giro": "BANCO COMERCIAL", "COD_MZN": "13101021007006" }, "geometry": { "type": "Point", "coordinates": [ -70.649018, -33.437063 ] } },
{ "type": "Feature", "properties": { "StPreType": "CALLE", "Razón_soc": "ITAU CHILE", "Tipo_comer": "COMERCIAL", "Giro": "BANCO COMERCIAL", "COD_MZN": "13101021005011" }, "geometry": { "type": "Point", "coordinates": [ -70.648063, -33.440302 ] } },
{ "type": "Feature", "properties": { "StPreType": "AVENIDA", "Razón_soc": "BANCO FALABELLA", "Tipo_comer": "COMERCIAL", "Giro": "BANCO", "COD_MZN": "13101121001006" }, "geometry": { "type": "Point", "coordinates": [ -70.64917, -33.443657 ] } },
{ "type": "Feature", "properties": { "StPreType": "CALLE", "Razón_soc": "BANCO DEL ESTADO DE CHILE", "Tipo_comer": "COMERCIAL", "Giro": "BANCO", "COD_MZN": "13101071002018" }, "geometry": { "type": "Point", "coordinates": [ -70.680173, -33.435799 ] } },
{ "type": "Feature", "properties": { "StPreType": "AVENIDA", "Razón_soc": "BANCO DE CHILE", "Tipo_comer": "COMERCIAL", "Giro": "BANCO", "COD_MZN": "13101151001006" }, "geometry": { "type": "Point", "coordinates": [ -70.649783, -33.454119 ] } },
{ "type": "Feature", "properties": { "StPreType": "PASEO", "Razón_soc": "BANCO FALABELLA", "Tipo_comer": "COMERCIAL", "Giro": "BANCO", "COD_MZN": "13101021005039" }, "geometry": { "type": "Point", "coordinates": [ -70.650656, -33.442032 ] } },
{ "type": "Feature", "properties": { "StPreType": "CALLE", "Razón_soc": "BANCO DE CHILE", "Tipo_comer": "COMERCIAL", "Giro": "BANCO", "COD_MZN": "13101131001007" }, "geometry": { "type": "Point", "coordinates": [ -70.654066, -33.445201 ] } },
{ "type": "Feature", "properties": { "StPreType": "CALLE", "Razón_soc": "BANCO DEL ESTADO DE CHILE", "Tipo_comer": "COMERCIAL", "Giro": "BANCO COMERCIAL", "COD_MZN": "13101031003008" }, "geometry": { "type": "Point", "coordinates": [ -70.65926, -33.43709 ] } },
{ "type": "Feature", "properties": { "StPreType": "CALLE", "Razón_soc": "BANCO DEL ESTADO DE CHILE", "Tipo_comer": "COMERCIAL", "Giro": "BANCO COMERCIAL", "COD_MZN": "13101031003008" }, "geometry": { "type": "Point", "coordinates": [ -70.65926, -33.43709 ] } },
{ "type": "Feature", "properties": { "StPreType": "CALLE", "Razón_soc": "BANCO FALABELLA", "Tipo_comer": "COMERCIAL", "Giro": "BANCO", "COD_MZN": "13101021005024" }, "geometry": { "type": "Point", "coordinates": [ -70.650317, -33.441935 ] } },
{ "type": "Feature", "properties": { "StPreType": "CALLE", "Razón_soc": "BANCO CONSORCIO", "Tipo_comer": "COMERCIAL", "Giro": "BANCO COMERCIAL.", "COD_MZN": "13101021005018" }, "geometry": { "type": "Point", "coordinates": [ -70.655817, -33.44129 ] } },
{ "type": "Feature", "properties": { "StPreType": "CALLE", "Razón_soc": "BANCO FALABELLA", "Tipo_comer": "COMERCIAL", "Giro": "BANCO COMERCIAL", "COD_MZN": "13101021005024" }, "geometry": { "type": "Point", "coordinates": [ -70.650317, -33.441935 ] } },
{ "type": "Feature", "properties": { "StPreType": "PASEO", "Razón_soc": "BANCO DE CREDITO E INVERSIONES", "Tipo_comer": "COMERCIAL", "Giro": "BANCO COMERCIAL.", "COD_MZN": "13101021005002" }, "geometry": { "type": "Point", "coordinates": [ -70.648699, -33.439387 ] } },
{ "type": "Feature", "properties": { "StPreType": "CALLE", "Razón_soc": "BANCO CONSORCIO", "Tipo_comer": "COMERCIAL", "Giro": "BANCO COMERCIAL", "COD_MZN": "13101011004005" }, "geometry": { "type": "Point", "coordinates": [ -70.646662, -33.440097 ] } },
{ "type": "Feature", "properties": { "StPreType": "CALLE", "Razón_soc": "BANCO FALABELLA", "Tipo_comer": "COMERCIAL", "Giro": "BANCO", "COD_MZN": "13101021005024" }, "geometry": { "type": "Point", "coordinates": [ -70.650317, -33.441935 ] } }
]
}
