{
"type": "FeatureCollection",
"name": "ECO_PTO_RUTA_DEL_CAFE",
"features": [
{ "type": "Feature", "properties": { "Id": 1, "NOMBRE": "PORTA CAFE" }, "geometry": { "type": "Point", "coordinates": [ -70.63806, -33.437014 ] } },
{ "type": "Feature", "properties": { "Id": 2, "NOMBRE": "LA HUERFANA VICTORIA" }, "geometry": { "type": "Point", "coordinates": [ -70.642511, -33.43847 ] } },
{ "type": "Feature", "properties": { "Id": 3, "NOMBRE": "CAFE FORESTAL" }, "geometry": { "type": "Point", "coordinates": [ -70.644138, -33.435767 ] } },
{ "type": "Feature", "properties": { "Id": 4, "NOMBRE": "MAGICKOFFEE" }, "geometry": { "type": "Point", "coordinates": [ -70.645881, -33.435116 ] } },
{ "type": "Feature", "properties": { "Id": 5, "NOMBRE": "CAFE TRICICLO" }, "geometry": { "type": "Point", "coordinates": [ -70.645809, -33.4357 ] } },
{ "type": "Feature", "properties": { "Id": 6, "NOMBRE": "R3 COFFEE" }, "geometry": { "type": "Point", "coordinates": [ -70.645765, -33.43639 ] } },
{ "type": "Feature", "properties": { "Id": 7, "NOMBRE": "AREA CAFE" }, "geometry": { "type": "Point", "coordinates": [ -70.64562, -33.437515 ] } },
{ "type": "Feature", "properties": { "Id": 8, "NOMBRE": "CAFETANO" }, "geometry": { "type": "Point", "coordinates": [ -70.64574, -33.438435 ] } },
{ "type": "Feature", "properties": { "Id": 9, "NOMBRE": "CAFE PASCUCCI" }, "geometry": { "type": "Point", "coordinates": [ -70.649677, -33.438186 ] } },
{ "type": "Feature", "properties": { "Id": 10, "NOMBRE": "CAFE CARIBE" }, "geometry": { "type": "Point", "coordinates": [ -70.650763, -33.441632 ] } },
{ "type": "Feature", "properties": { "Id": 11, "NOMBRE": "LE DELIZIE BISTRO CAFFE" }, "geometry": { "type": "Point", "coordinates": [ -70.651959, -33.443735 ] } },
{ "type": "Feature", "properties": { "Id": 12, "NOMBRE": "PORTA CAFE" }, "geometry": { "type": "Point", "coordinates": [ -70.653064, -33.442517 ] } },
{ "type": "Feature", "properties": { "Id": 13, "NOMBRE": "GOOD CAFE" }, "geometry": { "type": "Point", "coordinates": [ -70.654053, -33.439179 ] } },
{ "type": "Feature", "properties": { "Id": 14, "NOMBRE": "CASA ZANARTU" }, "geometry": { "type": "Point", "coordinates": [ -70.658297, -33.439345 ] } },
{ "type": "Feature", "properties": { "Id": 15, "NOMBRE": "LA HUERFANA" }, "geometry": { "type": "Point", "coordinates": [ -70.658222, -33.440259 ] } },
{ "type": "Feature", "properties": { "Id": 16, "NOMBRE": "CAFE DOCE95" }, "geometry": { "type": "Point", "coordinates": [ -70.658733, -33.43342 ] } },
{ "type": "Feature", "properties": { "Id": 17, "NOMBRE": "TRAVEL CAFE" }, "geometry": { "type": "Point", "coordinates": [ -70.649399, -33.445032 ] } },
{ "type": "Feature", "properties": { "Id": 18, "NOMBRE": "LYNN CAFE" }, "geometry": { "type": "Point", "coordinates": [ -70.649703, -33.447862 ] } }
]
}
