{"type":"FeatureCollection","name":"ECO_LIN_ESTACIONAMIENTOS_TURISMO","features":[{"type":"Feature","properties":{"Id":0,"Tipologia":"Tipo A"},"geometry":{"type":"LineString","coordinates":[[-70.676812,-33.450575],[-70.676334,-33.45191]]}},{"type":"Feature","properties":{"Id":0,"Tipologia":"Tipo A"},"geometry":{"type":"LineString","coordinates":[[-70.675472,-33.450182],[-70.674369,-33.449871]]}},{"type":"Feature","properties":{"Id":0,"Tipologia":"Tipo A"},"geometry":{"type":"LineString","coordinates":[[-70.674287,-33.449915],[-70.673948,-33.451366]]}},{"type":"Feature","properties":{"Id":0,"Tipologia":"Tipo A"},"geometry":{"type":"LineString","coordinates":[[-70.674158,-33.449874],[-70.673811,-33.451353]]}},{"type":"Feature","properties":{"Id":0,"Tipologia":"Tipo A"},"geometry":{"type":"LineString","coordinates":[[-70.673895,-33.45149],[-70.673655,-33.452475],[-70.673658,-33.452476]]}},{"type":"Feature","properties":{"Id":0,"Tipologia":"Tipo A"},"geometry":{"type":"LineString","coordinates":[[-70.673614,-33.452539],[-70.67337,-33.453501]]}},{"type":"Feature","properties":{"Id":0,"Tipologia":"Tipo A"},"geometry":{"type":"LineString","coordinates":[[-70.673343,-33.453575],[-70.673112,-33.454566],[-70.673112,-33.454571]]}},{"type":"Feature","properties":{"Id":0,"Tipologia":"Tipo A"},"geometry":{"type":"LineString","coordinates":[[-70.673096,-33.454634],[-70.672881,-33.455611]]}},{"type":"Feature","properties":{"Id":0,"Tipologia":"Tipo A"},"geometry":{"type":"LineString","coordinates":[[-70.67441,-33.454869],[-70.673158,-33.454619]]}},{"type":"Feature","properties":{"Id":0,"Tipologia":"Tipo A"},"geometry":{"type":"LineString","coordinates":[[-70.674624,-33.453845],[-70.673406,-33.453585]]}},{"type":"Feature","properties":{"Id":0,"Tipologia":"Tipo A"},"geometry":{"type":"LineString","coordinates":[[-70.674907,-33.452695],[-70.673735,-33.452425]]}},{"type":"Feature","properties":{"Id":0,"Tipologia":"Tipo A"},"geometry":{"type":"LineString","coordinates":[[-70.674853,-33.45281],[-70.67368,-33.45254]]}},{"type":"Feature","properties":{"Id":0,"Tipologia":"Tipo A"},"geometry":{"type":"LineString","coordinates":[[-70.677924,-33.454533],[-70.677209,-33.45438]]}},{"type":"Feature","properties":{"Id":0,"Tipologia":"Tipo A"},"geometry":{"type":"LineString","coordinates":[[-70.6771,-33.454358],[-70.675968,-33.45411]]}},{"type":"Feature","properties":{"Id":0,"Tipologia":"Tipo A"},"geometry":{"type":"LineString","coordinates":[[-70.677456,-33.454496],[-70.677486,-33.45544]]}},{"type":"Feature","properties":{"Id":0,"Tipologia":"Tipo A"},"geometry":{"type":"LineString","coordinates":[[-70.678096,-33.455518],[-70.677532,-33.455488]]}},{"type":"Feature","properties":{"Id":0,"Tipologia":"Tipo A"},"geometry":{"type":"LineString","coordinates":[[-70.677418,-33.455484],[-70.676915,-33.455391]]}},{"type":"Feature","properties":{"Id":0,"Tipologia":"Tipo A"},"geometry":{"type":"LineString","coordinates":[[-70.676841,-33.455379],[-70.675704,-33.455147]]}},{"type":"Feature","properties":{"Id":0,"Tipologia":"Tipo A"},"geometry":{"type":"LineString","coordinates":[[-70.675635,-33.455124],[-70.674498,-33.454901]]}},{"type":"Feature","properties":{"Id":0,"Tipologia":"Tipo A"},"geometry":{"type":"LineString","coordinates":[[-70.676865,-33.455456],[-70.676673,-33.456384]]}},{"type":"Feature","properties":{"Id":0,"Tipologia":"Tipo A"},"geometry":{"type":"LineString","coordinates":[[-70.675382,-33.456187],[-70.674239,-33.45594]]}},{"type":"Feature","properties":{"Id":0,"Tipologia":"Tipo B"},"geometry":{"type":"LineString","coordinates":[[-70.676611,-33.456418],[-70.675468,-33.456205]]}},{"type":"Feature","properties":{"Id":0,"Tipologia":"Tipo B"},"geometry":{"type":"LineString","coordinates":[[-70.674119,-33.455922],[-70.672924,-33.455681]]}},{"type":"Feature","properties":{"Id":0,"Tipologia":"Tipo B"},"geometry":{"type":"LineString","coordinates":[[-70.672409,-33.455561],[-70.672561,-33.449381]]}},{"type":"Feature","properties":{"Id":0,"Tipologia":"Tipo A"},"geometry":{"type":"LineString","coordinates":[[-70.67332,-33.453519],[-70.672518,-33.453341]]}},{"type":"Feature","properties":{"Id":0,"Tipologia":"Tipo A"},"geometry":{"type":"LineString","coordinates":[[-70.673545,-33.452409],[-70.669931,-33.451594]]}},{"type":"Feature","properties":{"Id":0,"Tipologia":"Tipo A"},"geometry":{"type":"LineString","coordinates":[[-70.673512,-33.452481],[-70.669915,-33.451666]]}},{"type":"Feature","properties":{"Id":0,"Tipologia":"Tipo A"},"geometry":{"type":"LineString","coordinates":[[-70.673798,-33.451392],[-70.672587,-33.451105]]}},{"type":"Feature","properties":{"Id":0,"Tipologia":"Tipo A"},"geometry":{"type":"LineString","coordinates":[[-70.672416,-33.451036],[-70.670189,-33.450475]]}},{"type":"Feature","properties":{"Id":0,"Tipologia":"Tipo A"},"geometry":{"type":"LineString","coordinates":[[-70.672435,-33.451104],[-70.670141,-33.450547]]}},{"type":"Feature","properties":{"Id":0,"Tipologia":"Tipo B"},"geometry":{"type":"LineString","coordinates":[[-70.670422,-33.44888],[-70.670071,-33.450426]]}},{"type":"Feature","properties":{"Id":0,"Tipologia":"Barrio Universitario"},"geometry":{"type":"LineString","coordinates":[[-70.669957,-33.450463],[-70.668001,-33.450003]]}},{"type":"Feature","properties":{"Id":0,"Tipologia":"Barrio Universitario"},"geometry":{"type":"LineString","coordinates":[[-70.667881,-33.449954],[-70.664786,-33.449166]]}},{"type":"Feature","properties":{"Id":0,"Tipologia":"Barrio Universitario"},"geometry":{"type":"LineString","coordinates":[[-70.667607,-33.451089],[-70.664748,-33.450311]]}},{"type":"Feature","properties":{"Id":0,"Tipologia":"Barrio Universitario"},"geometry":{"type":"LineString","coordinates":[[-70.664954,-33.451683],[-70.667397,-33.45218]]}},{"type":"Feature","properties":{"Id":0,"Tipologia":"Barrio Universitario"},"geometry":{"type":"LineString","coordinates":[[-70.670051,-33.450624],[-70.669332,-33.453748]]}},{"type":"Feature","properties":{"Id":0,"Tipologia":"Barrio Universitario"},"geometry":{"type":"LineString","coordinates":[[-70.669206,-33.453699],[-70.669949,-33.450564]]}},{"type":"Feature","properties":{"Id":0,"Tipologia":"Barrio Universitario"},"geometry":{"type":"LineString","coordinates":[[-70.66935,-33.452652],[-70.667589,-33.45226]]}},{"type":"Feature","properties":{"Id":0,"Tipologia":"Barrio Universitario"},"geometry":{"type":"LineString","coordinates":[[-70.672344,-33.453319],[-70.669643,-33.452723]]}},{"type":"Feature","properties":{"Id":0,"Tipologia":"Barrio Universitario"},"geometry":{"type":"LineString","coordinates":[[-70.669125,-33.453805],[-70.66735,-33.453414]]}},{"type":"Feature","properties":{"Id":0,"Tipologia":"Barrio Universitario"},"geometry":{"type":"LineString","coordinates":[[-70.66682,-33.455619],[-70.667021,-33.454549]]}},{"type":"Feature","properties":{"Id":0,"Tipologia":"Barrio Universitario"},"geometry":{"type":"LineString","coordinates":[[-70.667281,-33.45341],[-70.66702,-33.454467]]}},{"type":"Feature","properties":{"Id":0,"Tipologia":"Barrio Universitario"},"geometry":{"type":"LineString","coordinates":[[-70.667353,-33.453451],[-70.667137,-33.454456]]}},{"type":"Feature","properties":{"Id":0,"Tipologia":"Barrio Universitario"},"geometry":{"type":"LineString","coordinates":[[-70.667568,-33.452301],[-70.667344,-33.453356]]}},{"type":"Feature","properties":{"Id":0,"Tipologia":"Barrio Universitario"},"geometry":{"type":"LineString","coordinates":[[-70.666562,-33.447904],[-70.666494,-33.449512]]}},{"type":"Feature","properties":{"Id":0,"Tipologia":"Barrio Universitario"},"geometry":{"type":"LineString","coordinates":[[-70.666412,-33.447878],[-70.666366,-33.449471]]}},{"type":"Feature","properties":{"Id":0,"Tipologia":"Barrio Universitario"},"geometry":{"type":"LineString","coordinates":[[-70.665958,-33.447798],[-70.665744,-33.449336]]}},{"type":"Feature","properties":{"Id":0,"Tipologia":"Barrio Universitario"},"geometry":{"type":"LineString","coordinates":[[-70.666375,-33.449623],[-70.666215,-33.45307]]}},{"type":"Feature","properties":{"Id":0,"Tipologia":"Tipo B"},"geometry":{"type":"LineString","coordinates":[[-70.664511,-33.451628],[-70.664439,-33.452665]]}},{"type":"Feature","properties":{"Id":0,"Tipologia":"Barrio Universitario"},"geometry":{"type":"LineString","coordinates":[[-70.659764,-33.450519],[-70.664509,-33.451553]]}},{"type":"Feature","properties":{"Id":0,"Tipologia":"Barrio Universitario"},"geometry":{"type":"LineString","coordinates":[[-70.661895,-33.451052],[-70.661532,-33.453376]]}},{"type":"Feature","properties":{"Id":0,"Tipologia":"Barrio Universitario"},"geometry":{"type":"LineString","coordinates":[[-70.659759,-33.450407],[-70.660061,-33.449406]]}},{"type":"Feature","properties":{"Id":0,"Tipologia":"Tipo B"},"geometry":{"type":"LineString","coordinates":[[-70.664546,-33.450218],[-70.663503,-33.450018]]}},{"type":"Feature","properties":{"Id":0,"Tipologia":"Tipo B"},"geometry":{"type":"LineString","coordinates":[[-70.663325,-33.449971],[-70.662148,-33.449729]]}},{"type":"Feature","properties":{"Id":0,"Tipologia":"Tipo B"},"geometry":{"type":"LineString","coordinates":[[-70.663816,-33.447372],[-70.663672,-33.447875],[-70.663615,-33.448428],[-70.663565,-33.449171],[-70.663485,-33.449981]]}},{"type":"Feature","properties":{"Id":0,"Tipologia":"Tipo B"},"geometry":{"type":"LineString","coordinates":[[-70.663695,-33.447361],[-70.663542,-33.447825],[-70.663486,-33.448564],[-70.66336,-33.449959]]}},{"type":"Feature","properties":{"Id":0,"Tipologia":"Tipo A"},"geometry":{"type":"LineString","coordinates":[[-70.662523,-33.447075],[-70.662289,-33.448456]]}},{"type":"Feature","properties":{"Id":0,"Tipologia":"Tipo A"},"geometry":{"type":"LineString","coordinates":[[-70.662407,-33.447073],[-70.662182,-33.44845]]}},{"type":"Feature","properties":{"Id":0,"Tipologia":"Tipo A"},"geometry":{"type":"LineString","coordinates":[[-70.662193,-33.448604],[-70.661992,-33.44968]]}},{"type":"Feature","properties":{"Id":0,"Tipologia":"Tipo B"},"geometry":{"type":"LineString","coordinates":[[-70.661534,-33.446898],[-70.661021,-33.449464]]}},{"type":"Feature","properties":{"Id":0,"Tipologia":"Barrio Universitario"},"geometry":{"type":"LineString","coordinates":[[-70.66725,-33.453331],[-70.666321,-33.453121]]}},{"type":"Feature","properties":{"Id":0,"Tipologia":"Tipo A"},"geometry":{"type":"LineString","coordinates":[[-70.679266,-33.446349],[-70.67832,-33.446324]]}},{"type":"Feature","properties":{"Id":0,"Tipologia":"Tipo A"},"geometry":{"type":"LineString","coordinates":[[-70.678292,-33.446387],[-70.677971,-33.450325]]}},{"type":"Feature","properties":{"Id":0,"Tipologia":"Tipo A"},"geometry":{"type":"LineString","coordinates":[[-70.679298,-33.446418],[-70.678922,-33.450569]]}},{"type":"Feature","properties":{"Id":0,"Tipologia":"Tipo B"},"geometry":{"type":"LineString","coordinates":[[-70.678026,-33.448275],[-70.676249,-33.448124]]}},{"type":"Feature","properties":{"Id":0,"Tipologia":"Tipo A"},"geometry":{"type":"LineString","coordinates":[[-70.675966,-33.448192],[-70.675632,-33.449697]]}},{"type":"Feature","properties":{"Id":0,"Tipologia":"Tipo A"},"geometry":{"type":"LineString","coordinates":[[-70.679497,-33.444031],[-70.678513,-33.443919]]}},{"type":"Feature","properties":{"Id":0,"Tipologia":"Tipo B"},"geometry":{"type":"LineString","coordinates":[[-70.6784,-33.443894],[-70.677413,-33.443779]]}},{"type":"Feature","properties":{"Id":0,"Tipologia":"Tipo B"},"geometry":{"type":"LineString","coordinates":[[-70.678444,-33.443488],[-70.677491,-33.443372]]}},{"type":"Feature","properties":{"Id":0,"Tipologia":"Tipo A"},"geometry":{"type":"LineString","coordinates":[[-70.678471,-33.443437],[-70.678523,-33.442587]]}},{"type":"Feature","properties":{"Id":0,"Tipologia":"Tipo A"},"geometry":{"type":"LineString","coordinates":[[-70.678544,-33.442468],[-70.678645,-33.441526]]}},{"type":"Feature","properties":{"Id":0,"Tipologia":"Tipo B"},"geometry":{"type":"LineString","coordinates":[[-70.679689,-33.442552],[-70.679762,-33.441582]]}},{"type":"Feature","properties":{"Id":0,"Tipologia":"Tipo A"},"geometry":{"type":"LineString","coordinates":[[-70.680128,-33.435785],[-70.679255,-33.435668]]}},{"type":"Feature","properties":{"Id":0,"Tipologia":"Tipo A"},"geometry":{"type":"LineString","coordinates":[[-70.679079,-33.435653],[-70.67821,-33.435529]]}},{"type":"Feature","properties":{"Id":0,"Tipologia":"Tipo A"},"geometry":{"type":"LineString","coordinates":[[-70.678022,-33.435506],[-70.677128,-33.4354]]}},{"type":"Feature","properties":{"Id":0,"Tipologia":"Tipo A"},"geometry":{"type":"LineString","coordinates":[[-70.677003,-33.43539],[-70.676147,-33.435279]]}},{"type":"Feature","properties":{"Id":0,"Tipologia":"Tipo A"},"geometry":{"type":"LineString","coordinates":[[-70.676005,-33.435271],[-70.674815,-33.435101]]}},{"type":"Feature","properties":{"Id":0,"Tipologia":"Tipo A"},"geometry":{"type":"LineString","coordinates":[[-70.679194,-33.435829],[-70.679072,-33.437266]]}},{"type":"Feature","properties":{"Id":0,"Tipologia":"Tipo B"},"geometry":{"type":"LineString","coordinates":[[-70.679328,-33.434596],[-70.679224,-33.43561]]}},{"type":"Feature","properties":{"Id":0,"Tipologia":"Tipo B"},"geometry":{"type":"LineString","coordinates":[[-70.679226,-33.434594],[-70.679121,-33.435583]]}},{"type":"Feature","properties":{"Id":0,"Tipologia":"Tipo A"},"geometry":{"type":"LineString","coordinates":[[-70.679574,-33.442659],[-70.678647,-33.442604]]}},{"type":"Feature","properties":{"Id":0,"Tipologia":"Tipo B"},"geometry":{"type":"LineString","coordinates":[[-70.665058,-33.440165],[-70.665143,-33.440859]]}},{"type":"Feature","properties":{"Id":0,"Tipologia":"Tipo B"},"geometry":{"type":"LineString","coordinates":[[-70.66658,-33.441214],[-70.665325,-33.441059]]}},{"type":"Feature","properties":{"Id":0,"Tipologia":"Tipo A"},"geometry":{"type":"LineString","coordinates":[[-70.66525,-33.442263],[-70.665179,-33.443281]]}},{"type":"Feature","properties":{"Id":0,"Tipologia":"Tipo B"},"geometry":{"type":"LineString","coordinates":[[-70.66494,-33.442241],[-70.664927,-33.443246]]}},{"type":"Feature","properties":{"Id":0,"Tipologia":"Tipo A"},"geometry":{"type":"LineString","coordinates":[[-70.665589,-33.44495],[-70.66503,-33.444886]]}},{"type":"Feature","properties":{"Id":0,"Tipologia":"Tipo A"},"geometry":{"type":"LineString","coordinates":[[-70.664644,-33.444846],[-70.664016,-33.44479]]}},{"type":"Feature","properties":{"Id":0,"Tipologia":"Tipo A"},"geometry":{"type":"LineString","coordinates":[[-70.663892,-33.44478],[-70.663062,-33.444702]]}},{"type":"Feature","properties":{"Id":0,"Tipologia":"Tipo B"},"geometry":{"type":"LineString","coordinates":[[-70.663995,-33.444829],[-70.663763,-33.446515]]}},{"type":"Feature","properties":{"Id":0,"Tipologia":"Tipo B"},"geometry":{"type":"LineString","coordinates":[[-70.663012,-33.444757],[-70.662665,-33.446272]]}},{"type":"Feature","properties":{"Id":0,"Tipologia":"Tipo B"},"geometry":{"type":"LineString","coordinates":[[-70.661739,-33.444496],[-70.661535,-33.44599]]}},{"type":"Feature","properties":{"Id":0,"Tipologia":"Tipo B"},"geometry":{"type":"LineString","coordinates":[[-70.661909,-33.443071],[-70.661741,-33.444373]]}},{"type":"Feature","properties":{"Id":0,"Tipologia":"Tipo B"},"geometry":{"type":"LineString","coordinates":[[-70.661674,-33.442966],[-70.66084,-33.442887]]}},{"type":"Feature","properties":{"Id":0,"Tipologia":"Tipo B"},"geometry":{"type":"LineString","coordinates":[[-70.659642,-33.44381],[-70.659774,-33.442978]]}},{"type":"Feature","properties":{"Id":0,"Tipologia":"Tipo A"},"geometry":{"type":"LineString","coordinates":[[-70.659059,-33.441659],[-70.658908,-33.442675]]}},{"type":"Feature","properties":{"Id":0,"Tipologia":"Tipo A"},"geometry":{"type":"LineString","coordinates":[[-70.659147,-33.441864],[-70.659013,-33.442656]]}},{"type":"Feature","properties":{"Id":0,"Tipologia":"Motos"},"geometry":{"type":"LineString","coordinates":[[-70.659563,-33.443776],[-70.659709,-33.442894]]}},{"type":"Feature","properties":{"Id":0,"Tipologia":"Tipo A"},"geometry":{"type":"LineString","coordinates":[[-70.656695,-33.440168],[-70.657956,-33.440302]]}},{"type":"Feature","properties":{"Id":0,"Tipologia":"Tipo A"},"geometry":{"type":"LineString","coordinates":[[-70.658061,-33.439243],[-70.657953,-33.440267]]}},{"type":"Feature","properties":{"Id":0,"Tipologia":"Tipo A"},"geometry":{"type":"LineString","coordinates":[[-70.655108,-33.440172],[-70.654904,-33.441109]]}},{"type":"Feature","properties":{"Id":0,"Tipologia":"Tipo A"},"geometry":{"type":"LineString","coordinates":[[-70.653426,-33.440996],[-70.652265,-33.440885]]}},{"type":"Feature","properties":{"Id":0,"Tipologia":"Tipo A"},"geometry":{"type":"LineString","coordinates":[[-70.653211,-33.442133],[-70.652118,-33.442029]]}},{"type":"Feature","properties":{"Id":0,"Tipologia":"Tipo A"},"geometry":{"type":"LineString","coordinates":[[-70.651973,-33.440872],[-70.650963,-33.44076]]}},{"type":"Feature","properties":{"Id":0,"Tipologia":"Tipo A"},"geometry":{"type":"LineString","coordinates":[[-70.651802,-33.442005],[-70.65084,-33.441907],[-70.650831,-33.441911]]}},{"type":"Feature","properties":{"Id":0,"Tipologia":"Tipo A"},"geometry":{"type":"LineString","coordinates":[[-70.650517,-33.441894],[-70.649879,-33.441838]]}},{"type":"Feature","properties":{"Id":0,"Tipologia":"Tipo A"},"geometry":{"type":"LineString","coordinates":[[-70.64973,-33.44182],[-70.649325,-33.441769]]}},{"type":"Feature","properties":{"Id":0,"Tipologia":"Tipo A"},"geometry":{"type":"LineString","coordinates":[[-70.650624,-33.440729],[-70.649484,-33.440625]]}},{"type":"Feature","properties":{"Id":0,"Tipologia":"Tipo A"},"geometry":{"type":"LineString","coordinates":[[-70.649235,-33.440604],[-70.648184,-33.440523]]}},{"type":"Feature","properties":{"Id":0,"Tipologia":"Tipo A"},"geometry":{"type":"LineString","coordinates":[[-70.649905,-33.440775],[-70.649778,-33.441751]]}},{"type":"Feature","properties":{"Id":0,"Tipologia":"Motos"},"geometry":{"type":"LineString","coordinates":[[-70.649581,-33.441227],[-70.649422,-33.441212]]}},{"type":"Feature","properties":{"Id":0,"Tipologia":"Tipo A"},"geometry":{"type":"LineString","coordinates":[[-70.649625,-33.441231],[-70.649798,-33.441249]]}},{"type":"Feature","properties":{"Id":0,"Tipologia":"Tipo A"},"geometry":{"type":"LineString","coordinates":[[-70.652561,-33.437592],[-70.652455,-33.438385]]}},{"type":"Feature","properties":{"Id":0,"Tipologia":"Tipo B"},"geometry":{"type":"LineString","coordinates":[[-70.659112,-33.433323],[-70.66017,-33.433323]]}},{"type":"Feature","properties":{"Id":0,"Tipologia":"Tipo B"},"geometry":{"type":"LineString","coordinates":[[-70.658813,-33.432487],[-70.657733,-33.43256]]}},{"type":"Feature","properties":{"Id":0,"Tipologia":"Tipo B"},"geometry":{"type":"LineString","coordinates":[[-70.658777,-33.432022],[-70.657665,-33.432092]]}},{"type":"Feature","properties":{"Id":0,"Tipologia":"Tipo B"},"geometry":{"type":"LineString","coordinates":[[-70.65577,-33.433288],[-70.654812,-33.433271]]}},{"type":"Feature","properties":{"Id":0,"Tipologia":"Tipo B"},"geometry":{"type":"LineString","coordinates":[[-70.655752,-33.434357],[-70.6549,-33.434327]]}},{"type":"Feature","properties":{"Id":0,"Tipologia":"Tipo A"},"geometry":{"type":"LineString","coordinates":[[-70.659438,-33.44735],[-70.658364,-33.447209]]}},{"type":"Feature","properties":{"Id":0,"Tipologia":"Tipo A"},"geometry":{"type":"LineString","coordinates":[[-70.658072,-33.447173],[-70.657237,-33.447075]]}},{"type":"Feature","properties":{"Id":0,"Tipologia":"Tipo A"},"geometry":{"type":"LineString","coordinates":[[-70.656987,-33.447025],[-70.656019,-33.446914]]}},{"type":"Feature","properties":{"Id":0,"Tipologia":"Tipo B"},"geometry":{"type":"LineString","coordinates":[[-70.659616,-33.447477],[-70.659345,-33.448379]]}},{"type":"Feature","properties":{"Id":0,"Tipologia":"Tipo B"},"geometry":{"type":"LineString","coordinates":[[-70.658434,-33.446193],[-70.65823,-33.447145]]}},{"type":"Feature","properties":{"Id":0,"Tipologia":"Tipo B"},"geometry":{"type":"LineString","coordinates":[[-70.658207,-33.447284],[-70.657995,-33.448257]]}},{"type":"Feature","properties":{"Id":0,"Tipologia":"Tipo B"},"geometry":{"type":"LineString","coordinates":[[-70.657958,-33.448371],[-70.657786,-33.449247]]}},{"type":"Feature","properties":{"Id":0,"Tipologia":"Tipo B"},"geometry":{"type":"LineString","coordinates":[[-70.657607,-33.449297],[-70.656849,-33.449198]]}},{"type":"Feature","properties":{"Id":0,"Tipologia":"Plaza Las Heras"},"geometry":{"type":"LineString","coordinates":[[-70.65736,-33.450717],[-70.656938,-33.452628]]}},{"type":"Feature","properties":{"Id":0,"Tipologia":"Tipo B"},"geometry":{"type":"LineString","coordinates":[[-70.65295,-33.450894],[-70.652579,-33.450841]]}},{"type":"Feature","properties":{"Id":0,"Tipologia":"Tipo B"},"geometry":{"type":"LineString","coordinates":[[-70.651903,-33.45074],[-70.650716,-33.450565]]}},{"type":"Feature","properties":{"Id":0,"Tipologia":"Tipo B"},"geometry":{"type":"LineString","coordinates":[[-70.650457,-33.450541],[-70.649168,-33.450293]]}},{"type":"Feature","properties":{"Id":0,"Tipologia":"Tipo B"},"geometry":{"type":"LineString","coordinates":[[-70.648972,-33.450239],[-70.648398,-33.450158]]}},{"type":"Feature","properties":{"Id":0,"Tipologia":"Tipo B"},"geometry":{"type":"LineString","coordinates":[[-70.649347,-33.449166],[-70.649144,-33.450123]]}},{"type":"Feature","properties":{"Id":0,"Tipologia":"Tipo B"},"geometry":{"type":"LineString","coordinates":[[-70.649452,-33.449062],[-70.650572,-33.449319]]}},{"type":"Feature","properties":{"Id":0,"Tipologia":"Tipo B"},"geometry":{"type":"LineString","coordinates":[[-70.652125,-33.449765],[-70.65202,-33.450588]]}},{"type":"Feature","properties":{"Id":0,"Tipologia":"Tipo A"},"geometry":{"type":"LineString","coordinates":[[-70.650669,-33.449473],[-70.650508,-33.45042]]}},{"type":"Feature","properties":{"Id":0,"Tipologia":"Tipo A"},"geometry":{"type":"LineString","coordinates":[[-70.650961,-33.447534],[-70.650718,-33.449132],[-70.650718,-33.449135]]}},{"type":"Feature","properties":{"Id":0,"Tipologia":"Tipo A"},"geometry":{"type":"LineString","coordinates":[[-70.651137,-33.447341],[-70.651261,-33.446566]]}},{"type":"Feature","properties":{"Id":0,"Tipologia":"Tipo A"},"geometry":{"type":"LineString","coordinates":[[-70.651117,-33.4464],[-70.650991,-33.447328]]}},{"type":"Feature","properties":{"Id":0,"Tipologia":"Tipo A"},"geometry":{"type":"LineString","coordinates":[[-70.649725,-33.447363],[-70.649425,-33.448786]]}},{"type":"Feature","properties":{"Id":0,"Tipologia":"Tipo A"},"geometry":{"type":"LineString","coordinates":[[-70.649958,-33.446271],[-70.649803,-33.446998]]}},{"type":"Feature","properties":{"Id":0,"Tipologia":"Tipo A"},"geometry":{"type":"LineString","coordinates":[[-70.648846,-33.44717],[-70.64853,-33.448695]]}},{"type":"Feature","properties":{"Id":0,"Tipologia":"Tipo B"},"geometry":{"type":"LineString","coordinates":[[-70.652363,-33.453222],[-70.650409,-33.452833]]}},{"type":"Feature","properties":{"Id":0,"Tipologia":"Tipo B"},"geometry":{"type":"LineString","coordinates":[[-70.650068,-33.452679],[-70.648811,-33.452451]]}},{"type":"Feature","properties":{"Id":0,"Tipologia":"Tipo A"},"geometry":{"type":"LineString","coordinates":[[-70.650275,-33.45293],[-70.650099,-33.453988]]}},{"type":"Feature","properties":{"Id":0,"Tipologia":"Tipo A"},"geometry":{"type":"LineString","coordinates":[[-70.65012,-33.452898],[-70.649969,-33.453858]]}},{"type":"Feature","properties":{"Id":0,"Tipologia":"Tipo A"},"geometry":{"type":"LineString","coordinates":[[-70.651321,-33.454438],[-70.650199,-33.454241]]}},{"type":"Feature","properties":{"Id":0,"Tipologia":"Tipo A"},"geometry":{"type":"LineString","coordinates":[[-70.651355,-33.454295],[-70.650182,-33.454091]]}},{"type":"Feature","properties":{"Id":0,"Tipologia":"Tipo A"},"geometry":{"type":"LineString","coordinates":[[-70.649838,-33.454046],[-70.648581,-33.453825]]}},{"type":"Feature","properties":{"Id":0,"Tipologia":"Tipo A"},"geometry":{"type":"LineString","coordinates":[[-70.648803,-33.454081],[-70.64845,-33.45402]]}},{"type":"Feature","properties":{"Id":0,"Tipologia":"Tipo A"},"geometry":{"type":"LineString","coordinates":[[-70.649817,-33.454192],[-70.649043,-33.454066]]}},{"type":"Feature","properties":{"Id":0,"Tipologia":"Tipo A"},"geometry":{"type":"LineString","coordinates":[[-70.648157,-33.45405],[-70.647704,-33.453978]]}},{"type":"Feature","properties":{"Id":0,"Tipologia":"Tipo B"},"geometry":{"type":"LineString","coordinates":[[-70.647878,-33.452438],[-70.647607,-33.453713]]}},{"type":"Feature","properties":{"Id":0,"Tipologia":"Tipo B"},"geometry":{"type":"LineString","coordinates":[[-70.647796,-33.452419],[-70.647539,-33.453711]]}},{"type":"Feature","properties":{"Id":0,"Tipologia":"Tipo B"},"geometry":{"type":"LineString","coordinates":[[-70.649773,-33.456918],[-70.650954,-33.457118]]}},{"type":"Feature","properties":{"Id":0,"Tipologia":"Tipo B"},"geometry":{"type":"LineString","coordinates":[[-70.649827,-33.455847],[-70.649677,-33.456776]]}},{"type":"Feature","properties":{"Id":0,"Tipologia":"Tipo B"},"geometry":{"type":"LineString","coordinates":[[-70.649737,-33.455609],[-70.649539,-33.456802]]}},{"type":"Feature","properties":{"Id":0,"Tipologia":"Tipo B"},"geometry":{"type":"LineString","coordinates":[[-70.649511,-33.457008],[-70.649088,-33.459299]]}},{"type":"Feature","properties":{"Id":0,"Tipologia":"Tipo A"},"geometry":{"type":"LineString","coordinates":[[-70.649626,-33.457057],[-70.649301,-33.459197],[-70.649289,-33.459197]]}},{"type":"Feature","properties":{"Id":0,"Tipologia":"Tipo B"},"geometry":{"type":"LineString","coordinates":[[-70.650586,-33.459603],[-70.649359,-33.459465]]}},{"type":"Feature","properties":{"Id":0,"Tipologia":"Tipo B"},"geometry":{"type":"LineString","coordinates":[[-70.650545,-33.459878],[-70.649264,-33.459726]]}},{"type":"Feature","properties":{"Id":0,"Tipologia":"Tipo B"},"geometry":{"type":"LineString","coordinates":[[-70.647197,-33.459413],[-70.647124,-33.46096]]}},{"type":"Feature","properties":{"Id":0,"Tipologia":"Tipo B"},"geometry":{"type":"LineString","coordinates":[[-70.646971,-33.463506],[-70.645967,-33.463405]]}},{"type":"Feature","properties":{"Id":0,"Tipologia":"Tipo B"},"geometry":{"type":"LineString","coordinates":[[-70.648724,-33.463689],[-70.647205,-33.463527]]}},{"type":"Feature","properties":{"Id":0,"Tipologia":"Tipo B"},"geometry":{"type":"LineString","coordinates":[[-70.649057,-33.463697],[-70.650041,-33.463815]]}},{"type":"Feature","properties":{"Id":0,"Tipologia":"Tipo B"},"geometry":{"type":"LineString","coordinates":[[-70.658128,-33.471674],[-70.657295,-33.471633]]}},{"type":"Feature","properties":{"Id":0,"Tipologia":"Tipo B"},"geometry":{"type":"LineString","coordinates":[[-70.657027,-33.471632],[-70.656633,-33.471617]]}},{"type":"Feature","properties":{"Id":0,"Tipologia":"Tipo B"},"geometry":{"type":"LineString","coordinates":[[-70.656144,-33.472987],[-70.656977,-33.473026]]}},{"type":"Feature","properties":{"Id":0,"Tipologia":"Tipo B"},"geometry":{"type":"LineString","coordinates":[[-70.657141,-33.473027],[-70.658043,-33.473086]]}},{"type":"Feature","properties":{"Id":0,"Tipologia":"Tipo B"},"geometry":{"type":"LineString","coordinates":[[-70.657162,-33.47172],[-70.657098,-33.473004]]}},{"type":"Feature","properties":{"Id":0,"Tipologia":"Tipo B"},"geometry":{"type":"LineString","coordinates":[[-70.658125,-33.473044],[-70.658232,-33.471785]]}},{"type":"Feature","properties":{"Id":0,"Tipologia":"Tipo B"},"geometry":{"type":"LineString","coordinates":[[-70.659188,-33.473173],[-70.658333,-33.473125]]}},{"type":"Feature","properties":{"Id":0,"Tipologia":"Tipo B"},"geometry":{"type":"LineString","coordinates":[[-70.648121,-33.474506],[-70.6467,-33.474438]]}},{"type":"Feature","properties":{"Id":0,"Tipologia":"Tipo B"},"geometry":{"type":"LineString","coordinates":[[-70.64656,-33.47419],[-70.64658,-33.473316]]}},{"type":"Feature","properties":{"Id":0,"Tipologia":"Tipo A"},"geometry":{"type":"LineString","coordinates":[[-70.648457,-33.474241],[-70.648481,-33.473675]]}},{"type":"Feature","properties":{"Id":0,"Tipologia":"Tipo A"},"geometry":{"type":"LineString","coordinates":[[-70.648487,-33.471923],[-70.648418,-33.473098]]}},{"type":"Feature","properties":{"Id":0,"Tipologia":"Tipo A"},"geometry":{"type":"LineString","coordinates":[[-70.648519,-33.471127],[-70.648482,-33.47181]]}},{"type":"Feature","properties":{"Id":0,"Tipologia":"Tipo A"},"geometry":{"type":"LineString","coordinates":[[-70.648226,-33.472155],[-70.646829,-33.472052]]}},{"type":"Feature","properties":{"Id":0,"Tipologia":"Tipo B"},"geometry":{"type":"LineString","coordinates":[[-70.648164,-33.473233],[-70.646761,-33.473165]]}},{"type":"Feature","properties":{"Id":0,"Tipologia":"Tipo A"},"geometry":{"type":"LineString","coordinates":[[-70.64673,-33.472105],[-70.646679,-33.473072]]}},{"type":"Feature","properties":{"Id":0,"Tipologia":"Tipo A"},"geometry":{"type":"LineString","coordinates":[[-70.64651,-33.473213],[-70.643881,-33.473069]]}},{"type":"Feature","properties":{"Id":0,"Tipologia":"Tipo B"},"geometry":{"type":"LineString","coordinates":[[-70.646459,-33.47313],[-70.645283,-33.473074]]}},{"type":"Feature","properties":{"Id":0,"Tipologia":"Tipo A"},"geometry":{"type":"LineString","coordinates":[[-70.645302,-33.47198],[-70.645262,-33.47304]]}},{"type":"Feature","properties":{"Id":0,"Tipologia":"Tipo B"},"geometry":{"type":"LineString","coordinates":[[-70.646537,-33.472029],[-70.645365,-33.471939]]}},{"type":"Feature","properties":{"Id":0,"Tipologia":"Bio Bio SD"},"geometry":{"type":"LineString","coordinates":[[-70.646545,-33.471975],[-70.645366,-33.471886]]}},{"type":"Feature","properties":{"Id":0,"Tipologia":"Tipo A"},"geometry":{"type":"LineString","coordinates":[[-70.643661,-33.472979],[-70.642229,-33.472902]]}},{"type":"Feature","properties":{"Id":0,"Tipologia":"Tipo A"},"geometry":{"type":"LineString","coordinates":[[-70.64633,-33.474364],[-70.646027,-33.474576],[-70.645908,-33.474603],[-70.645198,-33.474563]]}},{"type":"Feature","properties":{"Id":0,"Tipologia":"Tipo B"},"geometry":{"type":"LineString","coordinates":[[-70.644869,-33.474543],[-70.644273,-33.474518]]}},{"type":"Feature","properties":{"Id":0,"Tipologia":"Bio Bio SD"},"geometry":{"type":"LineString","coordinates":[[-70.64185,-33.475263],[-70.640663,-33.475189]]}},{"type":"Feature","properties":{"Id":0,"Tipologia":"Bio Bio SD"},"geometry":{"type":"LineString","coordinates":[[-70.643515,-33.476254],[-70.642141,-33.476198]]}},{"type":"Feature","properties":{"Id":0,"Tipologia":"Bio Bio SD"},"geometry":{"type":"LineString","coordinates":[[-70.643492,-33.476314],[-70.64212,-33.476258]]}},{"type":"Feature","properties":{"Id":0,"Tipologia":"Bio Bio SD"},"geometry":{"type":"LineString","coordinates":[[-70.646368,-33.476398],[-70.643726,-33.476257]]}},{"type":"Feature","properties":{"Id":0,"Tipologia":"Bio Bio SD"},"geometry":{"type":"LineString","coordinates":[[-70.646313,-33.476452],[-70.643723,-33.476329]]}},{"type":"Feature","properties":{"Id":0,"Tipologia":"Bio Bio SD"},"geometry":{"type":"LineString","coordinates":[[-70.641843,-33.473888],[-70.640855,-33.473809]]}},{"type":"Feature","properties":{"Id":0,"Tipologia":"Bio Bio SD"},"geometry":{"type":"LineString","coordinates":[[-70.640489,-33.473777],[-70.639408,-33.473683]]}},{"type":"Feature","properties":{"Id":0,"Tipologia":"Bio Bio SD"},"geometry":{"type":"LineString","coordinates":[[-70.640519,-33.473679],[-70.640053,-33.473653]]}},{"type":"Feature","properties":{"Id":0,"Tipologia":"Bio Bio SD"},"geometry":{"type":"LineString","coordinates":[[-70.63986,-33.473623],[-70.639308,-33.473577]]}},{"type":"Feature","properties":{"Id":0,"Tipologia":"Bio Bio SD"},"geometry":{"type":"LineString","coordinates":[[-70.638259,-33.473558],[-70.63724,-33.473477]]}},{"type":"Feature","properties":{"Id":0,"Tipologia":"Bio Bio SD"},"geometry":{"type":"LineString","coordinates":[[-70.63841,-33.472619],[-70.637427,-33.472552]]}},{"type":"Feature","properties":{"Id":0,"Tipologia":"Bio Bio SD"},"geometry":{"type":"LineString","coordinates":[[-70.638566,-33.47159],[-70.638463,-33.472585]]}},{"type":"Feature","properties":{"Id":0,"Tipologia":"Bio Bio SD"},"geometry":{"type":"LineString","coordinates":[[-70.640642,-33.472787],[-70.640106,-33.472742]]}},{"type":"Feature","properties":{"Id":0,"Tipologia":"Bio Bio SD"},"geometry":{"type":"LineString","coordinates":[[-70.639947,-33.472737],[-70.639402,-33.472696]]}},{"type":"Feature","properties":{"Id":0,"Tipologia":"Bio Bio SD"},"geometry":{"type":"LineString","coordinates":[[-70.640161,-33.471629],[-70.640067,-33.472685]]}},{"type":"Feature","properties":{"Id":0,"Tipologia":"Bio Bio SD"},"geometry":{"type":"LineString","coordinates":[[-70.639444,-33.471592],[-70.639328,-33.472667]]}},{"type":"Feature","properties":{"Id":0,"Tipologia":"Bio Bio SD"},"geometry":{"type":"LineString","coordinates":[[-70.639359,-33.4716],[-70.639253,-33.472651]]}},{"type":"Feature","properties":{"Id":0,"Tipologia":"Bio Bio SD"},"geometry":{"type":"LineString","coordinates":[[-70.639128,-33.473649],[-70.638466,-33.473591]]}},{"type":"Feature","properties":{"Id":0,"Tipologia":"Bio Bio SD"},"geometry":{"type":"LineString","coordinates":[[-70.639238,-33.473748],[-70.639097,-33.475015]]}},{"type":"Feature","properties":{"Id":0,"Tipologia":"Bio BIO SD"},"geometry":{"type":"LineString","coordinates":[[-70.639147,-33.47374],[-70.639017,-33.475016]]}},{"type":"Feature","properties":{"Id":0,"Tipologia":"Tipo A"},"geometry":{"type":"LineString","coordinates":[[-70.64642,-33.453677],[-70.645349,-33.453487]]}},{"type":"Feature","properties":{"Id":0,"Tipologia":"Tipo A"},"geometry":{"type":"LineString","coordinates":[[-70.645177,-33.453453],[-70.644059,-33.453254]]}},{"type":"Feature","properties":{"Id":0,"Tipologia":"Tipo A"},"geometry":{"type":"LineString","coordinates":[[-70.643918,-33.45323],[-70.642427,-33.45296]]}},{"type":"Feature","properties":{"Id":0,"Tipologia":"Tipo A"},"geometry":{"type":"LineString","coordinates":[[-70.642277,-33.45293],[-70.640885,-33.45268]]}},{"type":"Feature","properties":{"Id":0,"Tipologia":"Tipo A"},"geometry":{"type":"LineString","coordinates":[[-70.643068,-33.453255],[-70.642894,-33.454128]]}},{"type":"Feature","properties":{"Id":0,"Tipologia":"Tipo A"},"geometry":{"type":"LineString","coordinates":[[-70.643006,-33.453258],[-70.64282,-33.454127]]}},{"type":"Feature","properties":{"Id":0,"Tipologia":"Tipo A"},"geometry":{"type":"LineString","coordinates":[[-70.640626,-33.452647],[-70.639425,-33.452405]]}},{"type":"Feature","properties":{"Id":0,"Tipologia":"Tipo A"},"geometry":{"type":"LineString","coordinates":[[-70.639245,-33.452364],[-70.638637,-33.452243]]}},{"type":"Feature","properties":{"Id":0,"Tipologia":"Tipo A"},"geometry":{"type":"LineString","coordinates":[[-70.64,-33.450641],[-70.639413,-33.452349]]}},{"type":"Feature","properties":{"Id":0,"Tipologia":"Tipo A"},"geometry":{"type":"LineString","coordinates":[[-70.63991,-33.450603],[-70.639319,-33.452325]]}},{"type":"Feature","properties":{"Id":0,"Tipologia":"Tipo A"},"geometry":{"type":"LineString","coordinates":[[-70.636792,-33.451976],[-70.635857,-33.45181]]}},{"type":"Feature","properties":{"Id":0,"Tipologia":"Tipo A"},"geometry":{"type":"LineString","coordinates":[[-70.637561,-33.452002],[-70.635948,-33.451737]]}},{"type":"Feature","properties":{"Id":0,"Tipologia":"Tipo A"},"geometry":{"type":"LineString","coordinates":[[-70.63571,-33.451791],[-70.635513,-33.451765]]}},{"type":"Feature","properties":{"Id":0,"Tipologia":"Tipo A"},"geometry":{"type":"LineString","coordinates":[[-70.635394,-33.451767],[-70.634538,-33.451657]]}},{"type":"Feature","properties":{"Id":0,"Tipologia":"Tipo A"},"geometry":{"type":"LineString","coordinates":[[-70.634261,-33.451725],[-70.633548,-33.451709]]}},{"type":"Feature","properties":{"Id":0,"Tipologia":"Tipo A"},"geometry":{"type":"LineString","coordinates":[[-70.633102,-33.451726],[-70.632551,-33.451726]]}},{"type":"Feature","properties":{"Id":0,"Tipologia":"Tipo A"},"geometry":{"type":"LineString","coordinates":[[-70.632257,-33.451762],[-70.631734,-33.451873]]}},{"type":"Feature","properties":{"Id":0,"Tipologia":"Tipo B"},"geometry":{"type":"LineString","coordinates":[[-70.633215,-33.451877],[-70.633101,-33.452299]]}},{"type":"Feature","properties":{"Id":0,"Tipologia":"Tipo A"},"geometry":{"type":"LineString","coordinates":[[-70.631537,-33.451923],[-70.631134,-33.452002]]}},{"type":"Feature","properties":{"Id":0,"Tipologia":"Tipo B"},"geometry":{"type":"LineString","coordinates":[[-70.636334,-33.445129],[-70.635598,-33.444877]]}},{"type":"Feature","properties":{"Id":0,"Tipologia":"Tipo B"},"geometry":{"type":"LineString","coordinates":[[-70.635396,-33.444894],[-70.635035,-33.445811]]}},{"type":"Feature","properties":{"Id":0,"Tipologia":"Tipo A"},"geometry":{"type":"LineString","coordinates":[[-70.640213,-33.445173],[-70.637299,-33.444577]]}},{"type":"Feature","properties":{"Id":0,"Tipologia":"Tipo A"},"geometry":{"type":"LineString","coordinates":[[-70.640192,-33.445273],[-70.636987,-33.444624]]}},{"type":"Feature","properties":{"Id":0,"Tipologia":"Tipo A"},"geometry":{"type":"LineString","coordinates":[[-70.644466,-33.443709],[-70.643436,-33.443457]]}},{"type":"Feature","properties":{"Id":0,"Tipologia":"Tipo A"},"geometry":{"type":"LineString","coordinates":[[-70.643007,-33.443423],[-70.641969,-33.443159]]}},{"type":"Feature","properties":{"Id":0,"Tipologia":"Tipo A"},"geometry":{"type":"LineString","coordinates":[[-70.638428,-33.440542],[-70.638241,-33.441355]]}},{"type":"Feature","properties":{"Id":0,"Tipologia":"Tipo A"},"geometry":{"type":"LineString","coordinates":[[-70.638287,-33.440803],[-70.638171,-33.441297]]}},{"type":"Feature","properties":{"Id":0,"Tipologia":"Tipo B"},"geometry":{"type":"LineString","coordinates":[[-70.638278,-33.439854],[-70.639657,-33.440749]]}},{"type":"Feature","properties":{"Id":0,"Tipologia":"Tipo A"},"geometry":{"type":"LineString","coordinates":[[-70.640055,-33.44006],[-70.639637,-33.439775]]}},{"type":"Feature","properties":{"Id":0,"Tipologia":"Tipo A"},"geometry":{"type":"LineString","coordinates":[[-70.657522,-33.432605],[-70.657493,-33.433171]]}},{"type":"Feature","properties":{"Id":0,"Tipologia":"Tipo A"},"geometry":{"type":"LineString","coordinates":[[-70.657456,-33.432046],[-70.65742,-33.433113]]}},{"type":"Feature","properties":{"Id":0,"Tipologia":"Tipo A"},"geometry":{"type":"LineString","coordinates":[[-70.657521,-33.432143],[-70.657512,-33.432507]]}},{"type":"Feature","properties":{"Id":0,"Tipologia":"Tipo A"},"geometry":{"type":"LineString","coordinates":[[-70.657295,-33.445935],[-70.657145,-33.447023]]}},{"type":"Feature","properties":{"Id":0,"Tipologia":"Bio Bio SD"},"geometry":{"type":"LineString","coordinates":[[-70.648083,-33.476454],[-70.646527,-33.476421]]}},{"type":"Feature","properties":{"Id":0,"Tipologia":"Bio Bio SD"},"geometry":{"type":"LineString","coordinates":[[-70.648056,-33.476529],[-70.646503,-33.476487]]}},{"type":"Feature","properties":{"Id":0,"Tipologia":"Tipo A"},"geometry":{"type":"LineString","coordinates":[[-70.6771,-33.454414],[-70.676867,-33.455348]]}},{"type":"Feature","properties":{"Id":0,"Tipologia":"Tipo A"},"geometry":{"type":"LineString","coordinates":[[-70.633352,-33.451538],[-70.632665,-33.451553],[-70.632506,-33.451573],[-70.632062,-33.45166],[-70.631531,-33.451765],[-70.631215,-33.451811]]}},{"type":"Feature","properties":{"Id":0,"Tipologia":"Tipo A"},"geometry":{"type":"LineString","coordinates":[[-70.655892,-33.446899],[-70.655347,-33.446833]]}},{"type":"Feature","properties":{"Id":0,"Tipologia":"Tipo B"},"geometry":{"type":"LineString","coordinates":[[-70.634355,-33.451844],[-70.634171,-33.452597]]}},{"type":"Feature","properties":{"Id":0,"Tipologia":"Tipo B"},"geometry":{"type":"LineString","coordinates":[[-70.655964,-33.472457],[-70.655938,-33.472914]]}}]}