{
"type": "FeatureCollection",
"name": "ECO_LIN_RUTAS_OFTURISMO",
"features": [
{ "type": "Feature", "properties": { "Id": 0, "NOMBRE": "SANTIAGO PASO A PASO", "RUTA_ID": "RUTA_SANTIAGO_PASO_A_PASO", "RUTA_NOM": "Santiago Paso a Paso", "GRUPO_RUTA": "OFTURISMO", "PARTE_RUTA": "TRAZADO" }, "geometry": { "type": "LineString", "coordinates": [ [ -70.654009, -33.44162 ], [ -70.654086, -33.441136 ], [ -70.652118, -33.440929 ], [ -70.65248, -33.438613 ], [ -70.651014, -33.438465 ], [ -70.651169, -33.437426 ], [ -70.650034, -33.437302 ] ] } },
{ "type": "Feature", "properties": { "Id": 0, "NOMBRE": "PASEOS Y GALERIAS", "RUTA_ID": "RUTA_PASEOS_Y_GALERIAS", "RUTA_NOM": "Paseos y Galerías", "GRUPO_RUTA": "OFTURISMO", "PARTE_RUTA": "TRAZADO" }, "geometry": { "type": "LineString", "coordinates": [ [ -70.650035, -33.437377 ], [ -70.649885, -33.437367 ], [ -70.649755, -33.438377 ], [ -70.650319, -33.438465 ], [ -70.650282, -33.438794 ], [ -70.652349, -33.438951 ], [ -70.652211, -33.439833 ], [ -70.651783, -33.439793 ], [ -70.651634, -33.44086 ], [ -70.651109, -33.44081 ], [ -70.651248, -33.439723 ], [ -70.64952, -33.439552 ], [ -70.649701, -33.438426 ], [ -70.649594, -33.438309 ], [ -70.648914, -33.438273 ] ] } },
{ "type": "Feature", "properties": { "Id": 0, "NOMBRE": "RUTAS DE LAS IGLESIAS", "RUTA_ID": "RUTA_IGLESIAS", "RUTA_NOM": "Ruta de las Iglesias", "GRUPO_RUTA": "OFTURISMO", "PARTE_RUTA": "TRAZADO" }, "geometry": { "type": "LineString", "coordinates": [ [ -70.650626, -33.437315 ], [ -70.651221, -33.43739 ], [ -70.651074, -33.438443 ], [ -70.649709, -33.438309 ], [ -70.647078, -33.438101 ], [ -70.646902, -33.439149 ], [ -70.649435, -33.439426 ], [ -70.648944, -33.443157 ], [ -70.648813, -33.44373 ], [ -70.647891, -33.44354 ], [ -70.647888, -33.443543 ] ] } },
{ "type": "Feature", "properties": { "Id": 0, "NOMBRE": "SANTIAGO POPULAR", "RUTA_ID": "RUTA_SANTIAGO_POPULAR", "RUTA_NOM": "Santiago Popular", "GRUPO_RUTA": "OFTURISMO", "PARTE_RUTA": "TRAZADO" }, "geometry": { "type": "LineString", "coordinates": [ [ -70.650525, -33.43731 ], [ -70.649888, -33.437248 ], [ -70.650327, -33.434244 ], [ -70.651039, -33.434259 ], [ -70.651057, -33.433436 ], [ -70.652293, -33.4335 ], [ -70.652077, -33.433243 ], [ -70.653424, -33.433012 ], [ -70.653432, -33.432998 ] ] } },
{ "type": "Feature", "properties": { "Id": 0, "NOMBRE": "BARRIO  LASTARRIA", "RUTA_ID": "RUTA_BARRIO_LASTARRIA", "RUTA_NOM": "Barrio Lastarria", "GRUPO_RUTA": "OFTURISMO", "PARTE_RUTA": "TRAZADO" }, "geometry": { "type": "LineString", "coordinates": [ [ -70.639589, -33.439324 ], [ -70.640388, -33.439742 ], [ -70.640615, -33.439423 ], [ -70.641167, -33.439386 ], [ -70.641137, -33.437752 ], [ -70.641058, -33.437523 ], [ -70.64094, -33.437522 ], [ -70.641036, -33.438193 ], [ -70.639289, -33.438202 ], [ -70.639015, -33.437746 ], [ -70.639005, -33.436959 ], [ -70.639347, -33.436959 ], [ -70.639616, -33.436731 ], [ -70.6413, -33.436389 ], [ -70.641147, -33.435802 ], [ -70.643578, -33.435299 ], [ -70.643563, -33.435304 ] ] } },
{ "type": "Feature", "properties": { "Id": 0, "NOMBRE": "ALAMEDA LAS DELICIAS", "RUTA_ID": "RUTA_ALAMEDA_LAS_DELICIAS", "RUTA_NOM": "Alameda las Delicias", "GRUPO_RUTA": "OFTURISMO", "PARTE_RUTA": "TRAZADO" }, "geometry": { "type": "LineString", "coordinates": [ [ -70.644627, -33.442014 ], [ -70.645074, -33.442297 ], [ -70.647617, -33.442851 ], [ -70.647528, -33.443494 ], [ -70.648046, -33.443623 ], [ -70.648009, -33.44403 ], [ -70.648356, -33.444375 ], [ -70.648474, -33.444625 ], [ -70.649407, -33.444747 ], [ -70.649518, -33.443914 ], [ -70.650375, -33.444165 ], [ -70.650658, -33.444245 ], [ -70.650823, -33.443577 ], [ -70.651042, -33.44362 ], [ -70.65116, -33.442765 ] ] } },
{ "type": "Feature", "properties": { "Id": 0, "NOMBRE": "CERRO SANTA LUCIA", "RUTA_ID": "RUTA_CERRO_SANTA_LUCIA", "RUTA_NOM": "Cerro Santa Lucía", "GRUPO_RUTA": "OFTURISMO", "PARTE_RUTA": "TRAZADO" }, "geometry": { "type": "LineString", "coordinates": [ [ -70.643994, -33.441846 ], [ -70.643905, -33.44152 ], [ -70.644143, -33.441431 ], [ -70.643893, -33.441186 ], [ -70.64397, -33.440722 ], [ -70.643576, -33.440365 ], [ -70.643577, -33.440151 ], [ -70.643324, -33.440143 ], [ -70.643452, -33.439927 ] ] } },
{ "type": "Feature", "properties": { "Id": 0, "NOMBRE": "BARRIO YUNGAY", "RUTA_ID": "RUTA_BARRIO_YUNGAY", "RUTA_NOM": "Barrio Yungay", "GRUPO_RUTA": "OFTURISMO", "PARTE_RUTA": "TRAZADO" }, "geometry": { "type": "LineString", "coordinates": [ [ -70.681695, -33.440435 ], [ -70.678772, -33.44021 ], [ -70.678659, -33.441453 ], [ -70.677162, -33.441286 ], [ -70.677047, -33.442422 ], [ -70.675462, -33.442325 ], [ -70.675574, -33.44111 ], [ -70.674151, -33.440937 ], [ -70.674416, -33.438046 ], [ -70.674068, -33.437508 ] ] } }
]
}
