{"type":"FeatureCollection","name":"ECO_PTO_PROPIEDADES_CONCESION_COMERCIAL_2025","features":[{"type":"Feature","properties":{"Join_Count":1,"TARGET_FID":13,"Join_Cou_1":1,"TARGET_F_1":13,"Join_Cou_2":1,"TARGET_F_2":13,"N_":0.0,"DIRECCIÓN":"AGUSTINAS (FTE.AL N°735)","TIPO_TERRE":"PREDIO NO EDIFICADO","TIPO_DE_IN":"AREA VERDE","INSCRIP_CO":"FS. 14.199 N°17.092 AÑO 1974","ROL_S_I_I_":"99-765 S.C.","ROL":"99-765","MANZANA_SI":99.0,"PREDIO_SII":765.0,"PREDIO2":0.0,"PREDIO3":null,"PREDIO4":null,"ORIGEN_O_D":"PROPIEDAD DOMINIO MUNICIPAL","UNIDAD_CAR":"RENTAS Y FINANZAS","NOMBRE_DES":"PLAZOLETA PATRICIO MEKIS","USUARIO_AC":"PLAZOLETA","CLASIFICAC":"CONCESIÓN COMERCIAL","COORD_X":-70.647377,"COORD_Y":-33.440359,"OBSERVACIO":null,"OBJECTID_1":13,"UNIDAD":2.0,"BARRIO":"CENTRO HISTORICO","AGRP":"AV1","SUP_KM":1.204548,"Shape_Leng":4579.43132775,"RSH_Total":18044.0,"OBJECTID_2":54,"OBJECTID_3":183945,"COMUNA":"SANTIAGO","DISTRITO":"MONEDA","ID_MANZANA":183945,"ID_MZTXT":"183945","Shape_Le_1":467.555607976,"X":346870.7,"Y":6298688.01,"FID_Manzan":471,"COMUNA_1":"SANTIAGO","TIPO_MZ":"URBANO","cod_mzn":13101021005010,"Descripcio":"Con Informacion Censada","n_per":355.0,"n_hombres":180.0,"n_mujeres":175.0,"n_edad_0_5":14.0,"n_edad_6_1":18.0,"n_edad_14_":11.0,"n_edad_18_":33.0,"n_edad_25_":157.0,"n_edad_45_":74.0,"n_edad_60_":48.0,"prom_edad":38.1,"n_inmigran":187.0,"n_nacional":184.0,"n_pueblos_":31.0,"n_afrodesc":7.0,"n_lengua_i":11.0,"n_religion":219.0,"n_dificult":8.0,"n_dificu_1":6.0,"n_dificu_2":10.0,"n_dificu_3":5.0,"n_dificu_4":1.0,"n_dificu_5":1.0,"n_discapac":23.0,"n_estcivco":43.0,"n_estciv_1":82.0,"n_estciv_2":2.0,"n_estciv_3":33.0,"n_estciv_4":6.0,"n_estciv_5":153.0,"prom_escol":13.6,"n_asistenc":4.0,"n_asiste_1":17.0,"n_asiste_2":8.0,"n_asiste_3":7.0,"n_cine_nun":13.0,"n_cine_pri":64.0,"n_cine_sec":160.0,"n_cine_ter":116.0,"n_cine_esp":1.0,"n_analfabe":0.0,"n_ocupado":259.0,"n_desocupa":9.0,"n_fuera_fu":51.0,"n_cise_rec":81.0,"n_cise_r_1":178.0,"n_cise_r_2":0.0,"n_ciuo_1":6.0,"n_ciuo_2":36.0,"n_ciuo_3":25.0,"n_ciuo_4":24.0,"n_ciuo_5":88.0,"n_ciuo_6":0.0,"n_ciuo_7":19.0,"n_ciuo_8":9.0,"n_ciuo_9":41.0,"n_ciuo_0":1.0,"n_caenes_A":0.0,"n_caenes_B":4.0,"n_caenes_C":11.0,"n_caenes_D":1.0,"n_caenes_E":0.0,"n_caenes_F":8.0,"n_caenes_G":49.0,"n_caenes_H":8.0,"n_caenes_I":24.0,"n_caenes_J":5.0,"n_caenes_K":6.0,"n_caenes_L":6.0,"n_caenes_M":19.0,"n_caenes_N":26.0,"n_caenes_O":9.0,"n_caenes_P":10.0,"n_caenes_Q":22.0,"n_caenes_R":9.0,"n_caenes_S":20.0,"n_caenes_T":15.0,"n_caenes_U":0.0,"n_transpor":11.0,"n_transp_1":134.0,"n_transp_2":62.0,"n_transp_3":12.0,"n_transp_4":2.0,"n_transp_5":0.0,"n_transp_6":2.0,"n_hog":201.0,"prom_per_h":1.8,"n_hog_unip":108.0,"n_hog_60":32.0,"n_hog_meno":27.0,"n_jefatura":98.0,"n_tenencia":17.0,"n_tenenc_1":3.0,"n_tenenc_2":155.0,"n_tenenc_3":21.0,"n_tenenc_4":0.0,"n_tenenc_5":5.0,"n_tenenc_6":0.0,"n_comb_coc":141.0,"n_comb_c_1":0.0,"n_comb_c_2":0.0,"n_comb_c_3":0.0,"n_comb_c_4":0.0,"n_comb_c_5":56.0,"n_comb_c_6":0.0,"n_comb_c_7":4.0,"n_comb_cal":34.0,"n_comb_c_8":3.0,"n_comb_c_9":0.0,"n_comb__10":0.0,"n_comb__11":0.0,"n_comb__12":105.0,"n_comb__13":1.0,"n_comb__14":58.0,"n_serv_tel":198.0,"n_serv_com":95.0,"n_serv_tab":36.0,"n_serv_int":80.0,"n_serv_i_1":194.0,"n_serv_i_2":2.0,"n_internet":195.0,"n_vp":281.0,"n_vp_ocupa":216.0,"n_vp_desoc":65.0,"n_tipo_viv":1.0,"n_tipo_v_1":280.0,"n_tipo_v_2":0.0,"n_tipo_v_3":0.0,"n_tipo_v_4":0.0,"n_tipo_v_5":0.0,"n_tipo_v_6":0.0,"n_dormitor":151.0,"n_dormit_1":23.0,"n_dormit_2":4.0,"n_dormit_3":1.0,"n_dormit_4":0.0,"n_dormit_5":0.0,"n_viv_haci":30.0,"n_viv_irre":0.0,"n_hog_alle":2.0,"n_nucleos_":6.0,"n_viv_no_a":24.0,"n_deficit_":32.0,"n_mat_pare":181.0,"n_mat_pa_1":18.0,"n_mat_pa_2":0.0,"n_mat_pa_3":0.0,"n_mat_pa_4":0.0,"n_mat_pa_5":0.0,"n_mat_tech":11.0,"n_mat_te_1":180.0,"n_mat_te_2":6.0,"n_mat_te_3":2.0,"n_mat_te_4":0.0,"n_mat_te_5":0.0,"n_mat_te_6":0.0,"n_mat_te_7":0.0,"n_mat_piso":199.0,"n_mat_pi_1":0.0,"n_mat_pi_2":0.0,"n_mat_pi_3":0.0,"n_mat_pi_4":0.0,"n_fuente_a":199.0,"n_fuente_1":0.0,"n_fuente_2":0.0,"n_fuente_3":0.0,"n_distrib_":198.0,"n_distrib1":1.0,"n_distri_1":0.0,"n_serv_hig":198.0,"n_serv_h_1":1.0,"n_serv_h_2":0.0,"n_serv_h_3":0.0,"n_serv_h_4":0.0,"n_serv_h_5":0.0,"n_serv_h_6":0.0,"n_serv_h_7":0.0,"n_serv_h_8":0.0,"n_fuente_e":199.0,"n_fuente_4":0.0,"n_fuente_5":0.0,"n_fuente_6":0.0,"n_fuente_7":0.0,"n_fuente_8":0.0,"n_basura_s":199.0,"n_basura_e":0.0,"n_basura_1":0.0,"n_basura_r":0.0,"n_basura_o":0.0,"DENS_HA_VI":197.37231737,"DENS_HA_HA":249.34936892,"AREA_HA":1.42370522748,"DENS_KM_VI":19737.231737,"DENS_KM_HA":24934.936892,"AREA_KM2":14233.9071717},"geometry":{"type":"Point","coordinates":[-70.647363,-33.440285]}},{"type":"Feature","properties":{"Join_Count":1,"TARGET_FID":26,"Join_Cou_1":1,"TARGET_F_1":26,"Join_Cou_2":1,"TARGET_F_2":26,"N_":0.0,"DIRECCIÓN":"AV, CARDENAL J.M. CARO Nº390","TIPO_TERRE":"PREDIO EDIFICADO","TIPO_DE_IN":"EDIFICACIÓN","INSCRIP_CO":"SIN REGISTRO","ROL_S_I_I_":"198-1 S.C.","ROL":"198-1","MANZANA_SI":198.0,"PREDIO_SII":1.0,"PREDIO2":0.0,"PREDIO3":null,"PREDIO4":null,"ORIGEN_O_D":"PROPIEDAD DOMINIO MUNICIPAL","UNIDAD_CAR":"DIRECCIÓN DE RENTAS Y FINANZAS","NOMBRE_DES":"CASTILLITO","USUARIO_AC":"CONSORCIO CASTILLITO PARQUE FORESTAL","CLASIFICAC":"CONCESIÓN COMERCIAL","COORD_X":-70.642624,"COORD_Y":-33.435181,"OBSERVACIO":null,"OBJECTID_1":26,"UNIDAD":1.0,"BARRIO":"SANTA LUCIA FORESTAL","AGRP":"AV1","SUP_KM":0.737406,"Shape_Leng":3888.47853075,"RSH_Total":6542.0,"OBJECTID_2":151,"OBJECTID_3":184082,"COMUNA":"SANTIAGO","DISTRITO":"HUELÉN","ID_MANZANA":184082,"ID_MZTXT":"184082","Shape_Le_1":984.593783286,"X":347303.48,"Y":6299269.17,"FID_Manzan":12,"COMUNA_1":"SANTIAGO","TIPO_MZ":"URBANO","cod_mzn":13101011001006,"Descripcio":"Manzana sin información","n_per":0.0,"n_hombres":0.0,"n_mujeres":0.0,"n_edad_0_5":0.0,"n_edad_6_1":0.0,"n_edad_14_":0.0,"n_edad_18_":0.0,"n_edad_25_":0.0,"n_edad_45_":0.0,"n_edad_60_":0.0,"prom_edad":0.0,"n_inmigran":0.0,"n_nacional":0.0,"n_pueblos_":0.0,"n_afrodesc":0.0,"n_lengua_i":0.0,"n_religion":0.0,"n_dificult":0.0,"n_dificu_1":0.0,"n_dificu_2":0.0,"n_dificu_3":0.0,"n_dificu_4":0.0,"n_dificu_5":0.0,"n_discapac":0.0,"n_estcivco":0.0,"n_estciv_1":0.0,"n_estciv_2":0.0,"n_estciv_3":0.0,"n_estciv_4":0.0,"n_estciv_5":0.0,"prom_escol":0.0,"n_asistenc":0.0,"n_asiste_1":0.0,"n_asiste_2":0.0,"n_asiste_3":0.0,"n_cine_nun":0.0,"n_cine_pri":0.0,"n_cine_sec":0.0,"n_cine_ter":0.0,"n_cine_esp":0.0,"n_analfabe":0.0,"n_ocupado":0.0,"n_desocupa":0.0,"n_fuera_fu":0.0,"n_cise_rec":0.0,"n_cise_r_1":0.0,"n_cise_r_2":0.0,"n_ciuo_1":0.0,"n_ciuo_2":0.0,"n_ciuo_3":0.0,"n_ciuo_4":0.0,"n_ciuo_5":0.0,"n_ciuo_6":0.0,"n_ciuo_7":0.0,"n_ciuo_8":0.0,"n_ciuo_9":0.0,"n_ciuo_0":0.0,"n_caenes_A":0.0,"n_caenes_B":0.0,"n_caenes_C":0.0,"n_caenes_D":0.0,"n_caenes_E":0.0,"n_caenes_F":0.0,"n_caenes_G":0.0,"n_caenes_H":0.0,"n_caenes_I":0.0,"n_caenes_J":0.0,"n_caenes_K":0.0,"n_caenes_L":0.0,"n_caenes_M":0.0,"n_caenes_N":0.0,"n_caenes_O":0.0,"n_caenes_P":0.0,"n_caenes_Q":0.0,"n_caenes_R":0.0,"n_caenes_S":0.0,"n_caenes_T":0.0,"n_caenes_U":0.0,"n_transpor":0.0,"n_transp_1":0.0,"n_transp_2":0.0,"n_transp_3":0.0,"n_transp_4":0.0,"n_transp_5":0.0,"n_transp_6":0.0,"n_hog":0.0,"prom_per_h":0.0,"n_hog_unip":0.0,"n_hog_60":0.0,"n_hog_meno":0.0,"n_jefatura":0.0,"n_tenencia":0.0,"n_tenenc_1":0.0,"n_tenenc_2":0.0,"n_tenenc_3":0.0,"n_tenenc_4":0.0,"n_tenenc_5":0.0,"n_tenenc_6":0.0,"n_comb_coc":0.0,"n_comb_c_1":0.0,"n_comb_c_2":0.0,"n_comb_c_3":0.0,"n_comb_c_4":0.0,"n_comb_c_5":0.0,"n_comb_c_6":0.0,"n_comb_c_7":0.0,"n_comb_cal":0.0,"n_comb_c_8":0.0,"n_comb_c_9":0.0,"n_comb__10":0.0,"n_comb__11":0.0,"n_comb__12":0.0,"n_comb__13":0.0,"n_comb__14":0.0,"n_serv_tel":0.0,"n_serv_com":0.0,"n_serv_tab":0.0,"n_serv_int":0.0,"n_serv_i_1":0.0,"n_serv_i_2":0.0,"n_internet":0.0,"n_vp":0.0,"n_vp_ocupa":0.0,"n_vp_desoc":0.0,"n_tipo_viv":0.0,"n_tipo_v_1":0.0,"n_tipo_v_2":0.0,"n_tipo_v_3":0.0,"n_tipo_v_4":0.0,"n_tipo_v_5":0.0,"n_tipo_v_6":0.0,"n_dormitor":0.0,"n_dormit_1":0.0,"n_dormit_2":0.0,"n_dormit_3":0.0,"n_dormit_4":0.0,"n_dormit_5":0.0,"n_viv_haci":0.0,"n_viv_irre":0.0,"n_hog_alle":0.0,"n_nucleos_":0.0,"n_viv_no_a":0.0,"n_deficit_":0.0,"n_mat_pare":0.0,"n_mat_pa_1":0.0,"n_mat_pa_2":0.0,"n_mat_pa_3":0.0,"n_mat_pa_4":0.0,"n_mat_pa_5":0.0,"n_mat_tech":0.0,"n_mat_te_1":0.0,"n_mat_te_2":0.0,"n_mat_te_3":0.0,"n_mat_te_4":0.0,"n_mat_te_5":0.0,"n_mat_te_6":0.0,"n_mat_te_7":0.0,"n_mat_piso":0.0,"n_mat_pi_1":0.0,"n_mat_pi_2":0.0,"n_mat_pi_3":0.0,"n_mat_pi_4":0.0,"n_fuente_a":0.0,"n_fuente_1":0.0,"n_fuente_2":0.0,"n_fuente_3":0.0,"n_distrib_":0.0,"n_distrib1":0.0,"n_distri_1":0.0,"n_serv_hig":0.0,"n_serv_h_1":0.0,"n_serv_h_2":0.0,"n_serv_h_3":0.0,"n_serv_h_4":0.0,"n_serv_h_5":0.0,"n_serv_h_6":0.0,"n_serv_h_7":0.0,"n_serv_h_8":0.0,"n_fuente_e":0.0,"n_fuente_4":0.0,"n_fuente_5":0.0,"n_fuente_6":0.0,"n_fuente_7":0.0,"n_fuente_8":0.0,"n_basura_s":0.0,"n_basura_e":0.0,"n_basura_1":0.0,"n_basura_r":0.0,"n_basura_o":0.0,"DENS_HA_VI":0.0,"DENS_HA_HA":0.0,"AREA_HA":0.0,"DENS_KM_VI":0.0,"DENS_KM_HA":0.0,"AREA_KM2":49494.4233825},"geometry":{"type":"Point","coordinates":[-70.64261,-33.435107]}},{"type":"Feature","properties":{"Join_Count":1,"TARGET_FID":41,"Join_Cou_1":1,"TARGET_F_1":41,"Join_Cou_2":1,"TARGET_F_2":41,"N_":0.0,"DIRECCIÓN":"AV. MATTA Nº1860 LOCAL 10 A-B-C","TIPO_TERRE":"PREDIO EDIFICADO","TIPO_DE_IN":"EDIFICACIÓN","INSCRIP_CO":"FS. 24.662 Nº30.155 AÑO 1983","ROL_S_I_I_":"3189-28-30-40-41 S.S.","ROL":"3189-28-30-40-41","MANZANA_SI":3189.0,"PREDIO_SII":28.0,"PREDIO2":30.0,"PREDIO3":"40","PREDIO4":"41","ORIGEN_O_D":"BNUP ADMINISTRADO POR IMS","UNIDAD_CAR":"RENTAS Y FINANZAS","NOMBRE_DES":"AGRUPACION ARTESANOS","USUARIO_AC":"AGRUPACIÓN DE ARTESANOS","CLASIFICAC":"CONCESIÓN COMERCIAL","COORD_X":-70.657846,"COORD_Y":-33.462419,"OBSERVACIO":null,"OBJECTID_1":41,"UNIDAD":0.0,"BARRIO":"PARQUE O´HIGGINS","AGRP":"AV10","SUP_KM":0.860184,"Shape_Leng":3974.99045581,"RSH_Total":0.0,"OBJECTID_2":1330,"OBJECTID_3":185261,"COMUNA":"SANTIAGO","DISTRITO":"PARQUE O´HIGGINS","ID_MANZANA":185261,"ID_MZTXT":"185261","Shape_Le_1":5901.2147666,"X":345936.48,"Y":6296226.38,"FID_Manzan":1710,"COMUNA_1":"SANTIAGO","TIPO_MZ":"URBANO","cod_mzn":13101221001004,"Descripcio":"Con Informacion Censada","n_per":48.0,"n_hombres":31.0,"n_mujeres":17.0,"n_edad_0_5":0.0,"n_edad_6_1":0.0,"n_edad_14_":2.0,"n_edad_18_":4.0,"n_edad_25_":21.0,"n_edad_45_":8.0,"n_edad_60_":13.0,"prom_edad":45.5,"n_inmigran":5.0,"n_nacional":4.0,"n_pueblos_":4.0,"n_afrodesc":0.0,"n_lengua_i":0.0,"n_religion":32.0,"n_dificult":3.0,"n_dificu_1":3.0,"n_dificu_2":3.0,"n_dificu_3":3.0,"n_dificu_4":2.0,"n_dificu_5":0.0,"n_discapac":8.0,"n_estcivco":8.0,"n_estciv_1":5.0,"n_estciv_2":1.0,"n_estciv_3":1.0,"n_estciv_4":4.0,"n_estciv_5":28.0,"prom_escol":13.1,"n_asistenc":0.0,"n_asiste_1":0.0,"n_asiste_2":1.0,"n_asiste_3":0.0,"n_cine_nun":0.0,"n_cine_pri":9.0,"n_cine_sec":19.0,"n_cine_ter":20.0,"n_cine_esp":0.0,"n_analfabe":0.0,"n_ocupado":25.0,"n_desocupa":1.0,"n_fuera_fu":20.0,"n_cise_rec":4.0,"n_cise_r_1":20.0,"n_cise_r_2":1.0,"n_ciuo_1":2.0,"n_ciuo_2":5.0,"n_ciuo_3":1.0,"n_ciuo_4":2.0,"n_ciuo_5":5.0,"n_ciuo_6":0.0,"n_ciuo_7":1.0,"n_ciuo_8":2.0,"n_ciuo_9":2.0,"n_ciuo_0":4.0,"n_caenes_A":0.0,"n_caenes_B":0.0,"n_caenes_C":0.0,"n_caenes_D":0.0,"n_caenes_E":0.0,"n_caenes_F":0.0,"n_caenes_G":2.0,"n_caenes_H":3.0,"n_caenes_I":0.0,"n_caenes_J":1.0,"n_caenes_K":1.0,"n_caenes_L":0.0,"n_caenes_M":0.0,"n_caenes_N":0.0,"n_caenes_O":10.0,"n_caenes_P":3.0,"n_caenes_Q":2.0,"n_caenes_R":1.0,"n_caenes_S":0.0,"n_caenes_T":0.0,"n_caenes_U":0.0,"n_transpor":4.0,"n_transp_1":9.0,"n_transp_2":3.0,"n_transp_3":1.0,"n_transp_4":0.0,"n_transp_5":0.0,"n_transp_6":0.0,"n_hog":26.0,"prom_per_h":1.5,"n_hog_unip":18.0,"n_hog_60":4.0,"n_hog_meno":1.0,"n_jefatura":10.0,"n_tenencia":5.0,"n_tenenc_1":2.0,"n_tenenc_2":7.0,"n_tenenc_3":1.0,"n_tenenc_4":8.0,"n_tenenc_5":1.0,"n_tenenc_6":2.0,"n_comb_coc":14.0,"n_comb_c_1":0.0,"n_comb_c_2":0.0,"n_comb_c_3":0.0,"n_comb_c_4":0.0,"n_comb_c_5":7.0,"n_comb_c_6":0.0,"n_comb_c_7":5.0,"n_comb_cal":3.0,"n_comb_c_8":7.0,"n_comb_c_9":0.0,"n_comb__10":0.0,"n_comb__11":0.0,"n_comb__12":8.0,"n_comb__13":1.0,"n_comb__14":7.0,"n_serv_tel":26.0,"n_serv_com":17.0,"n_serv_tab":8.0,"n_serv_int":12.0,"n_serv_i_1":23.0,"n_serv_i_2":1.0,"n_internet":25.0,"n_vp":169.0,"n_vp_ocupa":24.0,"n_vp_desoc":145.0,"n_tipo_viv":17.0,"n_tipo_v_1":151.0,"n_tipo_v_2":0.0,"n_tipo_v_3":1.0,"n_tipo_v_4":0.0,"n_tipo_v_5":0.0,"n_tipo_v_6":0.0,"n_dormitor":13.0,"n_dormit_1":3.0,"n_dormit_2":4.0,"n_dormit_3":0.0,"n_dormit_4":1.0,"n_dormit_5":0.0,"n_viv_haci":0.0,"n_viv_irre":0.0,"n_hog_alle":2.0,"n_nucleos_":0.0,"n_viv_no_a":0.0,"n_deficit_":2.0,"n_mat_pare":8.0,"n_mat_pa_1":11.0,"n_mat_pa_2":3.0,"n_mat_pa_3":0.0,"n_mat_pa_4":2.0,"n_mat_pa_5":0.0,"n_mat_tech":6.0,"n_mat_te_1":6.0,"n_mat_te_2":11.0,"n_mat_te_3":1.0,"n_mat_te_4":0.0,"n_mat_te_5":0.0,"n_mat_te_6":0.0,"n_mat_te_7":0.0,"n_mat_piso":21.0,"n_mat_pi_1":0.0,"n_mat_pi_2":2.0,"n_mat_pi_3":1.0,"n_mat_pi_4":0.0,"n_fuente_a":24.0,"n_fuente_1":0.0,"n_fuente_2":0.0,"n_fuente_3":0.0,"n_distrib_":23.0,"n_distrib1":1.0,"n_distri_1":0.0,"n_serv_hig":24.0,"n_serv_h_1":0.0,"n_serv_h_2":0.0,"n_serv_h_3":0.0,"n_serv_h_4":0.0,"n_serv_h_5":0.0,"n_serv_h_6":0.0,"n_serv_h_7":0.0,"n_serv_h_8":0.0,"n_fuente_e":24.0,"n_fuente_4":0.0,"n_fuente_5":0.0,"n_fuente_6":0.0,"n_fuente_7":0.0,"n_fuente_8":0.0,"n_basura_s":24.0,"n_basura_e":0.0,"n_basura_1":0.0,"n_basura_r":0.0,"n_basura_o":0.0,"DENS_HA_VI":1.93172026935,"DENS_HA_HA":0.54865427769,"AREA_HA":87.4867871302,"DENS_KM_VI":193.172026935,"DENS_KM_HA":54.8654277686,"AREA_KM2":874681.642987},"geometry":{"type":"Point","coordinates":[-70.657832,-33.462345]}},{"type":"Feature","properties":{"Join_Count":1,"TARGET_FID":42,"Join_Cou_1":1,"TARGET_F_1":42,"Join_Cou_2":1,"TARGET_F_2":42,"N_":0.0,"DIRECCIÓN":"AV. MATTA Nº1860 LOCAL 12","TIPO_TERRE":"PREDIO EDIFICADO","TIPO_DE_IN":"EDIFICACIÓN","INSCRIP_CO":"FS. 24.662 Nº30.155 AÑO 1983","ROL_S_I_I_":"3189-31 S.S.","ROL":"3189-31","MANZANA_SI":3189.0,"PREDIO_SII":31.0,"PREDIO2":0.0,"PREDIO3":null,"PREDIO4":null,"ORIGEN_O_D":"BNUP ADMINISTRADO POR IMS","UNIDAD_CAR":"RENTAS Y FINANZAS","NOMBRE_DES":"RESTAURANTE LICANRAY","USUARIO_AC":"RESTAURANTE LICANRAY","CLASIFICAC":"CONCESIÓN COMERCIAL","COORD_X":-70.657695,"COORD_Y":-33.462084,"OBSERVACIO":null,"OBJECTID_1":42,"UNIDAD":0.0,"BARRIO":"PARQUE O´HIGGINS","AGRP":"AV10","SUP_KM":0.860184,"Shape_Leng":3974.99045581,"RSH_Total":0.0,"OBJECTID_2":1330,"OBJECTID_3":185261,"COMUNA":"SANTIAGO","DISTRITO":"PARQUE O´HIGGINS","ID_MANZANA":185261,"ID_MZTXT":"185261","Shape_Le_1":5901.2147666,"X":345949.92,"Y":6296263.75,"FID_Manzan":1710,"COMUNA_1":"SANTIAGO","TIPO_MZ":"URBANO","cod_mzn":13101221001004,"Descripcio":"Con Informacion Censada","n_per":48.0,"n_hombres":31.0,"n_mujeres":17.0,"n_edad_0_5":0.0,"n_edad_6_1":0.0,"n_edad_14_":2.0,"n_edad_18_":4.0,"n_edad_25_":21.0,"n_edad_45_":8.0,"n_edad_60_":13.0,"prom_edad":45.5,"n_inmigran":5.0,"n_nacional":4.0,"n_pueblos_":4.0,"n_afrodesc":0.0,"n_lengua_i":0.0,"n_religion":32.0,"n_dificult":3.0,"n_dificu_1":3.0,"n_dificu_2":3.0,"n_dificu_3":3.0,"n_dificu_4":2.0,"n_dificu_5":0.0,"n_discapac":8.0,"n_estcivco":8.0,"n_estciv_1":5.0,"n_estciv_2":1.0,"n_estciv_3":1.0,"n_estciv_4":4.0,"n_estciv_5":28.0,"prom_escol":13.1,"n_asistenc":0.0,"n_asiste_1":0.0,"n_asiste_2":1.0,"n_asiste_3":0.0,"n_cine_nun":0.0,"n_cine_pri":9.0,"n_cine_sec":19.0,"n_cine_ter":20.0,"n_cine_esp":0.0,"n_analfabe":0.0,"n_ocupado":25.0,"n_desocupa":1.0,"n_fuera_fu":20.0,"n_cise_rec":4.0,"n_cise_r_1":20.0,"n_cise_r_2":1.0,"n_ciuo_1":2.0,"n_ciuo_2":5.0,"n_ciuo_3":1.0,"n_ciuo_4":2.0,"n_ciuo_5":5.0,"n_ciuo_6":0.0,"n_ciuo_7":1.0,"n_ciuo_8":2.0,"n_ciuo_9":2.0,"n_ciuo_0":4.0,"n_caenes_A":0.0,"n_caenes_B":0.0,"n_caenes_C":0.0,"n_caenes_D":0.0,"n_caenes_E":0.0,"n_caenes_F":0.0,"n_caenes_G":2.0,"n_caenes_H":3.0,"n_caenes_I":0.0,"n_caenes_J":1.0,"n_caenes_K":1.0,"n_caenes_L":0.0,"n_caenes_M":0.0,"n_caenes_N":0.0,"n_caenes_O":10.0,"n_caenes_P":3.0,"n_caenes_Q":2.0,"n_caenes_R":1.0,"n_caenes_S":0.0,"n_caenes_T":0.0,"n_caenes_U":0.0,"n_transpor":4.0,"n_transp_1":9.0,"n_transp_2":3.0,"n_transp_3":1.0,"n_transp_4":0.0,"n_transp_5":0.0,"n_transp_6":0.0,"n_hog":26.0,"prom_per_h":1.5,"n_hog_unip":18.0,"n_hog_60":4.0,"n_hog_meno":1.0,"n_jefatura":10.0,"n_tenencia":5.0,"n_tenenc_1":2.0,"n_tenenc_2":7.0,"n_tenenc_3":1.0,"n_tenenc_4":8.0,"n_tenenc_5":1.0,"n_tenenc_6":2.0,"n_comb_coc":14.0,"n_comb_c_1":0.0,"n_comb_c_2":0.0,"n_comb_c_3":0.0,"n_comb_c_4":0.0,"n_comb_c_5":7.0,"n_comb_c_6":0.0,"n_comb_c_7":5.0,"n_comb_cal":3.0,"n_comb_c_8":7.0,"n_comb_c_9":0.0,"n_comb__10":0.0,"n_comb__11":0.0,"n_comb__12":8.0,"n_comb__13":1.0,"n_comb__14":7.0,"n_serv_tel":26.0,"n_serv_com":17.0,"n_serv_tab":8.0,"n_serv_int":12.0,"n_serv_i_1":23.0,"n_serv_i_2":1.0,"n_internet":25.0,"n_vp":169.0,"n_vp_ocupa":24.0,"n_vp_desoc":145.0,"n_tipo_viv":17.0,"n_tipo_v_1":151.0,"n_tipo_v_2":0.0,"n_tipo_v_3":1.0,"n_tipo_v_4":0.0,"n_tipo_v_5":0.0,"n_tipo_v_6":0.0,"n_dormitor":13.0,"n_dormit_1":3.0,"n_dormit_2":4.0,"n_dormit_3":0.0,"n_dormit_4":1.0,"n_dormit_5":0.0,"n_viv_haci":0.0,"n_viv_irre":0.0,"n_hog_alle":2.0,"n_nucleos_":0.0,"n_viv_no_a":0.0,"n_deficit_":2.0,"n_mat_pare":8.0,"n_mat_pa_1":11.0,"n_mat_pa_2":3.0,"n_mat_pa_3":0.0,"n_mat_pa_4":2.0,"n_mat_pa_5":0.0,"n_mat_tech":6.0,"n_mat_te_1":6.0,"n_mat_te_2":11.0,"n_mat_te_3":1.0,"n_mat_te_4":0.0,"n_mat_te_5":0.0,"n_mat_te_6":0.0,"n_mat_te_7":0.0,"n_mat_piso":21.0,"n_mat_pi_1":0.0,"n_mat_pi_2":2.0,"n_mat_pi_3":1.0,"n_mat_pi_4":0.0,"n_fuente_a":24.0,"n_fuente_1":0.0,"n_fuente_2":0.0,"n_fuente_3":0.0,"n_distrib_":23.0,"n_distrib1":1.0,"n_distri_1":0.0,"n_serv_hig":24.0,"n_serv_h_1":0.0,"n_serv_h_2":0.0,"n_serv_h_3":0.0,"n_serv_h_4":0.0,"n_serv_h_5":0.0,"n_serv_h_6":0.0,"n_serv_h_7":0.0,"n_serv_h_8":0.0,"n_fuente_e":24.0,"n_fuente_4":0.0,"n_fuente_5":0.0,"n_fuente_6":0.0,"n_fuente_7":0.0,"n_fuente_8":0.0,"n_basura_s":24.0,"n_basura_e":0.0,"n_basura_1":0.0,"n_basura_r":0.0,"n_basura_o":0.0,"DENS_HA_VI":1.93172026935,"DENS_HA_HA":0.54865427769,"AREA_HA":87.4867871302,"DENS_KM_VI":193.172026935,"DENS_KM_HA":54.8654277686,"AREA_KM2":874681.642987},"geometry":{"type":"Point","coordinates":[-70.657681,-33.46201]}},{"type":"Feature","properties":{"Join_Count":1,"TARGET_FID":44,"Join_Cou_1":1,"TARGET_F_1":44,"Join_Cou_2":1,"TARGET_F_2":44,"N_":0.0,"DIRECCIÓN":"AV. MATTA Nº1860 LOCAL 9","TIPO_TERRE":"PREDIO EDIFICADO","TIPO_DE_IN":"EDIFICACIÓN","INSCRIP_CO":"FS. 24.662 Nº30.155 AÑO 1983","ROL_S_I_I_":"3189-27 S.S.","ROL":"3189-27","MANZANA_SI":3189.0,"PREDIO_SII":27.0,"PREDIO2":0.0,"PREDIO3":null,"PREDIO4":null,"ORIGEN_O_D":"BNUP ADMINISTRADO POR IMS","UNIDAD_CAR":"DIRECCION CULTURA","NOMBRE_DES":"MUSEO ACUARIO","USUARIO_AC":"MUSEO ACUARIO","CLASIFICAC":"CONCESIÓN COMERCIAL","COORD_X":-70.657713,"COORD_Y":-33.462422,"OBSERVACIO":null,"OBJECTID_1":44,"UNIDAD":0.0,"BARRIO":"PARQUE O´HIGGINS","AGRP":"AV10","SUP_KM":0.860184,"Shape_Leng":3974.99045581,"RSH_Total":0.0,"OBJECTID_2":1330,"OBJECTID_3":185261,"COMUNA":"SANTIAGO","DISTRITO":"PARQUE O´HIGGINS","ID_MANZANA":185261,"ID_MZTXT":"185261","Shape_Le_1":5901.2147666,"X":345948.85,"Y":6296226.24,"FID_Manzan":1710,"COMUNA_1":"SANTIAGO","TIPO_MZ":"URBANO","cod_mzn":13101221001004,"Descripcio":"Con Informacion Censada","n_per":48.0,"n_hombres":31.0,"n_mujeres":17.0,"n_edad_0_5":0.0,"n_edad_6_1":0.0,"n_edad_14_":2.0,"n_edad_18_":4.0,"n_edad_25_":21.0,"n_edad_45_":8.0,"n_edad_60_":13.0,"prom_edad":45.5,"n_inmigran":5.0,"n_nacional":4.0,"n_pueblos_":4.0,"n_afrodesc":0.0,"n_lengua_i":0.0,"n_religion":32.0,"n_dificult":3.0,"n_dificu_1":3.0,"n_dificu_2":3.0,"n_dificu_3":3.0,"n_dificu_4":2.0,"n_dificu_5":0.0,"n_discapac":8.0,"n_estcivco":8.0,"n_estciv_1":5.0,"n_estciv_2":1.0,"n_estciv_3":1.0,"n_estciv_4":4.0,"n_estciv_5":28.0,"prom_escol":13.1,"n_asistenc":0.0,"n_asiste_1":0.0,"n_asiste_2":1.0,"n_asiste_3":0.0,"n_cine_nun":0.0,"n_cine_pri":9.0,"n_cine_sec":19.0,"n_cine_ter":20.0,"n_cine_esp":0.0,"n_analfabe":0.0,"n_ocupado":25.0,"n_desocupa":1.0,"n_fuera_fu":20.0,"n_cise_rec":4.0,"n_cise_r_1":20.0,"n_cise_r_2":1.0,"n_ciuo_1":2.0,"n_ciuo_2":5.0,"n_ciuo_3":1.0,"n_ciuo_4":2.0,"n_ciuo_5":5.0,"n_ciuo_6":0.0,"n_ciuo_7":1.0,"n_ciuo_8":2.0,"n_ciuo_9":2.0,"n_ciuo_0":4.0,"n_caenes_A":0.0,"n_caenes_B":0.0,"n_caenes_C":0.0,"n_caenes_D":0.0,"n_caenes_E":0.0,"n_caenes_F":0.0,"n_caenes_G":2.0,"n_caenes_H":3.0,"n_caenes_I":0.0,"n_caenes_J":1.0,"n_caenes_K":1.0,"n_caenes_L":0.0,"n_caenes_M":0.0,"n_caenes_N":0.0,"n_caenes_O":10.0,"n_caenes_P":3.0,"n_caenes_Q":2.0,"n_caenes_R":1.0,"n_caenes_S":0.0,"n_caenes_T":0.0,"n_caenes_U":0.0,"n_transpor":4.0,"n_transp_1":9.0,"n_transp_2":3.0,"n_transp_3":1.0,"n_transp_4":0.0,"n_transp_5":0.0,"n_transp_6":0.0,"n_hog":26.0,"prom_per_h":1.5,"n_hog_unip":18.0,"n_hog_60":4.0,"n_hog_meno":1.0,"n_jefatura":10.0,"n_tenencia":5.0,"n_tenenc_1":2.0,"n_tenenc_2":7.0,"n_tenenc_3":1.0,"n_tenenc_4":8.0,"n_tenenc_5":1.0,"n_tenenc_6":2.0,"n_comb_coc":14.0,"n_comb_c_1":0.0,"n_comb_c_2":0.0,"n_comb_c_3":0.0,"n_comb_c_4":0.0,"n_comb_c_5":7.0,"n_comb_c_6":0.0,"n_comb_c_7":5.0,"n_comb_cal":3.0,"n_comb_c_8":7.0,"n_comb_c_9":0.0,"n_comb__10":0.0,"n_comb__11":0.0,"n_comb__12":8.0,"n_comb__13":1.0,"n_comb__14":7.0,"n_serv_tel":26.0,"n_serv_com":17.0,"n_serv_tab":8.0,"n_serv_int":12.0,"n_serv_i_1":23.0,"n_serv_i_2":1.0,"n_internet":25.0,"n_vp":169.0,"n_vp_ocupa":24.0,"n_vp_desoc":145.0,"n_tipo_viv":17.0,"n_tipo_v_1":151.0,"n_tipo_v_2":0.0,"n_tipo_v_3":1.0,"n_tipo_v_4":0.0,"n_tipo_v_5":0.0,"n_tipo_v_6":0.0,"n_dormitor":13.0,"n_dormit_1":3.0,"n_dormit_2":4.0,"n_dormit_3":0.0,"n_dormit_4":1.0,"n_dormit_5":0.0,"n_viv_haci":0.0,"n_viv_irre":0.0,"n_hog_alle":2.0,"n_nucleos_":0.0,"n_viv_no_a":0.0,"n_deficit_":2.0,"n_mat_pare":8.0,"n_mat_pa_1":11.0,"n_mat_pa_2":3.0,"n_mat_pa_3":0.0,"n_mat_pa_4":2.0,"n_mat_pa_5":0.0,"n_mat_tech":6.0,"n_mat_te_1":6.0,"n_mat_te_2":11.0,"n_mat_te_3":1.0,"n_mat_te_4":0.0,"n_mat_te_5":0.0,"n_mat_te_6":0.0,"n_mat_te_7":0.0,"n_mat_piso":21.0,"n_mat_pi_1":0.0,"n_mat_pi_2":2.0,"n_mat_pi_3":1.0,"n_mat_pi_4":0.0,"n_fuente_a":24.0,"n_fuente_1":0.0,"n_fuente_2":0.0,"n_fuente_3":0.0,"n_distrib_":23.0,"n_distrib1":1.0,"n_distri_1":0.0,"n_serv_hig":24.0,"n_serv_h_1":0.0,"n_serv_h_2":0.0,"n_serv_h_3":0.0,"n_serv_h_4":0.0,"n_serv_h_5":0.0,"n_serv_h_6":0.0,"n_serv_h_7":0.0,"n_serv_h_8":0.0,"n_fuente_e":24.0,"n_fuente_4":0.0,"n_fuente_5":0.0,"n_fuente_6":0.0,"n_fuente_7":0.0,"n_fuente_8":0.0,"n_basura_s":24.0,"n_basura_e":0.0,"n_basura_1":0.0,"n_basura_r":0.0,"n_basura_o":0.0,"DENS_HA_VI":1.93172026935,"DENS_HA_HA":0.54865427769,"AREA_HA":87.4867871302,"DENS_KM_VI":193.172026935,"DENS_KM_HA":54.8654277686,"AREA_KM2":874681.642987},"geometry":{"type":"Point","coordinates":[-70.657699,-33.462348]}},{"type":"Feature","properties":{"Join_Count":1,"TARGET_FID":48,"Join_Cou_1":1,"TARGET_F_1":48,"Join_Cou_2":1,"TARGET_F_2":48,"N_":0.0,"DIRECCIÓN":"AV. PDTE. BALMACEDA N°2199","TIPO_TERRE":"PREDIO NO EDIFICADO","TIPO_DE_IN":"RECINTO DEPORTIVO","INSCRIP_CO":"FS. 1.490 N° 1.978 AÑO 1970","ROL_S_I_I_":null,"ROL":null,"MANZANA_SI":0.0,"PREDIO_SII":0.0,"PREDIO2":0.0,"PREDIO3":null,"PREDIO4":null,"ORIGEN_O_D":"PROPIEDAD DOMINIO MUNICIPAL","UNIDAD_CAR":"DIRECCIÓN DE RENTAS Y FINANZAS","NOMBRE_DES":"CANCHAS DE FUTBOLITO","USUARIO_AC":"RECINTO DEPORTIVO","CLASIFICAC":"CONCESIÓN COMERCIAL","COORD_X":0.0,"COORD_Y":0.0,"OBSERVACIO":"GEOREFERENCIAR","OBJECTID_1":48,"UNIDAD":2.0,"BARRIO":"CENTRO HISTORICO","AGRP":"AV1","SUP_KM":1.204548,"Shape_Leng":4579.43132775,"RSH_Total":18044.0,"OBJECTID_2":202,"OBJECTID_3":184133,"COMUNA":"SANTIAGO","DISTRITO":"MONEDA","ID_MANZANA":184133,"ID_MZTXT":"184133","Shape_Le_1":465.687585319,"X":346572.85,"Y":6298963.0,"FID_Manzan":62,"COMUNA_1":"SANTIAGO","TIPO_MZ":"URBANO","cod_mzn":13101021008005,"Descripcio":"Manzana sin información","n_per":0.0,"n_hombres":0.0,"n_mujeres":0.0,"n_edad_0_5":0.0,"n_edad_6_1":0.0,"n_edad_14_":0.0,"n_edad_18_":0.0,"n_edad_25_":0.0,"n_edad_45_":0.0,"n_edad_60_":0.0,"prom_edad":0.0,"n_inmigran":0.0,"n_nacional":0.0,"n_pueblos_":0.0,"n_afrodesc":0.0,"n_lengua_i":0.0,"n_religion":0.0,"n_dificult":0.0,"n_dificu_1":0.0,"n_dificu_2":0.0,"n_dificu_3":0.0,"n_dificu_4":0.0,"n_dificu_5":0.0,"n_discapac":0.0,"n_estcivco":0.0,"n_estciv_1":0.0,"n_estciv_2":0.0,"n_estciv_3":0.0,"n_estciv_4":0.0,"n_estciv_5":0.0,"prom_escol":0.0,"n_asistenc":0.0,"n_asiste_1":0.0,"n_asiste_2":0.0,"n_asiste_3":0.0,"n_cine_nun":0.0,"n_cine_pri":0.0,"n_cine_sec":0.0,"n_cine_ter":0.0,"n_cine_esp":0.0,"n_analfabe":0.0,"n_ocupado":0.0,"n_desocupa":0.0,"n_fuera_fu":0.0,"n_cise_rec":0.0,"n_cise_r_1":0.0,"n_cise_r_2":0.0,"n_ciuo_1":0.0,"n_ciuo_2":0.0,"n_ciuo_3":0.0,"n_ciuo_4":0.0,"n_ciuo_5":0.0,"n_ciuo_6":0.0,"n_ciuo_7":0.0,"n_ciuo_8":0.0,"n_ciuo_9":0.0,"n_ciuo_0":0.0,"n_caenes_A":0.0,"n_caenes_B":0.0,"n_caenes_C":0.0,"n_caenes_D":0.0,"n_caenes_E":0.0,"n_caenes_F":0.0,"n_caenes_G":0.0,"n_caenes_H":0.0,"n_caenes_I":0.0,"n_caenes_J":0.0,"n_caenes_K":0.0,"n_caenes_L":0.0,"n_caenes_M":0.0,"n_caenes_N":0.0,"n_caenes_O":0.0,"n_caenes_P":0.0,"n_caenes_Q":0.0,"n_caenes_R":0.0,"n_caenes_S":0.0,"n_caenes_T":0.0,"n_caenes_U":0.0,"n_transpor":0.0,"n_transp_1":0.0,"n_transp_2":0.0,"n_transp_3":0.0,"n_transp_4":0.0,"n_transp_5":0.0,"n_transp_6":0.0,"n_hog":0.0,"prom_per_h":0.0,"n_hog_unip":0.0,"n_hog_60":0.0,"n_hog_meno":0.0,"n_jefatura":0.0,"n_tenencia":0.0,"n_tenenc_1":0.0,"n_tenenc_2":0.0,"n_tenenc_3":0.0,"n_tenenc_4":0.0,"n_tenenc_5":0.0,"n_tenenc_6":0.0,"n_comb_coc":0.0,"n_comb_c_1":0.0,"n_comb_c_2":0.0,"n_comb_c_3":0.0,"n_comb_c_4":0.0,"n_comb_c_5":0.0,"n_comb_c_6":0.0,"n_comb_c_7":0.0,"n_comb_cal":0.0,"n_comb_c_8":0.0,"n_comb_c_9":0.0,"n_comb__10":0.0,"n_comb__11":0.0,"n_comb__12":0.0,"n_comb__13":0.0,"n_comb__14":0.0,"n_serv_tel":0.0,"n_serv_com":0.0,"n_serv_tab":0.0,"n_serv_int":0.0,"n_serv_i_1":0.0,"n_serv_i_2":0.0,"n_internet":0.0,"n_vp":0.0,"n_vp_ocupa":0.0,"n_vp_desoc":0.0,"n_tipo_viv":0.0,"n_tipo_v_1":0.0,"n_tipo_v_2":0.0,"n_tipo_v_3":0.0,"n_tipo_v_4":0.0,"n_tipo_v_5":0.0,"n_tipo_v_6":0.0,"n_dormitor":0.0,"n_dormit_1":0.0,"n_dormit_2":0.0,"n_dormit_3":0.0,"n_dormit_4":0.0,"n_dormit_5":0.0,"n_viv_haci":0.0,"n_viv_irre":0.0,"n_hog_alle":0.0,"n_nucleos_":0.0,"n_viv_no_a":0.0,"n_deficit_":0.0,"n_mat_pare":0.0,"n_mat_pa_1":0.0,"n_mat_pa_2":0.0,"n_mat_pa_3":0.0,"n_mat_pa_4":0.0,"n_mat_pa_5":0.0,"n_mat_tech":0.0,"n_mat_te_1":0.0,"n_mat_te_2":0.0,"n_mat_te_3":0.0,"n_mat_te_4":0.0,"n_mat_te_5":0.0,"n_mat_te_6":0.0,"n_mat_te_7":0.0,"n_mat_piso":0.0,"n_mat_pi_1":0.0,"n_mat_pi_2":0.0,"n_mat_pi_3":0.0,"n_mat_pi_4":0.0,"n_fuente_a":0.0,"n_fuente_1":0.0,"n_fuente_2":0.0,"n_fuente_3":0.0,"n_distrib_":0.0,"n_distrib1":0.0,"n_distri_1":0.0,"n_serv_hig":0.0,"n_serv_h_1":0.0,"n_serv_h_2":0.0,"n_serv_h_3":0.0,"n_serv_h_4":0.0,"n_serv_h_5":0.0,"n_serv_h_6":0.0,"n_serv_h_7":0.0,"n_serv_h_8":0.0,"n_fuente_e":0.0,"n_fuente_4":0.0,"n_fuente_5":0.0,"n_fuente_6":0.0,"n_fuente_7":0.0,"n_fuente_8":0.0,"n_basura_s":0.0,"n_basura_e":0.0,"n_basura_1":0.0,"n_basura_r":0.0,"n_basura_o":0.0,"DENS_HA_VI":0.0,"DENS_HA_HA":0.0,"AREA_HA":0.0,"DENS_KM_VI":0.0,"DENS_KM_HA":0.0,"AREA_KM2":14245.3903992},"geometry":{"type":"Point","coordinates":[-70.65052,-33.437763]}},{"type":"Feature","properties":{"Join_Count":1,"TARGET_FID":99,"Join_Cou_1":1,"TARGET_F_1":99,"Join_Cou_2":1,"TARGET_F_2":99,"N_":0.0,"DIRECCIÓN":"INTERIOR P. O\"HIGGINS/RONDIZZONI","TIPO_TERRE":"PREDIO EDIFICADO","TIPO_DE_IN":"EDIFICACIÓN","INSCRIP_CO":"FS. 24,662 Nº30,155 AÑO 1983","ROL_S_I_I_":"3189-5 S.S.","ROL":"3189-5","MANZANA_SI":3189.0,"PREDIO_SII":5.0,"PREDIO2":0.0,"PREDIO3":null,"PREDIO4":null,"ORIGEN_O_D":"BNUP ADMINISTRADO POR IMS","UNIDAD_CAR":"RENTAS Y FINANZAS","NOMBRE_DES":"RESTAURANTE RANCHO TÍPICO","USUARIO_AC":"RESTAURANTE RANCHO TÍPICO","CLASIFICAC":"CONCESIÓN COMERCIAL","COORD_X":-70.659807,"COORD_Y":-33.467178,"OBSERVACIO":null,"OBJECTID_1":99,"UNIDAD":0.0,"BARRIO":"PARQUE O´HIGGINS","AGRP":"AV10","SUP_KM":0.860184,"Shape_Leng":3974.99045581,"RSH_Total":0.0,"OBJECTID_2":1330,"OBJECTID_3":185261,"COMUNA":"SANTIAGO","DISTRITO":"PARQUE O´HIGGINS","ID_MANZANA":185261,"ID_MZTXT":"185261","Shape_Le_1":5901.2147666,"X":345762.66,"Y":6295695.76,"FID_Manzan":1710,"COMUNA_1":"SANTIAGO","TIPO_MZ":"URBANO","cod_mzn":13101221001004,"Descripcio":"Con Informacion Censada","n_per":48.0,"n_hombres":31.0,"n_mujeres":17.0,"n_edad_0_5":0.0,"n_edad_6_1":0.0,"n_edad_14_":2.0,"n_edad_18_":4.0,"n_edad_25_":21.0,"n_edad_45_":8.0,"n_edad_60_":13.0,"prom_edad":45.5,"n_inmigran":5.0,"n_nacional":4.0,"n_pueblos_":4.0,"n_afrodesc":0.0,"n_lengua_i":0.0,"n_religion":32.0,"n_dificult":3.0,"n_dificu_1":3.0,"n_dificu_2":3.0,"n_dificu_3":3.0,"n_dificu_4":2.0,"n_dificu_5":0.0,"n_discapac":8.0,"n_estcivco":8.0,"n_estciv_1":5.0,"n_estciv_2":1.0,"n_estciv_3":1.0,"n_estciv_4":4.0,"n_estciv_5":28.0,"prom_escol":13.1,"n_asistenc":0.0,"n_asiste_1":0.0,"n_asiste_2":1.0,"n_asiste_3":0.0,"n_cine_nun":0.0,"n_cine_pri":9.0,"n_cine_sec":19.0,"n_cine_ter":20.0,"n_cine_esp":0.0,"n_analfabe":0.0,"n_ocupado":25.0,"n_desocupa":1.0,"n_fuera_fu":20.0,"n_cise_rec":4.0,"n_cise_r_1":20.0,"n_cise_r_2":1.0,"n_ciuo_1":2.0,"n_ciuo_2":5.0,"n_ciuo_3":1.0,"n_ciuo_4":2.0,"n_ciuo_5":5.0,"n_ciuo_6":0.0,"n_ciuo_7":1.0,"n_ciuo_8":2.0,"n_ciuo_9":2.0,"n_ciuo_0":4.0,"n_caenes_A":0.0,"n_caenes_B":0.0,"n_caenes_C":0.0,"n_caenes_D":0.0,"n_caenes_E":0.0,"n_caenes_F":0.0,"n_caenes_G":2.0,"n_caenes_H":3.0,"n_caenes_I":0.0,"n_caenes_J":1.0,"n_caenes_K":1.0,"n_caenes_L":0.0,"n_caenes_M":0.0,"n_caenes_N":0.0,"n_caenes_O":10.0,"n_caenes_P":3.0,"n_caenes_Q":2.0,"n_caenes_R":1.0,"n_caenes_S":0.0,"n_caenes_T":0.0,"n_caenes_U":0.0,"n_transpor":4.0,"n_transp_1":9.0,"n_transp_2":3.0,"n_transp_3":1.0,"n_transp_4":0.0,"n_transp_5":0.0,"n_transp_6":0.0,"n_hog":26.0,"prom_per_h":1.5,"n_hog_unip":18.0,"n_hog_60":4.0,"n_hog_meno":1.0,"n_jefatura":10.0,"n_tenencia":5.0,"n_tenenc_1":2.0,"n_tenenc_2":7.0,"n_tenenc_3":1.0,"n_tenenc_4":8.0,"n_tenenc_5":1.0,"n_tenenc_6":2.0,"n_comb_coc":14.0,"n_comb_c_1":0.0,"n_comb_c_2":0.0,"n_comb_c_3":0.0,"n_comb_c_4":0.0,"n_comb_c_5":7.0,"n_comb_c_6":0.0,"n_comb_c_7":5.0,"n_comb_cal":3.0,"n_comb_c_8":7.0,"n_comb_c_9":0.0,"n_comb__10":0.0,"n_comb__11":0.0,"n_comb__12":8.0,"n_comb__13":1.0,"n_comb__14":7.0,"n_serv_tel":26.0,"n_serv_com":17.0,"n_serv_tab":8.0,"n_serv_int":12.0,"n_serv_i_1":23.0,"n_serv_i_2":1.0,"n_internet":25.0,"n_vp":169.0,"n_vp_ocupa":24.0,"n_vp_desoc":145.0,"n_tipo_viv":17.0,"n_tipo_v_1":151.0,"n_tipo_v_2":0.0,"n_tipo_v_3":1.0,"n_tipo_v_4":0.0,"n_tipo_v_5":0.0,"n_tipo_v_6":0.0,"n_dormitor":13.0,"n_dormit_1":3.0,"n_dormit_2":4.0,"n_dormit_3":0.0,"n_dormit_4":1.0,"n_dormit_5":0.0,"n_viv_haci":0.0,"n_viv_irre":0.0,"n_hog_alle":2.0,"n_nucleos_":0.0,"n_viv_no_a":0.0,"n_deficit_":2.0,"n_mat_pare":8.0,"n_mat_pa_1":11.0,"n_mat_pa_2":3.0,"n_mat_pa_3":0.0,"n_mat_pa_4":2.0,"n_mat_pa_5":0.0,"n_mat_tech":6.0,"n_mat_te_1":6.0,"n_mat_te_2":11.0,"n_mat_te_3":1.0,"n_mat_te_4":0.0,"n_mat_te_5":0.0,"n_mat_te_6":0.0,"n_mat_te_7":0.0,"n_mat_piso":21.0,"n_mat_pi_1":0.0,"n_mat_pi_2":2.0,"n_mat_pi_3":1.0,"n_mat_pi_4":0.0,"n_fuente_a":24.0,"n_fuente_1":0.0,"n_fuente_2":0.0,"n_fuente_3":0.0,"n_distrib_":23.0,"n_distrib1":1.0,"n_distri_1":0.0,"n_serv_hig":24.0,"n_serv_h_1":0.0,"n_serv_h_2":0.0,"n_serv_h_3":0.0,"n_serv_h_4":0.0,"n_serv_h_5":0.0,"n_serv_h_6":0.0,"n_serv_h_7":0.0,"n_serv_h_8":0.0,"n_fuente_e":24.0,"n_fuente_4":0.0,"n_fuente_5":0.0,"n_fuente_6":0.0,"n_fuente_7":0.0,"n_fuente_8":0.0,"n_basura_s":24.0,"n_basura_e":0.0,"n_basura_1":0.0,"n_basura_r":0.0,"n_basura_o":0.0,"DENS_HA_VI":1.93172026935,"DENS_HA_HA":0.54865427769,"AREA_HA":87.4867871302,"DENS_KM_VI":193.172026935,"DENS_KM_HA":54.8654277686,"AREA_KM2":874681.642987},"geometry":{"type":"Point","coordinates":[-70.659793,-33.467104]}},{"type":"Feature","properties":{"Join_Count":1,"TARGET_FID":154,"Join_Cou_1":1,"TARGET_F_1":154,"Join_Cou_2":1,"TARGET_F_2":154,"N_":0.0,"DIRECCIÓN":"SAN ISIDRO Nº475-481-A","TIPO_TERRE":"PREDIO NO EDIFICADO","TIPO_DE_IN":"SITIO ERIAZO","INSCRIP_CO":"FS. 8.672 Nº10.286 AÑO 1962","ROL_S_I_I_":"593-7-10 S.C.","ROL":"593-7-10","MANZANA_SI":593.0,"PREDIO_SII":7.0,"PREDIO2":10.0,"PREDIO3":null,"PREDIO4":null,"ORIGEN_O_D":"PROPIEDAD DOMINIO MUNICIPAL","UNIDAD_CAR":"RENTAS Y FINANZAS","NOMBRE_DES":"PLAZA STURRGART","USUARIO_AC":"ESTACIONAMIENTO","CLASIFICAC":"CONCESIÓN COMERCIAL","COORD_X":0.0,"COORD_Y":0.0,"OBSERVACIO":"GEOREFERENCIAR","OBJECTID_1":154,"UNIDAD":2.0,"BARRIO":"CENTRO HISTORICO","AGRP":"AV1","SUP_KM":1.204548,"Shape_Leng":4579.43132775,"RSH_Total":18044.0,"OBJECTID_2":202,"OBJECTID_3":184133,"COMUNA":"SANTIAGO","DISTRITO":"MONEDA","ID_MANZANA":184133,"ID_MZTXT":"184133","Shape_Le_1":465.687585319,"X":346572.85,"Y":6298963.0,"FID_Manzan":62,"COMUNA_1":"SANTIAGO","TIPO_MZ":"URBANO","cod_mzn":13101021008005,"Descripcio":"Manzana sin información","n_per":0.0,"n_hombres":0.0,"n_mujeres":0.0,"n_edad_0_5":0.0,"n_edad_6_1":0.0,"n_edad_14_":0.0,"n_edad_18_":0.0,"n_edad_25_":0.0,"n_edad_45_":0.0,"n_edad_60_":0.0,"prom_edad":0.0,"n_inmigran":0.0,"n_nacional":0.0,"n_pueblos_":0.0,"n_afrodesc":0.0,"n_lengua_i":0.0,"n_religion":0.0,"n_dificult":0.0,"n_dificu_1":0.0,"n_dificu_2":0.0,"n_dificu_3":0.0,"n_dificu_4":0.0,"n_dificu_5":0.0,"n_discapac":0.0,"n_estcivco":0.0,"n_estciv_1":0.0,"n_estciv_2":0.0,"n_estciv_3":0.0,"n_estciv_4":0.0,"n_estciv_5":0.0,"prom_escol":0.0,"n_asistenc":0.0,"n_asiste_1":0.0,"n_asiste_2":0.0,"n_asiste_3":0.0,"n_cine_nun":0.0,"n_cine_pri":0.0,"n_cine_sec":0.0,"n_cine_ter":0.0,"n_cine_esp":0.0,"n_analfabe":0.0,"n_ocupado":0.0,"n_desocupa":0.0,"n_fuera_fu":0.0,"n_cise_rec":0.0,"n_cise_r_1":0.0,"n_cise_r_2":0.0,"n_ciuo_1":0.0,"n_ciuo_2":0.0,"n_ciuo_3":0.0,"n_ciuo_4":0.0,"n_ciuo_5":0.0,"n_ciuo_6":0.0,"n_ciuo_7":0.0,"n_ciuo_8":0.0,"n_ciuo_9":0.0,"n_ciuo_0":0.0,"n_caenes_A":0.0,"n_caenes_B":0.0,"n_caenes_C":0.0,"n_caenes_D":0.0,"n_caenes_E":0.0,"n_caenes_F":0.0,"n_caenes_G":0.0,"n_caenes_H":0.0,"n_caenes_I":0.0,"n_caenes_J":0.0,"n_caenes_K":0.0,"n_caenes_L":0.0,"n_caenes_M":0.0,"n_caenes_N":0.0,"n_caenes_O":0.0,"n_caenes_P":0.0,"n_caenes_Q":0.0,"n_caenes_R":0.0,"n_caenes_S":0.0,"n_caenes_T":0.0,"n_caenes_U":0.0,"n_transpor":0.0,"n_transp_1":0.0,"n_transp_2":0.0,"n_transp_3":0.0,"n_transp_4":0.0,"n_transp_5":0.0,"n_transp_6":0.0,"n_hog":0.0,"prom_per_h":0.0,"n_hog_unip":0.0,"n_hog_60":0.0,"n_hog_meno":0.0,"n_jefatura":0.0,"n_tenencia":0.0,"n_tenenc_1":0.0,"n_tenenc_2":0.0,"n_tenenc_3":0.0,"n_tenenc_4":0.0,"n_tenenc_5":0.0,"n_tenenc_6":0.0,"n_comb_coc":0.0,"n_comb_c_1":0.0,"n_comb_c_2":0.0,"n_comb_c_3":0.0,"n_comb_c_4":0.0,"n_comb_c_5":0.0,"n_comb_c_6":0.0,"n_comb_c_7":0.0,"n_comb_cal":0.0,"n_comb_c_8":0.0,"n_comb_c_9":0.0,"n_comb__10":0.0,"n_comb__11":0.0,"n_comb__12":0.0,"n_comb__13":0.0,"n_comb__14":0.0,"n_serv_tel":0.0,"n_serv_com":0.0,"n_serv_tab":0.0,"n_serv_int":0.0,"n_serv_i_1":0.0,"n_serv_i_2":0.0,"n_internet":0.0,"n_vp":0.0,"n_vp_ocupa":0.0,"n_vp_desoc":0.0,"n_tipo_viv":0.0,"n_tipo_v_1":0.0,"n_tipo_v_2":0.0,"n_tipo_v_3":0.0,"n_tipo_v_4":0.0,"n_tipo_v_5":0.0,"n_tipo_v_6":0.0,"n_dormitor":0.0,"n_dormit_1":0.0,"n_dormit_2":0.0,"n_dormit_3":0.0,"n_dormit_4":0.0,"n_dormit_5":0.0,"n_viv_haci":0.0,"n_viv_irre":0.0,"n_hog_alle":0.0,"n_nucleos_":0.0,"n_viv_no_a":0.0,"n_deficit_":0.0,"n_mat_pare":0.0,"n_mat_pa_1":0.0,"n_mat_pa_2":0.0,"n_mat_pa_3":0.0,"n_mat_pa_4":0.0,"n_mat_pa_5":0.0,"n_mat_tech":0.0,"n_mat_te_1":0.0,"n_mat_te_2":0.0,"n_mat_te_3":0.0,"n_mat_te_4":0.0,"n_mat_te_5":0.0,"n_mat_te_6":0.0,"n_mat_te_7":0.0,"n_mat_piso":0.0,"n_mat_pi_1":0.0,"n_mat_pi_2":0.0,"n_mat_pi_3":0.0,"n_mat_pi_4":0.0,"n_fuente_a":0.0,"n_fuente_1":0.0,"n_fuente_2":0.0,"n_fuente_3":0.0,"n_distrib_":0.0,"n_distrib1":0.0,"n_distri_1":0.0,"n_serv_hig":0.0,"n_serv_h_1":0.0,"n_serv_h_2":0.0,"n_serv_h_3":0.0,"n_serv_h_4":0.0,"n_serv_h_5":0.0,"n_serv_h_6":0.0,"n_serv_h_7":0.0,"n_serv_h_8":0.0,"n_fuente_e":0.0,"n_fuente_4":0.0,"n_fuente_5":0.0,"n_fuente_6":0.0,"n_fuente_7":0.0,"n_fuente_8":0.0,"n_basura_s":0.0,"n_basura_e":0.0,"n_basura_1":0.0,"n_basura_r":0.0,"n_basura_o":0.0,"DENS_HA_VI":0.0,"DENS_HA_HA":0.0,"AREA_HA":0.0,"DENS_KM_VI":0.0,"DENS_KM_HA":0.0,"AREA_KM2":14245.3903992},"geometry":{"type":"Point","coordinates":[-70.65052,-33.437763]}},{"type":"Feature","properties":{"Join_Count":1,"TARGET_FID":157,"Join_Cou_1":1,"TARGET_F_1":157,"Join_Cou_2":1,"TARGET_F_2":157,"N_":0.0,"DIRECCIÓN":"SAN PABLO 1986","TIPO_TERRE":"PREDIO NO EDIFICADO","TIPO_DE_IN":"TERRENO CON EDIFICACIÓN E INFRAESTRUCTURA CONCESIONADA","INSCRIP_CO":"FS. 3.579 N° 7.186 AÑO 1946","ROL_S_I_I_":"244-59 S.C","ROL":"244-59","MANZANA_SI":244.0,"PREDIO_SII":59.0,"PREDIO2":0.0,"PREDIO3":null,"PREDIO4":null,"ORIGEN_O_D":"PROPIEDAD DOMINIO MUNICIPAL","UNIDAD_CAR":"RENTAS Y FINANZAS","NOMBRE_DES":"ARRIENDO AL SERVICENTRO COPEC","USUARIO_AC":"EMPRESAS COPEC S.A.","CLASIFICAC":"CONCESIÓN COMERCIAL","COORD_X":-70.664744,"COORD_Y":-33.434919,"OBSERVACIO":null,"OBJECTID_1":157,"UNIDAD":4.0,"BARRIO":"PANAMA","AGRP":"AV2","SUP_KM":0.798583,"Shape_Leng":3683.83224645,"RSH_Total":12573.0,"OBJECTID_2":463,"OBJECTID_3":184394,"COMUNA":"SANTIAGO","DISTRITO":"MAPOCHO","ID_MANZANA":184394,"ID_MZTXT":"184394","Shape_Le_1":662.506373969,"X":345246.52,"Y":6299265.51,"FID_Manzan":568,"COMUNA_1":"SANTIAGO","TIPO_MZ":"URBANO","cod_mzn":13101091002010,"Descripcio":"Con Informacion Censada","n_per":337.0,"n_hombres":174.0,"n_mujeres":163.0,"n_edad_0_5":14.0,"n_edad_6_1":31.0,"n_edad_14_":13.0,"n_edad_18_":29.0,"n_edad_25_":131.0,"n_edad_45_":71.0,"n_edad_60_":48.0,"prom_edad":37.7,"n_inmigran":195.0,"n_nacional":194.0,"n_pueblos_":25.0,"n_afrodesc":17.0,"n_lengua_i":6.0,"n_religion":232.0,"n_dificult":12.0,"n_dificu_1":10.0,"n_dificu_2":11.0,"n_dificu_3":10.0,"n_dificu_4":4.0,"n_dificu_5":4.0,"n_discapac":29.0,"n_estcivco":39.0,"n_estciv_1":65.0,"n_estciv_2":2.0,"n_estciv_3":21.0,"n_estciv_4":6.0,"n_estciv_5":156.0,"prom_escol":12.8,"n_asistenc":7.0,"n_asiste_1":31.0,"n_asiste_2":11.0,"n_asiste_3":11.0,"n_cine_nun":15.0,"n_cine_pri":98.0,"n_cine_sec":132.0,"n_cine_ter":91.0,"n_cine_esp":0.0,"n_analfabe":0.0,"n_ocupado":219.0,"n_desocupa":21.0,"n_fuera_fu":48.0,"n_cise_rec":71.0,"n_cise_r_1":146.0,"n_cise_r_2":2.0,"n_ciuo_1":3.0,"n_ciuo_2":13.0,"n_ciuo_3":23.0,"n_ciuo_4":23.0,"n_ciuo_5":59.0,"n_ciuo_6":0.0,"n_ciuo_7":25.0,"n_ciuo_8":19.0,"n_ciuo_9":51.0,"n_ciuo_0":1.0,"n_caenes_A":1.0,"n_caenes_B":2.0,"n_caenes_C":12.0,"n_caenes_D":0.0,"n_caenes_E":0.0,"n_caenes_F":17.0,"n_caenes_G":50.0,"n_caenes_H":15.0,"n_caenes_I":23.0,"n_caenes_J":5.0,"n_caenes_K":6.0,"n_caenes_L":4.0,"n_caenes_M":3.0,"n_caenes_N":19.0,"n_caenes_O":3.0,"n_caenes_P":6.0,"n_caenes_Q":9.0,"n_caenes_R":6.0,"n_caenes_S":20.0,"n_caenes_T":13.0,"n_caenes_U":0.0,"n_transpor":7.0,"n_transp_1":132.0,"n_transp_2":37.0,"n_transp_3":11.0,"n_transp_4":1.0,"n_transp_5":0.0,"n_transp_6":6.0,"n_hog":172.0,"prom_per_h":2.0,"n_hog_unip":87.0,"n_hog_60":28.0,"n_hog_meno":32.0,"n_jefatura":76.0,"n_tenencia":10.0,"n_tenenc_1":0.0,"n_tenenc_2":139.0,"n_tenenc_3":20.0,"n_tenenc_4":1.0,"n_tenenc_5":1.0,"n_tenenc_6":1.0,"n_comb_coc":103.0,"n_comb_c_1":0.0,"n_comb_c_2":0.0,"n_comb_c_3":0.0,"n_comb_c_4":0.0,"n_comb_c_5":64.0,"n_comb_c_6":0.0,"n_comb_c_7":5.0,"n_comb_cal":23.0,"n_comb_c_8":11.0,"n_comb_c_9":0.0,"n_comb__10":0.0,"n_comb__11":0.0,"n_comb__12":75.0,"n_comb__13":0.0,"n_comb__14":63.0,"n_serv_tel":171.0,"n_serv_com":65.0,"n_serv_tab":25.0,"n_serv_int":62.0,"n_serv_i_1":164.0,"n_serv_i_2":3.0,"n_internet":167.0,"n_vp":188.0,"n_vp_ocupa":166.0,"n_vp_desoc":22.0,"n_tipo_viv":29.0,"n_tipo_v_1":112.0,"n_tipo_v_2":0.0,"n_tipo_v_3":44.0,"n_tipo_v_4":0.0,"n_tipo_v_5":0.0,"n_tipo_v_6":3.0,"n_dormitor":100.0,"n_dormit_1":6.0,"n_dormit_2":8.0,"n_dormit_3":4.0,"n_dormit_4":0.0,"n_dormit_5":0.0,"n_viv_haci":44.0,"n_viv_irre":3.0,"n_hog_alle":6.0,"n_nucleos_":7.0,"n_viv_no_a":35.0,"n_deficit_":51.0,"n_mat_pare":99.0,"n_mat_pa_1":19.0,"n_mat_pa_2":4.0,"n_mat_pa_3":0.0,"n_mat_pa_4":44.0,"n_mat_pa_5":0.0,"n_mat_tech":25.0,"n_mat_te_1":88.0,"n_mat_te_2":51.0,"n_mat_te_3":2.0,"n_mat_te_4":0.0,"n_mat_te_5":0.0,"n_mat_te_6":0.0,"n_mat_te_7":0.0,"n_mat_piso":161.0,"n_mat_pi_1":2.0,"n_mat_pi_2":3.0,"n_mat_pi_3":0.0,"n_mat_pi_4":0.0,"n_fuente_a":166.0,"n_fuente_1":0.0,"n_fuente_2":0.0,"n_fuente_3":0.0,"n_distrib_":140.0,"n_distrib1":26.0,"n_distri_1":0.0,"n_serv_hig":142.0,"n_serv_h_1":24.0,"n_serv_h_2":0.0,"n_serv_h_3":0.0,"n_serv_h_4":0.0,"n_serv_h_5":0.0,"n_serv_h_6":0.0,"n_serv_h_7":0.0,"n_serv_h_8":0.0,"n_fuente_e":166.0,"n_fuente_4":0.0,"n_fuente_5":0.0,"n_fuente_6":0.0,"n_fuente_7":0.0,"n_fuente_8":0.0,"n_basura_s":166.0,"n_basura_e":0.0,"n_basura_1":0.0,"n_basura_r":0.0,"n_basura_o":0.0,"DENS_HA_VI":65.8817931715,"DENS_HA_HA":118.096618611,"AREA_HA":2.85359567416,"DENS_KM_VI":6588.17931715,"DENS_KM_HA":11809.6618611,"AREA_KM2":28529.9733574},"geometry":{"type":"Point","coordinates":[-70.66473,-33.434845]}},{"type":"Feature","properties":{"Join_Count":1,"TARGET_FID":163,"Join_Cou_1":1,"TARGET_F_1":163,"Join_Cou_2":1,"TARGET_F_2":163,"N_":0.0,"DIRECCIÓN":"SANTA ISABEL N°382 - 384","TIPO_TERRE":"PREDIO NO EDIFICADO","TIPO_DE_IN":"AREA VERDE","INSCRIP_CO":"FS. 50.071 N°59.551 AÑO 1982","ROL_S_I_I_":"617-35 S.C","ROL":"617-35","MANZANA_SI":617.0,"PREDIO_SII":35.0,"PREDIO2":0.0,"PREDIO3":null,"PREDIO4":null,"ORIGEN_O_D":"PROPIEDAD DOMINIO MUNICIPAL","UNIDAD_CAR":"RENTAS Y FINANZAS","NOMBRE_DES":"PLAZA DE BOLSILLO","USUARIO_AC":"PLAZA DE BOLSILLO","CLASIFICAC":"CONCESIÓN COMERCIAL","COORD_X":-70.63831,"COORD_Y":-33.449226,"OBSERVACIO":null,"OBJECTID_1":163,"UNIDAD":9.0,"BARRIO":"SANTA ISABEL","AGRP":"AV7","SUP_KM":0.944985,"Shape_Leng":4562.55836169,"RSH_Total":36490.0,"OBJECTID_2":565,"OBJECTID_3":184496,"COMUNA":"SANTIAGO","DISTRITO":"SAN ISIDRO","ID_MANZANA":184496,"ID_MZTXT":"184496","Shape_Le_1":871.621526277,"X":347729.1,"Y":6297718.11,"FID_Manzan":891,"COMUNA_1":"SANTIAGO","TIPO_MZ":"URBANO","cod_mzn":13101111018002,"Descripcio":"Con Informacion Censada","n_per":1606.0,"n_hombres":783.0,"n_mujeres":823.0,"n_edad_0_5":69.0,"n_edad_6_1":109.0,"n_edad_14_":48.0,"n_edad_18_":113.0,"n_edad_25_":900.0,"n_edad_45_":227.0,"n_edad_60_":140.0,"prom_edad":34.9,"n_inmigran":680.0,"n_nacional":642.0,"n_pueblos_":86.0,"n_afrodesc":15.0,"n_lengua_i":20.0,"n_religion":883.0,"n_dificult":26.0,"n_dificu_1":12.0,"n_dificu_2":24.0,"n_dificu_3":30.0,"n_dificu_4":11.0,"n_dificu_5":7.0,"n_discapac":78.0,"n_estcivco":320.0,"n_estciv_1":356.0,"n_estciv_2":22.0,"n_estciv_3":47.0,"n_estciv_4":20.0,"n_estciv_5":641.0,"prom_escol":15.3,"n_asistenc":38.0,"n_asiste_1":102.0,"n_asiste_2":39.0,"n_asiste_3":53.0,"n_cine_nun":79.0,"n_cine_pri":220.0,"n_cine_sec":384.0,"n_cine_ter":905.0,"n_cine_esp":2.0,"n_analfabe":2.0,"n_ocupado":1125.0,"n_desocupa":59.0,"n_fuera_fu":211.0,"n_cise_rec":245.0,"n_cise_r_1":866.0,"n_cise_r_2":14.0,"n_ciuo_1":87.0,"n_ciuo_2":432.0,"n_ciuo_3":131.0,"n_ciuo_4":96.0,"n_ciuo_5":217.0,"n_ciuo_6":1.0,"n_ciuo_7":47.0,"n_ciuo_8":51.0,"n_ciuo_9":53.0,"n_ciuo_0":0.0,"n_caenes_A":1.0,"n_caenes_B":15.0,"n_caenes_C":66.0,"n_caenes_D":12.0,"n_caenes_E":2.0,"n_caenes_F":32.0,"n_caenes_G":181.0,"n_caenes_H":80.0,"n_caenes_I":90.0,"n_caenes_J":74.0,"n_caenes_K":54.0,"n_caenes_L":17.0,"n_caenes_M":93.0,"n_caenes_N":36.0,"n_caenes_O":46.0,"n_caenes_P":91.0,"n_caenes_Q":126.0,"n_caenes_R":25.0,"n_caenes_S":39.0,"n_caenes_T":12.0,"n_caenes_U":1.0,"n_transpor":171.0,"n_transp_1":542.0,"n_transp_2":156.0,"n_transp_3":66.0,"n_transp_4":25.0,"n_transp_5":0.0,"n_transp_6":19.0,"n_hog":825.0,"prom_per_h":1.9,"n_hog_unip":349.0,"n_hog_60":54.0,"n_hog_meno":146.0,"n_jefatura":414.0,"n_tenencia":62.0,"n_tenenc_1":186.0,"n_tenenc_2":508.0,"n_tenenc_3":36.0,"n_tenenc_4":2.0,"n_tenenc_5":23.0,"n_tenenc_6":8.0,"n_comb_coc":228.0,"n_comb_c_1":1.0,"n_comb_c_2":0.0,"n_comb_c_3":0.0,"n_comb_c_4":2.0,"n_comb_c_5":590.0,"n_comb_c_6":0.0,"n_comb_c_7":4.0,"n_comb_cal":65.0,"n_comb_c_8":22.0,"n_comb_c_9":0.0,"n_comb__10":1.0,"n_comb__11":1.0,"n_comb__12":550.0,"n_comb__13":6.0,"n_comb__14":180.0,"n_serv_tel":821.0,"n_serv_com":633.0,"n_serv_tab":280.0,"n_serv_int":695.0,"n_serv_i_1":763.0,"n_serv_i_2":21.0,"n_internet":813.0,"n_vp":918.0,"n_vp_ocupa":811.0,"n_vp_desoc":107.0,"n_tipo_viv":27.0,"n_tipo_v_1":884.0,"n_tipo_v_2":0.0,"n_tipo_v_3":7.0,"n_tipo_v_4":0.0,"n_tipo_v_5":0.0,"n_tipo_v_6":0.0,"n_dormitor":464.0,"n_dormit_1":290.0,"n_dormit_2":50.0,"n_dormit_3":3.0,"n_dormit_4":0.0,"n_dormit_5":0.0,"n_viv_haci":51.0,"n_viv_irre":1.0,"n_hog_alle":14.0,"n_nucleos_":6.0,"n_viv_no_a":44.0,"n_deficit_":65.0,"n_mat_pare":760.0,"n_mat_pa_1":23.0,"n_mat_pa_2":2.0,"n_mat_pa_3":0.0,"n_mat_pa_4":26.0,"n_mat_pa_5":0.0,"n_mat_tech":56.0,"n_mat_te_1":695.0,"n_mat_te_2":51.0,"n_mat_te_3":9.0,"n_mat_te_4":0.0,"n_mat_te_5":0.0,"n_mat_te_6":0.0,"n_mat_te_7":0.0,"n_mat_piso":807.0,"n_mat_pi_1":0.0,"n_mat_pi_2":1.0,"n_mat_pi_3":2.0,"n_mat_pi_4":1.0,"n_fuente_a":808.0,"n_fuente_1":0.0,"n_fuente_2":1.0,"n_fuente_3":2.0,"n_distrib_":807.0,"n_distrib1":1.0,"n_distri_1":3.0,"n_serv_hig":805.0,"n_serv_h_1":3.0,"n_serv_h_2":0.0,"n_serv_h_3":0.0,"n_serv_h_4":0.0,"n_serv_h_5":0.0,"n_serv_h_6":0.0,"n_serv_h_7":0.0,"n_serv_h_8":3.0,"n_fuente_e":809.0,"n_fuente_4":0.0,"n_fuente_5":0.0,"n_fuente_6":0.0,"n_fuente_7":1.0,"n_fuente_8":1.0,"n_basura_s":808.0,"n_basura_e":3.0,"n_basura_1":0.0,"n_basura_r":0.0,"n_basura_o":0.0,"DENS_HA_VI":332.23572528,"DENS_HA_HA":581.231562962,"AREA_HA":2.76309839716,"DENS_KM_VI":33223.572528,"DENS_KM_HA":58123.1562962,"AREA_KM2":27624.6737029},"geometry":{"type":"Point","coordinates":[-70.638296,-33.449152]}},{"type":"Feature","properties":{"Join_Count":1,"TARGET_FID":186,"Join_Cou_1":1,"TARGET_F_1":186,"Join_Cou_2":1,"TARGET_F_2":186,"N_":0.0,"DIRECCIÓN":"SANTO DOMINGO Nº916\nGALERIA VEINTIUNO DE MAYO Nº556 - LOCAL Nº21","TIPO_TERRE":"PREDIO EDIFICADO","TIPO_DE_IN":"EDIFICACIÓN","INSCRIP_CO":"FS. 38.781 N°47.828 AÑO 1983","ROL_S_I_I_":"182-25 S.C.","ROL":"182-25","MANZANA_SI":182.0,"PREDIO_SII":25.0,"PREDIO2":0.0,"PREDIO3":null,"PREDIO4":null,"ORIGEN_O_D":"PROPIEDAD DOMINIO MUNICIPAL","UNIDAD_CAR":"RENTAS Y FINANZAS","NOMBRE_DES":"BODEGA RENTAS Y FINANZAS","USUARIO_AC":"BODEGA RENTAS Y FINANZAS","CLASIFICAC":"CONCESIÓN COMERCIAL","COORD_X":-70.65023,"COORD_Y":-33.436399,"OBSERVACIO":null,"OBJECTID_1":186,"UNIDAD":2.0,"BARRIO":"CENTRO HISTORICO","AGRP":"AV1","SUP_KM":1.204548,"Shape_Leng":4579.43132775,"RSH_Total":18044.0,"OBJECTID_2":200,"OBJECTID_3":184131,"COMUNA":"SANTIAGO","DISTRITO":"MONEDA","ID_MANZANA":184131,"ID_MZTXT":"184131","Shape_Le_1":467.420953985,"X":346598.5,"Y":6299122.91,"FID_Manzan":60,"COMUNA_1":"SANTIAGO","TIPO_MZ":"URBANO","cod_mzn":13101021008001,"Descripcio":"Manzana sin información","n_per":0.0,"n_hombres":0.0,"n_mujeres":0.0,"n_edad_0_5":0.0,"n_edad_6_1":0.0,"n_edad_14_":0.0,"n_edad_18_":0.0,"n_edad_25_":0.0,"n_edad_45_":0.0,"n_edad_60_":0.0,"prom_edad":0.0,"n_inmigran":0.0,"n_nacional":0.0,"n_pueblos_":0.0,"n_afrodesc":0.0,"n_lengua_i":0.0,"n_religion":0.0,"n_dificult":0.0,"n_dificu_1":0.0,"n_dificu_2":0.0,"n_dificu_3":0.0,"n_dificu_4":0.0,"n_dificu_5":0.0,"n_discapac":0.0,"n_estcivco":0.0,"n_estciv_1":0.0,"n_estciv_2":0.0,"n_estciv_3":0.0,"n_estciv_4":0.0,"n_estciv_5":0.0,"prom_escol":0.0,"n_asistenc":0.0,"n_asiste_1":0.0,"n_asiste_2":0.0,"n_asiste_3":0.0,"n_cine_nun":0.0,"n_cine_pri":0.0,"n_cine_sec":0.0,"n_cine_ter":0.0,"n_cine_esp":0.0,"n_analfabe":0.0,"n_ocupado":0.0,"n_desocupa":0.0,"n_fuera_fu":0.0,"n_cise_rec":0.0,"n_cise_r_1":0.0,"n_cise_r_2":0.0,"n_ciuo_1":0.0,"n_ciuo_2":0.0,"n_ciuo_3":0.0,"n_ciuo_4":0.0,"n_ciuo_5":0.0,"n_ciuo_6":0.0,"n_ciuo_7":0.0,"n_ciuo_8":0.0,"n_ciuo_9":0.0,"n_ciuo_0":0.0,"n_caenes_A":0.0,"n_caenes_B":0.0,"n_caenes_C":0.0,"n_caenes_D":0.0,"n_caenes_E":0.0,"n_caenes_F":0.0,"n_caenes_G":0.0,"n_caenes_H":0.0,"n_caenes_I":0.0,"n_caenes_J":0.0,"n_caenes_K":0.0,"n_caenes_L":0.0,"n_caenes_M":0.0,"n_caenes_N":0.0,"n_caenes_O":0.0,"n_caenes_P":0.0,"n_caenes_Q":0.0,"n_caenes_R":0.0,"n_caenes_S":0.0,"n_caenes_T":0.0,"n_caenes_U":0.0,"n_transpor":0.0,"n_transp_1":0.0,"n_transp_2":0.0,"n_transp_3":0.0,"n_transp_4":0.0,"n_transp_5":0.0,"n_transp_6":0.0,"n_hog":0.0,"prom_per_h":0.0,"n_hog_unip":0.0,"n_hog_60":0.0,"n_hog_meno":0.0,"n_jefatura":0.0,"n_tenencia":0.0,"n_tenenc_1":0.0,"n_tenenc_2":0.0,"n_tenenc_3":0.0,"n_tenenc_4":0.0,"n_tenenc_5":0.0,"n_tenenc_6":0.0,"n_comb_coc":0.0,"n_comb_c_1":0.0,"n_comb_c_2":0.0,"n_comb_c_3":0.0,"n_comb_c_4":0.0,"n_comb_c_5":0.0,"n_comb_c_6":0.0,"n_comb_c_7":0.0,"n_comb_cal":0.0,"n_comb_c_8":0.0,"n_comb_c_9":0.0,"n_comb__10":0.0,"n_comb__11":0.0,"n_comb__12":0.0,"n_comb__13":0.0,"n_comb__14":0.0,"n_serv_tel":0.0,"n_serv_com":0.0,"n_serv_tab":0.0,"n_serv_int":0.0,"n_serv_i_1":0.0,"n_serv_i_2":0.0,"n_internet":0.0,"n_vp":0.0,"n_vp_ocupa":0.0,"n_vp_desoc":0.0,"n_tipo_viv":0.0,"n_tipo_v_1":0.0,"n_tipo_v_2":0.0,"n_tipo_v_3":0.0,"n_tipo_v_4":0.0,"n_tipo_v_5":0.0,"n_tipo_v_6":0.0,"n_dormitor":0.0,"n_dormit_1":0.0,"n_dormit_2":0.0,"n_dormit_3":0.0,"n_dormit_4":0.0,"n_dormit_5":0.0,"n_viv_haci":0.0,"n_viv_irre":0.0,"n_hog_alle":0.0,"n_nucleos_":0.0,"n_viv_no_a":0.0,"n_deficit_":0.0,"n_mat_pare":0.0,"n_mat_pa_1":0.0,"n_mat_pa_2":0.0,"n_mat_pa_3":0.0,"n_mat_pa_4":0.0,"n_mat_pa_5":0.0,"n_mat_tech":0.0,"n_mat_te_1":0.0,"n_mat_te_2":0.0,"n_mat_te_3":0.0,"n_mat_te_4":0.0,"n_mat_te_5":0.0,"n_mat_te_6":0.0,"n_mat_te_7":0.0,"n_mat_piso":0.0,"n_mat_pi_1":0.0,"n_mat_pi_2":0.0,"n_mat_pi_3":0.0,"n_mat_pi_4":0.0,"n_fuente_a":0.0,"n_fuente_1":0.0,"n_fuente_2":0.0,"n_fuente_3":0.0,"n_distrib_":0.0,"n_distrib1":0.0,"n_distri_1":0.0,"n_serv_hig":0.0,"n_serv_h_1":0.0,"n_serv_h_2":0.0,"n_serv_h_3":0.0,"n_serv_h_4":0.0,"n_serv_h_5":0.0,"n_serv_h_6":0.0,"n_serv_h_7":0.0,"n_serv_h_8":0.0,"n_fuente_e":0.0,"n_fuente_4":0.0,"n_fuente_5":0.0,"n_fuente_6":0.0,"n_fuente_7":0.0,"n_fuente_8":0.0,"n_basura_s":0.0,"n_basura_e":0.0,"n_basura_1":0.0,"n_basura_r":0.0,"n_basura_o":0.0,"DENS_HA_VI":0.0,"DENS_HA_HA":0.0,"AREA_HA":0.0,"DENS_KM_VI":0.0,"DENS_KM_HA":0.0,"AREA_KM2":14299.7482134},"geometry":{"type":"Point","coordinates":[-70.650216,-33.436325]}}]}