{
"type": "FeatureCollection",
"name": "ECO_PTO_SUPERMERCADOS_STGO",
"features": [
{ "type": "Feature", "properties": { "TIPO_EQUIP": "Supermercado", "CALIDAD_U": "Alta", "PRESTADOR_": null, "COD_MZN": "13101211002024" }, "geometry": { "type": "Point", "coordinates": [ -70.645578, -33.474481, 0.0 ] } },
{ "type": "Feature", "properties": { "TIPO_EQUIP": "Supermercado", "CALIDAD_U": "Alta", "PRESTADOR_": null, "COD_MZN": "13101211002008" }, "geometry": { "type": "Point", "coordinates": [ -70.648708, -33.473639, 0.0 ] } },
{ "type": "Feature", "properties": { "TIPO_EQUIP": "Supermercado", "CALIDAD_U": "Alta", "PRESTADOR_": null, "COD_MZN": "13101211001017" }, "geometry": { "type": "Point", "coordinates": [ -70.642324, -33.472287, 0.0 ] } },
{ "type": "Feature", "properties": { "TIPO_EQUIP": "Supermercado", "CALIDAD_U": "Alta", "PRESTADOR_": null, "COD_MZN": "13101191001029" }, "geometry": { "type": "Point", "coordinates": [ -70.650395, -33.463555, 0.0 ] } },
{ "type": "Feature", "properties": { "TIPO_EQUIP": "Supermercado", "CALIDAD_U": "Alta", "PRESTADOR_": null, "COD_MZN": "13101131007024" }, "geometry": { "type": "Point", "coordinates": [ -70.657292, -33.454178, 0.0 ] } },
{ "type": "Feature", "properties": { "TIPO_EQUIP": "Supermercado", "CALIDAD_U": "Alta", "PRESTADOR_": null, "COD_MZN": "13101131005012" }, "geometry": { "type": "Point", "coordinates": [ -70.652196, -33.453679, 0.0 ] } },
{ "type": "Feature", "properties": { "TIPO_EQUIP": "Supermercado", "CALIDAD_U": "Alta", "PRESTADOR_": null, "COD_MZN": "13101271002009" }, "geometry": { "type": "Point", "coordinates": [ -70.665496, -33.451875, 0.0 ] } },
{ "type": "Feature", "properties": { "TIPO_EQUIP": "Supermercado", "CALIDAD_U": "Alta", "PRESTADOR_": null, "COD_MZN": "13101281002010" }, "geometry": { "type": "Point", "coordinates": [ -70.66436, -33.451686, 0.0 ] } },
{ "type": "Feature", "properties": { "TIPO_EQUIP": "Supermercado", "CALIDAD_U": "Alta", "PRESTADOR_": null, "COD_MZN": "13101101010003" }, "geometry": { "type": "Point", "coordinates": [ -70.631936, -33.450476, 0.0 ] } },
{ "type": "Feature", "properties": { "TIPO_EQUIP": "Supermercado", "CALIDAD_U": "Alta", "PRESTADOR_": null, "COD_MZN": "13101101010002" }, "geometry": { "type": "Point", "coordinates": [ -70.63458, -33.45015, 0.0 ] } },
{ "type": "Feature", "properties": { "TIPO_EQUIP": "Supermercado", "CALIDAD_U": "Alta", "PRESTADOR_": null, "COD_MZN": "13101271001012" }, "geometry": { "type": "Point", "coordinates": [ -70.668048, -33.449256, 0.0 ] } },
{ "type": "Feature", "properties": { "TIPO_EQUIP": "Supermercado", "CALIDAD_U": "Alta", "PRESTADOR_": null, "COD_MZN": "13101111019001" }, "geometry": { "type": "Point", "coordinates": [ -70.635241, -33.449098, 0.0 ] } },
{ "type": "Feature", "properties": { "TIPO_EQUIP": "Supermercado", "CALIDAD_U": "Alta", "PRESTADOR_": null, "COD_MZN": "13101051002024" }, "geometry": { "type": "Point", "coordinates": [ -70.67381, -33.448896, 0.0 ] } },
{ "type": "Feature", "properties": { "TIPO_EQUIP": "Supermercado", "CALIDAD_U": "Alta", "PRESTADOR_": null, "COD_MZN": "13101111018001" }, "geometry": { "type": "Point", "coordinates": [ -70.638997, -33.448675, 0.0 ] } },
{ "type": "Feature", "properties": { "TIPO_EQUIP": "Supermercado", "CALIDAD_U": "Alta", "PRESTADOR_": null, "COD_MZN": "13101131004001" }, "geometry": { "type": "Point", "coordinates": [ -70.651093, -33.448223, 0.0 ] } },
{ "type": "Feature", "properties": { "TIPO_EQUIP": "Supermercado", "CALIDAD_U": "Alta", "PRESTADOR_": null, "COD_MZN": "13101131009005" }, "geometry": { "type": "Point", "coordinates": [ -70.653736, -33.447894, 0.0 ] } },
{ "type": "Feature", "properties": { "TIPO_EQUIP": "Supermercado", "CALIDAD_U": "Alta", "PRESTADOR_": null, "COD_MZN": "13101131004001" }, "geometry": { "type": "Point", "coordinates": [ -70.651193, -33.447837, 0.0 ] } },
{ "type": "Feature", "properties": { "TIPO_EQUIP": "Supermercado", "CALIDAD_U": "Alta", "PRESTADOR_": null, "COD_MZN": "13101041005018" }, "geometry": { "type": "Point", "coordinates": [ -70.662496, -33.44616, 0.0 ] } },
{ "type": "Feature", "properties": { "TIPO_EQUIP": "Supermercado", "CALIDAD_U": "Alta", "PRESTADOR_": null, "COD_MZN": "13101111013003" }, "geometry": { "type": "Point", "coordinates": [ -70.643132, -33.446034, 0.0 ] } },
{ "type": "Feature", "properties": { "TIPO_EQUIP": "Supermercado", "CALIDAD_U": "Alta", "PRESTADOR_": null, "COD_MZN": "13101111015002" }, "geometry": { "type": "Point", "coordinates": [ -70.63671, -33.445596, 0.0 ] } },
{ "type": "Feature", "properties": { "TIPO_EQUIP": "Supermercado", "CALIDAD_U": "Alta", "PRESTADOR_": null, "COD_MZN": "13101121001015" }, "geometry": { "type": "Point", "coordinates": [ -70.645749, -33.445514, 0.0 ] } },
{ "type": "Feature", "properties": { "TIPO_EQUIP": "Supermercado", "CALIDAD_U": "Alta", "PRESTADOR_": null, "COD_MZN": "13101131001007" }, "geometry": { "type": "Point", "coordinates": [ -70.654659, -33.445296, 0.0 ] } },
{ "type": "Feature", "properties": { "TIPO_EQUIP": "Supermercado", "CALIDAD_U": "Alta", "PRESTADOR_": null, "COD_MZN": "13101041005016" }, "geometry": { "type": "Point", "coordinates": [ -70.664696, -33.444739, 0.0 ] } },
{ "type": "Feature", "properties": { "TIPO_EQUIP": "Supermercado", "CALIDAD_U": "Alta", "PRESTADOR_": null, "COD_MZN": "13101031007001" }, "geometry": { "type": "Point", "coordinates": [ -70.656605, -33.444736, 0.0 ] } },
{ "type": "Feature", "properties": { "TIPO_EQUIP": "Supermercado", "CALIDAD_U": "Alta", "PRESTADOR_": null, "COD_MZN": "13101031007001" }, "geometry": { "type": "Point", "coordinates": [ -70.657213, -33.444077, 0.0 ] } },
{ "type": "Feature", "properties": { "TIPO_EQUIP": "Supermercado", "CALIDAD_U": "Alta", "PRESTADOR_": null, "COD_MZN": "13101101003002" }, "geometry": { "type": "Point", "coordinates": [ -70.63751, -33.443116, 0.0 ] } },
{ "type": "Feature", "properties": { "TIPO_EQUIP": "Supermercado", "CALIDAD_U": "Alta", "PRESTADOR_": null, "COD_MZN": "13101111001009" }, "geometry": { "type": "Point", "coordinates": [ -70.642034, -33.442969, 0.0 ] } },
{ "type": "Feature", "properties": { "TIPO_EQUIP": "Supermercado", "CALIDAD_U": "Alta", "PRESTADOR_": null, "COD_MZN": "13101101001010" }, "geometry": { "type": "Point", "coordinates": [ -70.638886, -33.441545, 0.0 ] } },
{ "type": "Feature", "properties": { "TIPO_EQUIP": "Supermercado", "CALIDAD_U": "Alta", "PRESTADOR_": null, "COD_MZN": "13101021005022" }, "geometry": { "type": "Point", "coordinates": [ -70.649184, -33.44085, 0.0 ] } },
{ "type": "Feature", "properties": { "TIPO_EQUIP": "Supermercado", "CALIDAD_U": "Alta", "PRESTADOR_": null, "COD_MZN": "13101021005012" }, "geometry": { "type": "Point", "coordinates": [ -70.651797, -33.440722, 0.0 ] } },
{ "type": "Feature", "properties": { "TIPO_EQUIP": "Supermercado", "CALIDAD_U": "Alta", "PRESTADOR_": null, "COD_MZN": "13101031004004" }, "geometry": { "type": "Point", "coordinates": [ -70.657417, -33.440176, 0.0 ] } },
{ "type": "Feature", "properties": { "TIPO_EQUIP": "Supermercado", "CALIDAD_U": "Alta", "PRESTADOR_": null, "COD_MZN": "13101061001009" }, "geometry": { "type": "Point", "coordinates": [ -70.668708, -33.440055, 0.0 ] } },
{ "type": "Feature", "properties": { "TIPO_EQUIP": "Supermercado", "CALIDAD_U": "Alta", "PRESTADOR_": null, "COD_MZN": "13101021005002" }, "geometry": { "type": "Point", "coordinates": [ -70.648647, -33.43918, 0.0 ] } },
{ "type": "Feature", "properties": { "TIPO_EQUIP": "Supermercado", "CALIDAD_U": "Alta", "PRESTADOR_": null, "COD_MZN": "13101021005005" }, "geometry": { "type": "Point", "coordinates": [ -70.654064, -33.439175, 0.0 ] } },
{ "type": "Feature", "properties": { "TIPO_EQUIP": "Supermercado", "CALIDAD_U": "Alta", "PRESTADOR_": null, "COD_MZN": "13101041003002" }, "geometry": { "type": "Point", "coordinates": [ -70.663106, -33.438885, 0.0 ] } },
{ "type": "Feature", "properties": { "TIPO_EQUIP": "Supermercado", "CALIDAD_U": "Alta", "PRESTADOR_": null, "COD_MZN": "13101011005004" }, "geometry": { "type": "Point", "coordinates": [ -70.645788, -33.438195, 0.0 ] } },
{ "type": "Feature", "properties": { "TIPO_EQUIP": "Supermercado", "CALIDAD_U": "Alta", "PRESTADOR_": null, "COD_MZN": "13101021007007" }, "geometry": { "type": "Point", "coordinates": [ -70.648524, -33.438121, 0.0 ] } },
{ "type": "Feature", "properties": { "TIPO_EQUIP": "Supermercado", "CALIDAD_U": "Alta", "PRESTADOR_": null, "COD_MZN": "13101011004002" }, "geometry": { "type": "Point", "coordinates": [ -70.644807, -33.438067, 0.0 ] } },
{ "type": "Feature", "properties": { "TIPO_EQUIP": "Supermercado", "CALIDAD_U": "Alta", "PRESTADOR_": null, "COD_MZN": "13101021008008" }, "geometry": { "type": "Point", "coordinates": [ -70.655245, -33.438043, 0.0 ] } },
{ "type": "Feature", "properties": { "TIPO_EQUIP": "Supermercado", "CALIDAD_U": "Alta", "PRESTADOR_": null, "COD_MZN": "13101071003003" }, "geometry": { "type": "Point", "coordinates": [ -70.674631, -33.437764, 0.0 ] } },
{ "type": "Feature", "properties": { "TIPO_EQUIP": "Supermercado", "CALIDAD_U": "Alta", "PRESTADOR_": null, "COD_MZN": "13101021003002" }, "geometry": { "type": "Point", "coordinates": [ -70.654931, -33.437572, 0.0 ] } },
{ "type": "Feature", "properties": { "TIPO_EQUIP": "Supermercado", "CALIDAD_U": "Alta", "PRESTADOR_": null, "COD_MZN": "13101021006002" }, "geometry": { "type": "Point", "coordinates": [ -70.647567, -33.437151, 0.0 ] } },
{ "type": "Feature", "properties": { "TIPO_EQUIP": "Supermercado", "CALIDAD_U": "Alta", "PRESTADOR_": null, "COD_MZN": "13101021006001" }, "geometry": { "type": "Point", "coordinates": [ -70.647555, -33.436818, 0.0 ] } },
{ "type": "Feature", "properties": { "TIPO_EQUIP": "Supermercado", "CALIDAD_U": "Alta", "PRESTADOR_": null, "COD_MZN": "13101021004012" }, "geometry": { "type": "Point", "coordinates": [ -70.652007, -33.436127, 0.0 ] } },
{ "type": "Feature", "properties": { "TIPO_EQUIP": "Supermercado", "CALIDAD_U": "Alta", "PRESTADOR_": null, "COD_MZN": "13101071003002" }, "geometry": { "type": "Point", "coordinates": [ -70.676296, -33.435654, 0.0 ] } },
{ "type": "Feature", "properties": { "TIPO_EQUIP": "Supermercado", "CALIDAD_U": "Alta", "PRESTADOR_": null, "COD_MZN": "13101081002017" }, "geometry": { "type": "Point", "coordinates": [ -70.67074, -33.43519, 0.0 ] } },
{ "type": "Feature", "properties": { "TIPO_EQUIP": "Supermercado", "CALIDAD_U": "Alta", "PRESTADOR_": null, "COD_MZN": "13101071002014" }, "geometry": { "type": "Point", "coordinates": [ -70.675284, -33.435048, 0.0 ] } },
{ "type": "Feature", "properties": { "TIPO_EQUIP": "Supermercado", "CALIDAD_U": "Alta", "PRESTADOR_": null, "COD_MZN": "13101021004004" }, "geometry": { "type": "Point", "coordinates": [ -70.653316, -33.434141, 0.0 ] } },
{ "type": "Feature", "properties": { "TIPO_EQUIP": "Supermercado", "CALIDAD_U": "Alta", "PRESTADOR_": null, "COD_MZN": "13101021004005" }, "geometry": { "type": "Point", "coordinates": [ -70.650086, -33.434039, 0.0 ] } },
{ "type": "Feature", "properties": { "TIPO_EQUIP": "Supermercado", "CALIDAD_U": "Alta", "PRESTADOR_": null, "COD_MZN": "13101021004005" }, "geometry": { "type": "Point", "coordinates": [ -70.649693, -33.433875, 0.0 ] } }
]
}
