{"type":"FeatureCollection","name":"ECO_PTO_FARMACIAS","features":[{"type":"Feature","properties":{"Join_Count":1,"TARGET_FID":0,"TIPO_EQUIP":"Farmacia","CALIDAD_U":"Alta","PRESTADOR_":null,"OBJECTID":13,"UNIDAD":25.0,"BARRIO":"HUEMUL","AGRP":"AV10","SUP_KM":0.453905,"Shape_Leng":2885.31698719,"Shape_Area":453902.121604,"RSH_Total":4686.0},"geometry":{"type":"Point","coordinates":[-70.648522,-33.475872,0.0]}},{"type":"Feature","properties":{"Join_Count":1,"TARGET_FID":1,"TIPO_EQUIP":"Farmacia","CALIDAD_U":"Alta","PRESTADOR_":null,"OBJECTID":13,"UNIDAD":25.0,"BARRIO":"HUEMUL","AGRP":"AV10","SUP_KM":0.453905,"Shape_Leng":2885.31698719,"Shape_Area":453902.121604,"RSH_Total":4686.0},"geometry":{"type":"Point","coordinates":[-70.649946,-33.475821,0.0]}},{"type":"Feature","properties":{"Join_Count":1,"TARGET_FID":2,"TIPO_EQUIP":"Farmacia","CALIDAD_U":"Alta","PRESTADOR_":null,"OBJECTID":13,"UNIDAD":25.0,"BARRIO":"HUEMUL","AGRP":"AV10","SUP_KM":0.453905,"Shape_Leng":2885.31698719,"Shape_Area":453902.121604,"RSH_Total":4686.0},"geometry":{"type":"Point","coordinates":[-70.648558,-33.47403,0.0]}},{"type":"Feature","properties":{"Join_Count":1,"TARGET_FID":3,"TIPO_EQUIP":"Farmacia","CALIDAD_U":"Alta","PRESTADOR_":null,"OBJECTID":12,"UNIDAD":23.0,"BARRIO":"FRANKLIN","AGRP":"AV10","SUP_KM":0.463967,"Shape_Leng":2760.27800212,"Shape_Area":463963.510311,"RSH_Total":3795.0},"geometry":{"type":"Point","coordinates":[-70.646894,-33.473312,0.0]}},{"type":"Feature","properties":{"Join_Count":1,"TARGET_FID":4,"TIPO_EQUIP":"Farmacia","CALIDAD_U":"Alta","PRESTADOR_":null,"OBJECTID":13,"UNIDAD":25.0,"BARRIO":"HUEMUL","AGRP":"AV10","SUP_KM":0.453905,"Shape_Leng":2885.31698719,"Shape_Area":453902.121604,"RSH_Total":4686.0},"geometry":{"type":"Point","coordinates":[-70.648552,-33.473171,0.0]}},{"type":"Feature","properties":{"Join_Count":1,"TARGET_FID":5,"TIPO_EQUIP":"Farmacia","CALIDAD_U":"Alta","PRESTADOR_":null,"OBJECTID":12,"UNIDAD":23.0,"BARRIO":"FRANKLIN","AGRP":"AV10","SUP_KM":0.463967,"Shape_Leng":2760.27800212,"Shape_Area":463963.510311,"RSH_Total":3795.0},"geometry":{"type":"Point","coordinates":[-70.643634,-33.473109,0.0]}},{"type":"Feature","properties":{"Join_Count":1,"TARGET_FID":6,"TIPO_EQUIP":"Farmacia","CALIDAD_U":"Alta","PRESTADOR_":null,"OBJECTID":12,"UNIDAD":23.0,"BARRIO":"FRANKLIN","AGRP":"AV10","SUP_KM":0.463967,"Shape_Leng":2760.27800212,"Shape_Area":463963.510311,"RSH_Total":3795.0},"geometry":{"type":"Point","coordinates":[-70.64819,-33.473091,0.0]}},{"type":"Feature","properties":{"Join_Count":1,"TARGET_FID":7,"TIPO_EQUIP":"Farmacia","CALIDAD_U":"Alta","PRESTADOR_":null,"OBJECTID":12,"UNIDAD":23.0,"BARRIO":"FRANKLIN","AGRP":"AV10","SUP_KM":0.463967,"Shape_Leng":2760.27800212,"Shape_Area":463963.510311,"RSH_Total":3795.0},"geometry":{"type":"Point","coordinates":[-70.646399,-33.473013,0.0]}},{"type":"Feature","properties":{"Join_Count":1,"TARGET_FID":8,"TIPO_EQUIP":"Farmacia","CALIDAD_U":"Alta","PRESTADOR_":null,"OBJECTID":12,"UNIDAD":23.0,"BARRIO":"FRANKLIN","AGRP":"AV10","SUP_KM":0.463967,"Shape_Leng":2760.27800212,"Shape_Area":463963.510311,"RSH_Total":3795.0},"geometry":{"type":"Point","coordinates":[-70.648186,-33.472899,0.0]}},{"type":"Feature","properties":{"Join_Count":1,"TARGET_FID":9,"TIPO_EQUIP":"Farmacia","CALIDAD_U":"Alta","PRESTADOR_":null,"OBJECTID":12,"UNIDAD":23.0,"BARRIO":"FRANKLIN","AGRP":"AV10","SUP_KM":0.463967,"Shape_Leng":2760.27800212,"Shape_Area":463963.510311,"RSH_Total":3795.0},"geometry":{"type":"Point","coordinates":[-70.642278,-33.47274,0.0]}},{"type":"Feature","properties":{"Join_Count":1,"TARGET_FID":10,"TIPO_EQUIP":"Farmacia","CALIDAD_U":"Alta","PRESTADOR_":null,"OBJECTID":13,"UNIDAD":25.0,"BARRIO":"HUEMUL","AGRP":"AV10","SUP_KM":0.453905,"Shape_Leng":2885.31698719,"Shape_Area":453902.121604,"RSH_Total":4686.0},"geometry":{"type":"Point","coordinates":[-70.648583,-33.472167,0.0]}},{"type":"Feature","properties":{"Join_Count":1,"TARGET_FID":11,"TIPO_EQUIP":"Farmacia","CALIDAD_U":"Alta","PRESTADOR_":null,"OBJECTID":15,"UNIDAD":20.0,"BARRIO":"SIERRA BELLA","AGRP":"AV10","SUP_KM":1.005434,"Shape_Leng":4389.52637276,"Shape_Area":1005427.77709,"RSH_Total":8740.0},"geometry":{"type":"Point","coordinates":[-70.633233,-33.472124,0.0]}},{"type":"Feature","properties":{"Join_Count":1,"TARGET_FID":12,"TIPO_EQUIP":"Farmacia","CALIDAD_U":"Alta","PRESTADOR_":null,"OBJECTID":12,"UNIDAD":23.0,"BARRIO":"FRANKLIN","AGRP":"AV10","SUP_KM":0.463967,"Shape_Leng":2760.27800212,"Shape_Area":463963.510311,"RSH_Total":3795.0},"geometry":{"type":"Point","coordinates":[-70.647683,-33.471994,0.0]}},{"type":"Feature","properties":{"Join_Count":1,"TARGET_FID":13,"TIPO_EQUIP":"Farmacia","CALIDAD_U":"Alta","PRESTADOR_":null,"OBJECTID":14,"UNIDAD":26.0,"BARRIO":"RONDIZZONI","AGRP":"AV10","SUP_KM":0.541199,"Shape_Leng":3113.40148823,"Shape_Area":541195.273815,"RSH_Total":2151.0},"geometry":{"type":"Point","coordinates":[-70.656828,-33.470267,0.0]}},{"type":"Feature","properties":{"Join_Count":1,"TARGET_FID":14,"TIPO_EQUIP":"Farmacia","CALIDAD_U":"Alta","PRESTADOR_":null,"OBJECTID":8,"UNIDAD":16.0,"BARRIO":"SAN EUGENIO","AGRP":"AV9","SUP_KM":1.096354,"Shape_Leng":7061.45527805,"Shape_Area":1096346.50376,"RSH_Total":9547.0},"geometry":{"type":"Point","coordinates":[-70.671797,-33.468238,0.0]}},{"type":"Feature","properties":{"Join_Count":1,"TARGET_FID":15,"TIPO_EQUIP":"Farmacia","CALIDAD_U":"Alta","PRESTADOR_":null,"OBJECTID":11,"UNIDAD":22.0,"BARRIO":"BOGOTA","AGRP":"AV10","SUP_KM":1.129736,"Shape_Leng":4717.30974561,"Shape_Area":1129728.38651,"RSH_Total":12997.0},"geometry":{"type":"Point","coordinates":[-70.633246,-33.46778,0.0]}},{"type":"Feature","properties":{"Join_Count":1,"TARGET_FID":16,"TIPO_EQUIP":"Farmacia","CALIDAD_U":"Alta","PRESTADOR_":null,"OBJECTID":11,"UNIDAD":22.0,"BARRIO":"BOGOTA","AGRP":"AV10","SUP_KM":1.129736,"Shape_Leng":4717.30974561,"Shape_Area":1129728.38651,"RSH_Total":12997.0},"geometry":{"type":"Point","coordinates":[-70.648556,-33.466917,0.0]}},{"type":"Feature","properties":{"Join_Count":1,"TARGET_FID":17,"TIPO_EQUIP":"Farmacia","CALIDAD_U":"Alta","PRESTADOR_":null,"OBJECTID":8,"UNIDAD":16.0,"BARRIO":"SAN EUGENIO","AGRP":"AV9","SUP_KM":1.096354,"Shape_Leng":7061.45527805,"Shape_Area":1096346.50376,"RSH_Total":9547.0},"geometry":{"type":"Point","coordinates":[-70.674451,-33.466672,0.0]}},{"type":"Feature","properties":{"Join_Count":1,"TARGET_FID":18,"TIPO_EQUIP":"Farmacia","CALIDAD_U":"Alta","PRESTADOR_":null,"OBJECTID":25,"UNIDAD":24.0,"BARRIO":"VIEL","AGRP":"AV10","SUP_KM":0.81382,"Shape_Leng":3671.93495684,"Shape_Area":813814.630202,"RSH_Total":15288.0},"geometry":{"type":"Point","coordinates":[-70.648971,-33.466325,0.0]}},{"type":"Feature","properties":{"Join_Count":1,"TARGET_FID":19,"TIPO_EQUIP":"Farmacia","CALIDAD_U":"Alta","PRESTADOR_":null,"OBJECTID":9,"UNIDAD":19.0,"BARRIO":"SANTA ELENA","AGRP":"AV10","SUP_KM":0.463646,"Shape_Leng":3358.04988069,"Shape_Area":463643.272416,"RSH_Total":11080.0},"geometry":{"type":"Point","coordinates":[-70.626933,-33.466179,0.0]}},{"type":"Feature","properties":{"Join_Count":1,"TARGET_FID":20,"TIPO_EQUIP":"Farmacia","CALIDAD_U":"Alta","PRESTADOR_":null,"OBJECTID":25,"UNIDAD":24.0,"BARRIO":"VIEL","AGRP":"AV10","SUP_KM":0.81382,"Shape_Leng":3671.93495684,"Shape_Area":813814.630202,"RSH_Total":15288.0},"geometry":{"type":"Point","coordinates":[-70.651833,-33.464236,0.0]}},{"type":"Feature","properties":{"Join_Count":1,"TARGET_FID":21,"TIPO_EQUIP":"Farmacia","CALIDAD_U":"Alta","PRESTADOR_":null,"OBJECTID":11,"UNIDAD":22.0,"BARRIO":"BOGOTA","AGRP":"AV10","SUP_KM":1.129736,"Shape_Leng":4717.30974561,"Shape_Area":1129728.38651,"RSH_Total":12997.0},"geometry":{"type":"Point","coordinates":[-70.635315,-33.464032,0.0]}},{"type":"Feature","properties":{"Join_Count":1,"TARGET_FID":22,"TIPO_EQUIP":"Farmacia","CALIDAD_U":"Alta","PRESTADOR_":null,"OBJECTID":25,"UNIDAD":24.0,"BARRIO":"VIEL","AGRP":"AV10","SUP_KM":0.81382,"Shape_Leng":3671.93495684,"Shape_Area":813814.630202,"RSH_Total":15288.0},"geometry":{"type":"Point","coordinates":[-70.649067,-33.463647,0.0]}},{"type":"Feature","properties":{"Join_Count":1,"TARGET_FID":23,"TIPO_EQUIP":"Farmacia","CALIDAD_U":"Alta","PRESTADOR_":null,"OBJECTID":11,"UNIDAD":22.0,"BARRIO":"BOGOTA","AGRP":"AV10","SUP_KM":1.129736,"Shape_Leng":4717.30974561,"Shape_Area":1129728.38651,"RSH_Total":12997.0},"geometry":{"type":"Point","coordinates":[-70.644425,-33.463364,0.0]}},{"type":"Feature","properties":{"Join_Count":1,"TARGET_FID":24,"TIPO_EQUIP":"Farmacia","CALIDAD_U":"Alta","PRESTADOR_":null,"OBJECTID":10,"UNIDAD":21.0,"BARRIO":"MATTA SUR","AGRP":"AV10","SUP_KM":0.834843,"Shape_Leng":4164.22221642,"Shape_Area":834837.713754,"RSH_Total":11940.0},"geometry":{"type":"Point","coordinates":[-70.642582,-33.46282,0.0]}},{"type":"Feature","properties":{"Join_Count":1,"TARGET_FID":25,"TIPO_EQUIP":"Farmacia","CALIDAD_U":"Alta","PRESTADOR_":null,"OBJECTID":25,"UNIDAD":24.0,"BARRIO":"VIEL","AGRP":"AV10","SUP_KM":0.81382,"Shape_Leng":3671.93495684,"Shape_Area":813814.630202,"RSH_Total":15288.0},"geometry":{"type":"Point","coordinates":[-70.656087,-33.460662,0.0]}},{"type":"Feature","properties":{"Join_Count":1,"TARGET_FID":26,"TIPO_EQUIP":"Farmacia","CALIDAD_U":"Alta","PRESTADOR_":null,"OBJECTID":25,"UNIDAD":24.0,"BARRIO":"VIEL","AGRP":"AV10","SUP_KM":0.81382,"Shape_Leng":3671.93495684,"Shape_Area":813814.630202,"RSH_Total":15288.0},"geometry":{"type":"Point","coordinates":[-70.655774,-33.460626,0.0]}},{"type":"Feature","properties":{"Join_Count":1,"TARGET_FID":27,"TIPO_EQUIP":"Farmacia","CALIDAD_U":"Alta","PRESTADOR_":null,"OBJECTID":25,"UNIDAD":24.0,"BARRIO":"VIEL","AGRP":"AV10","SUP_KM":0.81382,"Shape_Leng":3671.93495684,"Shape_Area":813814.630202,"RSH_Total":15288.0},"geometry":{"type":"Point","coordinates":[-70.652067,-33.460122,0.0]}},{"type":"Feature","properties":{"Join_Count":1,"TARGET_FID":28,"TIPO_EQUIP":"Farmacia","CALIDAD_U":"Alta","PRESTADOR_":null,"OBJECTID":10,"UNIDAD":21.0,"BARRIO":"MATTA SUR","AGRP":"AV10","SUP_KM":0.834843,"Shape_Leng":4164.22221642,"Shape_Area":834837.713754,"RSH_Total":11940.0},"geometry":{"type":"Point","coordinates":[-70.648906,-33.459921,0.0]}},{"type":"Feature","properties":{"Join_Count":1,"TARGET_FID":29,"TIPO_EQUIP":"Farmacia","CALIDAD_U":"Alta","PRESTADOR_":null,"OBJECTID":10,"UNIDAD":21.0,"BARRIO":"MATTA SUR","AGRP":"AV10","SUP_KM":0.834843,"Shape_Leng":4164.22221642,"Shape_Area":834837.713754,"RSH_Total":11940.0},"geometry":{"type":"Point","coordinates":[-70.642991,-33.45926,0.0]}},{"type":"Feature","properties":{"Join_Count":1,"TARGET_FID":30,"TIPO_EQUIP":"Farmacia","CALIDAD_U":"Alta","PRESTADOR_":null,"OBJECTID":23,"UNIDAD":12.0,"BARRIO":"MATTA NORTE","AGRP":"AV8","SUP_KM":1.00065,"Shape_Leng":4717.45683619,"Shape_Area":1000643.8321,"RSH_Total":22894.0},"geometry":{"type":"Point","coordinates":[-70.645676,-33.458602,0.0]}},{"type":"Feature","properties":{"Join_Count":1,"TARGET_FID":31,"TIPO_EQUIP":"Farmacia","CALIDAD_U":"Alta","PRESTADOR_":null,"OBJECTID":23,"UNIDAD":12.0,"BARRIO":"MATTA NORTE","AGRP":"AV8","SUP_KM":1.00065,"Shape_Leng":4717.45683619,"Shape_Area":1000643.8321,"RSH_Total":22894.0},"geometry":{"type":"Point","coordinates":[-70.645551,-33.458571,0.0]}},{"type":"Feature","properties":{"Join_Count":1,"TARGET_FID":32,"TIPO_EQUIP":"Farmacia","CALIDAD_U":"Alta","PRESTADOR_":null,"OBJECTID":23,"UNIDAD":12.0,"BARRIO":"MATTA NORTE","AGRP":"AV8","SUP_KM":1.00065,"Shape_Leng":4717.45683619,"Shape_Area":1000643.8321,"RSH_Total":22894.0},"geometry":{"type":"Point","coordinates":[-70.651693,-33.458569,0.0]}},{"type":"Feature","properties":{"Join_Count":1,"TARGET_FID":33,"TIPO_EQUIP":"Farmacia","CALIDAD_U":"Alta","PRESTADOR_":null,"OBJECTID":10,"UNIDAD":21.0,"BARRIO":"MATTA SUR","AGRP":"AV10","SUP_KM":0.834843,"Shape_Leng":4164.22221642,"Shape_Area":834837.713754,"RSH_Total":11940.0},"geometry":{"type":"Point","coordinates":[-70.643065,-33.458544,0.0]}},{"type":"Feature","properties":{"Join_Count":1,"TARGET_FID":34,"TIPO_EQUIP":"Farmacia","CALIDAD_U":"Alta","PRESTADOR_":null,"OBJECTID":10,"UNIDAD":21.0,"BARRIO":"MATTA SUR","AGRP":"AV10","SUP_KM":0.834843,"Shape_Leng":4164.22221642,"Shape_Area":834837.713754,"RSH_Total":11940.0},"geometry":{"type":"Point","coordinates":[-70.640126,-33.457944,0.0]}},{"type":"Feature","properties":{"Join_Count":1,"TARGET_FID":35,"TIPO_EQUIP":"Farmacia","CALIDAD_U":"Alta","PRESTADOR_":null,"OBJECTID":23,"UNIDAD":12.0,"BARRIO":"MATTA NORTE","AGRP":"AV8","SUP_KM":1.00065,"Shape_Leng":4717.45683619,"Shape_Area":1000643.8321,"RSH_Total":22894.0},"geometry":{"type":"Point","coordinates":[-70.651168,-33.457091,0.0]}},{"type":"Feature","properties":{"Join_Count":1,"TARGET_FID":36,"TIPO_EQUIP":"Farmacia","CALIDAD_U":"Alta","PRESTADOR_":null,"OBJECTID":23,"UNIDAD":12.0,"BARRIO":"MATTA NORTE","AGRP":"AV8","SUP_KM":1.00065,"Shape_Leng":4717.45683619,"Shape_Area":1000643.8321,"RSH_Total":22894.0},"geometry":{"type":"Point","coordinates":[-70.647915,-33.45678,0.0]}},{"type":"Feature","properties":{"Join_Count":1,"TARGET_FID":37,"TIPO_EQUIP":"Farmacia","CALIDAD_U":"Alta","PRESTADOR_":null,"OBJECTID":4,"UNIDAD":10.0,"BARRIO":"DIEZ DE JULIO","AGRP":"AV7","SUP_KM":0.661231,"Shape_Leng":3501.41722695,"Shape_Area":661227.224732,"RSH_Total":11662.0},"geometry":{"type":"Point","coordinates":[-70.630785,-33.455393,0.0]}},{"type":"Feature","properties":{"Join_Count":1,"TARGET_FID":38,"TIPO_EQUIP":"Farmacia","CALIDAD_U":"Alta","PRESTADOR_":null,"OBJECTID":4,"UNIDAD":10.0,"BARRIO":"DIEZ DE JULIO","AGRP":"AV7","SUP_KM":0.661231,"Shape_Leng":3501.41722695,"Shape_Area":661227.224732,"RSH_Total":11662.0},"geometry":{"type":"Point","coordinates":[-70.63521,-33.455385,0.0]}},{"type":"Feature","properties":{"Join_Count":1,"TARGET_FID":39,"TIPO_EQUIP":"Farmacia","CALIDAD_U":"Alta","PRESTADOR_":null,"OBJECTID":4,"UNIDAD":10.0,"BARRIO":"DIEZ DE JULIO","AGRP":"AV7","SUP_KM":0.661231,"Shape_Leng":3501.41722695,"Shape_Area":661227.224732,"RSH_Total":11662.0},"geometry":{"type":"Point","coordinates":[-70.64205,-33.454567,0.0]}},{"type":"Feature","properties":{"Join_Count":1,"TARGET_FID":40,"TIPO_EQUIP":"Farmacia","CALIDAD_U":"Alta","PRESTADOR_":null,"OBJECTID":5,"UNIDAD":17.0,"BARRIO":"MEIGGS","AGRP":"AV9","SUP_KM":0.511224,"Shape_Leng":3001.62446712,"Shape_Area":511220.359255,"RSH_Total":1882.0},"geometry":{"type":"Point","coordinates":[-70.675941,-33.454565,0.0]}},{"type":"Feature","properties":{"Join_Count":1,"TARGET_FID":41,"TIPO_EQUIP":"Farmacia","CALIDAD_U":"Alta","PRESTADOR_":null,"OBJECTID":20,"UNIDAD":11.0,"BARRIO":"PARQUE ALMAGRO","AGRP":"AV8","SUP_KM":1.284634,"Shape_Leng":4871.32698351,"Shape_Area":1284625.25653,"RSH_Total":34913.0},"geometry":{"type":"Point","coordinates":[-70.657377,-33.454366,0.0]}},{"type":"Feature","properties":{"Join_Count":1,"TARGET_FID":42,"TIPO_EQUIP":"Farmacia","CALIDAD_U":"Alta","PRESTADOR_":null,"OBJECTID":20,"UNIDAD":11.0,"BARRIO":"PARQUE ALMAGRO","AGRP":"AV8","SUP_KM":1.284634,"Shape_Leng":4871.32698351,"Shape_Area":1284625.25653,"RSH_Total":34913.0},"geometry":{"type":"Point","coordinates":[-70.656406,-33.454174,0.0]}},{"type":"Feature","properties":{"Join_Count":1,"TARGET_FID":43,"TIPO_EQUIP":"Farmacia","CALIDAD_U":"Alta","PRESTADOR_":null,"OBJECTID":20,"UNIDAD":11.0,"BARRIO":"PARQUE ALMAGRO","AGRP":"AV8","SUP_KM":1.284634,"Shape_Leng":4871.32698351,"Shape_Area":1284625.25653,"RSH_Total":34913.0},"geometry":{"type":"Point","coordinates":[-70.652399,-33.454105,0.0]}},{"type":"Feature","properties":{"Join_Count":1,"TARGET_FID":44,"TIPO_EQUIP":"Farmacia","CALIDAD_U":"Alta","PRESTADOR_":null,"OBJECTID":21,"UNIDAD":13.0,"BARRIO":"EJERCITO","AGRP":"AV8","SUP_KM":0.707824,"Shape_Leng":3770.08981249,"Shape_Area":707819.010554,"RSH_Total":10861.0},"geometry":{"type":"Point","coordinates":[-70.663152,-33.45383,0.0]}},{"type":"Feature","properties":{"Join_Count":1,"TARGET_FID":45,"TIPO_EQUIP":"Farmacia","CALIDAD_U":"Alta","PRESTADOR_":null,"OBJECTID":23,"UNIDAD":12.0,"BARRIO":"MATTA NORTE","AGRP":"AV8","SUP_KM":1.00065,"Shape_Leng":4717.45683619,"Shape_Area":1000643.8321,"RSH_Total":22894.0},"geometry":{"type":"Point","coordinates":[-70.649948,-33.453524,0.0]}},{"type":"Feature","properties":{"Join_Count":1,"TARGET_FID":46,"TIPO_EQUIP":"Farmacia","CALIDAD_U":"Alta","PRESTADOR_":null,"OBJECTID":21,"UNIDAD":13.0,"BARRIO":"EJERCITO","AGRP":"AV8","SUP_KM":0.707824,"Shape_Leng":3770.08981249,"Shape_Area":707819.010554,"RSH_Total":10861.0},"geometry":{"type":"Point","coordinates":[-70.660805,-33.453363,0.0]}},{"type":"Feature","properties":{"Join_Count":1,"TARGET_FID":47,"TIPO_EQUIP":"Farmacia","CALIDAD_U":"Alta","PRESTADOR_":null,"OBJECTID":4,"UNIDAD":10.0,"BARRIO":"DIEZ DE JULIO","AGRP":"AV7","SUP_KM":0.661231,"Shape_Leng":3501.41722695,"Shape_Area":661227.224732,"RSH_Total":11662.0},"geometry":{"type":"Point","coordinates":[-70.630981,-33.453186,0.0]}},{"type":"Feature","properties":{"Join_Count":1,"TARGET_FID":48,"TIPO_EQUIP":"Farmacia","CALIDAD_U":"Baja","PRESTADOR_":null,"OBJECTID":20,"UNIDAD":11.0,"BARRIO":"PARQUE ALMAGRO","AGRP":"AV8","SUP_KM":1.284634,"Shape_Leng":4871.32698351,"Shape_Area":1284625.25653,"RSH_Total":34913.0},"geometry":{"type":"Point","coordinates":[-70.655389,-33.452754,0.0]}},{"type":"Feature","properties":{"Join_Count":1,"TARGET_FID":49,"TIPO_EQUIP":"Farmacia","CALIDAD_U":"Alta","PRESTADOR_":null,"OBJECTID":21,"UNIDAD":13.0,"BARRIO":"EJERCITO","AGRP":"AV8","SUP_KM":0.707824,"Shape_Leng":3770.08981249,"Shape_Area":707819.010554,"RSH_Total":10861.0},"geometry":{"type":"Point","coordinates":[-70.663225,-33.45263,0.0]}},{"type":"Feature","properties":{"Join_Count":1,"TARGET_FID":50,"TIPO_EQUIP":"Farmacia","CALIDAD_U":"Alta","PRESTADOR_":null,"OBJECTID":5,"UNIDAD":17.0,"BARRIO":"MEIGGS","AGRP":"AV9","SUP_KM":0.511224,"Shape_Leng":3001.62446712,"Shape_Area":511220.359255,"RSH_Total":1882.0},"geometry":{"type":"Point","coordinates":[-70.675903,-33.452535,0.0]}},{"type":"Feature","properties":{"Join_Count":1,"TARGET_FID":51,"TIPO_EQUIP":"Farmacia","CALIDAD_U":"Alta","PRESTADOR_":null,"OBJECTID":5,"UNIDAD":17.0,"BARRIO":"MEIGGS","AGRP":"AV9","SUP_KM":0.511224,"Shape_Leng":3001.62446712,"Shape_Area":511220.359255,"RSH_Total":1882.0},"geometry":{"type":"Point","coordinates":[-70.672963,-33.452421,0.0]}},{"type":"Feature","properties":{"Join_Count":1,"TARGET_FID":52,"TIPO_EQUIP":"Farmacia","CALIDAD_U":"Alta","PRESTADOR_":null,"OBJECTID":5,"UNIDAD":17.0,"BARRIO":"MEIGGS","AGRP":"AV9","SUP_KM":0.511224,"Shape_Leng":3001.62446712,"Shape_Area":511220.359255,"RSH_Total":1882.0},"geometry":{"type":"Point","coordinates":[-70.676147,-33.452346,0.0]}},{"type":"Feature","properties":{"Join_Count":1,"TARGET_FID":53,"TIPO_EQUIP":"Farmacia","CALIDAD_U":"Alta","PRESTADOR_":null,"OBJECTID":23,"UNIDAD":12.0,"BARRIO":"MATTA NORTE","AGRP":"AV8","SUP_KM":1.00065,"Shape_Leng":4717.45683619,"Shape_Area":1000643.8321,"RSH_Total":22894.0},"geometry":{"type":"Point","coordinates":[-70.650106,-33.452285,0.0]}},{"type":"Feature","properties":{"Join_Count":1,"TARGET_FID":54,"TIPO_EQUIP":"Farmacia","CALIDAD_U":"Alta","PRESTADOR_":null,"OBJECTID":5,"UNIDAD":17.0,"BARRIO":"MEIGGS","AGRP":"AV9","SUP_KM":0.511224,"Shape_Leng":3001.62446712,"Shape_Area":511220.359255,"RSH_Total":1882.0},"geometry":{"type":"Point","coordinates":[-70.677632,-33.45187,0.0]}},{"type":"Feature","properties":{"Join_Count":1,"TARGET_FID":55,"TIPO_EQUIP":"Farmacia","CALIDAD_U":"Alta","PRESTADOR_":null,"OBJECTID":3,"UNIDAD":9.0,"BARRIO":"SANTA ISABEL","AGRP":"AV7","SUP_KM":0.944985,"Shape_Leng":4562.55836169,"Shape_Area":944978.874714,"RSH_Total":36490.0},"geometry":{"type":"Point","coordinates":[-70.631262,-33.451659,0.0]}},{"type":"Feature","properties":{"Join_Count":1,"TARGET_FID":56,"TIPO_EQUIP":"Farmacia","CALIDAD_U":"Alta","PRESTADOR_":null,"OBJECTID":21,"UNIDAD":13.0,"BARRIO":"EJERCITO","AGRP":"AV8","SUP_KM":0.707824,"Shape_Leng":3770.08981249,"Shape_Area":707819.010554,"RSH_Total":10861.0},"geometry":{"type":"Point","coordinates":[-70.664389,-33.451659,0.0]}},{"type":"Feature","properties":{"Join_Count":1,"TARGET_FID":57,"TIPO_EQUIP":"Farmacia","CALIDAD_U":"Alta","PRESTADOR_":null,"OBJECTID":23,"UNIDAD":12.0,"BARRIO":"MATTA NORTE","AGRP":"AV8","SUP_KM":1.00065,"Shape_Leng":4717.45683619,"Shape_Area":1000643.8321,"RSH_Total":22894.0},"geometry":{"type":"Point","coordinates":[-70.646997,-33.451206,0.0]}},{"type":"Feature","properties":{"Join_Count":1,"TARGET_FID":58,"TIPO_EQUIP":"Farmacia","CALIDAD_U":"Alta","PRESTADOR_":null,"OBJECTID":5,"UNIDAD":17.0,"BARRIO":"MEIGGS","AGRP":"AV9","SUP_KM":0.511224,"Shape_Leng":3001.62446712,"Shape_Area":511220.359255,"RSH_Total":1882.0},"geometry":{"type":"Point","coordinates":[-70.677177,-33.451164,0.0]}},{"type":"Feature","properties":{"Join_Count":1,"TARGET_FID":59,"TIPO_EQUIP":"Farmacia","CALIDAD_U":"Alta","PRESTADOR_":null,"OBJECTID":20,"UNIDAD":11.0,"BARRIO":"PARQUE ALMAGRO","AGRP":"AV8","SUP_KM":1.284634,"Shape_Leng":4871.32698351,"Shape_Area":1284625.25653,"RSH_Total":34913.0},"geometry":{"type":"Point","coordinates":[-70.650681,-33.451053,0.0]}},{"type":"Feature","properties":{"Join_Count":1,"TARGET_FID":60,"TIPO_EQUIP":"Farmacia","CALIDAD_U":"Alta","PRESTADOR_":null,"OBJECTID":21,"UNIDAD":13.0,"BARRIO":"EJERCITO","AGRP":"AV8","SUP_KM":0.707824,"Shape_Leng":3770.08981249,"Shape_Area":707819.010554,"RSH_Total":10861.0},"geometry":{"type":"Point","coordinates":[-70.660917,-33.450855,0.0]}},{"type":"Feature","properties":{"Join_Count":1,"TARGET_FID":61,"TIPO_EQUIP":"Farmacia","CALIDAD_U":"Alta","PRESTADOR_":null,"OBJECTID":5,"UNIDAD":17.0,"BARRIO":"MEIGGS","AGRP":"AV9","SUP_KM":0.511224,"Shape_Leng":3001.62446712,"Shape_Area":511220.359255,"RSH_Total":1882.0},"geometry":{"type":"Point","coordinates":[-70.677503,-33.450807,0.0]}},{"type":"Feature","properties":{"Join_Count":1,"TARGET_FID":62,"TIPO_EQUIP":"Farmacia","CALIDAD_U":"Alta","PRESTADOR_":null,"OBJECTID":5,"UNIDAD":17.0,"BARRIO":"MEIGGS","AGRP":"AV9","SUP_KM":0.511224,"Shape_Leng":3001.62446712,"Shape_Area":511220.359255,"RSH_Total":1882.0},"geometry":{"type":"Point","coordinates":[-70.676826,-33.450725,0.0]}},{"type":"Feature","properties":{"Join_Count":1,"TARGET_FID":63,"TIPO_EQUIP":"Farmacia","CALIDAD_U":"Alta","PRESTADOR_":null,"OBJECTID":3,"UNIDAD":9.0,"BARRIO":"SANTA ISABEL","AGRP":"AV7","SUP_KM":0.944985,"Shape_Leng":4562.55836169,"Shape_Area":944978.874714,"RSH_Total":36490.0},"geometry":{"type":"Point","coordinates":[-70.631615,-33.450549,0.0]}},{"type":"Feature","properties":{"Join_Count":1,"TARGET_FID":64,"TIPO_EQUIP":"Farmacia","CALIDAD_U":"Alta","PRESTADOR_":null,"OBJECTID":3,"UNIDAD":9.0,"BARRIO":"SANTA ISABEL","AGRP":"AV7","SUP_KM":0.944985,"Shape_Leng":4562.55836169,"Shape_Area":944978.874714,"RSH_Total":36490.0},"geometry":{"type":"Point","coordinates":[-70.634626,-33.450081,0.0]}},{"type":"Feature","properties":{"Join_Count":1,"TARGET_FID":65,"TIPO_EQUIP":"Farmacia","CALIDAD_U":"Alta","PRESTADOR_":null,"OBJECTID":1,"UNIDAD":7.0,"BARRIO":"YUNGAY","AGRP":"AV3","SUP_KM":2.727776,"Shape_Leng":8932.41139927,"Shape_Area":2727758.46614,"RSH_Total":32141.0},"geometry":{"type":"Point","coordinates":[-70.676701,-33.44992,0.0]}},{"type":"Feature","properties":{"Join_Count":1,"TARGET_FID":66,"TIPO_EQUIP":"Farmacia","CALIDAD_U":"Alta","PRESTADOR_":null,"OBJECTID":20,"UNIDAD":11.0,"BARRIO":"PARQUE ALMAGRO","AGRP":"AV8","SUP_KM":1.284634,"Shape_Leng":4871.32698351,"Shape_Area":1284625.25653,"RSH_Total":34913.0},"geometry":{"type":"Point","coordinates":[-70.653582,-33.449886,0.0]}},{"type":"Feature","properties":{"Join_Count":1,"TARGET_FID":67,"TIPO_EQUIP":"Farmacia","CALIDAD_U":"Alta","PRESTADOR_":null,"OBJECTID":3,"UNIDAD":9.0,"BARRIO":"SANTA ISABEL","AGRP":"AV7","SUP_KM":0.944985,"Shape_Leng":4562.55836169,"Shape_Area":944978.874714,"RSH_Total":36490.0},"geometry":{"type":"Point","coordinates":[-70.641547,-33.449481,0.0]}},{"type":"Feature","properties":{"Join_Count":1,"TARGET_FID":68,"TIPO_EQUIP":"Farmacia","CALIDAD_U":"Alta","PRESTADOR_":null,"OBJECTID":3,"UNIDAD":9.0,"BARRIO":"SANTA ISABEL","AGRP":"AV7","SUP_KM":0.944985,"Shape_Leng":4562.55836169,"Shape_Area":944978.874714,"RSH_Total":36490.0},"geometry":{"type":"Point","coordinates":[-70.64057,-33.449419,0.0]}},{"type":"Feature","properties":{"Join_Count":1,"TARGET_FID":69,"TIPO_EQUIP":"Farmacia","CALIDAD_U":"Alta","PRESTADOR_":null,"OBJECTID":22,"UNIDAD":14.0,"BARRIO":"REPUBLICA","AGRP":"AV9","SUP_KM":0.820113,"Shape_Leng":4065.25595256,"Shape_Area":820107.528073,"RSH_Total":11576.0},"geometry":{"type":"Point","coordinates":[-70.672025,-33.449329,0.0]}},{"type":"Feature","properties":{"Join_Count":1,"TARGET_FID":70,"TIPO_EQUIP":"Farmacia","CALIDAD_U":"Alta","PRESTADOR_":null,"OBJECTID":1,"UNIDAD":7.0,"BARRIO":"YUNGAY","AGRP":"AV3","SUP_KM":2.727776,"Shape_Leng":8932.41139927,"Shape_Area":2727758.46614,"RSH_Total":32141.0},"geometry":{"type":"Point","coordinates":[-70.673499,-33.449033,0.0]}},{"type":"Feature","properties":{"Join_Count":1,"TARGET_FID":71,"TIPO_EQUIP":"Farmacia","CALIDAD_U":"Media","PRESTADOR_":null,"OBJECTID":1,"UNIDAD":7.0,"BARRIO":"YUNGAY","AGRP":"AV3","SUP_KM":2.727776,"Shape_Leng":8932.41139927,"Shape_Area":2727758.46614,"RSH_Total":32141.0},"geometry":{"type":"Point","coordinates":[-70.674312,-33.44896,0.0]}},{"type":"Feature","properties":{"Join_Count":1,"TARGET_FID":72,"TIPO_EQUIP":"Farmacia","CALIDAD_U":"Alta","PRESTADOR_":null,"OBJECTID":20,"UNIDAD":11.0,"BARRIO":"PARQUE ALMAGRO","AGRP":"AV8","SUP_KM":1.284634,"Shape_Leng":4871.32698351,"Shape_Area":1284625.25653,"RSH_Total":34913.0},"geometry":{"type":"Point","coordinates":[-70.652534,-33.448798,0.0]}},{"type":"Feature","properties":{"Join_Count":1,"TARGET_FID":73,"TIPO_EQUIP":"Farmacia","CALIDAD_U":"Alta","PRESTADOR_":null,"OBJECTID":20,"UNIDAD":11.0,"BARRIO":"PARQUE ALMAGRO","AGRP":"AV8","SUP_KM":1.284634,"Shape_Leng":4871.32698351,"Shape_Area":1284625.25653,"RSH_Total":34913.0},"geometry":{"type":"Point","coordinates":[-70.651113,-33.448629,0.0]}},{"type":"Feature","properties":{"Join_Count":1,"TARGET_FID":74,"TIPO_EQUIP":"Farmacia","CALIDAD_U":"Alta","PRESTADOR_":null,"OBJECTID":20,"UNIDAD":11.0,"BARRIO":"PARQUE ALMAGRO","AGRP":"AV8","SUP_KM":1.284634,"Shape_Leng":4871.32698351,"Shape_Area":1284625.25653,"RSH_Total":34913.0},"geometry":{"type":"Point","coordinates":[-70.651145,-33.448358,0.0]}},{"type":"Feature","properties":{"Join_Count":1,"TARGET_FID":75,"TIPO_EQUIP":"Farmacia","CALIDAD_U":"Alta","PRESTADOR_":null,"OBJECTID":22,"UNIDAD":14.0,"BARRIO":"REPUBLICA","AGRP":"AV9","SUP_KM":0.820113,"Shape_Leng":4065.25595256,"Shape_Area":820107.528073,"RSH_Total":11576.0},"geometry":{"type":"Point","coordinates":[-70.668044,-33.448239,0.0]}},{"type":"Feature","properties":{"Join_Count":1,"TARGET_FID":76,"TIPO_EQUIP":"Farmacia","CALIDAD_U":"Alta","PRESTADOR_":null,"OBJECTID":3,"UNIDAD":9.0,"BARRIO":"SANTA ISABEL","AGRP":"AV7","SUP_KM":0.944985,"Shape_Leng":4562.55836169,"Shape_Area":944978.874714,"RSH_Total":36490.0},"geometry":{"type":"Point","coordinates":[-70.635483,-33.448091,0.0]}},{"type":"Feature","properties":{"Join_Count":1,"TARGET_FID":77,"TIPO_EQUIP":"Farmacia","CALIDAD_U":"Alta","PRESTADOR_":null,"OBJECTID":3,"UNIDAD":9.0,"BARRIO":"SANTA ISABEL","AGRP":"AV7","SUP_KM":0.944985,"Shape_Leng":4562.55836169,"Shape_Area":944978.874714,"RSH_Total":36490.0},"geometry":{"type":"Point","coordinates":[-70.635186,-33.448052,0.0]}},{"type":"Feature","properties":{"Join_Count":1,"TARGET_FID":78,"TIPO_EQUIP":"Farmacia","CALIDAD_U":"Alta","PRESTADOR_":null,"OBJECTID":1,"UNIDAD":7.0,"BARRIO":"YUNGAY","AGRP":"AV3","SUP_KM":2.727776,"Shape_Leng":8932.41139927,"Shape_Area":2727758.46614,"RSH_Total":32141.0},"geometry":{"type":"Point","coordinates":[-70.668712,-33.447798,0.0]}},{"type":"Feature","properties":{"Join_Count":1,"TARGET_FID":79,"TIPO_EQUIP":"Farmacia","CALIDAD_U":"Alta","PRESTADOR_":null,"OBJECTID":19,"UNIDAD":5.0,"BARRIO":"BRASIL","AGRP":"AV2","SUP_KM":0.748504,"Shape_Leng":3546.51000657,"Shape_Area":748499.151709,"RSH_Total":11083.0},"geometry":{"type":"Point","coordinates":[-70.667429,-33.447432,0.0]}},{"type":"Feature","properties":{"Join_Count":1,"TARGET_FID":80,"TIPO_EQUIP":"Farmacia","CALIDAD_U":"Alta","PRESTADOR_":null,"OBJECTID":3,"UNIDAD":9.0,"BARRIO":"SANTA ISABEL","AGRP":"AV7","SUP_KM":0.944985,"Shape_Leng":4562.55836169,"Shape_Area":944978.874714,"RSH_Total":36490.0},"geometry":{"type":"Point","coordinates":[-70.641162,-33.447404,0.0]}},{"type":"Feature","properties":{"Join_Count":1,"TARGET_FID":81,"TIPO_EQUIP":"Farmacia","CALIDAD_U":"Alta","PRESTADOR_":null,"OBJECTID":20,"UNIDAD":11.0,"BARRIO":"PARQUE ALMAGRO","AGRP":"AV8","SUP_KM":1.284634,"Shape_Leng":4871.32698351,"Shape_Area":1284625.25653,"RSH_Total":34913.0},"geometry":{"type":"Point","coordinates":[-70.651384,-33.447336,0.0]}},{"type":"Feature","properties":{"Join_Count":1,"TARGET_FID":82,"TIPO_EQUIP":"Farmacia","CALIDAD_U":"Alta","PRESTADOR_":null,"OBJECTID":20,"UNIDAD":11.0,"BARRIO":"PARQUE ALMAGRO","AGRP":"AV8","SUP_KM":1.284634,"Shape_Leng":4871.32698351,"Shape_Area":1284625.25653,"RSH_Total":34913.0},"geometry":{"type":"Point","coordinates":[-70.649112,-33.447242,0.0]}},{"type":"Feature","properties":{"Join_Count":1,"TARGET_FID":83,"TIPO_EQUIP":"Farmacia","CALIDAD_U":"Alta","PRESTADOR_":null,"OBJECTID":3,"UNIDAD":9.0,"BARRIO":"SANTA ISABEL","AGRP":"AV7","SUP_KM":0.944985,"Shape_Leng":4562.55836169,"Shape_Area":944978.874714,"RSH_Total":36490.0},"geometry":{"type":"Point","coordinates":[-70.632574,-33.447236,0.0]}},{"type":"Feature","properties":{"Join_Count":1,"TARGET_FID":84,"TIPO_EQUIP":"Farmacia","CALIDAD_U":"Alta","PRESTADOR_":null,"OBJECTID":20,"UNIDAD":11.0,"BARRIO":"PARQUE ALMAGRO","AGRP":"AV8","SUP_KM":1.284634,"Shape_Leng":4871.32698351,"Shape_Area":1284625.25653,"RSH_Total":34913.0},"geometry":{"type":"Point","coordinates":[-70.649309,-33.446993,0.0]}},{"type":"Feature","properties":{"Join_Count":1,"TARGET_FID":85,"TIPO_EQUIP":"Farmacia","CALIDAD_U":"Alta","PRESTADOR_":null,"OBJECTID":20,"UNIDAD":11.0,"BARRIO":"PARQUE ALMAGRO","AGRP":"AV8","SUP_KM":1.284634,"Shape_Leng":4871.32698351,"Shape_Area":1284625.25653,"RSH_Total":34913.0},"geometry":{"type":"Point","coordinates":[-70.648965,-33.446164,0.0]}},{"type":"Feature","properties":{"Join_Count":1,"TARGET_FID":86,"TIPO_EQUIP":"Farmacia","CALIDAD_U":"Alta","PRESTADOR_":null,"OBJECTID":20,"UNIDAD":11.0,"BARRIO":"PARQUE ALMAGRO","AGRP":"AV8","SUP_KM":1.284634,"Shape_Leng":4871.32698351,"Shape_Area":1284625.25653,"RSH_Total":34913.0},"geometry":{"type":"Point","coordinates":[-70.657551,-33.445962,0.0]}},{"type":"Feature","properties":{"Join_Count":1,"TARGET_FID":87,"TIPO_EQUIP":"Farmacia","CALIDAD_U":"Alta","PRESTADOR_":null,"OBJECTID":20,"UNIDAD":11.0,"BARRIO":"PARQUE ALMAGRO","AGRP":"AV8","SUP_KM":1.284634,"Shape_Leng":4871.32698351,"Shape_Area":1284625.25653,"RSH_Total":34913.0},"geometry":{"type":"Point","coordinates":[-70.655179,-33.445656,0.0]}},{"type":"Feature","properties":{"Join_Count":1,"TARGET_FID":88,"TIPO_EQUIP":"Farmacia","CALIDAD_U":"Alta","PRESTADOR_":null,"OBJECTID":20,"UNIDAD":11.0,"BARRIO":"PARQUE ALMAGRO","AGRP":"AV8","SUP_KM":1.284634,"Shape_Leng":4871.32698351,"Shape_Area":1284625.25653,"RSH_Total":34913.0},"geometry":{"type":"Point","coordinates":[-70.646958,-33.445575,0.0]}},{"type":"Feature","properties":{"Join_Count":1,"TARGET_FID":89,"TIPO_EQUIP":"Farmacia","CALIDAD_U":"Alta","PRESTADOR_":null,"OBJECTID":20,"UNIDAD":11.0,"BARRIO":"PARQUE ALMAGRO","AGRP":"AV8","SUP_KM":1.284634,"Shape_Leng":4871.32698351,"Shape_Area":1284625.25653,"RSH_Total":34913.0},"geometry":{"type":"Point","coordinates":[-70.655227,-33.445435,0.0]}},{"type":"Feature","properties":{"Join_Count":1,"TARGET_FID":90,"TIPO_EQUIP":"Farmacia","CALIDAD_U":"Alta","PRESTADOR_":null,"OBJECTID":20,"UNIDAD":11.0,"BARRIO":"PARQUE ALMAGRO","AGRP":"AV8","SUP_KM":1.284634,"Shape_Leng":4871.32698351,"Shape_Area":1284625.25653,"RSH_Total":34913.0},"geometry":{"type":"Point","coordinates":[-70.649919,-33.445316,0.0]}},{"type":"Feature","properties":{"Join_Count":1,"TARGET_FID":91,"TIPO_EQUIP":"Farmacia","CALIDAD_U":"Alta","PRESTADOR_":null,"OBJECTID":20,"UNIDAD":11.0,"BARRIO":"PARQUE ALMAGRO","AGRP":"AV8","SUP_KM":1.284634,"Shape_Leng":4871.32698351,"Shape_Area":1284625.25653,"RSH_Total":34913.0},"geometry":{"type":"Point","coordinates":[-70.654392,-33.445257,0.0]}},{"type":"Feature","properties":{"Join_Count":1,"TARGET_FID":92,"TIPO_EQUIP":"Farmacia","CALIDAD_U":"Alta","PRESTADOR_":null,"OBJECTID":18,"UNIDAD":3.0,"BARRIO":"SANTA ANA","AGRP":"AV2","SUP_KM":0.555207,"Shape_Leng":4226.84668566,"Shape_Area":555202.966948,"RSH_Total":19055.0},"geometry":{"type":"Point","coordinates":[-70.658345,-33.445173,0.0]}},{"type":"Feature","properties":{"Join_Count":1,"TARGET_FID":93,"TIPO_EQUIP":"Farmacia","CALIDAD_U":"Alta","PRESTADOR_":null,"OBJECTID":20,"UNIDAD":11.0,"BARRIO":"PARQUE ALMAGRO","AGRP":"AV8","SUP_KM":1.284634,"Shape_Leng":4871.32698351,"Shape_Area":1284625.25653,"RSH_Total":34913.0},"geometry":{"type":"Point","coordinates":[-70.645903,-33.445103,0.0]}},{"type":"Feature","properties":{"Join_Count":1,"TARGET_FID":94,"TIPO_EQUIP":"Farmacia","CALIDAD_U":"Alta","PRESTADOR_":null,"OBJECTID":2,"UNIDAD":8.0,"BARRIO":"SAN BORJA","AGRP":"AV7","SUP_KM":0.658834,"Shape_Leng":3937.52690617,"Shape_Area":658829.68135,"RSH_Total":13319.0},"geometry":{"type":"Point","coordinates":[-70.637065,-33.444941,0.0]}},{"type":"Feature","properties":{"Join_Count":1,"TARGET_FID":95,"TIPO_EQUIP":"Farmacia","CALIDAD_U":"Alta","PRESTADOR_":null,"OBJECTID":18,"UNIDAD":3.0,"BARRIO":"SANTA ANA","AGRP":"AV2","SUP_KM":0.555207,"Shape_Leng":4226.84668566,"Shape_Area":555202.966948,"RSH_Total":19055.0},"geometry":{"type":"Point","coordinates":[-70.656754,-33.444772,0.0]}},{"type":"Feature","properties":{"Join_Count":1,"TARGET_FID":96,"TIPO_EQUIP":"Farmacia","CALIDAD_U":"Alta","PRESTADOR_":null,"OBJECTID":18,"UNIDAD":3.0,"BARRIO":"SANTA ANA","AGRP":"AV2","SUP_KM":0.555207,"Shape_Leng":4226.84668566,"Shape_Area":555202.966948,"RSH_Total":19055.0},"geometry":{"type":"Point","coordinates":[-70.657613,-33.444728,0.0]}},{"type":"Feature","properties":{"Join_Count":1,"TARGET_FID":97,"TIPO_EQUIP":"Farmacia","CALIDAD_U":"Alta","PRESTADOR_":null,"OBJECTID":3,"UNIDAD":9.0,"BARRIO":"SANTA ISABEL","AGRP":"AV7","SUP_KM":0.944985,"Shape_Leng":4562.55836169,"Shape_Area":944978.874714,"RSH_Total":36490.0},"geometry":{"type":"Point","coordinates":[-70.636613,-33.444622,0.0]}},{"type":"Feature","properties":{"Join_Count":1,"TARGET_FID":98,"TIPO_EQUIP":"Farmacia","CALIDAD_U":"Alta","PRESTADOR_":null,"OBJECTID":20,"UNIDAD":11.0,"BARRIO":"PARQUE ALMAGRO","AGRP":"AV8","SUP_KM":1.284634,"Shape_Leng":4871.32698351,"Shape_Area":1284625.25653,"RSH_Total":34913.0},"geometry":{"type":"Point","coordinates":[-70.652067,-33.444619,0.0]}},{"type":"Feature","properties":{"Join_Count":1,"TARGET_FID":99,"TIPO_EQUIP":"Farmacia","CALIDAD_U":"Alta","PRESTADOR_":null,"OBJECTID":18,"UNIDAD":3.0,"BARRIO":"SANTA ANA","AGRP":"AV2","SUP_KM":0.555207,"Shape_Leng":4226.84668566,"Shape_Area":555202.966948,"RSH_Total":19055.0},"geometry":{"type":"Point","coordinates":[-70.657308,-33.444507,0.0]}},{"type":"Feature","properties":{"Join_Count":1,"TARGET_FID":100,"TIPO_EQUIP":"Farmacia","CALIDAD_U":"Alta","PRESTADOR_":null,"OBJECTID":26,"UNIDAD":2.0,"BARRIO":"CENTRO HISTORICO","AGRP":"AV1","SUP_KM":1.204548,"Shape_Leng":4579.43132775,"Shape_Area":1204540.55342,"RSH_Total":18044.0},"geometry":{"type":"Point","coordinates":[-70.655547,-33.444507,0.0]}},{"type":"Feature","properties":{"Join_Count":1,"TARGET_FID":101,"TIPO_EQUIP":"Farmacia","CALIDAD_U":"Alta","PRESTADOR_":null,"OBJECTID":19,"UNIDAD":5.0,"BARRIO":"BRASIL","AGRP":"AV2","SUP_KM":0.748504,"Shape_Leng":3546.51000657,"Shape_Area":748499.151709,"RSH_Total":11083.0},"geometry":{"type":"Point","coordinates":[-70.664191,-33.444479,0.0]}},{"type":"Feature","properties":{"Join_Count":1,"TARGET_FID":102,"TIPO_EQUIP":"Farmacia","CALIDAD_U":"Alta","PRESTADOR_":null,"OBJECTID":20,"UNIDAD":11.0,"BARRIO":"PARQUE ALMAGRO","AGRP":"AV8","SUP_KM":1.284634,"Shape_Leng":4871.32698351,"Shape_Area":1284625.25653,"RSH_Total":34913.0},"geometry":{"type":"Point","coordinates":[-70.646993,-33.444437,0.0]}},{"type":"Feature","properties":{"Join_Count":1,"TARGET_FID":103,"TIPO_EQUIP":"Farmacia","CALIDAD_U":"Alta","PRESTADOR_":null,"OBJECTID":19,"UNIDAD":5.0,"BARRIO":"BRASIL","AGRP":"AV2","SUP_KM":0.748504,"Shape_Leng":3546.51000657,"Shape_Area":748499.151709,"RSH_Total":11083.0},"geometry":{"type":"Point","coordinates":[-70.667624,-33.444364,0.0]}},{"type":"Feature","properties":{"Join_Count":1,"TARGET_FID":104,"TIPO_EQUIP":"Farmacia","CALIDAD_U":"Alta","PRESTADOR_":null,"OBJECTID":3,"UNIDAD":9.0,"BARRIO":"SANTA ISABEL","AGRP":"AV7","SUP_KM":0.944985,"Shape_Leng":4562.55836169,"Shape_Area":944978.874714,"RSH_Total":36490.0},"geometry":{"type":"Point","coordinates":[-70.636798,-33.44434,0.0]}},{"type":"Feature","properties":{"Join_Count":1,"TARGET_FID":105,"TIPO_EQUIP":"Farmacia","CALIDAD_U":"Alta","PRESTADOR_":null,"OBJECTID":26,"UNIDAD":2.0,"BARRIO":"CENTRO HISTORICO","AGRP":"AV1","SUP_KM":1.204548,"Shape_Leng":4579.43132775,"Shape_Area":1204540.55342,"RSH_Total":18044.0},"geometry":{"type":"Point","coordinates":[-70.654428,-33.444289,0.0]}},{"type":"Feature","properties":{"Join_Count":1,"TARGET_FID":106,"TIPO_EQUIP":"Farmacia","CALIDAD_U":"Alta","PRESTADOR_":null,"OBJECTID":26,"UNIDAD":2.0,"BARRIO":"CENTRO HISTORICO","AGRP":"AV1","SUP_KM":1.204548,"Shape_Leng":4579.43132775,"Shape_Area":1204540.55342,"RSH_Total":18044.0},"geometry":{"type":"Point","coordinates":[-70.654448,-33.444213,0.0]}},{"type":"Feature","properties":{"Join_Count":1,"TARGET_FID":107,"TIPO_EQUIP":"Farmacia","CALIDAD_U":"Alta","PRESTADOR_":null,"OBJECTID":20,"UNIDAD":11.0,"BARRIO":"PARQUE ALMAGRO","AGRP":"AV8","SUP_KM":1.284634,"Shape_Leng":4871.32698351,"Shape_Area":1284625.25653,"RSH_Total":34913.0},"geometry":{"type":"Point","coordinates":[-70.646076,-33.444121,0.0]}},{"type":"Feature","properties":{"Join_Count":1,"TARGET_FID":108,"TIPO_EQUIP":"Farmacia","CALIDAD_U":"Alta","PRESTADOR_":null,"OBJECTID":18,"UNIDAD":3.0,"BARRIO":"SANTA ANA","AGRP":"AV2","SUP_KM":0.555207,"Shape_Leng":4226.84668566,"Shape_Area":555202.966948,"RSH_Total":19055.0},"geometry":{"type":"Point","coordinates":[-70.657351,-33.44406,0.0]}},{"type":"Feature","properties":{"Join_Count":1,"TARGET_FID":109,"TIPO_EQUIP":"Farmacia","CALIDAD_U":"Alta","PRESTADOR_":null,"OBJECTID":20,"UNIDAD":11.0,"BARRIO":"PARQUE ALMAGRO","AGRP":"AV8","SUP_KM":1.284634,"Shape_Leng":4871.32698351,"Shape_Area":1284625.25653,"RSH_Total":34913.0},"geometry":{"type":"Point","coordinates":[-70.650209,-33.444059,0.0]}},{"type":"Feature","properties":{"Join_Count":1,"TARGET_FID":110,"TIPO_EQUIP":"Farmacia","CALIDAD_U":"Alta","PRESTADOR_":null,"OBJECTID":2,"UNIDAD":8.0,"BARRIO":"SAN BORJA","AGRP":"AV7","SUP_KM":0.658834,"Shape_Leng":3937.52690617,"Shape_Area":658829.68135,"RSH_Total":13319.0},"geometry":{"type":"Point","coordinates":[-70.644408,-33.443929,0.0]}},{"type":"Feature","properties":{"Join_Count":1,"TARGET_FID":111,"TIPO_EQUIP":"Farmacia","CALIDAD_U":"Alta","PRESTADOR_":null,"OBJECTID":20,"UNIDAD":11.0,"BARRIO":"PARQUE ALMAGRO","AGRP":"AV8","SUP_KM":1.284634,"Shape_Leng":4871.32698351,"Shape_Area":1284625.25653,"RSH_Total":34913.0},"geometry":{"type":"Point","coordinates":[-70.646156,-33.443825,0.0]}},{"type":"Feature","properties":{"Join_Count":1,"TARGET_FID":112,"TIPO_EQUIP":"Farmacia","CALIDAD_U":"Alta","PRESTADOR_":null,"OBJECTID":3,"UNIDAD":9.0,"BARRIO":"SANTA ISABEL","AGRP":"AV7","SUP_KM":0.944985,"Shape_Leng":4562.55836169,"Shape_Area":944978.874714,"RSH_Total":36490.0},"geometry":{"type":"Point","coordinates":[-70.637172,-33.443667,0.0]}},{"type":"Feature","properties":{"Join_Count":1,"TARGET_FID":113,"TIPO_EQUIP":"Farmacia","CALIDAD_U":"Alta","PRESTADOR_":null,"OBJECTID":20,"UNIDAD":11.0,"BARRIO":"PARQUE ALMAGRO","AGRP":"AV8","SUP_KM":1.284634,"Shape_Leng":4871.32698351,"Shape_Area":1284625.25653,"RSH_Total":34913.0},"geometry":{"type":"Point","coordinates":[-70.646987,-33.443486,0.0]}},{"type":"Feature","properties":{"Join_Count":1,"TARGET_FID":114,"TIPO_EQUIP":"Farmacia","CALIDAD_U":"Alta","PRESTADOR_":null,"OBJECTID":26,"UNIDAD":2.0,"BARRIO":"CENTRO HISTORICO","AGRP":"AV1","SUP_KM":1.204548,"Shape_Leng":4579.43132775,"Shape_Area":1204540.55342,"RSH_Total":18044.0},"geometry":{"type":"Point","coordinates":[-70.650591,-33.443432,0.0]}},{"type":"Feature","properties":{"Join_Count":1,"TARGET_FID":115,"TIPO_EQUIP":"Farmacia","CALIDAD_U":"Alta","PRESTADOR_":null,"OBJECTID":26,"UNIDAD":2.0,"BARRIO":"CENTRO HISTORICO","AGRP":"AV1","SUP_KM":1.204548,"Shape_Leng":4579.43132775,"Shape_Area":1204540.55342,"RSH_Total":18044.0},"geometry":{"type":"Point","coordinates":[-70.650247,-33.443425,0.0]}},{"type":"Feature","properties":{"Join_Count":1,"TARGET_FID":116,"TIPO_EQUIP":"Farmacia","CALIDAD_U":"Alta","PRESTADOR_":null,"OBJECTID":26,"UNIDAD":2.0,"BARRIO":"CENTRO HISTORICO","AGRP":"AV1","SUP_KM":1.204548,"Shape_Leng":4579.43132775,"Shape_Area":1204540.55342,"RSH_Total":18044.0},"geometry":{"type":"Point","coordinates":[-70.649934,-33.443289,0.0]}},{"type":"Feature","properties":{"Join_Count":1,"TARGET_FID":117,"TIPO_EQUIP":"Farmacia","CALIDAD_U":"Alta","PRESTADOR_":null,"OBJECTID":20,"UNIDAD":11.0,"BARRIO":"PARQUE ALMAGRO","AGRP":"AV8","SUP_KM":1.284634,"Shape_Leng":4871.32698351,"Shape_Area":1284625.25653,"RSH_Total":34913.0},"geometry":{"type":"Point","coordinates":[-70.646877,-33.443275,0.0]}},{"type":"Feature","properties":{"Join_Count":1,"TARGET_FID":118,"TIPO_EQUIP":"Farmacia","CALIDAD_U":"Alta","PRESTADOR_":null,"OBJECTID":3,"UNIDAD":9.0,"BARRIO":"SANTA ISABEL","AGRP":"AV7","SUP_KM":0.944985,"Shape_Leng":4562.55836169,"Shape_Area":944978.874714,"RSH_Total":36490.0},"geometry":{"type":"Point","coordinates":[-70.633763,-33.443176,0.0]}},{"type":"Feature","properties":{"Join_Count":1,"TARGET_FID":119,"TIPO_EQUIP":"Farmacia","CALIDAD_U":"Alta","PRESTADOR_":null,"OBJECTID":26,"UNIDAD":2.0,"BARRIO":"CENTRO HISTORICO","AGRP":"AV1","SUP_KM":1.204548,"Shape_Leng":4579.43132775,"Shape_Area":1204540.55342,"RSH_Total":18044.0},"geometry":{"type":"Point","coordinates":[-70.650287,-33.443164,0.0]}},{"type":"Feature","properties":{"Join_Count":1,"TARGET_FID":120,"TIPO_EQUIP":"Farmacia","CALIDAD_U":"Alta","PRESTADOR_":null,"OBJECTID":26,"UNIDAD":2.0,"BARRIO":"CENTRO HISTORICO","AGRP":"AV1","SUP_KM":1.204548,"Shape_Leng":4579.43132775,"Shape_Area":1204540.55342,"RSH_Total":18044.0},"geometry":{"type":"Point","coordinates":[-70.649154,-33.443122,0.0]}},{"type":"Feature","properties":{"Join_Count":1,"TARGET_FID":121,"TIPO_EQUIP":"Farmacia","CALIDAD_U":"Alta","PRESTADOR_":null,"OBJECTID":2,"UNIDAD":8.0,"BARRIO":"SAN BORJA","AGRP":"AV7","SUP_KM":0.658834,"Shape_Leng":3937.52690617,"Shape_Area":658829.68135,"RSH_Total":13319.0},"geometry":{"type":"Point","coordinates":[-70.645576,-33.442988,0.0]}},{"type":"Feature","properties":{"Join_Count":1,"TARGET_FID":122,"TIPO_EQUIP":"Farmacia","CALIDAD_U":"Alta","PRESTADOR_":null,"OBJECTID":26,"UNIDAD":2.0,"BARRIO":"CENTRO HISTORICO","AGRP":"AV1","SUP_KM":1.204548,"Shape_Leng":4579.43132775,"Shape_Area":1204540.55342,"RSH_Total":18044.0},"geometry":{"type":"Point","coordinates":[-70.65589,-33.442976,0.0]}},{"type":"Feature","properties":{"Join_Count":1,"TARGET_FID":123,"TIPO_EQUIP":"Farmacia","CALIDAD_U":"Alta","PRESTADOR_":null,"OBJECTID":26,"UNIDAD":2.0,"BARRIO":"CENTRO HISTORICO","AGRP":"AV1","SUP_KM":1.204548,"Shape_Leng":4579.43132775,"Shape_Area":1204540.55342,"RSH_Total":18044.0},"geometry":{"type":"Point","coordinates":[-70.648311,-33.442949,0.0]}},{"type":"Feature","properties":{"Join_Count":1,"TARGET_FID":124,"TIPO_EQUIP":"Farmacia","CALIDAD_U":"Alta","PRESTADOR_":null,"OBJECTID":26,"UNIDAD":2.0,"BARRIO":"CENTRO HISTORICO","AGRP":"AV1","SUP_KM":1.204548,"Shape_Leng":4579.43132775,"Shape_Area":1204540.55342,"RSH_Total":18044.0},"geometry":{"type":"Point","coordinates":[-70.649216,-33.442824,0.0]}},{"type":"Feature","properties":{"Join_Count":1,"TARGET_FID":125,"TIPO_EQUIP":"Farmacia","CALIDAD_U":"Alta","PRESTADOR_":null,"OBJECTID":26,"UNIDAD":2.0,"BARRIO":"CENTRO HISTORICO","AGRP":"AV1","SUP_KM":1.204548,"Shape_Leng":4579.43132775,"Shape_Area":1204540.55342,"RSH_Total":18044.0},"geometry":{"type":"Point","coordinates":[-70.648961,-33.442803,0.0]}},{"type":"Feature","properties":{"Join_Count":1,"TARGET_FID":126,"TIPO_EQUIP":"Farmacia","CALIDAD_U":"Alta","PRESTADOR_":null,"OBJECTID":26,"UNIDAD":2.0,"BARRIO":"CENTRO HISTORICO","AGRP":"AV1","SUP_KM":1.204548,"Shape_Leng":4579.43132775,"Shape_Area":1204540.55342,"RSH_Total":18044.0},"geometry":{"type":"Point","coordinates":[-70.647384,-33.442785,0.0]}},{"type":"Feature","properties":{"Join_Count":1,"TARGET_FID":127,"TIPO_EQUIP":"Farmacia","CALIDAD_U":"Alta","PRESTADOR_":null,"OBJECTID":26,"UNIDAD":2.0,"BARRIO":"CENTRO HISTORICO","AGRP":"AV1","SUP_KM":1.204548,"Shape_Leng":4579.43132775,"Shape_Area":1204540.55342,"RSH_Total":18044.0},"geometry":{"type":"Point","coordinates":[-70.646672,-33.442649,0.0]}},{"type":"Feature","properties":{"Join_Count":1,"TARGET_FID":128,"TIPO_EQUIP":"Farmacia","CALIDAD_U":"Alta","PRESTADOR_":null,"OBJECTID":2,"UNIDAD":8.0,"BARRIO":"SAN BORJA","AGRP":"AV7","SUP_KM":0.658834,"Shape_Leng":3937.52690617,"Shape_Area":658829.68135,"RSH_Total":13319.0},"geometry":{"type":"Point","coordinates":[-70.644617,-33.44264,0.0]}},{"type":"Feature","properties":{"Join_Count":1,"TARGET_FID":129,"TIPO_EQUIP":"Farmacia","CALIDAD_U":"Alta","PRESTADOR_":null,"OBJECTID":18,"UNIDAD":3.0,"BARRIO":"SANTA ANA","AGRP":"AV2","SUP_KM":0.555207,"Shape_Leng":4226.84668566,"Shape_Area":555202.966948,"RSH_Total":19055.0},"geometry":{"type":"Point","coordinates":[-70.656199,-33.442605,0.0]}},{"type":"Feature","properties":{"Join_Count":1,"TARGET_FID":130,"TIPO_EQUIP":"Farmacia","CALIDAD_U":"Alta","PRESTADOR_":null,"OBJECTID":2,"UNIDAD":8.0,"BARRIO":"SAN BORJA","AGRP":"AV7","SUP_KM":0.658834,"Shape_Leng":3937.52690617,"Shape_Area":658829.68135,"RSH_Total":13319.0},"geometry":{"type":"Point","coordinates":[-70.644486,-33.442596,0.0]}},{"type":"Feature","properties":{"Join_Count":1,"TARGET_FID":131,"TIPO_EQUIP":"Farmacia","CALIDAD_U":"Alta","PRESTADOR_":null,"OBJECTID":26,"UNIDAD":2.0,"BARRIO":"CENTRO HISTORICO","AGRP":"AV1","SUP_KM":1.204548,"Shape_Leng":4579.43132775,"Shape_Area":1204540.55342,"RSH_Total":18044.0},"geometry":{"type":"Point","coordinates":[-70.655564,-33.442593,0.0]}},{"type":"Feature","properties":{"Join_Count":1,"TARGET_FID":132,"TIPO_EQUIP":"Farmacia","CALIDAD_U":"Alta","PRESTADOR_":null,"OBJECTID":2,"UNIDAD":8.0,"BARRIO":"SAN BORJA","AGRP":"AV7","SUP_KM":0.658834,"Shape_Leng":3937.52690617,"Shape_Area":658829.68135,"RSH_Total":13319.0},"geometry":{"type":"Point","coordinates":[-70.641463,-33.442571,0.0]}},{"type":"Feature","properties":{"Join_Count":1,"TARGET_FID":133,"TIPO_EQUIP":"Farmacia","CALIDAD_U":"Alta","PRESTADOR_":null,"OBJECTID":26,"UNIDAD":2.0,"BARRIO":"CENTRO HISTORICO","AGRP":"AV1","SUP_KM":1.204548,"Shape_Leng":4579.43132775,"Shape_Area":1204540.55342,"RSH_Total":18044.0},"geometry":{"type":"Point","coordinates":[-70.64927,-33.442526,0.0]}},{"type":"Feature","properties":{"Join_Count":1,"TARGET_FID":134,"TIPO_EQUIP":"Farmacia","CALIDAD_U":"Alta","PRESTADOR_":null,"OBJECTID":19,"UNIDAD":5.0,"BARRIO":"BRASIL","AGRP":"AV2","SUP_KM":0.748504,"Shape_Leng":3546.51000657,"Shape_Area":748499.151709,"RSH_Total":11083.0},"geometry":{"type":"Point","coordinates":[-70.667821,-33.442437,0.0]}},{"type":"Feature","properties":{"Join_Count":1,"TARGET_FID":135,"TIPO_EQUIP":"Farmacia","CALIDAD_U":"Alta","PRESTADOR_":null,"OBJECTID":26,"UNIDAD":2.0,"BARRIO":"CENTRO HISTORICO","AGRP":"AV1","SUP_KM":1.204548,"Shape_Leng":4579.43132775,"Shape_Area":1204540.55342,"RSH_Total":18044.0},"geometry":{"type":"Point","coordinates":[-70.647951,-33.4424,0.0]}},{"type":"Feature","properties":{"Join_Count":1,"TARGET_FID":136,"TIPO_EQUIP":"Farmacia","CALIDAD_U":"Alta","PRESTADOR_":null,"OBJECTID":18,"UNIDAD":3.0,"BARRIO":"SANTA ANA","AGRP":"AV2","SUP_KM":0.555207,"Shape_Leng":4226.84668566,"Shape_Area":555202.966948,"RSH_Total":19055.0},"geometry":{"type":"Point","coordinates":[-70.658843,-33.44238,0.0]}},{"type":"Feature","properties":{"Join_Count":1,"TARGET_FID":137,"TIPO_EQUIP":"Farmacia","CALIDAD_U":"Alta","PRESTADOR_":null,"OBJECTID":2,"UNIDAD":8.0,"BARRIO":"SAN BORJA","AGRP":"AV7","SUP_KM":0.658834,"Shape_Leng":3937.52690617,"Shape_Area":658829.68135,"RSH_Total":13319.0},"geometry":{"type":"Point","coordinates":[-70.640818,-33.442374,0.0]}},{"type":"Feature","properties":{"Join_Count":1,"TARGET_FID":138,"TIPO_EQUIP":"Farmacia","CALIDAD_U":"Media","PRESTADOR_":null,"OBJECTID":2,"UNIDAD":8.0,"BARRIO":"SAN BORJA","AGRP":"AV7","SUP_KM":0.658834,"Shape_Leng":3937.52690617,"Shape_Area":658829.68135,"RSH_Total":13319.0},"geometry":{"type":"Point","coordinates":[-70.639485,-33.442349,0.0]}},{"type":"Feature","properties":{"Join_Count":1,"TARGET_FID":139,"TIPO_EQUIP":"Farmacia","CALIDAD_U":"Alta","PRESTADOR_":null,"OBJECTID":26,"UNIDAD":2.0,"BARRIO":"CENTRO HISTORICO","AGRP":"AV1","SUP_KM":1.204548,"Shape_Leng":4579.43132775,"Shape_Area":1204540.55342,"RSH_Total":18044.0},"geometry":{"type":"Point","coordinates":[-70.647959,-33.442314,0.0]}},{"type":"Feature","properties":{"Join_Count":1,"TARGET_FID":140,"TIPO_EQUIP":"Farmacia","CALIDAD_U":"Alta","PRESTADOR_":null,"OBJECTID":26,"UNIDAD":2.0,"BARRIO":"CENTRO HISTORICO","AGRP":"AV1","SUP_KM":1.204548,"Shape_Leng":4579.43132775,"Shape_Area":1204540.55342,"RSH_Total":18044.0},"geometry":{"type":"Point","coordinates":[-70.652051,-33.442286,0.0]}},{"type":"Feature","properties":{"Join_Count":1,"TARGET_FID":141,"TIPO_EQUIP":"Farmacia","CALIDAD_U":"Alta","PRESTADOR_":null,"OBJECTID":26,"UNIDAD":2.0,"BARRIO":"CENTRO HISTORICO","AGRP":"AV1","SUP_KM":1.204548,"Shape_Leng":4579.43132775,"Shape_Area":1204540.55342,"RSH_Total":18044.0},"geometry":{"type":"Point","coordinates":[-70.651222,-33.442063,0.0]}},{"type":"Feature","properties":{"Join_Count":1,"TARGET_FID":142,"TIPO_EQUIP":"Farmacia","CALIDAD_U":"Alta","PRESTADOR_":null,"OBJECTID":26,"UNIDAD":2.0,"BARRIO":"CENTRO HISTORICO","AGRP":"AV1","SUP_KM":1.204548,"Shape_Leng":4579.43132775,"Shape_Area":1204540.55342,"RSH_Total":18044.0},"geometry":{"type":"Point","coordinates":[-70.647654,-33.442055,0.0]}},{"type":"Feature","properties":{"Join_Count":1,"TARGET_FID":143,"TIPO_EQUIP":"Farmacia","CALIDAD_U":"Alta","PRESTADOR_":null,"OBJECTID":26,"UNIDAD":2.0,"BARRIO":"CENTRO HISTORICO","AGRP":"AV1","SUP_KM":1.204548,"Shape_Leng":4579.43132775,"Shape_Area":1204540.55342,"RSH_Total":18044.0},"geometry":{"type":"Point","coordinates":[-70.648032,-33.441918,0.0]}},{"type":"Feature","properties":{"Join_Count":1,"TARGET_FID":144,"TIPO_EQUIP":"Farmacia","CALIDAD_U":"Alta","PRESTADOR_":null,"OBJECTID":26,"UNIDAD":2.0,"BARRIO":"CENTRO HISTORICO","AGRP":"AV1","SUP_KM":1.204548,"Shape_Leng":4579.43132775,"Shape_Area":1204540.55342,"RSH_Total":18044.0},"geometry":{"type":"Point","coordinates":[-70.650523,-33.44179,0.0]}},{"type":"Feature","properties":{"Join_Count":1,"TARGET_FID":145,"TIPO_EQUIP":"Farmacia","CALIDAD_U":"Alta","PRESTADOR_":null,"OBJECTID":26,"UNIDAD":2.0,"BARRIO":"CENTRO HISTORICO","AGRP":"AV1","SUP_KM":1.204548,"Shape_Leng":4579.43132775,"Shape_Area":1204540.55342,"RSH_Total":18044.0},"geometry":{"type":"Point","coordinates":[-70.651845,-33.44179,0.0]}},{"type":"Feature","properties":{"Join_Count":1,"TARGET_FID":146,"TIPO_EQUIP":"Farmacia","CALIDAD_U":"Alta","PRESTADOR_":null,"OBJECTID":26,"UNIDAD":2.0,"BARRIO":"CENTRO HISTORICO","AGRP":"AV1","SUP_KM":1.204548,"Shape_Leng":4579.43132775,"Shape_Area":1204540.55342,"RSH_Total":18044.0},"geometry":{"type":"Point","coordinates":[-70.650535,-33.441582,0.0]}},{"type":"Feature","properties":{"Join_Count":1,"TARGET_FID":147,"TIPO_EQUIP":"Farmacia","CALIDAD_U":"Alta","PRESTADOR_":null,"OBJECTID":18,"UNIDAD":3.0,"BARRIO":"SANTA ANA","AGRP":"AV2","SUP_KM":0.555207,"Shape_Leng":4226.84668566,"Shape_Area":555202.966948,"RSH_Total":19055.0},"geometry":{"type":"Point","coordinates":[-70.658475,-33.441337,0.0]}},{"type":"Feature","properties":{"Join_Count":1,"TARGET_FID":148,"TIPO_EQUIP":"Farmacia","CALIDAD_U":"Alta","PRESTADOR_":null,"OBJECTID":2,"UNIDAD":8.0,"BARRIO":"SAN BORJA","AGRP":"AV7","SUP_KM":0.658834,"Shape_Leng":3937.52690617,"Shape_Area":658829.68135,"RSH_Total":13319.0},"geometry":{"type":"Point","coordinates":[-70.639118,-33.441303,0.0]}},{"type":"Feature","properties":{"Join_Count":1,"TARGET_FID":149,"TIPO_EQUIP":"Farmacia","CALIDAD_U":"Alta","PRESTADOR_":null,"OBJECTID":27,"UNIDAD":1.0,"BARRIO":"SANTA LUCIA FORESTAL","AGRP":"AV1","SUP_KM":0.737406,"Shape_Leng":3888.47853075,"Shape_Area":737401.562473,"RSH_Total":6542.0},"geometry":{"type":"Point","coordinates":[-70.646417,-33.440927,0.0]}},{"type":"Feature","properties":{"Join_Count":1,"TARGET_FID":150,"TIPO_EQUIP":"Farmacia","CALIDAD_U":"Alta","PRESTADOR_":null,"OBJECTID":19,"UNIDAD":5.0,"BARRIO":"BRASIL","AGRP":"AV2","SUP_KM":0.748504,"Shape_Leng":3546.51000657,"Shape_Area":748499.151709,"RSH_Total":11083.0},"geometry":{"type":"Point","coordinates":[-70.664834,-33.440917,0.0]}},{"type":"Feature","properties":{"Join_Count":1,"TARGET_FID":151,"TIPO_EQUIP":"Farmacia","CALIDAD_U":"Alta","PRESTADOR_":null,"OBJECTID":26,"UNIDAD":2.0,"BARRIO":"CENTRO HISTORICO","AGRP":"AV1","SUP_KM":1.204548,"Shape_Leng":4579.43132775,"Shape_Area":1204540.55342,"RSH_Total":18044.0},"geometry":{"type":"Point","coordinates":[-70.653157,-33.440844,0.0]}},{"type":"Feature","properties":{"Join_Count":1,"TARGET_FID":152,"TIPO_EQUIP":"Farmacia","CALIDAD_U":"Alta","PRESTADOR_":null,"OBJECTID":26,"UNIDAD":2.0,"BARRIO":"CENTRO HISTORICO","AGRP":"AV1","SUP_KM":1.204548,"Shape_Leng":4579.43132775,"Shape_Area":1204540.55342,"RSH_Total":18044.0},"geometry":{"type":"Point","coordinates":[-70.652298,-33.440765,0.0]}},{"type":"Feature","properties":{"Join_Count":1,"TARGET_FID":153,"TIPO_EQUIP":"Farmacia","CALIDAD_U":"Alta","PRESTADOR_":null,"OBJECTID":26,"UNIDAD":2.0,"BARRIO":"CENTRO HISTORICO","AGRP":"AV1","SUP_KM":1.204548,"Shape_Leng":4579.43132775,"Shape_Area":1204540.55342,"RSH_Total":18044.0},"geometry":{"type":"Point","coordinates":[-70.65066,-33.440624,0.0]}},{"type":"Feature","properties":{"Join_Count":1,"TARGET_FID":154,"TIPO_EQUIP":"Farmacia","CALIDAD_U":"Alta","PRESTADOR_":null,"OBJECTID":18,"UNIDAD":3.0,"BARRIO":"SANTA ANA","AGRP":"AV2","SUP_KM":0.555207,"Shape_Leng":4226.84668566,"Shape_Area":555202.966948,"RSH_Total":19055.0},"geometry":{"type":"Point","coordinates":[-70.6578,-33.440617,0.0]}},{"type":"Feature","properties":{"Join_Count":1,"TARGET_FID":155,"TIPO_EQUIP":"Farmacia","CALIDAD_U":"Alta","PRESTADOR_":null,"OBJECTID":26,"UNIDAD":2.0,"BARRIO":"CENTRO HISTORICO","AGRP":"AV1","SUP_KM":1.204548,"Shape_Leng":4579.43132775,"Shape_Area":1204540.55342,"RSH_Total":18044.0},"geometry":{"type":"Point","coordinates":[-70.649235,-33.440505,0.0]}},{"type":"Feature","properties":{"Join_Count":1,"TARGET_FID":156,"TIPO_EQUIP":"Farmacia","CALIDAD_U":"Alta","PRESTADOR_":null,"OBJECTID":18,"UNIDAD":3.0,"BARRIO":"SANTA ANA","AGRP":"AV2","SUP_KM":0.555207,"Shape_Leng":4226.84668566,"Shape_Area":555202.966948,"RSH_Total":19055.0},"geometry":{"type":"Point","coordinates":[-70.657819,-33.440436,0.0]}},{"type":"Feature","properties":{"Join_Count":1,"TARGET_FID":157,"TIPO_EQUIP":"Farmacia","CALIDAD_U":"Alta","PRESTADOR_":null,"OBJECTID":26,"UNIDAD":2.0,"BARRIO":"CENTRO HISTORICO","AGRP":"AV1","SUP_KM":1.204548,"Shape_Leng":4579.43132775,"Shape_Area":1204540.55342,"RSH_Total":18044.0},"geometry":{"type":"Point","coordinates":[-70.648604,-33.440428,0.0]}},{"type":"Feature","properties":{"Join_Count":1,"TARGET_FID":158,"TIPO_EQUIP":"Farmacia","CALIDAD_U":"Alta","PRESTADOR_":null,"OBJECTID":1,"UNIDAD":7.0,"BARRIO":"YUNGAY","AGRP":"AV3","SUP_KM":2.727776,"Shape_Leng":8932.41139927,"Shape_Area":2727758.46614,"RSH_Total":32141.0},"geometry":{"type":"Point","coordinates":[-70.668665,-33.440418,0.0]}},{"type":"Feature","properties":{"Join_Count":1,"TARGET_FID":159,"TIPO_EQUIP":"Farmacia","CALIDAD_U":"Alta","PRESTADOR_":null,"OBJECTID":26,"UNIDAD":2.0,"BARRIO":"CENTRO HISTORICO","AGRP":"AV1","SUP_KM":1.204548,"Shape_Leng":4579.43132775,"Shape_Area":1204540.55342,"RSH_Total":18044.0},"geometry":{"type":"Point","coordinates":[-70.651019,-33.440414,0.0]}},{"type":"Feature","properties":{"Join_Count":1,"TARGET_FID":160,"TIPO_EQUIP":"Farmacia","CALIDAD_U":"Alta","PRESTADOR_":null,"OBJECTID":2,"UNIDAD":8.0,"BARRIO":"SAN BORJA","AGRP":"AV7","SUP_KM":0.658834,"Shape_Leng":3937.52690617,"Shape_Area":658829.68135,"RSH_Total":13319.0},"geometry":{"type":"Point","coordinates":[-70.639945,-33.440352,0.0]}},{"type":"Feature","properties":{"Join_Count":1,"TARGET_FID":161,"TIPO_EQUIP":"Farmacia","CALIDAD_U":"Alta","PRESTADOR_":null,"OBJECTID":26,"UNIDAD":2.0,"BARRIO":"CENTRO HISTORICO","AGRP":"AV1","SUP_KM":1.204548,"Shape_Leng":4579.43132775,"Shape_Area":1204540.55342,"RSH_Total":18044.0},"geometry":{"type":"Point","coordinates":[-70.649582,-33.440242,0.0]}},{"type":"Feature","properties":{"Join_Count":1,"TARGET_FID":162,"TIPO_EQUIP":"Farmacia","CALIDAD_U":"Alta","PRESTADOR_":null,"OBJECTID":18,"UNIDAD":3.0,"BARRIO":"SANTA ANA","AGRP":"AV2","SUP_KM":0.555207,"Shape_Leng":4226.84668566,"Shape_Area":555202.966948,"RSH_Total":19055.0},"geometry":{"type":"Point","coordinates":[-70.657836,-33.440058,0.0]}},{"type":"Feature","properties":{"Join_Count":1,"TARGET_FID":163,"TIPO_EQUIP":"Farmacia","CALIDAD_U":"Alta","PRESTADOR_":null,"OBJECTID":26,"UNIDAD":2.0,"BARRIO":"CENTRO HISTORICO","AGRP":"AV1","SUP_KM":1.204548,"Shape_Leng":4579.43132775,"Shape_Area":1204540.55342,"RSH_Total":18044.0},"geometry":{"type":"Point","coordinates":[-70.647888,-33.440003,0.0]}},{"type":"Feature","properties":{"Join_Count":1,"TARGET_FID":164,"TIPO_EQUIP":"Farmacia","CALIDAD_U":"Alta","PRESTADOR_":null,"OBJECTID":26,"UNIDAD":2.0,"BARRIO":"CENTRO HISTORICO","AGRP":"AV1","SUP_KM":1.204548,"Shape_Leng":4579.43132775,"Shape_Area":1204540.55342,"RSH_Total":18044.0},"geometry":{"type":"Point","coordinates":[-70.648238,-33.439951,0.0]}},{"type":"Feature","properties":{"Join_Count":1,"TARGET_FID":165,"TIPO_EQUIP":"Farmacia","CALIDAD_U":"Alta","PRESTADOR_":null,"OBJECTID":26,"UNIDAD":2.0,"BARRIO":"CENTRO HISTORICO","AGRP":"AV1","SUP_KM":1.204548,"Shape_Leng":4579.43132775,"Shape_Area":1204540.55342,"RSH_Total":18044.0},"geometry":{"type":"Point","coordinates":[-70.647897,-33.439946,0.0]}},{"type":"Feature","properties":{"Join_Count":1,"TARGET_FID":166,"TIPO_EQUIP":"Farmacia","CALIDAD_U":"Alta","PRESTADOR_":null,"OBJECTID":26,"UNIDAD":2.0,"BARRIO":"CENTRO HISTORICO","AGRP":"AV1","SUP_KM":1.204548,"Shape_Leng":4579.43132775,"Shape_Area":1204540.55342,"RSH_Total":18044.0},"geometry":{"type":"Point","coordinates":[-70.655388,-33.439899,0.0]}},{"type":"Feature","properties":{"Join_Count":1,"TARGET_FID":167,"TIPO_EQUIP":"Farmacia","CALIDAD_U":"Alta","PRESTADOR_":null,"OBJECTID":27,"UNIDAD":1.0,"BARRIO":"SANTA LUCIA FORESTAL","AGRP":"AV1","SUP_KM":0.737406,"Shape_Leng":3888.47853075,"Shape_Area":737401.562473,"RSH_Total":6542.0},"geometry":{"type":"Point","coordinates":[-70.645226,-33.439803,0.0]}},{"type":"Feature","properties":{"Join_Count":1,"TARGET_FID":168,"TIPO_EQUIP":"Farmacia","CALIDAD_U":"Alta","PRESTADOR_":null,"OBJECTID":26,"UNIDAD":2.0,"BARRIO":"CENTRO HISTORICO","AGRP":"AV1","SUP_KM":1.204548,"Shape_Leng":4579.43132775,"Shape_Area":1204540.55342,"RSH_Total":18044.0},"geometry":{"type":"Point","coordinates":[-70.65385,-33.439792,0.0]}},{"type":"Feature","properties":{"Join_Count":1,"TARGET_FID":169,"TIPO_EQUIP":"Farmacia","CALIDAD_U":"Alta","PRESTADOR_":null,"OBJECTID":26,"UNIDAD":2.0,"BARRIO":"CENTRO HISTORICO","AGRP":"AV1","SUP_KM":1.204548,"Shape_Leng":4579.43132775,"Shape_Area":1204540.55342,"RSH_Total":18044.0},"geometry":{"type":"Point","coordinates":[-70.651114,-33.439749,0.0]}},{"type":"Feature","properties":{"Join_Count":1,"TARGET_FID":170,"TIPO_EQUIP":"Farmacia","CALIDAD_U":"Alta","PRESTADOR_":null,"OBJECTID":26,"UNIDAD":2.0,"BARRIO":"CENTRO HISTORICO","AGRP":"AV1","SUP_KM":1.204548,"Shape_Leng":4579.43132775,"Shape_Area":1204540.55342,"RSH_Total":18044.0},"geometry":{"type":"Point","coordinates":[-70.653551,-33.439739,0.0]}},{"type":"Feature","properties":{"Join_Count":1,"TARGET_FID":171,"TIPO_EQUIP":"Farmacia","CALIDAD_U":"Alta","PRESTADOR_":null,"OBJECTID":26,"UNIDAD":2.0,"BARRIO":"CENTRO HISTORICO","AGRP":"AV1","SUP_KM":1.204548,"Shape_Leng":4579.43132775,"Shape_Area":1204540.55342,"RSH_Total":18044.0},"geometry":{"type":"Point","coordinates":[-70.656528,-33.439723,0.0]}},{"type":"Feature","properties":{"Join_Count":1,"TARGET_FID":172,"TIPO_EQUIP":"Farmacia","CALIDAD_U":"Alta","PRESTADOR_":null,"OBJECTID":26,"UNIDAD":2.0,"BARRIO":"CENTRO HISTORICO","AGRP":"AV1","SUP_KM":1.204548,"Shape_Leng":4579.43132775,"Shape_Area":1204540.55342,"RSH_Total":18044.0},"geometry":{"type":"Point","coordinates":[-70.65034,-33.43965,0.0]}},{"type":"Feature","properties":{"Join_Count":1,"TARGET_FID":173,"TIPO_EQUIP":"Farmacia","CALIDAD_U":"Alta","PRESTADOR_":null,"OBJECTID":26,"UNIDAD":2.0,"BARRIO":"CENTRO HISTORICO","AGRP":"AV1","SUP_KM":1.204548,"Shape_Leng":4579.43132775,"Shape_Area":1204540.55342,"RSH_Total":18044.0},"geometry":{"type":"Point","coordinates":[-70.649729,-33.439589,0.0]}},{"type":"Feature","properties":{"Join_Count":1,"TARGET_FID":174,"TIPO_EQUIP":"Farmacia","CALIDAD_U":"Alta","PRESTADOR_":null,"OBJECTID":26,"UNIDAD":2.0,"BARRIO":"CENTRO HISTORICO","AGRP":"AV1","SUP_KM":1.204548,"Shape_Leng":4579.43132775,"Shape_Area":1204540.55342,"RSH_Total":18044.0},"geometry":{"type":"Point","coordinates":[-70.65209,-33.43958,0.0]}},{"type":"Feature","properties":{"Join_Count":1,"TARGET_FID":175,"TIPO_EQUIP":"Farmacia","CALIDAD_U":"Alta","PRESTADOR_":null,"OBJECTID":26,"UNIDAD":2.0,"BARRIO":"CENTRO HISTORICO","AGRP":"AV1","SUP_KM":1.204548,"Shape_Leng":4579.43132775,"Shape_Area":1204540.55342,"RSH_Total":18044.0},"geometry":{"type":"Point","coordinates":[-70.649295,-33.439564,0.0]}},{"type":"Feature","properties":{"Join_Count":1,"TARGET_FID":176,"TIPO_EQUIP":"Farmacia","CALIDAD_U":"Alta","PRESTADOR_":null,"OBJECTID":26,"UNIDAD":2.0,"BARRIO":"CENTRO HISTORICO","AGRP":"AV1","SUP_KM":1.204548,"Shape_Leng":4579.43132775,"Shape_Area":1204540.55342,"RSH_Total":18044.0},"geometry":{"type":"Point","coordinates":[-70.648352,-33.439455,0.0]}},{"type":"Feature","properties":{"Join_Count":1,"TARGET_FID":177,"TIPO_EQUIP":"Farmacia","CALIDAD_U":"Alta","PRESTADOR_":null,"OBJECTID":26,"UNIDAD":2.0,"BARRIO":"CENTRO HISTORICO","AGRP":"AV1","SUP_KM":1.204548,"Shape_Leng":4579.43132775,"Shape_Area":1204540.55342,"RSH_Total":18044.0},"geometry":{"type":"Point","coordinates":[-70.650814,-33.439449,0.0]}},{"type":"Feature","properties":{"Join_Count":1,"TARGET_FID":178,"TIPO_EQUIP":"Farmacia","CALIDAD_U":"Alta","PRESTADOR_":null,"OBJECTID":26,"UNIDAD":2.0,"BARRIO":"CENTRO HISTORICO","AGRP":"AV1","SUP_KM":1.204548,"Shape_Leng":4579.43132775,"Shape_Area":1204540.55342,"RSH_Total":18044.0},"geometry":{"type":"Point","coordinates":[-70.648401,-33.439232,0.0]}},{"type":"Feature","properties":{"Join_Count":1,"TARGET_FID":179,"TIPO_EQUIP":"Farmacia","CALIDAD_U":"Alta","PRESTADOR_":null,"OBJECTID":26,"UNIDAD":2.0,"BARRIO":"CENTRO HISTORICO","AGRP":"AV1","SUP_KM":1.204548,"Shape_Leng":4579.43132775,"Shape_Area":1204540.55342,"RSH_Total":18044.0},"geometry":{"type":"Point","coordinates":[-70.647726,-33.439173,0.0]}},{"type":"Feature","properties":{"Join_Count":1,"TARGET_FID":180,"TIPO_EQUIP":"Farmacia","CALIDAD_U":"Alta","PRESTADOR_":null,"OBJECTID":18,"UNIDAD":3.0,"BARRIO":"SANTA ANA","AGRP":"AV2","SUP_KM":0.555207,"Shape_Leng":4226.84668566,"Shape_Area":555202.966948,"RSH_Total":19055.0},"geometry":{"type":"Point","coordinates":[-70.658008,-33.439057,0.0]}},{"type":"Feature","properties":{"Join_Count":1,"TARGET_FID":181,"TIPO_EQUIP":"Farmacia","CALIDAD_U":"Alta","PRESTADOR_":null,"OBJECTID":19,"UNIDAD":5.0,"BARRIO":"BRASIL","AGRP":"AV2","SUP_KM":0.748504,"Shape_Leng":3546.51000657,"Shape_Area":748499.151709,"RSH_Total":11083.0},"geometry":{"type":"Point","coordinates":[-70.668351,-33.439001,0.0]}},{"type":"Feature","properties":{"Join_Count":1,"TARGET_FID":182,"TIPO_EQUIP":"Farmacia","CALIDAD_U":"Alta","PRESTADOR_":null,"OBJECTID":26,"UNIDAD":2.0,"BARRIO":"CENTRO HISTORICO","AGRP":"AV1","SUP_KM":1.204548,"Shape_Leng":4579.43132775,"Shape_Area":1204540.55342,"RSH_Total":18044.0},"geometry":{"type":"Point","coordinates":[-70.650883,-33.43898,0.0]}},{"type":"Feature","properties":{"Join_Count":1,"TARGET_FID":183,"TIPO_EQUIP":"Farmacia","CALIDAD_U":"Alta","PRESTADOR_":null,"OBJECTID":27,"UNIDAD":1.0,"BARRIO":"SANTA LUCIA FORESTAL","AGRP":"AV1","SUP_KM":0.737406,"Shape_Leng":3888.47853075,"Shape_Area":737401.562473,"RSH_Total":6542.0},"geometry":{"type":"Point","coordinates":[-70.644995,-33.438879,0.0]}},{"type":"Feature","properties":{"Join_Count":1,"TARGET_FID":184,"TIPO_EQUIP":"Farmacia","CALIDAD_U":"Alta","PRESTADOR_":null,"OBJECTID":26,"UNIDAD":2.0,"BARRIO":"CENTRO HISTORICO","AGRP":"AV1","SUP_KM":1.204548,"Shape_Leng":4579.43132775,"Shape_Area":1204540.55342,"RSH_Total":18044.0},"geometry":{"type":"Point","coordinates":[-70.654027,-33.438867,0.0]}},{"type":"Feature","properties":{"Join_Count":1,"TARGET_FID":185,"TIPO_EQUIP":"Farmacia","CALIDAD_U":"Alta","PRESTADOR_":null,"OBJECTID":26,"UNIDAD":2.0,"BARRIO":"CENTRO HISTORICO","AGRP":"AV1","SUP_KM":1.204548,"Shape_Leng":4579.43132775,"Shape_Area":1204540.55342,"RSH_Total":18044.0},"geometry":{"type":"Point","coordinates":[-70.65563,-33.438814,0.0]}},{"type":"Feature","properties":{"Join_Count":1,"TARGET_FID":186,"TIPO_EQUIP":"Farmacia","CALIDAD_U":"Alta","PRESTADOR_":null,"OBJECTID":19,"UNIDAD":5.0,"BARRIO":"BRASIL","AGRP":"AV2","SUP_KM":0.748504,"Shape_Leng":3546.51000657,"Shape_Area":748499.151709,"RSH_Total":11083.0},"geometry":{"type":"Point","coordinates":[-70.663069,-33.438687,0.0]}},{"type":"Feature","properties":{"Join_Count":1,"TARGET_FID":187,"TIPO_EQUIP":"Farmacia","CALIDAD_U":"Alta","PRESTADOR_":null,"OBJECTID":26,"UNIDAD":2.0,"BARRIO":"CENTRO HISTORICO","AGRP":"AV1","SUP_KM":1.204548,"Shape_Leng":4579.43132775,"Shape_Area":1204540.55342,"RSH_Total":18044.0},"geometry":{"type":"Point","coordinates":[-70.649477,-33.43867,0.0]}},{"type":"Feature","properties":{"Join_Count":1,"TARGET_FID":188,"TIPO_EQUIP":"Farmacia","CALIDAD_U":"Alta","PRESTADOR_":null,"OBJECTID":27,"UNIDAD":1.0,"BARRIO":"SANTA LUCIA FORESTAL","AGRP":"AV1","SUP_KM":0.737406,"Shape_Leng":3888.47853075,"Shape_Area":737401.562473,"RSH_Total":6542.0},"geometry":{"type":"Point","coordinates":[-70.645637,-33.438658,0.0]}},{"type":"Feature","properties":{"Join_Count":1,"TARGET_FID":189,"TIPO_EQUIP":"Farmacia","CALIDAD_U":"Alta","PRESTADOR_":null,"OBJECTID":26,"UNIDAD":2.0,"BARRIO":"CENTRO HISTORICO","AGRP":"AV1","SUP_KM":1.204548,"Shape_Leng":4579.43132775,"Shape_Area":1204540.55342,"RSH_Total":18044.0},"geometry":{"type":"Point","coordinates":[-70.648123,-33.43863,0.0]}},{"type":"Feature","properties":{"Join_Count":1,"TARGET_FID":190,"TIPO_EQUIP":"Farmacia","CALIDAD_U":"Alta","PRESTADOR_":null,"OBJECTID":26,"UNIDAD":2.0,"BARRIO":"CENTRO HISTORICO","AGRP":"AV1","SUP_KM":1.204548,"Shape_Leng":4579.43132775,"Shape_Area":1204540.55342,"RSH_Total":18044.0},"geometry":{"type":"Point","coordinates":[-70.650932,-33.438569,0.0]}},{"type":"Feature","properties":{"Join_Count":1,"TARGET_FID":191,"TIPO_EQUIP":"Farmacia","CALIDAD_U":"Alta","PRESTADOR_":null,"OBJECTID":26,"UNIDAD":2.0,"BARRIO":"CENTRO HISTORICO","AGRP":"AV1","SUP_KM":1.204548,"Shape_Leng":4579.43132775,"Shape_Area":1204540.55342,"RSH_Total":18044.0},"geometry":{"type":"Point","coordinates":[-70.648446,-33.438537,0.0]}},{"type":"Feature","properties":{"Join_Count":1,"TARGET_FID":192,"TIPO_EQUIP":"Farmacia","CALIDAD_U":"Alta","PRESTADOR_":null,"OBJECTID":26,"UNIDAD":2.0,"BARRIO":"CENTRO HISTORICO","AGRP":"AV1","SUP_KM":1.204548,"Shape_Leng":4579.43132775,"Shape_Area":1204540.55342,"RSH_Total":18044.0},"geometry":{"type":"Point","coordinates":[-70.651742,-33.438415,0.0]}},{"type":"Feature","properties":{"Join_Count":1,"TARGET_FID":193,"TIPO_EQUIP":"Farmacia","CALIDAD_U":"Alta","PRESTADOR_":null,"OBJECTID":26,"UNIDAD":2.0,"BARRIO":"CENTRO HISTORICO","AGRP":"AV1","SUP_KM":1.204548,"Shape_Leng":4579.43132775,"Shape_Area":1204540.55342,"RSH_Total":18044.0},"geometry":{"type":"Point","coordinates":[-70.649528,-33.438409,0.0]}},{"type":"Feature","properties":{"Join_Count":1,"TARGET_FID":194,"TIPO_EQUIP":"Farmacia","CALIDAD_U":"Alta","PRESTADOR_":null,"OBJECTID":19,"UNIDAD":5.0,"BARRIO":"BRASIL","AGRP":"AV2","SUP_KM":0.748504,"Shape_Leng":3546.51000657,"Shape_Area":748499.151709,"RSH_Total":11083.0},"geometry":{"type":"Point","coordinates":[-70.662156,-33.438389,0.0]}},{"type":"Feature","properties":{"Join_Count":1,"TARGET_FID":195,"TIPO_EQUIP":"Farmacia","CALIDAD_U":"Alta","PRESTADOR_":null,"OBJECTID":2,"UNIDAD":8.0,"BARRIO":"SAN BORJA","AGRP":"AV7","SUP_KM":0.658834,"Shape_Leng":3937.52690617,"Shape_Area":658829.68135,"RSH_Total":13319.0},"geometry":{"type":"Point","coordinates":[-70.636886,-33.438216,0.0]}},{"type":"Feature","properties":{"Join_Count":1,"TARGET_FID":196,"TIPO_EQUIP":"Farmacia","CALIDAD_U":"Alta","PRESTADOR_":null,"OBJECTID":26,"UNIDAD":2.0,"BARRIO":"CENTRO HISTORICO","AGRP":"AV1","SUP_KM":1.204548,"Shape_Leng":4579.43132775,"Shape_Area":1204540.55342,"RSH_Total":18044.0},"geometry":{"type":"Point","coordinates":[-70.647393,-33.438212,0.0]}},{"type":"Feature","properties":{"Join_Count":1,"TARGET_FID":197,"TIPO_EQUIP":"Farmacia","CALIDAD_U":"Alta","PRESTADOR_":null,"OBJECTID":27,"UNIDAD":1.0,"BARRIO":"SANTA LUCIA FORESTAL","AGRP":"AV1","SUP_KM":0.737406,"Shape_Leng":3888.47853075,"Shape_Area":737401.562473,"RSH_Total":6542.0},"geometry":{"type":"Point","coordinates":[-70.64573,-33.438179,0.0]}},{"type":"Feature","properties":{"Join_Count":1,"TARGET_FID":198,"TIPO_EQUIP":"Farmacia","CALIDAD_U":"Alta","PRESTADOR_":null,"OBJECTID":26,"UNIDAD":2.0,"BARRIO":"CENTRO HISTORICO","AGRP":"AV1","SUP_KM":1.204548,"Shape_Leng":4579.43132775,"Shape_Area":1204540.55342,"RSH_Total":18044.0},"geometry":{"type":"Point","coordinates":[-70.64961,-33.438177,0.0]}},{"type":"Feature","properties":{"Join_Count":1,"TARGET_FID":199,"TIPO_EQUIP":"Farmacia","CALIDAD_U":"Alta","PRESTADOR_":null,"OBJECTID":26,"UNIDAD":2.0,"BARRIO":"CENTRO HISTORICO","AGRP":"AV1","SUP_KM":1.204548,"Shape_Leng":4579.43132775,"Shape_Area":1204540.55342,"RSH_Total":18044.0},"geometry":{"type":"Point","coordinates":[-70.648935,-33.43813,0.0]}},{"type":"Feature","properties":{"Join_Count":1,"TARGET_FID":200,"TIPO_EQUIP":"Farmacia","CALIDAD_U":"Alta","PRESTADOR_":null,"OBJECTID":2,"UNIDAD":8.0,"BARRIO":"SAN BORJA","AGRP":"AV7","SUP_KM":0.658834,"Shape_Leng":3937.52690617,"Shape_Area":658829.68135,"RSH_Total":13319.0},"geometry":{"type":"Point","coordinates":[-70.635153,-33.438061,0.0]}},{"type":"Feature","properties":{"Join_Count":1,"TARGET_FID":201,"TIPO_EQUIP":"Farmacia","CALIDAD_U":"Alta","PRESTADOR_":null,"OBJECTID":18,"UNIDAD":3.0,"BARRIO":"SANTA ANA","AGRP":"AV2","SUP_KM":0.555207,"Shape_Leng":4226.84668566,"Shape_Area":555202.966948,"RSH_Total":19055.0},"geometry":{"type":"Point","coordinates":[-70.658108,-33.437922,0.0]}},{"type":"Feature","properties":{"Join_Count":1,"TARGET_FID":202,"TIPO_EQUIP":"Farmacia","CALIDAD_U":"Alta","PRESTADOR_":null,"OBJECTID":26,"UNIDAD":2.0,"BARRIO":"CENTRO HISTORICO","AGRP":"AV1","SUP_KM":1.204548,"Shape_Leng":4579.43132775,"Shape_Area":1204540.55342,"RSH_Total":18044.0},"geometry":{"type":"Point","coordinates":[-70.654854,-33.437832,0.0]}},{"type":"Feature","properties":{"Join_Count":1,"TARGET_FID":203,"TIPO_EQUIP":"Farmacia","CALIDAD_U":"Alta","PRESTADOR_":null,"OBJECTID":26,"UNIDAD":2.0,"BARRIO":"CENTRO HISTORICO","AGRP":"AV1","SUP_KM":1.204548,"Shape_Leng":4579.43132775,"Shape_Area":1204540.55342,"RSH_Total":18044.0},"geometry":{"type":"Point","coordinates":[-70.649595,-33.437814,0.0]}},{"type":"Feature","properties":{"Join_Count":1,"TARGET_FID":204,"TIPO_EQUIP":"Farmacia","CALIDAD_U":"Alta","PRESTADOR_":null,"OBJECTID":27,"UNIDAD":1.0,"BARRIO":"SANTA LUCIA FORESTAL","AGRP":"AV1","SUP_KM":0.737406,"Shape_Leng":3888.47853075,"Shape_Area":737401.562473,"RSH_Total":6542.0},"geometry":{"type":"Point","coordinates":[-70.644648,-33.43773,0.0]}},{"type":"Feature","properties":{"Join_Count":1,"TARGET_FID":205,"TIPO_EQUIP":"Farmacia","CALIDAD_U":"Alta","PRESTADOR_":null,"OBJECTID":26,"UNIDAD":2.0,"BARRIO":"CENTRO HISTORICO","AGRP":"AV1","SUP_KM":1.204548,"Shape_Leng":4579.43132775,"Shape_Area":1204540.55342,"RSH_Total":18044.0},"geometry":{"type":"Point","coordinates":[-70.654969,-33.437575,0.0]}},{"type":"Feature","properties":{"Join_Count":1,"TARGET_FID":206,"TIPO_EQUIP":"Farmacia","CALIDAD_U":"Alta","PRESTADOR_":null,"OBJECTID":2,"UNIDAD":8.0,"BARRIO":"SAN BORJA","AGRP":"AV7","SUP_KM":0.658834,"Shape_Leng":3937.52690617,"Shape_Area":658829.68135,"RSH_Total":13319.0},"geometry":{"type":"Point","coordinates":[-70.635565,-33.437565,0.0]}},{"type":"Feature","properties":{"Join_Count":1,"TARGET_FID":207,"TIPO_EQUIP":"Farmacia","CALIDAD_U":"Alta","PRESTADOR_":null,"OBJECTID":27,"UNIDAD":1.0,"BARRIO":"SANTA LUCIA FORESTAL","AGRP":"AV1","SUP_KM":0.737406,"Shape_Leng":3888.47853075,"Shape_Area":737401.562473,"RSH_Total":6542.0},"geometry":{"type":"Point","coordinates":[-70.641285,-33.437299,0.0]}},{"type":"Feature","properties":{"Join_Count":1,"TARGET_FID":208,"TIPO_EQUIP":"Farmacia","CALIDAD_U":"Alta","PRESTADOR_":null,"OBJECTID":26,"UNIDAD":2.0,"BARRIO":"CENTRO HISTORICO","AGRP":"AV1","SUP_KM":1.204548,"Shape_Leng":4579.43132775,"Shape_Area":1204540.55342,"RSH_Total":18044.0},"geometry":{"type":"Point","coordinates":[-70.651423,-33.437165,0.0]}},{"type":"Feature","properties":{"Join_Count":1,"TARGET_FID":209,"TIPO_EQUIP":"Farmacia","CALIDAD_U":"Alta","PRESTADOR_":null,"OBJECTID":26,"UNIDAD":2.0,"BARRIO":"CENTRO HISTORICO","AGRP":"AV1","SUP_KM":1.204548,"Shape_Leng":4579.43132775,"Shape_Area":1204540.55342,"RSH_Total":18044.0},"geometry":{"type":"Point","coordinates":[-70.648764,-33.437152,0.0]}},{"type":"Feature","properties":{"Join_Count":1,"TARGET_FID":210,"TIPO_EQUIP":"Farmacia","CALIDAD_U":"Alta","PRESTADOR_":null,"OBJECTID":26,"UNIDAD":2.0,"BARRIO":"CENTRO HISTORICO","AGRP":"AV1","SUP_KM":1.204548,"Shape_Leng":4579.43132775,"Shape_Area":1204540.55342,"RSH_Total":18044.0},"geometry":{"type":"Point","coordinates":[-70.649353,-33.436962,0.0]}},{"type":"Feature","properties":{"Join_Count":1,"TARGET_FID":211,"TIPO_EQUIP":"Farmacia","CALIDAD_U":"Alta","PRESTADOR_":null,"OBJECTID":26,"UNIDAD":2.0,"BARRIO":"CENTRO HISTORICO","AGRP":"AV1","SUP_KM":1.204548,"Shape_Leng":4579.43132775,"Shape_Area":1204540.55342,"RSH_Total":18044.0},"geometry":{"type":"Point","coordinates":[-70.648694,-33.436904,0.0]}},{"type":"Feature","properties":{"Join_Count":1,"TARGET_FID":212,"TIPO_EQUIP":"Farmacia","CALIDAD_U":"Alta","PRESTADOR_":null,"OBJECTID":27,"UNIDAD":1.0,"BARRIO":"SANTA LUCIA FORESTAL","AGRP":"AV1","SUP_KM":0.737406,"Shape_Leng":3888.47853075,"Shape_Area":737401.562473,"RSH_Total":6542.0},"geometry":{"type":"Point","coordinates":[-70.645859,-33.436857,0.0]}},{"type":"Feature","properties":{"Join_Count":1,"TARGET_FID":213,"TIPO_EQUIP":"Farmacia","CALIDAD_U":"Alta","PRESTADOR_":null,"OBJECTID":18,"UNIDAD":3.0,"BARRIO":"SANTA ANA","AGRP":"AV2","SUP_KM":0.555207,"Shape_Leng":4226.84668566,"Shape_Area":555202.966948,"RSH_Total":19055.0},"geometry":{"type":"Point","coordinates":[-70.657175,-33.436698,0.0]}},{"type":"Feature","properties":{"Join_Count":1,"TARGET_FID":214,"TIPO_EQUIP":"Farmacia","CALIDAD_U":"Alta","PRESTADOR_":null,"OBJECTID":26,"UNIDAD":2.0,"BARRIO":"CENTRO HISTORICO","AGRP":"AV1","SUP_KM":1.204548,"Shape_Leng":4579.43132775,"Shape_Area":1204540.55342,"RSH_Total":18044.0},"geometry":{"type":"Point","coordinates":[-70.647397,-33.436611,0.0]}},{"type":"Feature","properties":{"Join_Count":1,"TARGET_FID":215,"TIPO_EQUIP":"Farmacia","CALIDAD_U":"Alta","PRESTADOR_":null,"OBJECTID":26,"UNIDAD":2.0,"BARRIO":"CENTRO HISTORICO","AGRP":"AV1","SUP_KM":1.204548,"Shape_Leng":4579.43132775,"Shape_Area":1204540.55342,"RSH_Total":18044.0},"geometry":{"type":"Point","coordinates":[-70.652606,-33.436583,0.0]}},{"type":"Feature","properties":{"Join_Count":1,"TARGET_FID":216,"TIPO_EQUIP":"Farmacia","CALIDAD_U":"Alta","PRESTADOR_":null,"OBJECTID":26,"UNIDAD":2.0,"BARRIO":"CENTRO HISTORICO","AGRP":"AV1","SUP_KM":1.204548,"Shape_Leng":4579.43132775,"Shape_Area":1204540.55342,"RSH_Total":18044.0},"geometry":{"type":"Point","coordinates":[-70.650149,-33.436395,0.0]}},{"type":"Feature","properties":{"Join_Count":1,"TARGET_FID":217,"TIPO_EQUIP":"Farmacia","CALIDAD_U":"Alta","PRESTADOR_":null,"OBJECTID":26,"UNIDAD":2.0,"BARRIO":"CENTRO HISTORICO","AGRP":"AV1","SUP_KM":1.204548,"Shape_Leng":4579.43132775,"Shape_Area":1204540.55342,"RSH_Total":18044.0},"geometry":{"type":"Point","coordinates":[-70.651543,-33.436305,0.0]}},{"type":"Feature","properties":{"Join_Count":1,"TARGET_FID":218,"TIPO_EQUIP":"Farmacia","CALIDAD_U":"Alta","PRESTADOR_":null,"OBJECTID":26,"UNIDAD":2.0,"BARRIO":"CENTRO HISTORICO","AGRP":"AV1","SUP_KM":1.204548,"Shape_Leng":4579.43132775,"Shape_Area":1204540.55342,"RSH_Total":18044.0},"geometry":{"type":"Point","coordinates":[-70.652939,-33.436246,0.0]}},{"type":"Feature","properties":{"Join_Count":1,"TARGET_FID":219,"TIPO_EQUIP":"Farmacia","CALIDAD_U":"Alta","PRESTADOR_":null,"OBJECTID":26,"UNIDAD":2.0,"BARRIO":"CENTRO HISTORICO","AGRP":"AV1","SUP_KM":1.204548,"Shape_Leng":4579.43132775,"Shape_Area":1204540.55342,"RSH_Total":18044.0},"geometry":{"type":"Point","coordinates":[-70.650294,-33.436232,0.0]}},{"type":"Feature","properties":{"Join_Count":1,"TARGET_FID":220,"TIPO_EQUIP":"Farmacia","CALIDAD_U":"Alta","PRESTADOR_":null,"OBJECTID":26,"UNIDAD":2.0,"BARRIO":"CENTRO HISTORICO","AGRP":"AV1","SUP_KM":1.204548,"Shape_Leng":4579.43132775,"Shape_Area":1204540.55342,"RSH_Total":18044.0},"geometry":{"type":"Point","coordinates":[-70.652668,-33.436224,0.0]}},{"type":"Feature","properties":{"Join_Count":1,"TARGET_FID":221,"TIPO_EQUIP":"Farmacia","CALIDAD_U":"Alta","PRESTADOR_":null,"OBJECTID":26,"UNIDAD":2.0,"BARRIO":"CENTRO HISTORICO","AGRP":"AV1","SUP_KM":1.204548,"Shape_Leng":4579.43132775,"Shape_Area":1204540.55342,"RSH_Total":18044.0},"geometry":{"type":"Point","coordinates":[-70.648526,-33.436214,0.0]}},{"type":"Feature","properties":{"Join_Count":1,"TARGET_FID":222,"TIPO_EQUIP":"Farmacia","CALIDAD_U":"Alta","PRESTADOR_":null,"OBJECTID":1,"UNIDAD":7.0,"BARRIO":"YUNGAY","AGRP":"AV3","SUP_KM":2.727776,"Shape_Leng":8932.41139927,"Shape_Area":2727758.46614,"RSH_Total":32141.0},"geometry":{"type":"Point","coordinates":[-70.680057,-33.436144,0.0]}},{"type":"Feature","properties":{"Join_Count":1,"TARGET_FID":223,"TIPO_EQUIP":"Farmacia","CALIDAD_U":"Alta","PRESTADOR_":null,"OBJECTID":26,"UNIDAD":2.0,"BARRIO":"CENTRO HISTORICO","AGRP":"AV1","SUP_KM":1.204548,"Shape_Leng":4579.43132775,"Shape_Area":1204540.55342,"RSH_Total":18044.0},"geometry":{"type":"Point","coordinates":[-70.651574,-33.436089,0.0]}},{"type":"Feature","properties":{"Join_Count":1,"TARGET_FID":224,"TIPO_EQUIP":"Farmacia","CALIDAD_U":"Alta","PRESTADOR_":null,"OBJECTID":26,"UNIDAD":2.0,"BARRIO":"CENTRO HISTORICO","AGRP":"AV1","SUP_KM":1.204548,"Shape_Leng":4579.43132775,"Shape_Area":1204540.55342,"RSH_Total":18044.0},"geometry":{"type":"Point","coordinates":[-70.649315,-33.436076,0.0]}},{"type":"Feature","properties":{"Join_Count":1,"TARGET_FID":225,"TIPO_EQUIP":"Farmacia","CALIDAD_U":"Alta","PRESTADOR_":null,"OBJECTID":26,"UNIDAD":2.0,"BARRIO":"CENTRO HISTORICO","AGRP":"AV1","SUP_KM":1.204548,"Shape_Leng":4579.43132775,"Shape_Area":1204540.55342,"RSH_Total":18044.0},"geometry":{"type":"Point","coordinates":[-70.651265,-33.436033,0.0]}},{"type":"Feature","properties":{"Join_Count":1,"TARGET_FID":226,"TIPO_EQUIP":"Farmacia","CALIDAD_U":"Alta","PRESTADOR_":null,"OBJECTID":1,"UNIDAD":7.0,"BARRIO":"YUNGAY","AGRP":"AV3","SUP_KM":2.727776,"Shape_Leng":8932.41139927,"Shape_Area":2727758.46614,"RSH_Total":32141.0},"geometry":{"type":"Point","coordinates":[-70.679583,-33.435877,0.0]}},{"type":"Feature","properties":{"Join_Count":1,"TARGET_FID":227,"TIPO_EQUIP":"Farmacia","CALIDAD_U":"Alta","PRESTADOR_":null,"OBJECTID":1,"UNIDAD":7.0,"BARRIO":"YUNGAY","AGRP":"AV3","SUP_KM":2.727776,"Shape_Leng":8932.41139927,"Shape_Area":2727758.46614,"RSH_Total":32141.0},"geometry":{"type":"Point","coordinates":[-70.678808,-33.435775,0.0]}},{"type":"Feature","properties":{"Join_Count":1,"TARGET_FID":228,"TIPO_EQUIP":"Farmacia","CALIDAD_U":"Alta","PRESTADOR_":null,"OBJECTID":1,"UNIDAD":7.0,"BARRIO":"YUNGAY","AGRP":"AV3","SUP_KM":2.727776,"Shape_Leng":8932.41139927,"Shape_Area":2727758.46614,"RSH_Total":32141.0},"geometry":{"type":"Point","coordinates":[-70.678448,-33.435731,0.0]}},{"type":"Feature","properties":{"Join_Count":1,"TARGET_FID":229,"TIPO_EQUIP":"Farmacia","CALIDAD_U":"Alta","PRESTADOR_":null,"OBJECTID":26,"UNIDAD":2.0,"BARRIO":"CENTRO HISTORICO","AGRP":"AV1","SUP_KM":1.204548,"Shape_Leng":4579.43132775,"Shape_Area":1204540.55342,"RSH_Total":18044.0},"geometry":{"type":"Point","coordinates":[-70.649811,-33.43556,0.0]}},{"type":"Feature","properties":{"Join_Count":1,"TARGET_FID":230,"TIPO_EQUIP":"Farmacia","CALIDAD_U":"Alta","PRESTADOR_":null,"OBJECTID":26,"UNIDAD":2.0,"BARRIO":"CENTRO HISTORICO","AGRP":"AV1","SUP_KM":1.204548,"Shape_Leng":4579.43132775,"Shape_Area":1204540.55342,"RSH_Total":18044.0},"geometry":{"type":"Point","coordinates":[-70.651675,-33.435506,0.0]}},{"type":"Feature","properties":{"Join_Count":1,"TARGET_FID":231,"TIPO_EQUIP":"Farmacia","CALIDAD_U":"Alta","PRESTADOR_":null,"OBJECTID":1,"UNIDAD":7.0,"BARRIO":"YUNGAY","AGRP":"AV3","SUP_KM":2.727776,"Shape_Leng":8932.41139927,"Shape_Area":2727758.46614,"RSH_Total":32141.0},"geometry":{"type":"Point","coordinates":[-70.678502,-33.43542,0.0]}},{"type":"Feature","properties":{"Join_Count":1,"TARGET_FID":232,"TIPO_EQUIP":"Farmacia","CALIDAD_U":"Alta","PRESTADOR_":null,"OBJECTID":26,"UNIDAD":2.0,"BARRIO":"CENTRO HISTORICO","AGRP":"AV1","SUP_KM":1.204548,"Shape_Leng":4579.43132775,"Shape_Area":1204540.55342,"RSH_Total":18044.0},"geometry":{"type":"Point","coordinates":[-70.653994,-33.435286,0.0]}},{"type":"Feature","properties":{"Join_Count":1,"TARGET_FID":233,"TIPO_EQUIP":"Farmacia","CALIDAD_U":"Alta","PRESTADOR_":null,"OBJECTID":26,"UNIDAD":2.0,"BARRIO":"CENTRO HISTORICO","AGRP":"AV1","SUP_KM":1.204548,"Shape_Leng":4579.43132775,"Shape_Area":1204540.55342,"RSH_Total":18044.0},"geometry":{"type":"Point","coordinates":[-70.651396,-33.43525,0.0]}},{"type":"Feature","properties":{"Join_Count":1,"TARGET_FID":234,"TIPO_EQUIP":"Farmacia","CALIDAD_U":"Alta","PRESTADOR_":null,"OBJECTID":1,"UNIDAD":7.0,"BARRIO":"YUNGAY","AGRP":"AV3","SUP_KM":2.727776,"Shape_Leng":8932.41139927,"Shape_Area":2727758.46614,"RSH_Total":32141.0},"geometry":{"type":"Point","coordinates":[-70.674554,-33.435231,0.0]}},{"type":"Feature","properties":{"Join_Count":1,"TARGET_FID":235,"TIPO_EQUIP":"Farmacia","CALIDAD_U":"Alta","PRESTADOR_":null,"OBJECTID":1,"UNIDAD":7.0,"BARRIO":"YUNGAY","AGRP":"AV3","SUP_KM":2.727776,"Shape_Leng":8932.41139927,"Shape_Area":2727758.46614,"RSH_Total":32141.0},"geometry":{"type":"Point","coordinates":[-70.673498,-33.435174,0.0]}},{"type":"Feature","properties":{"Join_Count":1,"TARGET_FID":236,"TIPO_EQUIP":"Farmacia","CALIDAD_U":"Alta","PRESTADOR_":null,"OBJECTID":1,"UNIDAD":7.0,"BARRIO":"YUNGAY","AGRP":"AV3","SUP_KM":2.727776,"Shape_Leng":8932.41139927,"Shape_Area":2727758.46614,"RSH_Total":32141.0},"geometry":{"type":"Point","coordinates":[-70.675982,-33.435098,0.0]}},{"type":"Feature","properties":{"Join_Count":1,"TARGET_FID":237,"TIPO_EQUIP":"Farmacia","CALIDAD_U":"Alta","PRESTADOR_":null,"OBJECTID":1,"UNIDAD":7.0,"BARRIO":"YUNGAY","AGRP":"AV3","SUP_KM":2.727776,"Shape_Leng":8932.41139927,"Shape_Area":2727758.46614,"RSH_Total":32141.0},"geometry":{"type":"Point","coordinates":[-70.670837,-33.435094,0.0]}},{"type":"Feature","properties":{"Join_Count":1,"TARGET_FID":238,"TIPO_EQUIP":"Farmacia","CALIDAD_U":"Alta","PRESTADOR_":null,"OBJECTID":1,"UNIDAD":7.0,"BARRIO":"YUNGAY","AGRP":"AV3","SUP_KM":2.727776,"Shape_Leng":8932.41139927,"Shape_Area":2727758.46614,"RSH_Total":32141.0},"geometry":{"type":"Point","coordinates":[-70.669092,-33.435032,0.0]}},{"type":"Feature","properties":{"Join_Count":1,"TARGET_FID":239,"TIPO_EQUIP":"Farmacia","CALIDAD_U":"Alta","PRESTADOR_":null,"OBJECTID":17,"UNIDAD":4.0,"BARRIO":"PANAMA","AGRP":"AV2","SUP_KM":0.798583,"Shape_Leng":3683.83224645,"Shape_Area":798577.546151,"RSH_Total":12573.0},"geometry":{"type":"Point","coordinates":[-70.666194,-33.434929,0.0]}},{"type":"Feature","properties":{"Join_Count":1,"TARGET_FID":240,"TIPO_EQUIP":"Farmacia","CALIDAD_U":"Alta","PRESTADOR_":null,"OBJECTID":17,"UNIDAD":4.0,"BARRIO":"PANAMA","AGRP":"AV2","SUP_KM":0.798583,"Shape_Leng":3683.83224645,"Shape_Area":798577.546151,"RSH_Total":12573.0},"geometry":{"type":"Point","coordinates":[-70.666194,-33.434929,0.0]}},{"type":"Feature","properties":{"Join_Count":1,"TARGET_FID":241,"TIPO_EQUIP":"Farmacia","CALIDAD_U":"Alta","PRESTADOR_":null,"OBJECTID":1,"UNIDAD":7.0,"BARRIO":"YUNGAY","AGRP":"AV3","SUP_KM":2.727776,"Shape_Leng":8932.41139927,"Shape_Area":2727758.46614,"RSH_Total":32141.0},"geometry":{"type":"Point","coordinates":[-70.669874,-33.434818,0.0]}},{"type":"Feature","properties":{"Join_Count":1,"TARGET_FID":242,"TIPO_EQUIP":"Farmacia","CALIDAD_U":"Alta","PRESTADOR_":null,"OBJECTID":17,"UNIDAD":4.0,"BARRIO":"PANAMA","AGRP":"AV2","SUP_KM":0.798583,"Shape_Leng":3683.83224645,"Shape_Area":798577.546151,"RSH_Total":12573.0},"geometry":{"type":"Point","coordinates":[-70.668221,-33.434754,0.0]}},{"type":"Feature","properties":{"Join_Count":1,"TARGET_FID":243,"TIPO_EQUIP":"Farmacia","CALIDAD_U":"Alta","PRESTADOR_":null,"OBJECTID":17,"UNIDAD":4.0,"BARRIO":"PANAMA","AGRP":"AV2","SUP_KM":0.798583,"Shape_Leng":3683.83224645,"Shape_Area":798577.546151,"RSH_Total":12573.0},"geometry":{"type":"Point","coordinates":[-70.661968,-33.43453,0.0]}},{"type":"Feature","properties":{"Join_Count":1,"TARGET_FID":244,"TIPO_EQUIP":"Farmacia","CALIDAD_U":"Alta","PRESTADOR_":null,"OBJECTID":18,"UNIDAD":3.0,"BARRIO":"SANTA ANA","AGRP":"AV2","SUP_KM":0.555207,"Shape_Leng":4226.84668566,"Shape_Area":555202.966948,"RSH_Total":19055.0},"geometry":{"type":"Point","coordinates":[-70.65907,-33.434421,0.0]}},{"type":"Feature","properties":{"Join_Count":1,"TARGET_FID":245,"TIPO_EQUIP":"Farmacia","CALIDAD_U":"Alta","PRESTADOR_":null,"OBJECTID":26,"UNIDAD":2.0,"BARRIO":"CENTRO HISTORICO","AGRP":"AV1","SUP_KM":1.204548,"Shape_Leng":4579.43132775,"Shape_Area":1204540.55342,"RSH_Total":18044.0},"geometry":{"type":"Point","coordinates":[-70.652459,-33.434383,0.0]}},{"type":"Feature","properties":{"Join_Count":1,"TARGET_FID":246,"TIPO_EQUIP":"Farmacia","CALIDAD_U":"Alta","PRESTADOR_":null,"OBJECTID":26,"UNIDAD":2.0,"BARRIO":"CENTRO HISTORICO","AGRP":"AV1","SUP_KM":1.204548,"Shape_Leng":4579.43132775,"Shape_Area":1204540.55342,"RSH_Total":18044.0},"geometry":{"type":"Point","coordinates":[-70.651416,-33.434355,0.0]}},{"type":"Feature","properties":{"Join_Count":1,"TARGET_FID":247,"TIPO_EQUIP":"Farmacia","CALIDAD_U":"Alta","PRESTADOR_":null,"OBJECTID":26,"UNIDAD":2.0,"BARRIO":"CENTRO HISTORICO","AGRP":"AV1","SUP_KM":1.204548,"Shape_Leng":4579.43132775,"Shape_Area":1204540.55342,"RSH_Total":18044.0},"geometry":{"type":"Point","coordinates":[-70.648823,-33.434277,0.0]}},{"type":"Feature","properties":{"Join_Count":1,"TARGET_FID":248,"TIPO_EQUIP":"Farmacia","CALIDAD_U":"Alta","PRESTADOR_":null,"OBJECTID":26,"UNIDAD":2.0,"BARRIO":"CENTRO HISTORICO","AGRP":"AV1","SUP_KM":1.204548,"Shape_Leng":4579.43132775,"Shape_Area":1204540.55342,"RSH_Total":18044.0},"geometry":{"type":"Point","coordinates":[-70.655332,-33.434274,0.0]}},{"type":"Feature","properties":{"Join_Count":1,"TARGET_FID":249,"TIPO_EQUIP":"Farmacia","CALIDAD_U":"Alta","PRESTADOR_":null,"OBJECTID":26,"UNIDAD":2.0,"BARRIO":"CENTRO HISTORICO","AGRP":"AV1","SUP_KM":1.204548,"Shape_Leng":4579.43132775,"Shape_Area":1204540.55342,"RSH_Total":18044.0},"geometry":{"type":"Point","coordinates":[-70.650508,-33.433901,0.0]}},{"type":"Feature","properties":{"Join_Count":1,"TARGET_FID":250,"TIPO_EQUIP":"Farmacia","CALIDAD_U":"Alta","PRESTADOR_":null,"OBJECTID":26,"UNIDAD":2.0,"BARRIO":"CENTRO HISTORICO","AGRP":"AV1","SUP_KM":1.204548,"Shape_Leng":4579.43132775,"Shape_Area":1204540.55342,"RSH_Total":18044.0},"geometry":{"type":"Point","coordinates":[-70.651525,-33.433881,0.0]}},{"type":"Feature","properties":{"Join_Count":1,"TARGET_FID":251,"TIPO_EQUIP":"Farmacia","CALIDAD_U":"Alta","PRESTADOR_":null,"OBJECTID":26,"UNIDAD":2.0,"BARRIO":"CENTRO HISTORICO","AGRP":"AV1","SUP_KM":1.204548,"Shape_Leng":4579.43132775,"Shape_Area":1204540.55342,"RSH_Total":18044.0},"geometry":{"type":"Point","coordinates":[-70.657283,-33.433848,0.0]}},{"type":"Feature","properties":{"Join_Count":1,"TARGET_FID":252,"TIPO_EQUIP":"Farmacia","CALIDAD_U":"Alta","PRESTADOR_":null,"OBJECTID":26,"UNIDAD":2.0,"BARRIO":"CENTRO HISTORICO","AGRP":"AV1","SUP_KM":1.204548,"Shape_Leng":4579.43132775,"Shape_Area":1204540.55342,"RSH_Total":18044.0},"geometry":{"type":"Point","coordinates":[-70.649966,-33.4338,0.0]}},{"type":"Feature","properties":{"Join_Count":1,"TARGET_FID":253,"TIPO_EQUIP":"Farmacia","CALIDAD_U":"Alta","PRESTADOR_":null,"OBJECTID":26,"UNIDAD":2.0,"BARRIO":"CENTRO HISTORICO","AGRP":"AV1","SUP_KM":1.204548,"Shape_Leng":4579.43132775,"Shape_Area":1204540.55342,"RSH_Total":18044.0},"geometry":{"type":"Point","coordinates":[-70.653246,-33.433687,0.0]}},{"type":"Feature","properties":{"Join_Count":1,"TARGET_FID":254,"TIPO_EQUIP":"Farmacia","CALIDAD_U":"Alta","PRESTADOR_":null,"OBJECTID":26,"UNIDAD":2.0,"BARRIO":"CENTRO HISTORICO","AGRP":"AV1","SUP_KM":1.204548,"Shape_Leng":4579.43132775,"Shape_Area":1204540.55342,"RSH_Total":18044.0},"geometry":{"type":"Point","coordinates":[-70.651931,-33.433662,0.0]}},{"type":"Feature","properties":{"Join_Count":1,"TARGET_FID":255,"TIPO_EQUIP":"Farmacia","CALIDAD_U":"Alta","PRESTADOR_":null,"OBJECTID":1,"UNIDAD":7.0,"BARRIO":"YUNGAY","AGRP":"AV3","SUP_KM":2.727776,"Shape_Leng":8932.41139927,"Shape_Area":2727758.46614,"RSH_Total":32141.0},"geometry":{"type":"Point","coordinates":[-70.669265,-33.433332,0.0]}},{"type":"Feature","properties":{"Join_Count":1,"TARGET_FID":256,"TIPO_EQUIP":"Farmacia","CALIDAD_U":"Alta","PRESTADOR_":null,"OBJECTID":26,"UNIDAD":2.0,"BARRIO":"CENTRO HISTORICO","AGRP":"AV1","SUP_KM":1.204548,"Shape_Leng":4579.43132775,"Shape_Area":1204540.55342,"RSH_Total":18044.0},"geometry":{"type":"Point","coordinates":[-70.653711,-33.433251,0.0]}},{"type":"Feature","properties":{"Join_Count":1,"TARGET_FID":257,"TIPO_EQUIP":"Farmacia","CALIDAD_U":"Alta","PRESTADOR_":null,"OBJECTID":18,"UNIDAD":3.0,"BARRIO":"SANTA ANA","AGRP":"AV2","SUP_KM":0.555207,"Shape_Leng":4226.84668566,"Shape_Area":555202.966948,"RSH_Total":19055.0},"geometry":{"type":"Point","coordinates":[-70.659729,-33.433105,0.0]}},{"type":"Feature","properties":{"Join_Count":1,"TARGET_FID":258,"TIPO_EQUIP":"Farmacia","CALIDAD_U":"Alta","PRESTADOR_":null,"OBJECTID":16,"UNIDAD":6.0,"BARRIO":"BALMACEDA","AGRP":"AV3","SUP_KM":0.64302,"Shape_Leng":3784.20083152,"Shape_Area":643015.80693,"RSH_Total":13606.0},"geometry":{"type":"Point","coordinates":[-70.673024,-33.43191,0.0]}}]}