{"type":"FeatureCollection", "features": [
{"type":"Feature","geometry":{"type":"Polygon","coordinates":[[[-70.636,-33.43743],[-70.63546,-33.43729],[-70.63547,-33.43723],[-70.636,-33.43743]]]},"properties":{"COD_MZN":"13101101001001","BARRIO":"SAN BORJA","TERRITORIO":"CENTRO ORIENTE","COMUNA":"SANTIAGO"}},
{"type":"Feature","geometry":{"type":"Polygon","coordinates":[[[-70.63799,-33.43841],[-70.63763,-33.43816],[-70.63764,-33.43814],[-70.63799,-33.43838],[-70.63799,-33.43841]]]},"properties":{"COD_MZN":"13101101001003","BARRIO":"SAN BORJA","TERRITORIO":"CENTRO ORIENTE","COMUNA":"SANTIAGO"}},
{"type":"Feature","geometry":{"type":"Polygon","coordinates":[[[-70.63916,-33.43925],[-70.63812,-33.4385],[-70.63828,-33.43859],[-70.63916,-33.43923],[-70.63916,-33.43925]]]},"properties":{"COD_MZN":"13101101001005","BARRIO":"SAN BORJA","TERRITORIO":"CENTRO ORIENTE","COMUNA":"SANTIAGO"}},
{"type":"Feature","geometry":{"type":"Polygon","coordinates":[[[-70.64038,-33.4401],[-70.64034,-33.44008],[-70.6397,-33.43963],[-70.64032,-33.44003],[-70.64038,-33.4401]]]},"properties":{"COD_MZN":"13101101001006","BARRIO":"SAN BORJA","TERRITORIO":"CENTRO ORIENTE","COMUNA":"SANTIAGO"}},
{"type":"Feature","geometry":{"type":"Polygon","coordinates":[[[-70.63854,-33.44014],[-70.63868,-33.44017],[-70.63855,-33.44031],[-70.63854,-33.44014]]]},"properties":{"COD_MZN":"13101101001008","BARRIO":"SAN BORJA","TERRITORIO":"CENTRO ORIENTE","COMUNA":"SANTIAGO"}},
{"type":"Feature","geometry":{"type":"Polygon","coordinates":[[[-70.63871,-33.4402],[-70.63884,-33.44028],[-70.63857,-33.44036],[-70.63871,-33.4402]]]},"properties":{"COD_MZN":"13101101001009","BARRIO":"SAN BORJA","TERRITORIO":"CENTRO ORIENTE","COMUNA":"SANTIAGO"}},
{"type":"Feature","geometry":{"type":"Polygon","coordinates":[[[-70.64032,-33.44037],[-70.64183,-33.44124],[-70.64119,-33.44269],[-70.63901,-33.44183],[-70.64032,-33.44037]]]},"properties":{"COD_MZN":"13101111001001","BARRIO":"SAN BORJA","TERRITORIO":"CENTRO ORIENTE","COMUNA":"SANTIAGO"}},
{"type":"Feature","geometry":{"type":"Polygon","coordinates":[[[-70.64437,-33.44235],[-70.64343,-33.44204],[-70.64253,-33.44157],[-70.64082,-33.44039],[-70.64083,-33.44037],[-70.64255,-33.44155],[-70.64344,-33.44202],[-70.64441,-33.44234],[-70.64437,-33.44235]]]},"properties":{"COD_MZN":"13101111001002","BARRIO":"SAN BORJA","TERRITORIO":"CENTRO ORIENTE","COMUNA":"SANTIAGO"}},
{"type":"Feature","geometry":{"type":"Polygon","coordinates":[[[-70.64344,-33.44234],[-70.64363,-33.44235],[-70.64301,-33.44249],[-70.64344,-33.44234]]]},"properties":{"COD_MZN":"13101111001007","BARRIO":"SAN BORJA","TERRITORIO":"CENTRO ORIENTE","COMUNA":"SANTIAGO"}},
{"type":"Feature","geometry":{"type":"Polygon","coordinates":[[[-70.64109,-33.44293],[-70.64115,-33.44283],[-70.64117,-33.44289],[-70.64109,-33.44293]]]},"properties":{"COD_MZN":"13101111001010","BARRIO":"SAN BORJA","TERRITORIO":"CENTRO ORIENTE","COMUNA":"SANTIAGO"}},
{"type":"Feature","geometry":{"type":"Polygon","coordinates":[[[-70.64126,-33.44288],[-70.64129,-33.44279],[-70.64142,-33.44285],[-70.64126,-33.44288]]]},"properties":{"COD_MZN":"13101111001011","BARRIO":"SAN BORJA","TERRITORIO":"CENTRO ORIENTE","COMUNA":"SANTIAGO"}},
{"type":"Feature","geometry":{"type":"Polygon","coordinates":[[[-70.64441,-33.44234],[-70.64492,-33.4425],[-70.64491,-33.44252],[-70.64437,-33.44235],[-70.64441,-33.44234]]]},"properties":{"COD_MZN":"13101111002001","BARRIO":"SAN BORJA","TERRITORIO":"CENTRO ORIENTE","COMUNA":"SANTIAGO"}},
{"type":"Feature","geometry":{"type":"Polygon","coordinates":[[[-70.64492,-33.4425],[-70.64512,-33.44256],[-70.64591,-33.44274],[-70.64617,-33.44278],[-70.64614,-33.44283],[-70.64536,-33.44265],[-70.64491,-33.44252],[-70.64492,-33.4425]]]},"properties":{"COD_MZN":"13101111003001","BARRIO":"SAN BORJA","TERRITORIO":"CENTRO ORIENTE","COMUNA":"SANTIAGO"}},
{"type":"Feature","geometry":{"type":"Polygon","coordinates":[[[-70.64601,-33.44332],[-70.64597,-33.44306],[-70.6461,-33.44302],[-70.64601,-33.44332]]]},"properties":{"COD_MZN":"13101111003003","BARRIO":"SAN BORJA","TERRITORIO":"CENTRO ORIENTE","COMUNA":"SANTIAGO"}},
{"type":"Feature","geometry":{"type":"Polygon","coordinates":[[[-70.64104,-33.44322],[-70.64096,-33.44312],[-70.64108,-33.4431],[-70.64104,-33.44322]]]},"properties":{"COD_MZN":"13101111014001","BARRIO":"SAN BORJA","TERRITORIO":"CENTRO ORIENTE","COMUNA":"SANTIAGO"}},
{"type":"Feature","geometry":{"type":"Polygon","coordinates":[[[-70.64331,-33.44893],[-70.64316,-33.44824],[-70.64354,-33.44824],[-70.64331,-33.44893]]]},"properties":{"COD_MZN":"13101111006003","BARRIO":"SANTA ISABEL","TERRITORIO":"CENTRO ORIENTE","COMUNA":"SANTIAGO"}},
{"type":"Feature","geometry":{"type":"Polygon","coordinates":[[[-70.63608,-33.45063],[-70.63625,-33.4499],[-70.63631,-33.44991],[-70.63608,-33.45063]]]},"properties":{"COD_MZN":"13101111019004","BARRIO":"SANTA ISABEL","TERRITORIO":"CENTRO ORIENTE","COMUNA":"SANTIAGO"}},
{"type":"Feature","geometry":{"type":"Polygon","coordinates":[[[-70.6351,-33.45056],[-70.63489,-33.45052],[-70.63494,-33.45049],[-70.63512,-33.45052],[-70.6351,-33.45056]]]},"properties":{"COD_MZN":"13101111019006","BARRIO":"SANTA ISABEL","TERRITORIO":"CENTRO ORIENTE","COMUNA":"SANTIAGO"}},
{"type":"Feature","geometry":{"type":"Polygon","coordinates":[[[-70.6353,-33.45056],[-70.63552,-33.4506],[-70.6355,-33.45064],[-70.63531,-33.45061],[-70.6353,-33.45056]]]},"properties":{"COD_MZN":"13101111019008","BARRIO":"SANTA ISABEL","TERRITORIO":"CENTRO ORIENTE","COMUNA":"SANTIAGO"}},
{"type":"Feature","geometry":{"type":"Polygon","coordinates":[[[-70.63569,-33.45066],[-70.63589,-33.45066],[-70.63589,-33.45071],[-70.63569,-33.45066]]]},"properties":{"COD_MZN":"13101111019009","BARRIO":"SANTA ISABEL","TERRITORIO":"CENTRO ORIENTE","COMUNA":"SANTIAGO"}},
{"type":"Feature","geometry":{"type":"Polygon","coordinates":[[[-70.6358,-33.45161],[-70.63599,-33.45082],[-70.63605,-33.45083],[-70.6358,-33.45161]]]},"properties":{"COD_MZN":"13101111019010","BARRIO":"SANTA ISABEL","TERRITORIO":"CENTRO ORIENTE","COMUNA":"SANTIAGO"}},
{"type":"Feature","geometry":{"type":"Polygon","coordinates":[[[-70.63683,-33.45231],[-70.63684,-33.45212],[-70.6369,-33.45212],[-70.63683,-33.45231]]]},"properties":{"COD_MZN":"13101141001002","BARRIO":"DIEZ DE JULIO","TERRITORIO":"CENTRO ORIENTE","COMUNA":"SANTIAGO"}},
{"type":"Feature","geometry":{"type":"Polygon","coordinates":[[[-70.63666,-33.45307],[-70.63664,-33.45304],[-70.63679,-33.45241],[-70.63684,-33.45238],[-70.63669,-33.45305],[-70.63666,-33.45307]]]},"properties":{"COD_MZN":"13101141001004","BARRIO":"DIEZ DE JULIO","TERRITORIO":"CENTRO ORIENTE","COMUNA":"SANTIAGO"}},
{"type":"Feature","geometry":{"type":"Polygon","coordinates":[[[-70.63638,-33.45427],[-70.63636,-33.45424],[-70.63656,-33.45337],[-70.63662,-33.45335],[-70.63642,-33.45424],[-70.63638,-33.45427]]]},"properties":{"COD_MZN":"13101141001010","BARRIO":"DIEZ DE JULIO","TERRITORIO":"CENTRO ORIENTE","COMUNA":"SANTIAGO"}},
{"type":"Feature","geometry":{"type":"Polygon","coordinates":[[[-70.63607,-33.45563],[-70.6363,-33.45453],[-70.63635,-33.45454],[-70.63607,-33.45563]]]},"properties":{"COD_MZN":"13101141001017","BARRIO":"DIEZ DE JULIO","TERRITORIO":"CENTRO ORIENTE","COMUNA":"SANTIAGO"}},
{"type":"Feature","geometry":{"type":"Polygon","coordinates":[[[-70.63585,-33.45654],[-70.63583,-33.45651],[-70.63598,-33.45591],[-70.63603,-33.45588],[-70.63589,-33.4565],[-70.63585,-33.45654]]]},"properties":{"COD_MZN":"13101141001023","BARRIO":"DIEZ DE JULIO","TERRITORIO":"CENTRO ORIENTE","COMUNA":"SANTIAGO"}},
{"type":"Feature","geometry":{"type":"Polygon","coordinates":[[[-70.63518,-33.45278],[-70.63537,-33.4519],[-70.63542,-33.4519],[-70.63522,-33.45275],[-70.63518,-33.45278]]]},"properties":{"COD_MZN":"13101141002006","BARRIO":"DIEZ DE JULIO","TERRITORIO":"CENTRO ORIENTE","COMUNA":"SANTIAGO"}},
{"type":"Feature","geometry":{"type":"Polygon","coordinates":[[[-70.63492,-33.45396],[-70.63489,-33.45392],[-70.6351,-33.45303],[-70.63515,-33.45303],[-70.63492,-33.45396]]]},"properties":{"COD_MZN":"13101141002010","BARRIO":"DIEZ DE JULIO","TERRITORIO":"CENTRO ORIENTE","COMUNA":"SANTIAGO"}},
{"type":"Feature","geometry":{"type":"Polygon","coordinates":[[[-70.6346,-33.45531],[-70.63457,-33.45528],[-70.63482,-33.45423],[-70.63488,-33.45422],[-70.63464,-33.45527],[-70.6346,-33.45531]]]},"properties":{"COD_MZN":"13101141002013","BARRIO":"DIEZ DE JULIO","TERRITORIO":"CENTRO ORIENTE","COMUNA":"SANTIAGO"}},
{"type":"Feature","geometry":{"type":"Polygon","coordinates":[[[-70.63438,-33.45622],[-70.6345,-33.4556],[-70.63457,-33.45559],[-70.63443,-33.45618],[-70.63438,-33.45622]]]},"properties":{"COD_MZN":"13101141002019","BARRIO":"DIEZ DE JULIO","TERRITORIO":"CENTRO ORIENTE","COMUNA":"SANTIAGO"}},
{"type":"Feature","geometry":{"type":"Polygon","coordinates":[[[-70.64742,-33.44309],[-70.6464,-33.44289],[-70.64636,-33.44283],[-70.64742,-33.44309]]]},"properties":{"COD_MZN":"13101121001001","BARRIO":"PARQUE ALMAGRO","TERRITORIO":"CENTRO ORIENTE","COMUNA":"SANTIAGO"}},
{"type":"Feature","geometry":{"type":"Polygon","coordinates":[[[-70.64877,-33.44344],[-70.64772,-33.44312],[-70.6488,-33.44336],[-70.64877,-33.44344]]]},"properties":{"COD_MZN":"13101121001003","BARRIO":"PARQUE ALMAGRO","TERRITORIO":"CENTRO ORIENTE","COMUNA":"SANTIAGO"}},
{"type":"Feature","geometry":{"type":"Polygon","coordinates":[[[-70.64945,-33.44456],[-70.64959,-33.44382],[-70.65002,-33.44392],[-70.64945,-33.44456]]]},"properties":{"COD_MZN":"13101121001008","BARRIO":"PARQUE ALMAGRO","TERRITORIO":"CENTRO ORIENTE","COMUNA":"SANTIAGO"}},
{"type":"Feature","geometry":{"type":"Polygon","coordinates":[[[-70.65114,-33.4462],[-70.65112,-33.44617],[-70.65115,-33.44601],[-70.6512,-33.44603],[-70.65114,-33.4462]]]},"properties":{"COD_MZN":"13101121001016","BARRIO":"PARQUE ALMAGRO","TERRITORIO":"CENTRO ORIENTE","COMUNA":"SANTIAGO"}},
{"type":"Feature","geometry":{"type":"Polygon","coordinates":[[[-70.64837,-33.45401],[-70.64863,-33.45399],[-70.64884,-33.454],[-70.64883,-33.45404],[-70.64837,-33.45401]]]},"properties":{"COD_MZN":"13101151001004","BARRIO":"MATTA NORTE","TERRITORIO":"CENTRO ORIENTE","COMUNA":"SANTIAGO"}},
{"type":"Feature","geometry":{"type":"Polygon","coordinates":[[[-70.65161,-33.44416],[-70.65164,-33.44401],[-70.6529,-33.44429],[-70.65284,-33.44449],[-70.65161,-33.44416]]]},"properties":{"COD_MZN":"13101131001001","BARRIO":"PARQUE ALMAGRO","TERRITORIO":"CENTRO ORIENTE","COMUNA":"SANTIAGO"}},
{"type":"Feature","geometry":{"type":"Polygon","coordinates":[[[-70.65383,-33.44479],[-70.65315,-33.4446],[-70.65314,-33.44436],[-70.6539,-33.44447],[-70.65383,-33.44479]]]},"properties":{"COD_MZN":"13101131001003","BARRIO":"PARQUE ALMAGRO","TERRITORIO":"CENTRO ORIENTE","COMUNA":"SANTIAGO"}},
{"type":"Feature","geometry":{"type":"Polygon","coordinates":[[[-70.65528,-33.44514],[-70.65422,-33.44487],[-70.65432,-33.44458],[-70.65543,-33.44483],[-70.65528,-33.44514]]]},"properties":{"COD_MZN":"13101131001004","BARRIO":"PARQUE ALMAGRO","TERRITORIO":"CENTRO ORIENTE","COMUNA":"SANTIAGO"}},
{"type":"Feature","geometry":{"type":"Polygon","coordinates":[[[-70.65264,-33.44581],[-70.65224,-33.44574],[-70.6525,-33.4446],[-70.65284,-33.4447],[-70.65264,-33.44581]]]},"properties":{"COD_MZN":"13101131001005","BARRIO":"PARQUE ALMAGRO","TERRITORIO":"CENTRO ORIENTE","COMUNA":"SANTIAGO"}},
{"type":"Feature","geometry":{"type":"Polygon","coordinates":[[[-70.65305,-33.45148],[-70.65315,-33.45094],[-70.65374,-33.45106],[-70.65366,-33.45155],[-70.65305,-33.45148]]]},"properties":{"COD_MZN":"13101131005003","BARRIO":"PARQUE ALMAGRO","TERRITORIO":"CENTRO ORIENTE","COMUNA":"SANTIAGO"}},
{"type":"Feature","geometry":{"type":"Polygon","coordinates":[[[-70.6527,-33.4524],[-70.65053,-33.45186],[-70.6507,-33.45121],[-70.65288,-33.45146],[-70.6527,-33.4524]]]},"properties":{"COD_MZN":"13101131005005","BARRIO":"PARQUE ALMAGRO","TERRITORIO":"CENTRO ORIENTE","COMUNA":"SANTIAGO"}},
{"type":"Feature","geometry":{"type":"Polygon","coordinates":[[[-70.65411,-33.45275],[-70.65294,-33.45245],[-70.65301,-33.45153],[-70.65436,-33.45165],[-70.65411,-33.45275]]]},"properties":{"COD_MZN":"13101131005006","BARRIO":"PARQUE ALMAGRO","TERRITORIO":"CENTRO ORIENTE","COMUNA":"SANTIAGO"}},
{"type":"Feature","geometry":{"type":"Polygon","coordinates":[[[-70.65262,-33.45319],[-70.65037,-33.45275],[-70.65051,-33.45195],[-70.65257,-33.45246],[-70.65262,-33.45319]]]},"properties":{"COD_MZN":"13101131005007","BARRIO":"PARQUE ALMAGRO","TERRITORIO":"CENTRO ORIENTE","COMUNA":"SANTIAGO"}},
{"type":"Feature","geometry":{"type":"Polygon","coordinates":[[[-70.6549,-33.45364],[-70.65425,-33.45351],[-70.65434,-33.4529],[-70.65503,-33.45311],[-70.6549,-33.45364]]]},"properties":{"COD_MZN":"13101131006003","BARRIO":"PARQUE ALMAGRO","TERRITORIO":"CENTRO ORIENTE","COMUNA":"SANTIAGO"}},
{"type":"Feature","geometry":{"type":"Polygon","coordinates":[[[-70.65834,-33.44592],[-70.65746,-33.44571],[-70.65751,-33.4453],[-70.65847,-33.44552],[-70.65834,-33.44592]]]},"properties":{"COD_MZN":"13101131007001","BARRIO":"PARQUE ALMAGRO","TERRITORIO":"CENTRO ORIENTE","COMUNA":"SANTIAGO"}},
{"type":"Feature","geometry":{"type":"Polygon","coordinates":[[[-70.65924,-33.44903],[-70.65948,-33.4474],[-70.65996,-33.44748],[-70.65924,-33.44903]]]},"properties":{"COD_MZN":"13101131007007","BARRIO":"PARQUE ALMAGRO","TERRITORIO":"CENTRO ORIENTE","COMUNA":"SANTIAGO"}},
{"type":"Feature","geometry":{"type":"Polygon","coordinates":[[[-70.65943,-33.44919],[-70.65936,-33.44909],[-70.6594,-33.44888],[-70.65953,-33.44861],[-70.65967,-33.44847],[-70.65943,-33.44919]]]},"properties":{"COD_MZN":"13101131007009","BARRIO":"PARQUE ALMAGRO","TERRITORIO":"CENTRO ORIENTE","COMUNA":"SANTIAGO"}},
{"type":"Feature","geometry":{"type":"Polygon","coordinates":[[[-70.65916,-33.44911],[-70.65924,-33.44919],[-70.65913,-33.44923],[-70.65916,-33.44911]]]},"properties":{"COD_MZN":"13101131007011","BARRIO":"PARQUE ALMAGRO","TERRITORIO":"CENTRO ORIENTE","COMUNA":"SANTIAGO"}},
{"type":"Feature","geometry":{"type":"Polygon","coordinates":[[[-70.65883,-33.4509],[-70.65927,-33.44932],[-70.6594,-33.44929],[-70.65883,-33.4509]]]},"properties":{"COD_MZN":"13101131007013","BARRIO":"PARQUE ALMAGRO","TERRITORIO":"CENTRO ORIENTE","COMUNA":"SANTIAGO"}},
{"type":"Feature","geometry":{"type":"Polygon","coordinates":[[[-70.65913,-33.44947],[-70.65904,-33.44945],[-70.65922,-33.4493],[-70.65919,-33.44942],[-70.65913,-33.44947]]]},"properties":{"COD_MZN":"13101131007014","BARRIO":"PARQUE ALMAGRO","TERRITORIO":"CENTRO ORIENTE","COMUNA":"SANTIAGO"}},
{"type":"Feature","geometry":{"type":"Polygon","coordinates":[[[-70.65842,-33.45239],[-70.65852,-33.45203],[-70.65863,-33.45196],[-70.6585,-33.4524],[-70.65842,-33.45239]]]},"properties":{"COD_MZN":"13101131007017","BARRIO":"PARQUE ALMAGRO","TERRITORIO":"CENTRO ORIENTE","COMUNA":"SANTIAGO"}},
{"type":"Feature","geometry":{"type":"Polygon","coordinates":[[[-70.65749,-33.45068],[-70.65877,-33.45081],[-70.65835,-33.45224],[-70.65706,-33.45264],[-70.65749,-33.45068]]]},"properties":{"COD_MZN":"13101131007018","BARRIO":"PARQUE ALMAGRO","TERRITORIO":"CENTRO ORIENTE","COMUNA":"SANTIAGO"}},
{"type":"Feature","geometry":{"type":"Polygon","coordinates":[[[-70.65709,-33.45307],[-70.65702,-33.45288],[-70.65743,-33.45259],[-70.6574,-33.4529],[-70.65709,-33.45307]]]},"properties":{"COD_MZN":"13101131007019","BARRIO":"PARQUE ALMAGRO","TERRITORIO":"CENTRO ORIENTE","COMUNA":"SANTIAGO"}},
{"type":"Feature","geometry":{"type":"Polygon","coordinates":[[[-70.6587,-33.45258],[-70.65841,-33.45252],[-70.65842,-33.4525],[-70.6587,-33.45256],[-70.6587,-33.45258]]]},"properties":{"COD_MZN":"13101131007020","BARRIO":"PARQUE ALMAGRO","TERRITORIO":"CENTRO ORIENTE","COMUNA":"SANTIAGO"}},
{"type":"Feature","geometry":{"type":"Polygon","coordinates":[[[-70.65819,-33.45346],[-70.65834,-33.45259],[-70.65844,-33.4526],[-70.65819,-33.45346]]]},"properties":{"COD_MZN":"13101131007021","BARRIO":"PARQUE ALMAGRO","TERRITORIO":"CENTRO ORIENTE","COMUNA":"SANTIAGO"}},
{"type":"Feature","geometry":{"type":"Polygon","coordinates":[[[-70.65822,-33.45269],[-70.65815,-33.45259],[-70.65825,-33.45262],[-70.65822,-33.45269]]]},"properties":{"COD_MZN":"13101131007022","BARRIO":"PARQUE ALMAGRO","TERRITORIO":"CENTRO ORIENTE","COMUNA":"SANTIAGO"}},
{"type":"Feature","geometry":{"type":"Polygon","coordinates":[[[-70.65785,-33.45322],[-70.65748,-33.45296],[-70.65783,-33.45266],[-70.65811,-33.45309],[-70.65785,-33.45322]]]},"properties":{"COD_MZN":"13101131007023","BARRIO":"PARQUE ALMAGRO","TERRITORIO":"CENTRO ORIENTE","COMUNA":"SANTIAGO"}},
{"type":"Feature","geometry":{"type":"Polygon","coordinates":[[[-70.65567,-33.45442],[-70.65564,-33.45435],[-70.65574,-33.45424],[-70.65582,-33.45443],[-70.65567,-33.45442]]]},"properties":{"COD_MZN":"13101131007026","BARRIO":"PARQUE ALMAGRO","TERRITORIO":"CENTRO ORIENTE","COMUNA":"SANTIAGO"}},
{"type":"Feature","geometry":{"type":"Polygon","coordinates":[[[-70.65702,-33.4456],[-70.65563,-33.44524],[-70.65574,-33.44488],[-70.65721,-33.44522],[-70.65702,-33.4456]]]},"properties":{"COD_MZN":"13101131009001","BARRIO":"PARQUE ALMAGRO","TERRITORIO":"CENTRO ORIENTE","COMUNA":"SANTIAGO"}},
{"type":"Feature","geometry":{"type":"Polygon","coordinates":[[[-70.65161,-33.44416],[-70.65127,-33.44405],[-70.64946,-33.44362],[-70.65164,-33.44401],[-70.65161,-33.44416]]]},"properties":{"COD_MZN":"13101121001007","BARRIO":"PARQUE ALMAGRO","TERRITORIO":"CENTRO ORIENTE","COMUNA":"SANTIAGO"}},
{"type":"Feature","geometry":{"type":"Polygon","coordinates":[[[-70.65651,-33.46049],[-70.6565,-33.46044],[-70.65665,-33.46044],[-70.65664,-33.4605],[-70.65651,-33.46049]]]},"properties":{"COD_MZN":"13101191001015","BARRIO":"MATTA NORTE","TERRITORIO":"CENTRO ORIENTE","COMUNA":"SANTIAGO"}},
{"type":"Feature","geometry":{"type":"Polygon","coordinates":[[[-70.65809,-33.45349],[-70.65818,-33.4535],[-70.658,-33.45411],[-70.65793,-33.454],[-70.65809,-33.45349]]]},"properties":{"COD_MZN":"13101151002001","BARRIO":"PARQUE ALMAGRO","TERRITORIO":"CENTRO ORIENTE","COMUNA":"SANTIAGO"}},
{"type":"Feature","geometry":{"type":"Polygon","coordinates":[[[-70.65827,-33.45352],[-70.65813,-33.45447],[-70.65708,-33.45599],[-70.6568,-33.45597],[-70.65779,-33.45485],[-70.65827,-33.45352]]]},"properties":{"COD_MZN":"13101151002002","BARRIO":"MATTA NORTE","TERRITORIO":"CENTRO ORIENTE","COMUNA":"SANTIAGO"}},
{"type":"Feature","geometry":{"type":"Polygon","coordinates":[[[-70.66042,-33.4464],[-70.6586,-33.44598],[-70.65884,-33.4456],[-70.66058,-33.446],[-70.66042,-33.4464]]]},"properties":{"COD_MZN":"13101131007002","BARRIO":"PARQUE ALMAGRO","TERRITORIO":"CENTRO ORIENTE","COMUNA":"SANTIAGO"}},
{"type":"Feature","geometry":{"type":"Polygon","coordinates":[[[-70.6587,-33.45256],[-70.65888,-33.45259],[-70.65888,-33.45262],[-70.6587,-33.45258],[-70.6587,-33.45256]]]},"properties":{"COD_MZN":"13101281004005","BARRIO":"PARQUE ALMAGRO","TERRITORIO":"CENTRO ORIENTE","COMUNA":"SANTIAGO"}},
{"type":"Feature","geometry":{"type":"Polygon","coordinates":[[[-70.63116,-33.45583],[-70.63059,-33.4557],[-70.63062,-33.4556],[-70.63118,-33.45573],[-70.63116,-33.45583]]]},"properties":{"COD_MZN":"13101161001001","BARRIO":"DIEZ DE JULIO","TERRITORIO":"CENTRO ORIENTE","COMUNA":"SANTIAGO"}},
{"type":"Feature","geometry":{"type":"Polygon","coordinates":[[[-70.63203,-33.456],[-70.63139,-33.45586],[-70.63143,-33.45579],[-70.63203,-33.45592],[-70.63203,-33.456]]]},"properties":{"COD_MZN":"13101161001003","BARRIO":"DIEZ DE JULIO","TERRITORIO":"CENTRO ORIENTE","COMUNA":"SANTIAGO"}},
{"type":"Feature","geometry":{"type":"Polygon","coordinates":[[[-70.63314,-33.45623],[-70.63225,-33.45606],[-70.63225,-33.45597],[-70.63315,-33.45615],[-70.63314,-33.45623]]]},"properties":{"COD_MZN":"13101161001004","BARRIO":"DIEZ DE JULIO","TERRITORIO":"CENTRO ORIENTE","COMUNA":"SANTIAGO"}},
{"type":"Feature","geometry":{"type":"Polygon","coordinates":[[[-70.64311,-33.45835],[-70.64221,-33.45815],[-70.64223,-33.45806],[-70.6431,-33.45824],[-70.64311,-33.45835]]]},"properties":{"COD_MZN":"13101171001018","BARRIO":"DIEZ DE JULIO","TERRITORIO":"CENTRO ORIENTE","COMUNA":"SANTIAGO"}},
{"type":"Feature","geometry":{"type":"Polygon","coordinates":[[[-70.63591,-33.45674],[-70.63682,-33.45692],[-70.6368,-33.45701],[-70.63592,-33.45682],[-70.63591,-33.45674]]]},"properties":{"COD_MZN":"13101171001006","BARRIO":"DIEZ DE JULIO","TERRITORIO":"CENTRO ORIENTE","COMUNA":"SANTIAGO"}},
{"type":"Feature","geometry":{"type":"Polygon","coordinates":[[[-70.63571,-33.45678],[-70.63444,-33.45651],[-70.63447,-33.45643],[-70.63569,-33.45669],[-70.63571,-33.45678]]]},"properties":{"COD_MZN":"13101171001003","BARRIO":"DIEZ DE JULIO","TERRITORIO":"CENTRO ORIENTE","COMUNA":"SANTIAGO"}},
{"type":"Feature","geometry":{"type":"Polygon","coordinates":[[[-70.63423,-33.45646],[-70.6334,-33.45629],[-70.63344,-33.45622],[-70.63422,-33.45638],[-70.63423,-33.45646]]]},"properties":{"COD_MZN":"13101171001001","BARRIO":"DIEZ DE JULIO","TERRITORIO":"CENTRO ORIENTE","COMUNA":"SANTIAGO"}},
{"type":"Feature","geometry":{"type":"Polygon","coordinates":[[[-70.64517,-33.45879],[-70.64343,-33.45842],[-70.64341,-33.45831],[-70.64519,-33.45868],[-70.64517,-33.45879]]]},"properties":{"COD_MZN":"13101181001001","BARRIO":"MATTA NORTE","TERRITORIO":"CENTRO ORIENTE","COMUNA":"SANTIAGO"}},
{"type":"Feature","geometry":{"type":"Polygon","coordinates":[[[-70.64699,-33.45917],[-70.64634,-33.45901],[-70.64638,-33.4589],[-70.64699,-33.45917]]]},"properties":{"COD_MZN":"13101181001004","BARRIO":"MATTA NORTE","TERRITORIO":"CENTRO ORIENTE","COMUNA":"SANTIAGO"}},
{"type":"Feature","geometry":{"type":"Polygon","coordinates":[[[-70.64895,-33.45958],[-70.64738,-33.45925],[-70.64742,-33.45914],[-70.64895,-33.45958]]]},"properties":{"COD_MZN":"13101181001006","BARRIO":"MATTA NORTE","TERRITORIO":"CENTRO ORIENTE","COMUNA":"SANTIAGO"}},
{"type":"Feature","geometry":{"type":"Polygon","coordinates":[[[-70.65632,-33.46045],[-70.65551,-33.46035],[-70.65557,-33.46031],[-70.65633,-33.4604],[-70.65632,-33.46045]]]},"properties":{"COD_MZN":"13101191001013","BARRIO":"MATTA NORTE","TERRITORIO":"CENTRO ORIENTE","COMUNA":"SANTIAGO"}},
{"type":"Feature","geometry":{"type":"Polygon","coordinates":[[[-70.63558,-33.43803],[-70.63539,-33.43741],[-70.6363,-33.43766],[-70.63558,-33.43803]]]},"properties":{"COD_MZN":"13101101001002","BARRIO":"SAN BORJA","TERRITORIO":"CENTRO ORIENTE","COMUNA":"SANTIAGO"}},
{"type":"Feature","geometry":{"type":"Polygon","coordinates":[[[-70.63803,-33.43965],[-70.63618,-33.43869],[-70.63698,-33.43793],[-70.63803,-33.43965]]]},"properties":{"COD_MZN":"13101101001004","BARRIO":"SAN BORJA","TERRITORIO":"CENTRO ORIENTE","COMUNA":"SANTIAGO"}},
{"type":"Feature","geometry":{"type":"Polygon","coordinates":[[[-70.63904,-33.43981],[-70.64026,-33.44022],[-70.63975,-33.44077],[-70.63904,-33.43981]]]},"properties":{"COD_MZN":"13101101001007","BARRIO":"SAN BORJA","TERRITORIO":"CENTRO ORIENTE","COMUNA":"SANTIAGO"}},
{"type":"Feature","geometry":{"type":"Polygon","coordinates":[[[-70.63879,-33.44173],[-70.63849,-33.44046],[-70.63965,-33.44083],[-70.63879,-33.44173]]]},"properties":{"COD_MZN":"13101101001010","BARRIO":"SAN BORJA","TERRITORIO":"CENTRO ORIENTE","COMUNA":"SANTIAGO"}},
{"type":"Feature","geometry":{"type":"Polygon","coordinates":[[[-70.63464,-33.43957],[-70.63496,-33.43849],[-70.63606,-33.43875],[-70.63566,-33.43996],[-70.63464,-33.43957]]]},"properties":{"COD_MZN":"13101101002001","BARRIO":"SAN BORJA","TERRITORIO":"CENTRO ORIENTE","COMUNA":"SANTIAGO"}},
{"type":"Feature","geometry":{"type":"Polygon","coordinates":[[[-70.63652,-33.44086],[-70.63543,-33.44044],[-70.63634,-33.43882],[-70.63836,-33.44005],[-70.63768,-33.44292],[-70.63407,-33.4418],[-70.63462,-33.4402],[-70.63652,-33.44086]]]},"properties":{"COD_MZN":"13101101002002","BARRIO":"SAN BORJA","TERRITORIO":"CENTRO ORIENTE","COMUNA":"SANTIAGO"}},
{"type":"Feature","geometry":{"type":"Polygon","coordinates":[[[-70.63526,-33.44036],[-70.63455,-33.44008],[-70.63463,-33.4396],[-70.63564,-33.43998],[-70.63526,-33.44036]]]},"properties":{"COD_MZN":"13101101002003","BARRIO":"SAN BORJA","TERRITORIO":"CENTRO ORIENTE","COMUNA":"SANTIAGO"}},
{"type":"Feature","geometry":{"type":"Polygon","coordinates":[[[-70.63467,-33.44232],[-70.63634,-33.44269],[-70.63606,-33.44327],[-70.63467,-33.44232]]]},"properties":{"COD_MZN":"13101101003001","BARRIO":"SANTA ISABEL","TERRITORIO":"CENTRO ORIENTE","COMUNA":"SANTIAGO"}},
{"type":"Feature","geometry":{"type":"Polygon","coordinates":[[[-70.63643,-33.4427],[-70.63764,-33.44312],[-70.63687,-33.44441],[-70.63585,-33.44406],[-70.63643,-33.4427]]]},"properties":{"COD_MZN":"13101101003002","BARRIO":"SANTA ISABEL","TERRITORIO":"CENTRO ORIENTE","COMUNA":"SANTIAGO"}},
{"type":"Feature","geometry":{"type":"Polygon","coordinates":[[[-70.63375,-33.44287],[-70.636,-33.44334],[-70.63572,-33.44404],[-70.63375,-33.44287]]]},"properties":{"COD_MZN":"13101101003003","BARRIO":"SANTA ISABEL","TERRITORIO":"CENTRO ORIENTE","COMUNA":"SANTIAGO"}},
{"type":"Feature","geometry":{"type":"Polygon","coordinates":[[[-70.63543,-33.44475],[-70.63342,-33.44406],[-70.63358,-33.44342],[-70.63567,-33.44416],[-70.63543,-33.44475]]]},"properties":{"COD_MZN":"13101101004001","BARRIO":"SANTA ISABEL","TERRITORIO":"CENTRO ORIENTE","COMUNA":"SANTIAGO"}},
{"type":"Feature","geometry":{"type":"Polygon","coordinates":[[[-70.63644,-33.44511],[-70.63559,-33.44481],[-70.63579,-33.44422],[-70.63673,-33.44453],[-70.63644,-33.44511]]]},"properties":{"COD_MZN":"13101101004002","BARRIO":"SANTA ISABEL","TERRITORIO":"CENTRO ORIENTE","COMUNA":"SANTIAGO"}},
{"type":"Feature","geometry":{"type":"Polygon","coordinates":[[[-70.63318,-33.4448],[-70.6354,-33.44481],[-70.63496,-33.44585],[-70.63318,-33.4448]]]},"properties":{"COD_MZN":"13101101005001","BARRIO":"SANTA ISABEL","TERRITORIO":"CENTRO ORIENTE","COMUNA":"SANTIAGO"}},
{"type":"Feature","geometry":{"type":"Polygon","coordinates":[[[-70.63586,-33.44605],[-70.63511,-33.44583],[-70.63551,-33.44488],[-70.6364,-33.44523],[-70.63586,-33.44605]]]},"properties":{"COD_MZN":"13101101005002","BARRIO":"SANTA ISABEL","TERRITORIO":"CENTRO ORIENTE","COMUNA":"SANTIAGO"}},
{"type":"Feature","geometry":{"type":"Polygon","coordinates":[[[-70.6346,-33.44639],[-70.63284,-33.44594],[-70.63302,-33.44547],[-70.63498,-33.44592],[-70.6346,-33.44639]]]},"properties":{"COD_MZN":"13101101006001","BARRIO":"SANTA ISABEL","TERRITORIO":"CENTRO ORIENTE","COMUNA":"SANTIAGO"}},
{"type":"Feature","geometry":{"type":"Polygon","coordinates":[[[-70.63487,-33.44698],[-70.63507,-33.44597],[-70.63585,-33.44615],[-70.63552,-33.4471],[-70.63487,-33.44698]]]},"properties":{"COD_MZN":"13101101006002","BARRIO":"SANTA ISABEL","TERRITORIO":"CENTRO ORIENTE","COMUNA":"SANTIAGO"}},
{"type":"Feature","geometry":{"type":"Polygon","coordinates":[[[-70.63311,-33.44676],[-70.63283,-33.44597],[-70.63484,-33.44646],[-70.63471,-33.4469],[-70.63311,-33.44676]]]},"properties":{"COD_MZN":"13101101006003","BARRIO":"SANTA ISABEL","TERRITORIO":"CENTRO ORIENTE","COMUNA":"SANTIAGO"}},
{"type":"Feature","geometry":{"type":"Polygon","coordinates":[[[-70.63258,-33.44676],[-70.63467,-33.44706],[-70.63437,-33.44793],[-70.6325,-33.44743],[-70.63258,-33.44676]]]},"properties":{"COD_MZN":"13101101007001","BARRIO":"SANTA ISABEL","TERRITORIO":"CENTRO ORIENTE","COMUNA":"SANTIAGO"}},
{"type":"Feature","geometry":{"type":"Polygon","coordinates":[[[-70.6352,-33.44815],[-70.6345,-33.44792],[-70.63475,-33.44707],[-70.63548,-33.44722],[-70.6352,-33.44815]]]},"properties":{"COD_MZN":"13101101007002","BARRIO":"SANTA ISABEL","TERRITORIO":"CENTRO ORIENTE","COMUNA":"SANTIAGO"}},
{"type":"Feature","geometry":{"type":"Polygon","coordinates":[[[-70.6329,-33.44807],[-70.6332,-33.44912],[-70.63207,-33.44887],[-70.6329,-33.44807]]]},"properties":{"COD_MZN":"13101101008001","BARRIO":"SANTA ISABEL","TERRITORIO":"CENTRO ORIENTE","COMUNA":"SANTIAGO"}},
{"type":"Feature","geometry":{"type":"Polygon","coordinates":[[[-70.634,-33.44929],[-70.6333,-33.4491],[-70.63367,-33.44785],[-70.63439,-33.44804],[-70.634,-33.44929]]]},"properties":{"COD_MZN":"13101101009001","BARRIO":"SANTA ISABEL","TERRITORIO":"CENTRO ORIENTE","COMUNA":"SANTIAGO"}},
{"type":"Feature","geometry":{"type":"Polygon","coordinates":[[[-70.63485,-33.44948],[-70.63411,-33.4493],[-70.63446,-33.44806],[-70.6352,-33.44825],[-70.63485,-33.44948]]]},"properties":{"COD_MZN":"13101101009002","BARRIO":"SANTA ISABEL","TERRITORIO":"CENTRO ORIENTE","COMUNA":"SANTIAGO"}},
{"type":"Feature","geometry":{"type":"Polygon","coordinates":[[[-70.63185,-33.44943],[-70.63206,-33.44893],[-70.63396,-33.44935],[-70.63379,-33.44984],[-70.63185,-33.44943]]]},"properties":{"COD_MZN":"13101101010001","BARRIO":"SANTA ISABEL","TERRITORIO":"CENTRO ORIENTE","COMUNA":"SANTIAGO"}},
{"type":"Feature","geometry":{"type":"Polygon","coordinates":[[[-70.63404,-33.45155],[-70.63407,-33.44941],[-70.63486,-33.44959],[-70.63404,-33.45155]]]},"properties":{"COD_MZN":"13101101010002","BARRIO":"SANTA ISABEL","TERRITORIO":"CENTRO ORIENTE","COMUNA":"SANTIAGO"}},
{"type":"Feature","geometry":{"type":"Polygon","coordinates":[[[-70.63178,-33.44949],[-70.63383,-33.44994],[-70.63338,-33.45153],[-70.63114,-33.45167],[-70.63178,-33.44949]]]},"properties":{"COD_MZN":"13101101010003","BARRIO":"SANTA ISABEL","TERRITORIO":"CENTRO ORIENTE","COMUNA":"SANTIAGO"}},
{"type":"Feature","geometry":{"type":"Polygon","coordinates":[[[-70.64153,-33.4428],[-70.6419,-33.44129],[-70.64263,-33.44177],[-70.64242,-33.44215],[-70.64196,-33.44228],[-70.64153,-33.4428]]]},"properties":{"COD_MZN":"13101111001003","BARRIO":"SAN BORJA","TERRITORIO":"CENTRO ORIENTE","COMUNA":"SANTIAGO"}},
{"type":"Feature","geometry":{"type":"Polygon","coordinates":[[[-70.64245,-33.44216],[-70.64266,-33.44179],[-70.6436,-33.44223],[-70.6426,-33.44253],[-70.64245,-33.44216]]]},"properties":{"COD_MZN":"13101111001004","BARRIO":"SAN BORJA","TERRITORIO":"CENTRO ORIENTE","COMUNA":"SANTIAGO"}},
{"type":"Feature","geometry":{"type":"Polygon","coordinates":[[[-70.63815,-33.44276],[-70.63898,-33.44186],[-70.64089,-33.44262],[-70.64092,-33.44296],[-70.63925,-33.4432],[-70.63815,-33.44276]]]},"properties":{"COD_MZN":"13101111001005","BARRIO":"SAN BORJA","TERRITORIO":"CENTRO ORIENTE","COMUNA":"SANTIAGO"}},
{"type":"Feature","geometry":{"type":"Polygon","coordinates":[[[-70.64183,-33.44268],[-70.64198,-33.4423],[-70.64242,-33.44218],[-70.64256,-33.44254],[-70.64183,-33.44268]]]},"properties":{"COD_MZN":"13101111001006","BARRIO":"SAN BORJA","TERRITORIO":"CENTRO ORIENTE","COMUNA":"SANTIAGO"}},
{"type":"Feature","geometry":{"type":"Polygon","coordinates":[[[-70.64314,-33.44297],[-70.64266,-33.44265],[-70.64354,-33.44244],[-70.64314,-33.44297]]]},"properties":{"COD_MZN":"13101111001008","BARRIO":"SAN BORJA","TERRITORIO":"CENTRO ORIENTE","COMUNA":"SANTIAGO"}},
{"type":"Feature","geometry":{"type":"Polygon","coordinates":[[[-70.6431,-33.44338],[-70.64153,-33.443],[-70.64265,-33.44268],[-70.6431,-33.44338]]]},"properties":{"COD_MZN":"13101111001009","BARRIO":"SAN BORJA","TERRITORIO":"CENTRO ORIENTE","COMUNA":"SANTIAGO"}},
{"type":"Feature","geometry":{"type":"Polygon","coordinates":[[[-70.64361,-33.44311],[-70.64409,-33.44243],[-70.64483,-33.4427],[-70.64456,-33.4437],[-70.64361,-33.44311]]]},"properties":{"COD_MZN":"13101111002002","BARRIO":"SAN BORJA","TERRITORIO":"CENTRO ORIENTE","COMUNA":"SANTIAGO"}},
{"type":"Feature","geometry":{"type":"Polygon","coordinates":[[[-70.64429,-33.4446],[-70.64304,-33.4444],[-70.64327,-33.4435],[-70.64454,-33.44382],[-70.64429,-33.4446]]]},"properties":{"COD_MZN":"13101111002003","BARRIO":"SAN BORJA","TERRITORIO":"CENTRO ORIENTE","COMUNA":"SANTIAGO"}},
{"type":"Feature","geometry":{"type":"Polygon","coordinates":[[[-70.64478,-33.44321],[-70.64596,-33.44315],[-70.64579,-33.44384],[-70.64466,-33.44377],[-70.64478,-33.44321]]]},"properties":{"COD_MZN":"13101111003002","BARRIO":"SAN BORJA","TERRITORIO":"CENTRO ORIENTE","COMUNA":"SANTIAGO"}},
{"type":"Feature","geometry":{"type":"Polygon","coordinates":[[[-70.64461,-33.44387],[-70.64569,-33.44396],[-70.64535,-33.44512],[-70.6444,-33.4449],[-70.64461,-33.44387]]]},"properties":{"COD_MZN":"13101111003004","BARRIO":"SAN BORJA","TERRITORIO":"CENTRO ORIENTE","COMUNA":"SANTIAGO"}},
{"type":"Feature","geometry":{"type":"Polygon","coordinates":[[[-70.64465,-33.4458],[-70.64439,-33.44499],[-70.64553,-33.44526],[-70.64465,-33.4458]]]},"properties":{"COD_MZN":"13101111003005","BARRIO":"SAN BORJA","TERRITORIO":"CENTRO ORIENTE","COMUNA":"SANTIAGO"}},
{"type":"Feature","geometry":{"type":"Polygon","coordinates":[[[-70.64404,-33.44643],[-70.64523,-33.44638],[-70.64476,-33.448],[-70.64375,-33.44775],[-70.64404,-33.44643]]]},"properties":{"COD_MZN":"13101111004001","BARRIO":"SAN BORJA","TERRITORIO":"CENTRO ORIENTE","COMUNA":"SANTIAGO"}},
{"type":"Feature","geometry":{"type":"Polygon","coordinates":[[[-70.64373,-33.4473],[-70.64249,-33.44695],[-70.64262,-33.44625],[-70.64389,-33.44634],[-70.64373,-33.4473]]]},"properties":{"COD_MZN":"13101111005001","BARRIO":"SAN BORJA","TERRITORIO":"CENTRO ORIENTE","COMUNA":"SANTIAGO"}},
{"type":"Feature","geometry":{"type":"Polygon","coordinates":[[[-70.64041,-33.44537],[-70.64171,-33.44599],[-70.64025,-33.44594],[-70.64041,-33.44537]]]},"properties":{"COD_MZN":"13101111012001","BARRIO":"SAN BORJA","TERRITORIO":"CENTRO ORIENTE","COMUNA":"SANTIAGO"}},
{"type":"Feature","geometry":{"type":"Polygon","coordinates":[[[-70.64117,-33.44314],[-70.64311,-33.44347],[-70.64274,-33.44506],[-70.64069,-33.44464],[-70.64117,-33.44314]]]},"properties":{"COD_MZN":"13101111013001","BARRIO":"SAN BORJA","TERRITORIO":"CENTRO ORIENTE","COMUNA":"SANTIAGO"}},
{"type":"Feature","geometry":{"type":"Polygon","coordinates":[[[-70.64407,-33.44572],[-70.64278,-33.44552],[-70.64305,-33.44446],[-70.64431,-33.4447],[-70.64407,-33.44572]]]},"properties":{"COD_MZN":"13101111013002","BARRIO":"SAN BORJA","TERRITORIO":"CENTRO ORIENTE","COMUNA":"SANTIAGO"}},
{"type":"Feature","geometry":{"type":"Polygon","coordinates":[[[-70.64254,-33.44607],[-70.6405,-33.44524],[-70.64068,-33.44471],[-70.64272,-33.44512],[-70.64254,-33.44607]]]},"properties":{"COD_MZN":"13101111013003","BARRIO":"SAN BORJA","TERRITORIO":"CENTRO ORIENTE","COMUNA":"SANTIAGO"}},
{"type":"Feature","geometry":{"type":"Polygon","coordinates":[[[-70.63774,-33.44327],[-70.6389,-33.44331],[-70.64081,-33.44311],[-70.64032,-33.4452],[-70.63705,-33.44453],[-70.63774,-33.44327]]]},"properties":{"COD_MZN":"13101111014002","BARRIO":"SAN BORJA","TERRITORIO":"CENTRO ORIENTE","COMUNA":"SANTIAGO"}},
{"type":"Feature","geometry":{"type":"Polygon","coordinates":[[[-70.64008,-33.4459],[-70.63666,-33.44516],[-70.63698,-33.44464],[-70.64027,-33.44531],[-70.64008,-33.4459]]]},"properties":{"COD_MZN":"13101111015001","BARRIO":"SAN BORJA","TERRITORIO":"CENTRO ORIENTE","COMUNA":"SANTIAGO"}},
{"type":"Feature","geometry":{"type":"Polygon","coordinates":[[[-70.64361,-33.44773],[-70.64236,-33.44749],[-70.6425,-33.447],[-70.64372,-33.44736],[-70.64361,-33.44773]]]},"properties":{"COD_MZN":"13101111004002","BARRIO":"SANTA ISABEL","TERRITORIO":"CENTRO ORIENTE","COMUNA":"SANTIAGO"}},
{"type":"Feature","geometry":{"type":"Polygon","coordinates":[[[-70.64228,-33.44762],[-70.64315,-33.44812],[-70.64294,-33.44888],[-70.64201,-33.44867],[-70.64228,-33.44762]]]},"properties":{"COD_MZN":"13101111006001","BARRIO":"SANTA ISABEL","TERRITORIO":"CENTRO ORIENTE","COMUNA":"SANTIAGO"}},
{"type":"Feature","geometry":{"type":"Polygon","coordinates":[[[-70.64451,-33.44957],[-70.64335,-33.44933],[-70.64372,-33.44787],[-70.64479,-33.44811],[-70.64451,-33.44957]]]},"properties":{"COD_MZN":"13101111006002","BARRIO":"SANTA ISABEL","TERRITORIO":"CENTRO ORIENTE","COMUNA":"SANTIAGO"}},
{"type":"Feature","geometry":{"type":"Polygon","coordinates":[[[-70.64288,-33.45023],[-70.64163,-33.44981],[-70.642,-33.4488],[-70.6433,-33.44901],[-70.64288,-33.45023]]]},"properties":{"COD_MZN":"13101111007001","BARRIO":"SANTA ISABEL","TERRITORIO":"CENTRO ORIENTE","COMUNA":"SANTIAGO"}},
{"type":"Feature","geometry":{"type":"Polygon","coordinates":[[[-70.64311,-33.45027],[-70.64331,-33.4494],[-70.64453,-33.44967],[-70.64426,-33.45043],[-70.64311,-33.45027]]]},"properties":{"COD_MZN":"13101111007002","BARRIO":"SANTA ISABEL","TERRITORIO":"CENTRO ORIENTE","COMUNA":"SANTIAGO"}},
{"type":"Feature","geometry":{"type":"Polygon","coordinates":[[[-70.6412,-33.45115],[-70.64167,-33.44996],[-70.64293,-33.45037],[-70.6426,-33.45147],[-70.6412,-33.45115]]]},"properties":{"COD_MZN":"13101111008001","BARRIO":"SANTA ISABEL","TERRITORIO":"CENTRO ORIENTE","COMUNA":"SANTIAGO"}},
{"type":"Feature","geometry":{"type":"Polygon","coordinates":[[[-70.64378,-33.45107],[-70.64413,-33.45168],[-70.64277,-33.45151],[-70.64288,-33.45093],[-70.64378,-33.45107]]]},"properties":{"COD_MZN":"13101111008002","BARRIO":"SANTA ISABEL","TERRITORIO":"CENTRO ORIENTE","COMUNA":"SANTIAGO"}},
{"type":"Feature","geometry":{"type":"Polygon","coordinates":[[[-70.64226,-33.45293],[-70.64083,-33.45261],[-70.64118,-33.45127],[-70.64265,-33.45159],[-70.64226,-33.45293]]]},"properties":{"COD_MZN":"13101111008003","BARRIO":"SANTA ISABEL","TERRITORIO":"CENTRO ORIENTE","COMUNA":"SANTIAGO"}},
{"type":"Feature","geometry":{"type":"Polygon","coordinates":[[[-70.64242,-33.45296],[-70.64272,-33.45161],[-70.64416,-33.45179],[-70.64395,-33.45318],[-70.64242,-33.45296]]]},"properties":{"COD_MZN":"13101111008004","BARRIO":"SANTA ISABEL","TERRITORIO":"CENTRO ORIENTE","COMUNA":"SANTIAGO"}},
{"type":"Feature","geometry":{"type":"Polygon","coordinates":[[[-70.64119,-33.45083],[-70.64006,-33.45057],[-70.64043,-33.44958],[-70.6415,-33.44991],[-70.64119,-33.45083]]]},"properties":{"COD_MZN":"13101111009001","BARRIO":"SANTA ISABEL","TERRITORIO":"CENTRO ORIENTE","COMUNA":"SANTIAGO"}},
{"type":"Feature","geometry":{"type":"Polygon","coordinates":[[[-70.63927,-33.45237],[-70.63861,-33.45216],[-70.63918,-33.45046],[-70.63989,-33.45067],[-70.63927,-33.45237]]]},"properties":{"COD_MZN":"13101111009003","BARRIO":"SANTA ISABEL","TERRITORIO":"CENTRO ORIENTE","COMUNA":"SANTIAGO"}},
{"type":"Feature","geometry":{"type":"Polygon","coordinates":[[[-70.64069,-33.45266],[-70.63941,-33.45235],[-70.63998,-33.45064],[-70.64119,-33.45097],[-70.64069,-33.45266]]]},"properties":{"COD_MZN":"13101111009004","BARRIO":"SANTA ISABEL","TERRITORIO":"CENTRO ORIENTE","COMUNA":"SANTIAGO"}},
{"type":"Feature","geometry":{"type":"Polygon","coordinates":[[[-70.63848,-33.45221],[-70.63811,-33.45206],[-70.6384,-33.45121],[-70.63882,-33.45131],[-70.63848,-33.45221]]]},"properties":{"COD_MZN":"13101111009002","BARRIO":"SANTA ISABEL","TERRITORIO":"CENTRO ORIENTE","COMUNA":"SANTIAGO"}},
{"type":"Feature","geometry":{"type":"Polygon","coordinates":[[[-70.64146,-33.4498],[-70.64039,-33.44942],[-70.64078,-33.44847],[-70.64188,-33.44882],[-70.64146,-33.4498]]]},"properties":{"COD_MZN":"13101111010001","BARRIO":"SANTA ISABEL","TERRITORIO":"CENTRO ORIENTE","COMUNA":"SANTIAGO"}},
{"type":"Feature","geometry":{"type":"Polygon","coordinates":[[[-70.64027,-33.44945],[-70.63912,-33.44918],[-70.63944,-33.44816],[-70.6406,-33.44842],[-70.64027,-33.44945]]]},"properties":{"COD_MZN":"13101111011001","BARRIO":"SANTA ISABEL","TERRITORIO":"CENTRO ORIENTE","COMUNA":"SANTIAGO"}},
{"type":"Feature","geometry":{"type":"Polygon","coordinates":[[[-70.6399,-33.45053],[-70.63874,-33.45025],[-70.63905,-33.44928],[-70.64021,-33.44951],[-70.6399,-33.45053]]]},"properties":{"COD_MZN":"13101111011002","BARRIO":"SANTA ISABEL","TERRITORIO":"CENTRO ORIENTE","COMUNA":"SANTIAGO"}},
{"type":"Feature","geometry":{"type":"Polygon","coordinates":[[[-70.63995,-33.44701],[-70.64017,-33.44603],[-70.6408,-33.44617],[-70.64053,-33.44711],[-70.63995,-33.44701]]]},"properties":{"COD_MZN":"13101111012002","BARRIO":"SANTA ISABEL","TERRITORIO":"CENTRO ORIENTE","COMUNA":"SANTIAGO"}},
{"type":"Feature","geometry":{"type":"Polygon","coordinates":[[[-70.64098,-33.44723],[-70.64059,-33.4471],[-70.64085,-33.44622],[-70.6413,-33.44629],[-70.64098,-33.44723]]]},"properties":{"COD_MZN":"13101111012003","BARRIO":"SANTA ISABEL","TERRITORIO":"CENTRO ORIENTE","COMUNA":"SANTIAGO"}},
{"type":"Feature","geometry":{"type":"Polygon","coordinates":[[[-70.64219,-33.44746],[-70.64111,-33.44722],[-70.64138,-33.44629],[-70.64245,-33.4465],[-70.64219,-33.44746]]]},"properties":{"COD_MZN":"13101111012004","BARRIO":"SANTA ISABEL","TERRITORIO":"CENTRO ORIENTE","COMUNA":"SANTIAGO"}},
{"type":"Feature","geometry":{"type":"Polygon","coordinates":[[[-70.64063,-33.44835],[-70.63949,-33.44808],[-70.63978,-33.44713],[-70.6405,-33.44722],[-70.6404,-33.44758],[-70.64048,-33.44765],[-70.64088,-33.44773],[-70.64063,-33.44835]]]},"properties":{"COD_MZN":"13101111012005","BARRIO":"SANTA ISABEL","TERRITORIO":"CENTRO ORIENTE","COMUNA":"SANTIAGO"}},
{"type":"Feature","geometry":{"type":"Polygon","coordinates":[[[-70.64047,-33.44761],[-70.64056,-33.44723],[-70.64094,-33.44732],[-70.6409,-33.44768],[-70.64047,-33.44761]]]},"properties":{"COD_MZN":"13101111012006","BARRIO":"SANTA ISABEL","TERRITORIO":"CENTRO ORIENTE","COMUNA":"SANTIAGO"}},
{"type":"Feature","geometry":{"type":"Polygon","coordinates":[[[-70.64187,-33.44868],[-70.64077,-33.44841],[-70.64106,-33.4474],[-70.6422,-33.44759],[-70.64187,-33.44868]]]},"properties":{"COD_MZN":"13101111012007","BARRIO":"SANTA ISABEL","TERRITORIO":"CENTRO ORIENTE","COMUNA":"SANTIAGO"}},
{"type":"Feature","geometry":{"type":"Polygon","coordinates":[[[-70.63656,-33.44525],[-70.63881,-33.44569],[-70.63849,-33.44668],[-70.63614,-33.44613],[-70.63656,-33.44525]]]},"properties":{"COD_MZN":"13101111015002","BARRIO":"SANTA ISABEL","TERRITORIO":"CENTRO ORIENTE","COMUNA":"SANTIAGO"}},
{"type":"Feature","geometry":{"type":"Polygon","coordinates":[[[-70.6397,-33.44699],[-70.63865,-33.44672],[-70.63893,-33.44576],[-70.64009,-33.44603],[-70.6397,-33.44699]]]},"properties":{"COD_MZN":"13101111016001","BARRIO":"SANTA ISABEL","TERRITORIO":"CENTRO ORIENTE","COMUNA":"SANTIAGO"}},
{"type":"Feature","geometry":{"type":"Polygon","coordinates":[[[-70.63934,-33.44805],[-70.63825,-33.44776],[-70.63858,-33.44681],[-70.63972,-33.44708],[-70.63934,-33.44805]]]},"properties":{"COD_MZN":"13101111016002","BARRIO":"SANTA ISABEL","TERRITORIO":"CENTRO ORIENTE","COMUNA":"SANTIAGO"}},
{"type":"Feature","geometry":{"type":"Polygon","coordinates":[[[-70.636,-33.44621],[-70.63715,-33.44685],[-70.63676,-33.44744],[-70.6357,-33.44718],[-70.636,-33.44621]]]},"properties":{"COD_MZN":"13101111017001","BARRIO":"SANTA ISABEL","TERRITORIO":"CENTRO ORIENTE","COMUNA":"SANTIAGO"}},
{"type":"Feature","geometry":{"type":"Polygon","coordinates":[[[-70.63798,-33.44704],[-70.6381,-33.4467],[-70.63849,-33.44681],[-70.63829,-33.44739],[-70.63798,-33.44704]]]},"properties":{"COD_MZN":"13101111017002","BARRIO":"SANTA ISABEL","TERRITORIO":"CENTRO ORIENTE","COMUNA":"SANTIAGO"}},
{"type":"Feature","geometry":{"type":"Polygon","coordinates":[[[-70.63719,-33.44687],[-70.63811,-33.44775],[-70.63705,-33.44749],[-70.63719,-33.44687]]]},"properties":{"COD_MZN":"13101111017003","BARRIO":"SANTA ISABEL","TERRITORIO":"CENTRO ORIENTE","COMUNA":"SANTIAGO"}},
{"type":"Feature","geometry":{"type":"Polygon","coordinates":[[[-70.63563,-33.44726],[-70.63697,-33.44755],[-70.63539,-33.44817],[-70.63563,-33.44726]]]},"properties":{"COD_MZN":"13101111017004","BARRIO":"SANTA ISABEL","TERRITORIO":"CENTRO ORIENTE","COMUNA":"SANTIAGO"}},
{"type":"Feature","geometry":{"type":"Polygon","coordinates":[[[-70.63622,-33.44799],[-70.63682,-33.44813],[-70.63666,-33.44854],[-70.63608,-33.44838],[-70.63622,-33.44799]]]},"properties":{"COD_MZN":"13101111017005","BARRIO":"SANTA ISABEL","TERRITORIO":"CENTRO ORIENTE","COMUNA":"SANTIAGO"}},
{"type":"Feature","geometry":{"type":"Polygon","coordinates":[[[-70.63897,-33.44915],[-70.63675,-33.44856],[-70.6371,-33.44758],[-70.63931,-33.44811],[-70.63897,-33.44915]]]},"properties":{"COD_MZN":"13101111018001","BARRIO":"SANTA ISABEL","TERRITORIO":"CENTRO ORIENTE","COMUNA":"SANTIAGO"}},
{"type":"Feature","geometry":{"type":"Polygon","coordinates":[[[-70.63644,-33.4494],[-70.63673,-33.44863],[-70.63893,-33.4492],[-70.63865,-33.45019],[-70.63644,-33.4494]]]},"properties":{"COD_MZN":"13101111018002","BARRIO":"SANTA ISABEL","TERRITORIO":"CENTRO ORIENTE","COMUNA":"SANTIAGO"}},
{"type":"Feature","geometry":{"type":"Polygon","coordinates":[[[-70.63516,-33.44906],[-70.6354,-33.44828],[-70.63661,-33.4486],[-70.63614,-33.44972],[-70.63516,-33.44906]]]},"properties":{"COD_MZN":"13101111019001","BARRIO":"SANTA ISABEL","TERRITORIO":"CENTRO ORIENTE","COMUNA":"SANTIAGO"}},
{"type":"Feature","geometry":{"type":"Polygon","coordinates":[[[-70.63594,-33.45063],[-70.63483,-33.45038],[-70.63503,-33.44959],[-70.63621,-33.44985],[-70.63594,-33.45063]]]},"properties":{"COD_MZN":"13101111019002","BARRIO":"SANTA ISABEL","TERRITORIO":"CENTRO ORIENTE","COMUNA":"SANTIAGO"}},
{"type":"Feature","geometry":{"type":"Polygon","coordinates":[[[-70.63702,-33.45087],[-70.63754,-33.45201],[-70.63594,-33.45174],[-70.63702,-33.45087]]]},"properties":{"COD_MZN":"13101111019003","BARRIO":"SANTA ISABEL","TERRITORIO":"CENTRO ORIENTE","COMUNA":"SANTIAGO"}},
{"type":"Feature","geometry":{"type":"Polygon","coordinates":[[[-70.63566,-33.45166],[-70.63457,-33.45142],[-70.63481,-33.45056],[-70.63594,-33.45082],[-70.63566,-33.45166]]]},"properties":{"COD_MZN":"13101111019007","BARRIO":"SANTA ISABEL","TERRITORIO":"CENTRO ORIENTE","COMUNA":"SANTIAGO"}},
{"type":"Feature","geometry":{"type":"Polygon","coordinates":[[[-70.63799,-33.45109],[-70.63825,-33.45024],[-70.63861,-33.45033],[-70.63833,-33.45116],[-70.63799,-33.45109]]]},"properties":{"COD_MZN":"13101111019005","BARRIO":"SANTA ISABEL","TERRITORIO":"CENTRO ORIENTE","COMUNA":"SANTIAGO"}},
{"type":"Feature","geometry":{"type":"Polygon","coordinates":[[[-70.63764,-33.45337],[-70.63678,-33.45318],[-70.63698,-33.45205],[-70.63795,-33.45224],[-70.63764,-33.45337]]]},"properties":{"COD_MZN":"13101141001001","BARRIO":"DIEZ DE JULIO","TERRITORIO":"CENTRO ORIENTE","COMUNA":"SANTIAGO"}},
{"type":"Feature","geometry":{"type":"Polygon","coordinates":[[[-70.6382,-33.453],[-70.63811,-33.45224],[-70.63921,-33.45246],[-70.63896,-33.45355],[-70.6382,-33.453]]]},"properties":{"COD_MZN":"13101141001003","BARRIO":"DIEZ DE JULIO","TERRITORIO":"CENTRO ORIENTE","COMUNA":"SANTIAGO"}},
{"type":"Feature","geometry":{"type":"Polygon","coordinates":[[[-70.63934,-33.45251],[-70.64066,-33.45276],[-70.64042,-33.45378],[-70.63907,-33.45361],[-70.63934,-33.45251]]]},"properties":{"COD_MZN":"13101141001005","BARRIO":"DIEZ DE JULIO","TERRITORIO":"CENTRO ORIENTE","COMUNA":"SANTIAGO"}},
{"type":"Feature","geometry":{"type":"Polygon","coordinates":[[[-70.64144,-33.45349],[-70.64098,-33.4528],[-70.64223,-33.45302],[-70.64144,-33.45349]]]},"properties":{"COD_MZN":"13101141001006","BARRIO":"DIEZ DE JULIO","TERRITORIO":"CENTRO ORIENTE","COMUNA":"SANTIAGO"}},
{"type":"Feature","geometry":{"type":"Polygon","coordinates":[[[-70.64208,-33.45407],[-70.64234,-33.45308],[-70.64301,-33.45319],[-70.64276,-33.45419],[-70.64208,-33.45407]]]},"properties":{"COD_MZN":"13101141001007","BARRIO":"DIEZ DE JULIO","TERRITORIO":"CENTRO ORIENTE","COMUNA":"SANTIAGO"}},
{"type":"Feature","geometry":{"type":"Polygon","coordinates":[[[-70.64332,-33.45362],[-70.64393,-33.45335],[-70.64378,-33.45433],[-70.64289,-33.45417],[-70.64332,-33.45362]]]},"properties":{"COD_MZN":"13101141001008","BARRIO":"DIEZ DE JULIO","TERRITORIO":"CENTRO ORIENTE","COMUNA":"SANTIAGO"}},
{"type":"Feature","geometry":{"type":"Polygon","coordinates":[[[-70.63737,-33.45457],[-70.63646,-33.45434],[-70.63668,-33.45335],[-70.63767,-33.45351],[-70.63737,-33.45457]]]},"properties":{"COD_MZN":"13101141001009","BARRIO":"DIEZ DE JULIO","TERRITORIO":"CENTRO ORIENTE","COMUNA":"SANTIAGO"}},
{"type":"Feature","geometry":{"type":"Polygon","coordinates":[[[-70.63756,-33.4546],[-70.63774,-33.45355],[-70.63884,-33.45366],[-70.63854,-33.45478],[-70.63756,-33.4546]]]},"properties":{"COD_MZN":"13101141001011","BARRIO":"DIEZ DE JULIO","TERRITORIO":"CENTRO ORIENTE","COMUNA":"SANTIAGO"}},
{"type":"Feature","geometry":{"type":"Polygon","coordinates":[[[-70.64006,-33.45507],[-70.63857,-33.45479],[-70.63887,-33.45366],[-70.64036,-33.45385],[-70.64006,-33.45507]]]},"properties":{"COD_MZN":"13101141001012","BARRIO":"DIEZ DE JULIO","TERRITORIO":"CENTRO ORIENTE","COMUNA":"SANTIAGO"}},
{"type":"Feature","geometry":{"type":"Polygon","coordinates":[[[-70.64029,-33.45512],[-70.64055,-33.45391],[-70.64189,-33.4541],[-70.64157,-33.45536],[-70.64029,-33.45512]]]},"properties":{"COD_MZN":"13101141001013","BARRIO":"DIEZ DE JULIO","TERRITORIO":"CENTRO ORIENTE","COMUNA":"SANTIAGO"}},
{"type":"Feature","geometry":{"type":"Polygon","coordinates":[[[-70.64208,-33.45546],[-70.642,-33.4542],[-70.6428,-33.45432],[-70.64208,-33.45546]]]},"properties":{"COD_MZN":"13101141001014","BARRIO":"DIEZ DE JULIO","TERRITORIO":"CENTRO ORIENTE","COMUNA":"SANTIAGO"}},
{"type":"Feature","geometry":{"type":"Polygon","coordinates":[[[-70.64268,-33.45557],[-70.64286,-33.45434],[-70.64375,-33.45453],[-70.64358,-33.45569],[-70.64268,-33.45557]]]},"properties":{"COD_MZN":"13101141001015","BARRIO":"DIEZ DE JULIO","TERRITORIO":"CENTRO ORIENTE","COMUNA":"SANTIAGO"}},
{"type":"Feature","geometry":{"type":"Polygon","coordinates":[[[-70.63632,-33.45493],[-70.6374,-33.45469],[-70.63713,-33.4559],[-70.63614,-33.45569],[-70.63632,-33.45493]]]},"properties":{"COD_MZN":"13101141001016","BARRIO":"DIEZ DE JULIO","TERRITORIO":"CENTRO ORIENTE","COMUNA":"SANTIAGO"}},
{"type":"Feature","geometry":{"type":"Polygon","coordinates":[[[-70.63747,-33.45473],[-70.64006,-33.45513],[-70.6397,-33.45643],[-70.63723,-33.45595],[-70.63747,-33.45473]]]},"properties":{"COD_MZN":"13101141001018","BARRIO":"DIEZ DE JULIO","TERRITORIO":"CENTRO ORIENTE","COMUNA":"SANTIAGO"}},
{"type":"Feature","geometry":{"type":"Polygon","coordinates":[[[-70.63993,-33.45647],[-70.64021,-33.45519],[-70.64091,-33.45532],[-70.6406,-33.45655],[-70.63993,-33.45647]]]},"properties":{"COD_MZN":"13101141001019","BARRIO":"DIEZ DE JULIO","TERRITORIO":"CENTRO ORIENTE","COMUNA":"SANTIAGO"}},
{"type":"Feature","geometry":{"type":"Polygon","coordinates":[[[-70.64121,-33.4567],[-70.64064,-33.45655],[-70.64095,-33.45534],[-70.64159,-33.45547],[-70.64121,-33.4567]]]},"properties":{"COD_MZN":"13101141001020","BARRIO":"DIEZ DE JULIO","TERRITORIO":"CENTRO ORIENTE","COMUNA":"SANTIAGO"}},
{"type":"Feature","geometry":{"type":"Polygon","coordinates":[[[-70.64331,-33.45715],[-70.64135,-33.45669],[-70.64172,-33.45545],[-70.6435,-33.4558],[-70.64331,-33.45715]]]},"properties":{"COD_MZN":"13101141001021","BARRIO":"DIEZ DE JULIO","TERRITORIO":"CENTRO ORIENTE","COMUNA":"SANTIAGO"}},
{"type":"Feature","geometry":{"type":"Polygon","coordinates":[[[-70.63683,-33.45682],[-70.63593,-33.4566],[-70.63618,-33.45581],[-70.63707,-33.45598],[-70.63683,-33.45682]]]},"properties":{"COD_MZN":"13101141001022","BARRIO":"DIEZ DE JULIO","TERRITORIO":"CENTRO ORIENTE","COMUNA":"SANTIAGO"}},
{"type":"Feature","geometry":{"type":"Polygon","coordinates":[[[-70.63717,-33.45609],[-70.63839,-33.45623],[-70.63818,-33.4571],[-70.63707,-33.45687],[-70.63717,-33.45609]]]},"properties":{"COD_MZN":"13101141001024","BARRIO":"DIEZ DE JULIO","TERRITORIO":"CENTRO ORIENTE","COMUNA":"SANTIAGO"}},
{"type":"Feature","geometry":{"type":"Polygon","coordinates":[[[-70.63861,-33.45719],[-70.63829,-33.45708],[-70.63847,-33.4563],[-70.63884,-33.4564],[-70.63861,-33.45719]]]},"properties":{"COD_MZN":"13101141001025","BARRIO":"DIEZ DE JULIO","TERRITORIO":"CENTRO ORIENTE","COMUNA":"SANTIAGO"}},
{"type":"Feature","geometry":{"type":"Polygon","coordinates":[[[-70.63903,-33.45727],[-70.6387,-33.45718],[-70.63889,-33.45639],[-70.63925,-33.45647],[-70.63903,-33.45727]]]},"properties":{"COD_MZN":"13101141001026","BARRIO":"DIEZ DE JULIO","TERRITORIO":"CENTRO ORIENTE","COMUNA":"SANTIAGO"}},
{"type":"Feature","geometry":{"type":"Polygon","coordinates":[[[-70.63948,-33.45736],[-70.63909,-33.45726],[-70.63928,-33.45647],[-70.63973,-33.45656],[-70.63948,-33.45736]]]},"properties":{"COD_MZN":"13101141001027","BARRIO":"DIEZ DE JULIO","TERRITORIO":"CENTRO ORIENTE","COMUNA":"SANTIAGO"}},
{"type":"Feature","geometry":{"type":"Polygon","coordinates":[[[-70.63986,-33.45655],[-70.6412,-33.45677],[-70.64095,-33.45768],[-70.6397,-33.45742],[-70.63986,-33.45655]]]},"properties":{"COD_MZN":"13101141001028","BARRIO":"DIEZ DE JULIO","TERRITORIO":"CENTRO ORIENTE","COMUNA":"SANTIAGO"}},
{"type":"Feature","geometry":{"type":"Polygon","coordinates":[[[-70.64199,-33.4579],[-70.64109,-33.45766],[-70.64131,-33.45684],[-70.64222,-33.45698],[-70.64199,-33.4579]]]},"properties":{"COD_MZN":"13101141001029","BARRIO":"DIEZ DE JULIO","TERRITORIO":"CENTRO ORIENTE","COMUNA":"SANTIAGO"}},
{"type":"Feature","geometry":{"type":"Polygon","coordinates":[[[-70.64235,-33.45796],[-70.64234,-33.45705],[-70.64331,-33.45722],[-70.64322,-33.45809],[-70.64235,-33.45796]]]},"properties":{"COD_MZN":"13101141001030","BARRIO":"DIEZ DE JULIO","TERRITORIO":"CENTRO ORIENTE","COMUNA":"SANTIAGO"}},
{"type":"Feature","geometry":{"type":"Polygon","coordinates":[[[-70.63501,-33.45283],[-70.63426,-33.45262],[-70.63457,-33.45166],[-70.63534,-33.45182],[-70.63501,-33.45283]]]},"properties":{"COD_MZN":"13101141002001","BARRIO":"DIEZ DE JULIO","TERRITORIO":"CENTRO ORIENTE","COMUNA":"SANTIAGO"}},
{"type":"Feature","geometry":{"type":"Polygon","coordinates":[[[-70.63338,-33.45172],[-70.63432,-33.45186],[-70.63408,-33.45264],[-70.63322,-33.45245],[-70.63338,-33.45172]]]},"properties":{"COD_MZN":"13101141002002","BARRIO":"DIEZ DE JULIO","TERRITORIO":"CENTRO ORIENTE","COMUNA":"SANTIAGO"}},
{"type":"Feature","geometry":{"type":"Polygon","coordinates":[[[-70.63269,-33.45361],[-70.63198,-33.45342],[-70.63247,-33.45178],[-70.63327,-33.45176],[-70.63269,-33.45361]]]},"properties":{"COD_MZN":"13101141002003","BARRIO":"DIEZ DE JULIO","TERRITORIO":"CENTRO ORIENTE","COMUNA":"SANTIAGO"}},
{"type":"Feature","geometry":{"type":"Polygon","coordinates":[[[-70.63152,-33.45266],[-70.6317,-33.45189],[-70.63237,-33.45184],[-70.6319,-33.45342],[-70.63073,-33.45323],[-70.63152,-33.45266]]]},"properties":{"COD_MZN":"13101141002004","BARRIO":"DIEZ DE JULIO","TERRITORIO":"CENTRO ORIENTE","COMUNA":"SANTIAGO"}},
{"type":"Feature","geometry":{"type":"Polygon","coordinates":[[[-70.63532,-33.45288],[-70.63549,-33.45181],[-70.63679,-33.45198],[-70.63648,-33.45312],[-70.63532,-33.45288]]]},"properties":{"COD_MZN":"13101141002005","BARRIO":"DIEZ DE JULIO","TERRITORIO":"CENTRO ORIENTE","COMUNA":"SANTIAGO"}},
{"type":"Feature","geometry":{"type":"Polygon","coordinates":[[[-70.63314,-33.45255],[-70.6341,-33.45276],[-70.63384,-33.45376],[-70.63284,-33.45359],[-70.63314,-33.45255]]]},"properties":{"COD_MZN":"13101141002007","BARRIO":"DIEZ DE JULIO","TERRITORIO":"CENTRO ORIENTE","COMUNA":"SANTIAGO"}},
{"type":"Feature","geometry":{"type":"Polygon","coordinates":[[[-70.63476,-33.45401],[-70.63396,-33.45378],[-70.63421,-33.45281],[-70.63504,-33.45302],[-70.63476,-33.45401]]]},"properties":{"COD_MZN":"13101141002008","BARRIO":"DIEZ DE JULIO","TERRITORIO":"CENTRO ORIENTE","COMUNA":"SANTIAGO"}},
{"type":"Feature","geometry":{"type":"Polygon","coordinates":[[[-70.63621,-33.45432],[-70.63499,-33.45399],[-70.63531,-33.45295],[-70.63645,-33.4532],[-70.63621,-33.45432]]]},"properties":{"COD_MZN":"13101141002009","BARRIO":"DIEZ DE JULIO","TERRITORIO":"CENTRO ORIENTE","COMUNA":"SANTIAGO"}},
{"type":"Feature","geometry":{"type":"Polygon","coordinates":[[[-70.63431,-33.45486],[-70.63373,-33.45471],[-70.63399,-33.45392],[-70.63477,-33.45417],[-70.63431,-33.45486]]]},"properties":{"COD_MZN":"13101141002011","BARRIO":"DIEZ DE JULIO","TERRITORIO":"CENTRO ORIENTE","COMUNA":"SANTIAGO"}},
{"type":"Feature","geometry":{"type":"Polygon","coordinates":[[[-70.63483,-33.45545],[-70.63493,-33.45423],[-70.6353,-33.45421],[-70.63483,-33.45545]]]},"properties":{"COD_MZN":"13101141002012","BARRIO":"DIEZ DE JULIO","TERRITORIO":"CENTRO ORIENTE","COMUNA":"SANTIAGO"}},
{"type":"Feature","geometry":{"type":"Polygon","coordinates":[[[-70.63507,-33.4555],[-70.63533,-33.45421],[-70.6356,-33.45427],[-70.63507,-33.4555]]]},"properties":{"COD_MZN":"13101141002014","BARRIO":"DIEZ DE JULIO","TERRITORIO":"CENTRO ORIENTE","COMUNA":"SANTIAGO"}},
{"type":"Feature","geometry":{"type":"Polygon","coordinates":[[[-70.63536,-33.45556],[-70.63563,-33.45428],[-70.63587,-33.45433],[-70.63536,-33.45556]]]},"properties":{"COD_MZN":"13101141002015","BARRIO":"DIEZ DE JULIO","TERRITORIO":"CENTRO ORIENTE","COMUNA":"SANTIAGO"}},
{"type":"Feature","geometry":{"type":"Polygon","coordinates":[[[-70.63593,-33.45569],[-70.63562,-33.45562],[-70.6359,-33.45433],[-70.63625,-33.4545],[-70.63593,-33.45569]]]},"properties":{"COD_MZN":"13101141002016","BARRIO":"DIEZ DE JULIO","TERRITORIO":"CENTRO ORIENTE","COMUNA":"SANTIAGO"}},
{"type":"Feature","geometry":{"type":"Polygon","coordinates":[[[-70.63351,-33.45554],[-70.63447,-33.45549],[-70.63429,-33.45624],[-70.63344,-33.45611],[-70.63351,-33.45554]]]},"properties":{"COD_MZN":"13101141002017","BARRIO":"DIEZ DE JULIO","TERRITORIO":"CENTRO ORIENTE","COMUNA":"SANTIAGO"}},
{"type":"Feature","geometry":{"type":"Polygon","coordinates":[[[-70.63481,-33.4557],[-70.63589,-33.45574],[-70.63572,-33.45656],[-70.63452,-33.45633],[-70.63481,-33.4557]]]},"properties":{"COD_MZN":"13101141002018","BARRIO":"DIEZ DE JULIO","TERRITORIO":"CENTRO ORIENTE","COMUNA":"SANTIAGO"}},
{"type":"Feature","geometry":{"type":"Polygon","coordinates":[[[-70.63146,-33.45474],[-70.63032,-33.45444],[-70.63071,-33.45331],[-70.63185,-33.45358],[-70.63146,-33.45474]]]},"properties":{"COD_MZN":"13101141003001","BARRIO":"DIEZ DE JULIO","TERRITORIO":"CENTRO ORIENTE","COMUNA":"SANTIAGO"}},
{"type":"Feature","geometry":{"type":"Polygon","coordinates":[[[-70.63175,-33.45421],[-70.63199,-33.45354],[-70.63268,-33.45368],[-70.63254,-33.45435],[-70.63175,-33.45421]]]},"properties":{"COD_MZN":"13101141003002","BARRIO":"DIEZ DE JULIO","TERRITORIO":"CENTRO ORIENTE","COMUNA":"SANTIAGO"}},
{"type":"Feature","geometry":{"type":"Polygon","coordinates":[[[-70.63344,-33.45511],[-70.63248,-33.45488],[-70.63279,-33.45374],[-70.63379,-33.45394],[-70.63344,-33.45511]]]},"properties":{"COD_MZN":"13101141003003","BARRIO":"DIEZ DE JULIO","TERRITORIO":"CENTRO ORIENTE","COMUNA":"SANTIAGO"}},
{"type":"Feature","geometry":{"type":"Polygon","coordinates":[[[-70.63234,-33.4549],[-70.63163,-33.45476],[-70.63174,-33.45423],[-70.63253,-33.45438],[-70.63234,-33.4549]]]},"properties":{"COD_MZN":"13101141003004","BARRIO":"DIEZ DE JULIO","TERRITORIO":"CENTRO ORIENTE","COMUNA":"SANTIAGO"}},
{"type":"Feature","geometry":{"type":"Polygon","coordinates":[[[-70.6312,-33.45563],[-70.63011,-33.45539],[-70.63033,-33.45458],[-70.63145,-33.45481],[-70.6312,-33.45563]]]},"properties":{"COD_MZN":"13101141003005","BARRIO":"DIEZ DE JULIO","TERRITORIO":"CENTRO ORIENTE","COMUNA":"SANTIAGO"}},
{"type":"Feature","geometry":{"type":"Polygon","coordinates":[[[-70.63205,-33.4558],[-70.63135,-33.45562],[-70.63156,-33.45485],[-70.63236,-33.45504],[-70.63205,-33.4558]]]},"properties":{"COD_MZN":"13101141003006","BARRIO":"DIEZ DE JULIO","TERRITORIO":"CENTRO ORIENTE","COMUNA":"SANTIAGO"}},
{"type":"Feature","geometry":{"type":"Polygon","coordinates":[[[-70.63253,-33.4559],[-70.63244,-33.45501],[-70.63294,-33.4551],[-70.63253,-33.4559]]]},"properties":{"COD_MZN":"13101141003007","BARRIO":"DIEZ DE JULIO","TERRITORIO":"CENTRO ORIENTE","COMUNA":"SANTIAGO"}},
{"type":"Feature","geometry":{"type":"Polygon","coordinates":[[[-70.63321,-33.45604],[-70.63276,-33.45591],[-70.63298,-33.45511],[-70.63346,-33.45523],[-70.63321,-33.45604]]]},"properties":{"COD_MZN":"13101141003008","BARRIO":"DIEZ DE JULIO","TERRITORIO":"CENTRO ORIENTE","COMUNA":"SANTIAGO"}},
{"type":"Feature","geometry":{"type":"Polygon","coordinates":[[[-70.64601,-33.44442],[-70.6463,-33.44303],[-70.64666,-33.44312],[-70.64648,-33.44446],[-70.64601,-33.44442]]]},"properties":{"COD_MZN":"13101121001002","BARRIO":"PARQUE ALMAGRO","TERRITORIO":"CENTRO ORIENTE","COMUNA":"SANTIAGO"}},
{"type":"Feature","geometry":{"type":"Polygon","coordinates":[[[-70.64698,-33.44456],[-70.64654,-33.44447],[-70.64672,-33.44314],[-70.64706,-33.44322],[-70.64698,-33.44456]]]},"properties":{"COD_MZN":"13101121001004","BARRIO":"PARQUE ALMAGRO","TERRITORIO":"CENTRO ORIENTE","COMUNA":"SANTIAGO"}},
{"type":"Feature","geometry":{"type":"Polygon","coordinates":[[[-70.64725,-33.44459],[-70.64716,-33.44329],[-70.64793,-33.44333],[-70.648,-33.4441],[-70.64725,-33.44459]]]},"properties":{"COD_MZN":"13101121001005","BARRIO":"PARQUE ALMAGRO","TERRITORIO":"CENTRO ORIENTE","COMUNA":"SANTIAGO"}},
{"type":"Feature","geometry":{"type":"Polygon","coordinates":[[[-70.64843,-33.44356],[-70.64951,-33.4438],[-70.64934,-33.44468],[-70.64848,-33.4446],[-70.64843,-33.44356]]]},"properties":{"COD_MZN":"13101121001006","BARRIO":"PARQUE ALMAGRO","TERRITORIO":"CENTRO ORIENTE","COMUNA":"SANTIAGO"}},
{"type":"Feature","geometry":{"type":"Polygon","coordinates":[[[-70.64699,-33.44542],[-70.6458,-33.44518],[-70.64599,-33.44449],[-70.64702,-33.44463],[-70.64699,-33.44542]]]},"properties":{"COD_MZN":"13101121001011","BARRIO":"PARQUE ALMAGRO","TERRITORIO":"CENTRO ORIENTE","COMUNA":"SANTIAGO"}},
{"type":"Feature","geometry":{"type":"Polygon","coordinates":[[[-70.64987,-33.44601],[-70.64919,-33.4458],[-70.64943,-33.44459],[-70.65019,-33.44467],[-70.64987,-33.44601]]]},"properties":{"COD_MZN":"13101121001012","BARRIO":"PARQUE ALMAGRO","TERRITORIO":"CENTRO ORIENTE","COMUNA":"SANTIAGO"}},
{"type":"Feature","geometry":{"type":"Polygon","coordinates":[[[-70.64789,-33.44563],[-70.6472,-33.44464],[-70.64836,-33.44467],[-70.64789,-33.44563]]]},"properties":{"COD_MZN":"13101121001013","BARRIO":"PARQUE ALMAGRO","TERRITORIO":"CENTRO ORIENTE","COMUNA":"SANTIAGO"}},
{"type":"Feature","geometry":{"type":"Polygon","coordinates":[[[-70.64906,-33.44585],[-70.64806,-33.44566],[-70.64844,-33.4447],[-70.64931,-33.44483],[-70.64906,-33.44585]]]},"properties":{"COD_MZN":"13101121001014","BARRIO":"PARQUE ALMAGRO","TERRITORIO":"CENTRO ORIENTE","COMUNA":"SANTIAGO"}},
{"type":"Feature","geometry":{"type":"Polygon","coordinates":[[[-70.64696,-33.44664],[-70.64537,-33.4463],[-70.6456,-33.44527],[-70.64701,-33.44552],[-70.64696,-33.44664]]]},"properties":{"COD_MZN":"13101121001015","BARRIO":"PARQUE ALMAGRO","TERRITORIO":"CENTRO ORIENTE","COMUNA":"SANTIAGO"}},
{"type":"Feature","geometry":{"type":"Polygon","coordinates":[[[-70.64884,-33.447],[-70.64714,-33.44669],[-70.64721,-33.44555],[-70.64907,-33.44591],[-70.64884,-33.447]]]},"properties":{"COD_MZN":"13101121002001","BARRIO":"PARQUE ALMAGRO","TERRITORIO":"CENTRO ORIENTE","COMUNA":"SANTIAGO"}},
{"type":"Feature","geometry":{"type":"Polygon","coordinates":[[[-70.64962,-33.44714],[-70.64896,-33.44697],[-70.64917,-33.44597],[-70.64985,-33.44606],[-70.64962,-33.44714]]]},"properties":{"COD_MZN":"13101121002002","BARRIO":"PARQUE ALMAGRO","TERRITORIO":"CENTRO ORIENTE","COMUNA":"SANTIAGO"}},
{"type":"Feature","geometry":{"type":"Polygon","coordinates":[[[-70.65091,-33.44738],[-70.64982,-33.44717],[-70.64997,-33.44615],[-70.65109,-33.44625],[-70.65091,-33.44738]]]},"properties":{"COD_MZN":"13101121002003","BARRIO":"PARQUE ALMAGRO","TERRITORIO":"CENTRO ORIENTE","COMUNA":"SANTIAGO"}},
{"type":"Feature","geometry":{"type":"Polygon","coordinates":[[[-70.64928,-33.44895],[-70.64858,-33.44874],[-70.64893,-33.44716],[-70.64964,-33.44738],[-70.64928,-33.44895]]]},"properties":{"COD_MZN":"13101121002004","BARRIO":"PARQUE ALMAGRO","TERRITORIO":"CENTRO ORIENTE","COMUNA":"SANTIAGO"}},
{"type":"Feature","geometry":{"type":"Polygon","coordinates":[[[-70.65062,-33.44925],[-70.64941,-33.44893],[-70.64974,-33.44731],[-70.65098,-33.44755],[-70.65062,-33.44925]]]},"properties":{"COD_MZN":"13101121002005","BARRIO":"PARQUE ALMAGRO","TERRITORIO":"CENTRO ORIENTE","COMUNA":"SANTIAGO"}},
{"type":"Feature","geometry":{"type":"Polygon","coordinates":[[[-70.6504,-33.45046],[-70.64914,-33.45017],[-70.64937,-33.44907],[-70.65066,-33.44933],[-70.6504,-33.45046]]]},"properties":{"COD_MZN":"13101121003001","BARRIO":"PARQUE ALMAGRO","TERRITORIO":"CENTRO ORIENTE","COMUNA":"SANTIAGO"}},
{"type":"Feature","geometry":{"type":"Polygon","coordinates":[[[-70.64896,-33.4502],[-70.64834,-33.45007],[-70.64856,-33.44888],[-70.6493,-33.44905],[-70.64896,-33.4502]]]},"properties":{"COD_MZN":"13101121004001","BARRIO":"PARQUE ALMAGRO","TERRITORIO":"CENTRO ORIENTE","COMUNA":"SANTIAGO"}},
{"type":"Feature","geometry":{"type":"Polygon","coordinates":[[[-70.64759,-33.44968],[-70.64707,-33.44859],[-70.64847,-33.44882],[-70.64759,-33.44968]]]},"properties":{"COD_MZN":"13101121006001","BARRIO":"PARQUE ALMAGRO","TERRITORIO":"CENTRO ORIENTE","COMUNA":"SANTIAGO"}},
{"type":"Feature","geometry":{"type":"Polygon","coordinates":[[[-70.64475,-33.44878],[-70.64697,-33.44853],[-70.64686,-33.44992],[-70.64466,-33.4496],[-70.64475,-33.44878]]]},"properties":{"COD_MZN":"13101121007001","BARRIO":"PARQUE ALMAGRO","TERRITORIO":"CENTRO ORIENTE","COMUNA":"SANTIAGO"}},
{"type":"Feature","geometry":{"type":"Polygon","coordinates":[[[-70.64696,-33.44847],[-70.64494,-33.44804],[-70.6453,-33.44642],[-70.64704,-33.44681],[-70.64696,-33.44847]]]},"properties":{"COD_MZN":"13101121008001","BARRIO":"PARQUE ALMAGRO","TERRITORIO":"CENTRO ORIENTE","COMUNA":"SANTIAGO"}},
{"type":"Feature","geometry":{"type":"Polygon","coordinates":[[[-70.64846,-33.44876],[-70.64708,-33.44844],[-70.6471,-33.44682],[-70.64882,-33.44708],[-70.64846,-33.44876]]]},"properties":{"COD_MZN":"13101121009001","BARRIO":"PARQUE ALMAGRO","TERRITORIO":"CENTRO ORIENTE","COMUNA":"SANTIAGO"}},
{"type":"Feature","geometry":{"type":"Polygon","coordinates":[[[-70.64876,-33.45144],[-70.64814,-33.45118],[-70.64832,-33.45018],[-70.64904,-33.45031],[-70.64876,-33.45144]]]},"properties":{"COD_MZN":"13101121004002","BARRIO":"MATTA NORTE","TERRITORIO":"CENTRO ORIENTE","COMUNA":"SANTIAGO"}},
{"type":"Feature","geometry":{"type":"Polygon","coordinates":[[[-70.65024,-33.45179],[-70.64894,-33.45147],[-70.64913,-33.4503],[-70.65049,-33.45061],[-70.65024,-33.45179]]]},"properties":{"COD_MZN":"13101121004003","BARRIO":"MATTA NORTE","TERRITORIO":"CENTRO ORIENTE","COMUNA":"SANTIAGO"}},
{"type":"Feature","geometry":{"type":"Polygon","coordinates":[[[-70.64794,-33.45225],[-70.64809,-33.45139],[-70.64875,-33.45152],[-70.6486,-33.45234],[-70.64794,-33.45225]]]},"properties":{"COD_MZN":"13101121004004","BARRIO":"MATTA NORTE","TERRITORIO":"CENTRO ORIENTE","COMUNA":"SANTIAGO"}},
{"type":"Feature","geometry":{"type":"Polygon","coordinates":[[[-70.6501,-33.4527],[-70.64878,-33.45242],[-70.64893,-33.45159],[-70.65025,-33.4519],[-70.6501,-33.4527]]]},"properties":{"COD_MZN":"13101121004005","BARRIO":"MATTA NORTE","TERRITORIO":"CENTRO ORIENTE","COMUNA":"SANTIAGO"}},
{"type":"Feature","geometry":{"type":"Polygon","coordinates":[[[-70.64818,-33.45389],[-70.64761,-33.45371],[-70.64788,-33.45238],[-70.6486,-33.45249],[-70.64818,-33.45389]]]},"properties":{"COD_MZN":"13101121004006","BARRIO":"MATTA NORTE","TERRITORIO":"CENTRO ORIENTE","COMUNA":"SANTIAGO"}},
{"type":"Feature","geometry":{"type":"Polygon","coordinates":[[[-70.64842,-33.45387],[-70.64873,-33.45248],[-70.65015,-33.45283],[-70.65001,-33.45402],[-70.64842,-33.45387]]]},"properties":{"COD_MZN":"13101121004007","BARRIO":"MATTA NORTE","TERRITORIO":"CENTRO ORIENTE","COMUNA":"SANTIAGO"}},
{"type":"Feature","geometry":{"type":"Polygon","coordinates":[[[-70.64512,-33.45181],[-70.64425,-33.45167],[-70.64444,-33.45061],[-70.64583,-33.45077],[-70.64512,-33.45181]]]},"properties":{"COD_MZN":"13101121005001","BARRIO":"MATTA NORTE","TERRITORIO":"CENTRO ORIENTE","COMUNA":"SANTIAGO"}},
{"type":"Feature","geometry":{"type":"Polygon","coordinates":[[[-70.64581,-33.45101],[-70.64675,-33.45092],[-70.64669,-33.45198],[-70.64571,-33.45189],[-70.64581,-33.45101]]]},"properties":{"COD_MZN":"13101121005002","BARRIO":"MATTA NORTE","TERRITORIO":"CENTRO ORIENTE","COMUNA":"SANTIAGO"}},
{"type":"Feature","geometry":{"type":"Polygon","coordinates":[[[-70.64682,-33.45203],[-70.64688,-33.45098],[-70.64801,-33.45129],[-70.6478,-33.45222],[-70.64682,-33.45203]]]},"properties":{"COD_MZN":"13101121005003","BARRIO":"MATTA NORTE","TERRITORIO":"CENTRO ORIENTE","COMUNA":"SANTIAGO"}},
{"type":"Feature","geometry":{"type":"Polygon","coordinates":[[[-70.64514,-33.45344],[-70.64404,-33.45325],[-70.64424,-33.45178],[-70.64548,-33.45196],[-70.64514,-33.45344]]]},"properties":{"COD_MZN":"13101121005004","BARRIO":"MATTA NORTE","TERRITORIO":"CENTRO ORIENTE","COMUNA":"SANTIAGO"}},
{"type":"Feature","geometry":{"type":"Polygon","coordinates":[[[-70.64534,-33.45348],[-70.64553,-33.45196],[-70.64667,-33.45211],[-70.64645,-33.45364],[-70.64534,-33.45348]]]},"properties":{"COD_MZN":"13101121005005","BARRIO":"MATTA NORTE","TERRITORIO":"CENTRO ORIENTE","COMUNA":"SANTIAGO"}},
{"type":"Feature","geometry":{"type":"Polygon","coordinates":[[[-70.64663,-33.45364],[-70.64675,-33.45212],[-70.64782,-33.4524],[-70.64755,-33.45371],[-70.64663,-33.45364]]]},"properties":{"COD_MZN":"13101121005006","BARRIO":"MATTA NORTE","TERRITORIO":"CENTRO ORIENTE","COMUNA":"SANTIAGO"}},
{"type":"Feature","geometry":{"type":"Polygon","coordinates":[[[-70.64618,-33.45074],[-70.64458,-33.45048],[-70.64466,-33.44966],[-70.64688,-33.44998],[-70.64618,-33.45074]]]},"properties":{"COD_MZN":"13101121006002","BARRIO":"MATTA NORTE","TERRITORIO":"CENTRO ORIENTE","COMUNA":"SANTIAGO"}},
{"type":"Feature","geometry":{"type":"Polygon","coordinates":[[[-70.64801,-33.45121],[-70.64691,-33.45083],[-70.64703,-33.45],[-70.64822,-33.45015],[-70.64801,-33.45121]]]},"properties":{"COD_MZN":"13101121006003","BARRIO":"MATTA NORTE","TERRITORIO":"CENTRO ORIENTE","COMUNA":"SANTIAGO"}},
{"type":"Feature","geometry":{"type":"Polygon","coordinates":[[[-70.64463,-33.4538],[-70.64639,-33.45379],[-70.64619,-33.45482],[-70.64463,-33.4538]]]},"properties":{"COD_MZN":"13101151001001","BARRIO":"MATTA NORTE","TERRITORIO":"CENTRO ORIENTE","COMUNA":"SANTIAGO"}},
{"type":"Feature","geometry":{"type":"Polygon","coordinates":[[[-70.64645,-33.45431],[-70.64658,-33.45379],[-70.64742,-33.45393],[-70.64737,-33.45448],[-70.64645,-33.45431]]]},"properties":{"COD_MZN":"13101151001002","BARRIO":"MATTA NORTE","TERRITORIO":"CENTRO ORIENTE","COMUNA":"SANTIAGO"}},
{"type":"Feature","geometry":{"type":"Polygon","coordinates":[[[-70.64798,-33.45516],[-70.64732,-33.45498],[-70.64756,-33.45398],[-70.64827,-33.4541],[-70.64798,-33.45516]]]},"properties":{"COD_MZN":"13101151001003","BARRIO":"MATTA NORTE","TERRITORIO":"CENTRO ORIENTE","COMUNA":"SANTIAGO"}},
{"type":"Feature","geometry":{"type":"Polygon","coordinates":[[[-70.64891,-33.45413],[-70.64891,-33.45533],[-70.64814,-33.45513],[-70.64891,-33.45413]]]},"properties":{"COD_MZN":"13101151001005","BARRIO":"MATTA NORTE","TERRITORIO":"CENTRO ORIENTE","COMUNA":"SANTIAGO"}},
{"type":"Feature","geometry":{"type":"Polygon","coordinates":[[[-70.64639,-33.45482],[-70.64644,-33.45433],[-70.64736,-33.45451],[-70.64721,-33.455],[-70.64639,-33.45482]]]},"properties":{"COD_MZN":"13101151001007","BARRIO":"MATTA NORTE","TERRITORIO":"CENTRO ORIENTE","COMUNA":"SANTIAGO"}},
{"type":"Feature","geometry":{"type":"Polygon","coordinates":[[[-70.64385,-33.45452],[-70.64618,-33.45486],[-70.64589,-33.45617],[-70.64371,-33.45577],[-70.64385,-33.45452]]]},"properties":{"COD_MZN":"13101151001008","BARRIO":"MATTA NORTE","TERRITORIO":"CENTRO ORIENTE","COMUNA":"SANTIAGO"}},
{"type":"Feature","geometry":{"type":"Polygon","coordinates":[[[-70.64655,-33.45633],[-70.64631,-33.45494],[-70.64722,-33.4551],[-70.64655,-33.45633]]]},"properties":{"COD_MZN":"13101151001009","BARRIO":"MATTA NORTE","TERRITORIO":"CENTRO ORIENTE","COMUNA":"SANTIAGO"}},
{"type":"Feature","geometry":{"type":"Polygon","coordinates":[[[-70.6477,-33.45656],[-70.64695,-33.45636],[-70.64729,-33.45512],[-70.64802,-33.45527],[-70.6477,-33.45656]]]},"properties":{"COD_MZN":"13101151001010","BARRIO":"MATTA NORTE","TERRITORIO":"CENTRO ORIENTE","COMUNA":"SANTIAGO"}},
{"type":"Feature","geometry":{"type":"Polygon","coordinates":[[[-70.64801,-33.45574],[-70.64889,-33.45545],[-70.64869,-33.45671],[-70.64784,-33.45653],[-70.64801,-33.45574]]]},"properties":{"COD_MZN":"13101151001011","BARRIO":"MATTA NORTE","TERRITORIO":"CENTRO ORIENTE","COMUNA":"SANTIAGO"}},
{"type":"Feature","geometry":{"type":"Polygon","coordinates":[[[-70.64446,-33.45718],[-70.64351,-33.45697],[-70.64368,-33.45584],[-70.64475,-33.45602],[-70.64446,-33.45718]]]},"properties":{"COD_MZN":"13101151001013","BARRIO":"MATTA NORTE","TERRITORIO":"CENTRO ORIENTE","COMUNA":"SANTIAGO"}},
{"type":"Feature","geometry":{"type":"Polygon","coordinates":[[[-70.64465,-33.4572],[-70.64481,-33.45609],[-70.64587,-33.45628],[-70.64563,-33.45726],[-70.64465,-33.4572]]]},"properties":{"COD_MZN":"13101151001014","BARRIO":"MATTA NORTE","TERRITORIO":"CENTRO ORIENTE","COMUNA":"SANTIAGO"}},
{"type":"Feature","geometry":{"type":"Polygon","coordinates":[[[-70.6465,-33.45751],[-70.64573,-33.4573],[-70.64598,-33.45631],[-70.64683,-33.4565],[-70.6465,-33.45751]]]},"properties":{"COD_MZN":"13101151001015","BARRIO":"MATTA NORTE","TERRITORIO":"CENTRO ORIENTE","COMUNA":"SANTIAGO"}},
{"type":"Feature","geometry":{"type":"Polygon","coordinates":[[[-70.64691,-33.45653],[-70.64773,-33.45668],[-70.64753,-33.45768],[-70.64664,-33.45749],[-70.64691,-33.45653]]]},"properties":{"COD_MZN":"13101151001016","BARRIO":"MATTA NORTE","TERRITORIO":"CENTRO ORIENTE","COMUNA":"SANTIAGO"}},
{"type":"Feature","geometry":{"type":"Polygon","coordinates":[[[-70.6478,-33.45671],[-70.64951,-33.45699],[-70.6491,-33.45933],[-70.64735,-33.45895],[-70.6478,-33.45671]]]},"properties":{"COD_MZN":"13101151001017","BARRIO":"MATTA NORTE","TERRITORIO":"CENTRO ORIENTE","COMUNA":"SANTIAGO"}},
{"type":"Feature","geometry":{"type":"Polygon","coordinates":[[[-70.64337,-33.45818],[-70.64349,-33.45714],[-70.6445,-33.45729],[-70.64426,-33.45836],[-70.64337,-33.45818]]]},"properties":{"COD_MZN":"13101151001018","BARRIO":"MATTA NORTE","TERRITORIO":"CENTRO ORIENTE","COMUNA":"SANTIAGO"}},
{"type":"Feature","geometry":{"type":"Polygon","coordinates":[[[-70.64474,-33.45847],[-70.64458,-33.45728],[-70.6451,-33.4573],[-70.64474,-33.45847]]]},"properties":{"COD_MZN":"13101151001019","BARRIO":"MATTA NORTE","TERRITORIO":"CENTRO ORIENTE","COMUNA":"SANTIAGO"}},
{"type":"Feature","geometry":{"type":"Polygon","coordinates":[[[-70.64486,-33.45849],[-70.64513,-33.4573],[-70.64559,-33.45739],[-70.64531,-33.45856],[-70.64486,-33.45849]]]},"properties":{"COD_MZN":"13101151001020","BARRIO":"MATTA NORTE","TERRITORIO":"CENTRO ORIENTE","COMUNA":"SANTIAGO"}},
{"type":"Feature","geometry":{"type":"Polygon","coordinates":[[[-70.64612,-33.45876],[-70.64544,-33.45854],[-70.64569,-33.45747],[-70.64652,-33.45765],[-70.64612,-33.45876]]]},"properties":{"COD_MZN":"13101151001021","BARRIO":"MATTA NORTE","TERRITORIO":"CENTRO ORIENTE","COMUNA":"SANTIAGO"}},
{"type":"Feature","geometry":{"type":"Polygon","coordinates":[[[-70.6466,-33.45765],[-70.64748,-33.45778],[-70.64727,-33.45894],[-70.64629,-33.45871],[-70.6466,-33.45765]]]},"properties":{"COD_MZN":"13101151001022","BARRIO":"MATTA NORTE","TERRITORIO":"CENTRO ORIENTE","COMUNA":"SANTIAGO"}},
{"type":"Feature","geometry":{"type":"Polygon","coordinates":[[[-70.64904,-33.45485],[-70.64918,-33.45405],[-70.64998,-33.45422],[-70.64978,-33.4554],[-70.64904,-33.45485]]]},"properties":{"COD_MZN":"13101151001006","BARRIO":"MATTA NORTE","TERRITORIO":"CENTRO ORIENTE","COMUNA":"SANTIAGO"}},
{"type":"Feature","geometry":{"type":"Polygon","coordinates":[[[-70.65156,-33.44447],[-70.65246,-33.44459],[-70.65221,-33.44575],[-70.65136,-33.44588],[-70.65156,-33.44447]]]},"properties":{"COD_MZN":"13101131001002","BARRIO":"PARQUE ALMAGRO","TERRITORIO":"CENTRO ORIENTE","COMUNA":"SANTIAGO"}},
{"type":"Feature","geometry":{"type":"Polygon","coordinates":[[[-70.65277,-33.4457],[-70.65296,-33.44479],[-70.65395,-33.44502],[-70.65376,-33.44624],[-70.65277,-33.4457]]]},"properties":{"COD_MZN":"13101131001006","BARRIO":"PARQUE ALMAGRO","TERRITORIO":"CENTRO ORIENTE","COMUNA":"SANTIAGO"}},
{"type":"Feature","geometry":{"type":"Polygon","coordinates":[[[-70.65438,-33.44604],[-70.65424,-33.44509],[-70.65535,-33.44546],[-70.65438,-33.44604]]]},"properties":{"COD_MZN":"13101131001007","BARRIO":"PARQUE ALMAGRO","TERRITORIO":"CENTRO ORIENTE","COMUNA":"SANTIAGO"}},
{"type":"Feature","geometry":{"type":"Polygon","coordinates":[[[-70.65213,-33.44754],[-70.65112,-33.44734],[-70.65133,-33.44605],[-70.65251,-33.44625],[-70.65213,-33.44754]]]},"properties":{"COD_MZN":"13101131001008","BARRIO":"PARQUE ALMAGRO","TERRITORIO":"CENTRO ORIENTE","COMUNA":"SANTIAGO"}},
{"type":"Feature","geometry":{"type":"Polygon","coordinates":[[[-70.65247,-33.44758],[-70.65263,-33.44634],[-70.65313,-33.44642],[-70.6529,-33.44759],[-70.65247,-33.44758]]]},"properties":{"COD_MZN":"13101131001009","BARRIO":"PARQUE ALMAGRO","TERRITORIO":"CENTRO ORIENTE","COMUNA":"SANTIAGO"}},
{"type":"Feature","geometry":{"type":"Polygon","coordinates":[[[-70.65325,-33.44639],[-70.65371,-33.44652],[-70.65354,-33.44766],[-70.65302,-33.44761],[-70.65325,-33.44639]]]},"properties":{"COD_MZN":"13101131001010","BARRIO":"PARQUE ALMAGRO","TERRITORIO":"CENTRO ORIENTE","COMUNA":"SANTIAGO"}},
{"type":"Feature","geometry":{"type":"Polygon","coordinates":[[[-70.65483,-33.44788],[-70.65361,-33.44766],[-70.65379,-33.44646],[-70.65492,-33.44655],[-70.65483,-33.44788]]]},"properties":{"COD_MZN":"13101131002001","BARRIO":"PARQUE ALMAGRO","TERRITORIO":"CENTRO ORIENTE","COMUNA":"SANTIAGO"}},
{"type":"Feature","geometry":{"type":"Polygon","coordinates":[[[-70.65314,-33.44987],[-70.65262,-33.44967],[-70.65279,-33.44877],[-70.65335,-33.44888],[-70.65314,-33.44987]]]},"properties":{"COD_MZN":"13101131003001","BARRIO":"PARQUE ALMAGRO","TERRITORIO":"CENTRO ORIENTE","COMUNA":"SANTIAGO"}},
{"type":"Feature","geometry":{"type":"Polygon","coordinates":[[[-70.6545,-33.45025],[-70.65327,-33.44987],[-70.65342,-33.4489],[-70.65479,-33.44902],[-70.6545,-33.45025]]]},"properties":{"COD_MZN":"13101131003002","BARRIO":"PARQUE ALMAGRO","TERRITORIO":"CENTRO ORIENTE","COMUNA":"SANTIAGO"}},
{"type":"Feature","geometry":{"type":"Polygon","coordinates":[[[-70.65299,-33.45085],[-70.65242,-33.45071],[-70.65258,-33.44985],[-70.65318,-33.45001],[-70.65299,-33.45085]]]},"properties":{"COD_MZN":"13101131003003","BARRIO":"PARQUE ALMAGRO","TERRITORIO":"CENTRO ORIENTE","COMUNA":"SANTIAGO"}},
{"type":"Feature","geometry":{"type":"Polygon","coordinates":[[[-70.65437,-33.45108],[-70.65316,-33.45089],[-70.6533,-33.44998],[-70.65453,-33.45031],[-70.65437,-33.45108]]]},"properties":{"COD_MZN":"13101131003004","BARRIO":"PARQUE ALMAGRO","TERRITORIO":"CENTRO ORIENTE","COMUNA":"SANTIAGO"}},
{"type":"Feature","geometry":{"type":"Polygon","coordinates":[[[-70.65265,-33.44862],[-70.65217,-33.44848],[-70.65235,-33.44773],[-70.65287,-33.44775],[-70.65265,-33.44862]]]},"properties":{"COD_MZN":"13101131004002","BARRIO":"PARQUE ALMAGRO","TERRITORIO":"CENTRO ORIENTE","COMUNA":"SANTIAGO"}},
{"type":"Feature","geometry":{"type":"Polygon","coordinates":[[[-70.6519,-33.45068],[-70.65068,-33.4505],[-70.65081,-33.44943],[-70.65202,-33.44965],[-70.6519,-33.45068]]]},"properties":{"COD_MZN":"13101131004003","BARRIO":"PARQUE ALMAGRO","TERRITORIO":"CENTRO ORIENTE","COMUNA":"SANTIAGO"}},
{"type":"Feature","geometry":{"type":"Polygon","coordinates":[[[-70.65102,-33.448],[-70.65268,-33.44874],[-70.65245,-33.44971],[-70.65087,-33.44933],[-70.65102,-33.448]]]},"properties":{"COD_MZN":"13101131004001","BARRIO":"PARQUE ALMAGRO","TERRITORIO":"CENTRO ORIENTE","COMUNA":"SANTIAGO"}},
{"type":"Feature","geometry":{"type":"Polygon","coordinates":[[[-70.65219,-33.45133],[-70.6506,-33.45114],[-70.65067,-33.45056],[-70.65227,-33.45081],[-70.65219,-33.45133]]]},"properties":{"COD_MZN":"13101131005001","BARRIO":"PARQUE ALMAGRO","TERRITORIO":"CENTRO ORIENTE","COMUNA":"SANTIAGO"}},
{"type":"Feature","geometry":{"type":"Polygon","coordinates":[[[-70.6529,-33.45142],[-70.65231,-33.45135],[-70.6524,-33.45082],[-70.65299,-33.45091],[-70.6529,-33.45142]]]},"properties":{"COD_MZN":"13101131005002","BARRIO":"PARQUE ALMAGRO","TERRITORIO":"CENTRO ORIENTE","COMUNA":"SANTIAGO"}},
{"type":"Feature","geometry":{"type":"Polygon","coordinates":[[[-70.65371,-33.45155],[-70.65384,-33.45104],[-70.65439,-33.45112],[-70.65437,-33.4516],[-70.65371,-33.45155]]]},"properties":{"COD_MZN":"13101131005004","BARRIO":"PARQUE ALMAGRO","TERRITORIO":"CENTRO ORIENTE","COMUNA":"SANTIAGO"}},
{"type":"Feature","geometry":{"type":"Polygon","coordinates":[[[-70.65335,-33.45333],[-70.65278,-33.45322],[-70.65283,-33.45261],[-70.65348,-33.45275],[-70.65335,-33.45333]]]},"properties":{"COD_MZN":"13101131005008","BARRIO":"PARQUE ALMAGRO","TERRITORIO":"CENTRO ORIENTE","COMUNA":"SANTIAGO"}},
{"type":"Feature","geometry":{"type":"Polygon","coordinates":[[[-70.65352,-33.45337],[-70.65355,-33.45276],[-70.65376,-33.45276],[-70.65352,-33.45337]]]},"properties":{"COD_MZN":"13101131005009","BARRIO":"PARQUE ALMAGRO","TERRITORIO":"CENTRO ORIENTE","COMUNA":"SANTIAGO"}},
{"type":"Feature","geometry":{"type":"Polygon","coordinates":[[[-70.65371,-33.45341],[-70.65379,-33.45277],[-70.65417,-33.45288],[-70.65415,-33.45343],[-70.65371,-33.45341]]]},"properties":{"COD_MZN":"13101131005010","BARRIO":"PARQUE ALMAGRO","TERRITORIO":"CENTRO ORIENTE","COMUNA":"SANTIAGO"}},
{"type":"Feature","geometry":{"type":"Polygon","coordinates":[[[-70.65018,-33.4541],[-70.65028,-33.45289],[-70.65075,-33.45289],[-70.65054,-33.45417],[-70.65018,-33.4541]]]},"properties":{"COD_MZN":"13101131005011","BARRIO":"PARQUE ALMAGRO","TERRITORIO":"CENTRO ORIENTE","COMUNA":"SANTIAGO"}},
{"type":"Feature","geometry":{"type":"Polygon","coordinates":[[[-70.65243,-33.45436],[-70.65059,-33.45418],[-70.65079,-33.4529],[-70.65259,-33.45326],[-70.65243,-33.45436]]]},"properties":{"COD_MZN":"13101131005012","BARRIO":"PARQUE ALMAGRO","TERRITORIO":"CENTRO ORIENTE","COMUNA":"SANTIAGO"}},
{"type":"Feature","geometry":{"type":"Polygon","coordinates":[[[-70.65264,-33.45436],[-70.65271,-33.45335],[-70.65338,-33.45346],[-70.65328,-33.45428],[-70.65264,-33.45436]]]},"properties":{"COD_MZN":"13101131005013","BARRIO":"PARQUE ALMAGRO","TERRITORIO":"CENTRO ORIENTE","COMUNA":"SANTIAGO"}},
{"type":"Feature","geometry":{"type":"Polygon","coordinates":[[[-70.65345,-33.45351],[-70.65413,-33.45359],[-70.65404,-33.45434],[-70.65335,-33.45431],[-70.65345,-33.45351]]]},"properties":{"COD_MZN":"13101131005014","BARRIO":"PARQUE ALMAGRO","TERRITORIO":"CENTRO ORIENTE","COMUNA":"SANTIAGO"}},
{"type":"Feature","geometry":{"type":"Polygon","coordinates":[[[-70.65465,-33.45041],[-70.65635,-33.45061],[-70.65615,-33.45184],[-70.65444,-33.45161],[-70.65465,-33.45041]]]},"properties":{"COD_MZN":"13101131006001","BARRIO":"PARQUE ALMAGRO","TERRITORIO":"CENTRO ORIENTE","COMUNA":"SANTIAGO"}},
{"type":"Feature","geometry":{"type":"Polygon","coordinates":[[[-70.65439,-33.45191],[-70.65614,-33.45189],[-70.65592,-33.45294],[-70.6543,-33.45274],[-70.65439,-33.45191]]]},"properties":{"COD_MZN":"13101131006002","BARRIO":"PARQUE ALMAGRO","TERRITORIO":"CENTRO ORIENTE","COMUNA":"SANTIAGO"}},
{"type":"Feature","geometry":{"type":"Polygon","coordinates":[[[-70.6551,-33.45316],[-70.65581,-33.45314],[-70.65572,-33.45373],[-70.6551,-33.45367],[-70.6551,-33.45316]]]},"properties":{"COD_MZN":"13101131006004","BARRIO":"PARQUE ALMAGRO","TERRITORIO":"CENTRO ORIENTE","COMUNA":"SANTIAGO"}},
{"type":"Feature","geometry":{"type":"Polygon","coordinates":[[[-70.65474,-33.45441],[-70.65411,-33.45433],[-70.6542,-33.45362],[-70.65493,-33.45374],[-70.65474,-33.45441]]]},"properties":{"COD_MZN":"13101131006005","BARRIO":"PARQUE ALMAGRO","TERRITORIO":"CENTRO ORIENTE","COMUNA":"SANTIAGO"}},
{"type":"Feature","geometry":{"type":"Polygon","coordinates":[[[-70.65546,-33.45442],[-70.65491,-33.45435],[-70.65504,-33.45373],[-70.65564,-33.45384],[-70.65546,-33.45442]]]},"properties":{"COD_MZN":"13101131006006","BARRIO":"PARQUE ALMAGRO","TERRITORIO":"CENTRO ORIENTE","COMUNA":"SANTIAGO"}},
{"type":"Feature","geometry":{"type":"Polygon","coordinates":[[[-70.6592,-33.44843],[-70.65803,-33.4482],[-70.65829,-33.44723],[-70.65942,-33.4474],[-70.6592,-33.44843]]]},"properties":{"COD_MZN":"13101131007006","BARRIO":"PARQUE ALMAGRO","TERRITORIO":"CENTRO ORIENTE","COMUNA":"SANTIAGO"}},
{"type":"Feature","geometry":{"type":"Polygon","coordinates":[[[-70.65784,-33.44928],[-70.65806,-33.44835],[-70.65918,-33.44858],[-70.65898,-33.4494],[-70.65784,-33.44928]]]},"properties":{"COD_MZN":"13101131007010","BARRIO":"PARQUE ALMAGRO","TERRITORIO":"CENTRO ORIENTE","COMUNA":"SANTIAGO"}},
{"type":"Feature","geometry":{"type":"Polygon","coordinates":[[[-70.65654,-33.45051],[-70.65676,-33.44926],[-70.65765,-33.44936],[-70.65742,-33.45049],[-70.65654,-33.45051]]]},"properties":{"COD_MZN":"13101131007012","BARRIO":"PARQUE ALMAGRO","TERRITORIO":"CENTRO ORIENTE","COMUNA":"SANTIAGO"}},
{"type":"Feature","geometry":{"type":"Polygon","coordinates":[[[-70.65776,-33.44938],[-70.659,-33.4495],[-70.65881,-33.45061],[-70.65754,-33.45046],[-70.65776,-33.44938]]]},"properties":{"COD_MZN":"13101131007015","BARRIO":"PARQUE ALMAGRO","TERRITORIO":"CENTRO ORIENTE","COMUNA":"SANTIAGO"}},
{"type":"Feature","geometry":{"type":"Polygon","coordinates":[[[-70.65674,-33.45314],[-70.65599,-33.45301],[-70.65647,-33.45071],[-70.65738,-33.45066],[-70.65674,-33.45314]]]},"properties":{"COD_MZN":"13101131007016","BARRIO":"PARQUE ALMAGRO","TERRITORIO":"CENTRO ORIENTE","COMUNA":"SANTIAGO"}},
{"type":"Feature","geometry":{"type":"Polygon","coordinates":[[[-70.65701,-33.4532],[-70.658,-33.45329],[-70.65766,-33.45449],[-70.65669,-33.45436],[-70.65701,-33.4532]]]},"properties":{"COD_MZN":"13101131007024","BARRIO":"PARQUE ALMAGRO","TERRITORIO":"CENTRO ORIENTE","COMUNA":"SANTIAGO"}},
{"type":"Feature","geometry":{"type":"Polygon","coordinates":[[[-70.65646,-33.45444],[-70.65576,-33.45389],[-70.65594,-33.45319],[-70.65683,-33.45327],[-70.65646,-33.45444]]]},"properties":{"COD_MZN":"13101131007025","BARRIO":"PARQUE ALMAGRO","TERRITORIO":"CENTRO ORIENTE","COMUNA":"SANTIAGO"}},
{"type":"Feature","geometry":{"type":"Polygon","coordinates":[[[-70.65702,-33.44816],[-70.65715,-33.44717],[-70.6581,-33.44727],[-70.6579,-33.4482],[-70.65702,-33.44816]]]},"properties":{"COD_MZN":"13101131007005","BARRIO":"PARQUE ALMAGRO","TERRITORIO":"CENTRO ORIENTE","COMUNA":"SANTIAGO"}},
{"type":"Feature","geometry":{"type":"Polygon","coordinates":[[[-70.65631,-33.45055],[-70.65467,-33.45025],[-70.65491,-33.44899],[-70.65664,-33.44918],[-70.65631,-33.45055]]]},"properties":{"COD_MZN":"13101131008001","BARRIO":"PARQUE ALMAGRO","TERRITORIO":"CENTRO ORIENTE","COMUNA":"SANTIAGO"}},
{"type":"Feature","geometry":{"type":"Polygon","coordinates":[[[-70.65697,-33.44701],[-70.65523,-33.44676],[-70.65555,-33.4454],[-70.65726,-33.44586],[-70.65697,-33.44701]]]},"properties":{"COD_MZN":"13101131009002","BARRIO":"PARQUE ALMAGRO","TERRITORIO":"CENTRO ORIENTE","COMUNA":"SANTIAGO"}},
{"type":"Feature","geometry":{"type":"Polygon","coordinates":[[[-70.65331,-33.44876],[-70.65282,-33.44861],[-70.65298,-33.44777],[-70.6535,-33.44787],[-70.65331,-33.44876]]]},"properties":{"COD_MZN":"13101131009004","BARRIO":"PARQUE ALMAGRO","TERRITORIO":"CENTRO ORIENTE","COMUNA":"SANTIAGO"}},
{"type":"Feature","geometry":{"type":"Polygon","coordinates":[[[-70.65471,-33.44891],[-70.65344,-33.44876],[-70.65362,-33.44782],[-70.6549,-33.44797],[-70.65471,-33.44891]]]},"properties":{"COD_MZN":"13101131009005","BARRIO":"PARQUE ALMAGRO","TERRITORIO":"CENTRO ORIENTE","COMUNA":"SANTIAGO"}},
{"type":"Feature","geometry":{"type":"Polygon","coordinates":[[[-70.65594,-33.44905],[-70.65489,-33.44889],[-70.6551,-33.44799],[-70.65614,-33.44813],[-70.65594,-33.44905]]]},"properties":{"COD_MZN":"13101131009006","BARRIO":"PARQUE ALMAGRO","TERRITORIO":"CENTRO ORIENTE","COMUNA":"SANTIAGO"}},
{"type":"Feature","geometry":{"type":"Polygon","coordinates":[[[-70.65682,-33.44815],[-70.65511,-33.44792],[-70.65529,-33.44689],[-70.657,-33.4471],[-70.65682,-33.44815]]]},"properties":{"COD_MZN":"13101131009003","BARRIO":"PARQUE ALMAGRO","TERRITORIO":"CENTRO ORIENTE","COMUNA":"SANTIAGO"}},
{"type":"Feature","geometry":{"type":"Polygon","coordinates":[[[-70.65156,-33.44447],[-70.65098,-33.44614],[-70.65001,-33.44596],[-70.65042,-33.44422],[-70.65156,-33.44447]]]},"properties":{"COD_MZN":"13101121001009","BARRIO":"PARQUE ALMAGRO","TERRITORIO":"CENTRO ORIENTE","COMUNA":"SANTIAGO"}},
{"type":"Feature","geometry":{"type":"Polygon","coordinates":[[[-70.65516,-33.45608],[-70.65485,-33.456],[-70.65503,-33.45461],[-70.65539,-33.4546],[-70.65516,-33.45608]]]},"properties":{"COD_MZN":"13101151002003","BARRIO":"MATTA NORTE","TERRITORIO":"CENTRO ORIENTE","COMUNA":"SANTIAGO"}},
{"type":"Feature","geometry":{"type":"Polygon","coordinates":[[[-70.65534,-33.4561],[-70.65546,-33.45462],[-70.65584,-33.4546],[-70.65572,-33.45607],[-70.65534,-33.4561]]]},"properties":{"COD_MZN":"13101151002004","BARRIO":"MATTA NORTE","TERRITORIO":"CENTRO ORIENTE","COMUNA":"SANTIAGO"}},
{"type":"Feature","geometry":{"type":"Polygon","coordinates":[[[-70.6559,-33.45622],[-70.65596,-33.45459],[-70.65651,-33.4546],[-70.6559,-33.45622]]]},"properties":{"COD_MZN":"13101151002005","BARRIO":"MATTA NORTE","TERRITORIO":"CENTRO ORIENTE","COMUNA":"SANTIAGO"}},
{"type":"Feature","geometry":{"type":"Polygon","coordinates":[[[-70.65655,-33.4563],[-70.65662,-33.45461],[-70.65757,-33.45466],[-70.65655,-33.4563]]]},"properties":{"COD_MZN":"13101151002006","BARRIO":"MATTA NORTE","TERRITORIO":"CENTRO ORIENTE","COMUNA":"SANTIAGO"}},
{"type":"Feature","geometry":{"type":"Polygon","coordinates":[[[-70.6555,-33.45789],[-70.65463,-33.45771],[-70.65482,-33.45618],[-70.6557,-33.45629],[-70.6555,-33.45789]]]},"properties":{"COD_MZN":"13101151002007","BARRIO":"MATTA NORTE","TERRITORIO":"CENTRO ORIENTE","COMUNA":"SANTIAGO"}},
{"type":"Feature","geometry":{"type":"Polygon","coordinates":[[[-70.65566,-33.45806],[-70.65578,-33.45649],[-70.65664,-33.45652],[-70.65638,-33.46024],[-70.65549,-33.46012],[-70.65566,-33.45806]]]},"properties":{"COD_MZN":"13101151002008","BARRIO":"MATTA NORTE","TERRITORIO":"CENTRO ORIENTE","COMUNA":"SANTIAGO"}},
{"type":"Feature","geometry":{"type":"Polygon","coordinates":[[[-70.6546,-33.45866],[-70.65469,-33.45783],[-70.65556,-33.458],[-70.65544,-33.45866],[-70.6546,-33.45866]]]},"properties":{"COD_MZN":"13101151002009","BARRIO":"MATTA NORTE","TERRITORIO":"CENTRO ORIENTE","COMUNA":"SANTIAGO"}},
{"type":"Feature","geometry":{"type":"Polygon","coordinates":[[[-70.65528,-33.46015],[-70.65439,-33.46002],[-70.65453,-33.45875],[-70.6555,-33.4588],[-70.65528,-33.46015]]]},"properties":{"COD_MZN":"13101151002010","BARRIO":"MATTA NORTE","TERRITORIO":"CENTRO ORIENTE","COMUNA":"SANTIAGO"}},
{"type":"Feature","geometry":{"type":"Polygon","coordinates":[[[-70.6542,-33.45528],[-70.6541,-33.45452],[-70.65495,-33.45455],[-70.65486,-33.45533],[-70.6542,-33.45528]]]},"properties":{"COD_MZN":"13101151003003","BARRIO":"MATTA NORTE","TERRITORIO":"CENTRO ORIENTE","COMUNA":"SANTIAGO"}},
{"type":"Feature","geometry":{"type":"Polygon","coordinates":[[[-70.65328,-33.4548],[-70.65398,-33.45482],[-70.65386,-33.45588],[-70.65314,-33.45579],[-70.65328,-33.4548]]]},"properties":{"COD_MZN":"13101151003004","BARRIO":"MATTA NORTE","TERRITORIO":"CENTRO ORIENTE","COMUNA":"SANTIAGO"}},
{"type":"Feature","geometry":{"type":"Polygon","coordinates":[[[-70.65473,-33.45602],[-70.65393,-33.45588],[-70.654,-33.45529],[-70.65485,-33.45536],[-70.65473,-33.45602]]]},"properties":{"COD_MZN":"13101151003005","BARRIO":"MATTA NORTE","TERRITORIO":"CENTRO ORIENTE","COMUNA":"SANTIAGO"}},
{"type":"Feature","geometry":{"type":"Polygon","coordinates":[[[-70.65281,-33.45744],[-70.65212,-33.45727],[-70.65233,-33.45588],[-70.65305,-33.45593],[-70.65281,-33.45744]]]},"properties":{"COD_MZN":"13101151003006","BARRIO":"MATTA NORTE","TERRITORIO":"CENTRO ORIENTE","COMUNA":"SANTIAGO"}},
{"type":"Feature","geometry":{"type":"Polygon","coordinates":[[[-70.65324,-33.45683],[-70.65312,-33.45594],[-70.65384,-33.45602],[-70.65324,-33.45683]]]},"properties":{"COD_MZN":"13101151003007","BARRIO":"MATTA NORTE","TERRITORIO":"CENTRO ORIENTE","COMUNA":"SANTIAGO"}},
{"type":"Feature","geometry":{"type":"Polygon","coordinates":[[[-70.6545,-33.45773],[-70.65373,-33.45755],[-70.6539,-33.45607],[-70.65475,-33.45615],[-70.6545,-33.45773]]]},"properties":{"COD_MZN":"13101151003008","BARRIO":"MATTA NORTE","TERRITORIO":"CENTRO ORIENTE","COMUNA":"SANTIAGO"}},
{"type":"Feature","geometry":{"type":"Polygon","coordinates":[[[-70.65313,-33.45749],[-70.65291,-33.45739],[-70.65299,-33.45682],[-70.65321,-33.45684],[-70.65313,-33.45749]]]},"properties":{"COD_MZN":"13101151003009","BARRIO":"MATTA NORTE","TERRITORIO":"CENTRO ORIENTE","COMUNA":"SANTIAGO"}},
{"type":"Feature","geometry":{"type":"Polygon","coordinates":[[[-70.6521,-33.45747],[-70.65284,-33.45754],[-70.6527,-33.4586],[-70.65191,-33.4586],[-70.6521,-33.45747]]]},"properties":{"COD_MZN":"13101151003010","BARRIO":"MATTA NORTE","TERRITORIO":"CENTRO ORIENTE","COMUNA":"SANTIAGO"}},
{"type":"Feature","geometry":{"type":"Polygon","coordinates":[[[-70.65281,-33.45866],[-70.65289,-33.45758],[-70.65364,-33.45769],[-70.65353,-33.45859],[-70.65281,-33.45866]]]},"properties":{"COD_MZN":"13101151003011","BARRIO":"MATTA NORTE","TERRITORIO":"CENTRO ORIENTE","COMUNA":"SANTIAGO"}},
{"type":"Feature","geometry":{"type":"Polygon","coordinates":[[[-70.65366,-33.45866],[-70.65372,-33.45771],[-70.65452,-33.4578],[-70.65447,-33.4586],[-70.65366,-33.45866]]]},"properties":{"COD_MZN":"13101151003012","BARRIO":"MATTA NORTE","TERRITORIO":"CENTRO ORIENTE","COMUNA":"SANTIAGO"}},
{"type":"Feature","geometry":{"type":"Polygon","coordinates":[[[-70.65247,-33.45983],[-70.65175,-33.45968],[-70.65188,-33.45878],[-70.65266,-33.45877],[-70.65247,-33.45983]]]},"properties":{"COD_MZN":"13101151003013","BARRIO":"MATTA NORTE","TERRITORIO":"CENTRO ORIENTE","COMUNA":"SANTIAGO"}},
{"type":"Feature","geometry":{"type":"Polygon","coordinates":[[[-70.65265,-33.45985],[-70.65274,-33.45879],[-70.65351,-33.45876],[-70.65337,-33.45988],[-70.65265,-33.45985]]]},"properties":{"COD_MZN":"13101151003014","BARRIO":"MATTA NORTE","TERRITORIO":"CENTRO ORIENTE","COMUNA":"SANTIAGO"}},
{"type":"Feature","geometry":{"type":"Polygon","coordinates":[[[-70.65427,-33.46004],[-70.65345,-33.45988],[-70.65359,-33.45878],[-70.65446,-33.45876],[-70.65427,-33.46004]]]},"properties":{"COD_MZN":"13101151003015","BARRIO":"MATTA NORTE","TERRITORIO":"CENTRO ORIENTE","COMUNA":"SANTIAGO"}},
{"type":"Feature","geometry":{"type":"Polygon","coordinates":[[[-70.653,-33.45582],[-70.65236,-33.45567],[-70.65255,-33.4545],[-70.65323,-33.45456],[-70.653,-33.45582]]]},"properties":{"COD_MZN":"13101151003001","BARRIO":"MATTA NORTE","TERRITORIO":"CENTRO ORIENTE","COMUNA":"SANTIAGO"}},
{"type":"Feature","geometry":{"type":"Polygon","coordinates":[[[-70.65121,-33.45561],[-70.64995,-33.45546],[-70.65008,-33.45423],[-70.65142,-33.45448],[-70.65121,-33.45561]]]},"properties":{"COD_MZN":"13101151004001","BARRIO":"MATTA NORTE","TERRITORIO":"CENTRO ORIENTE","COMUNA":"SANTIAGO"}},
{"type":"Feature","geometry":{"type":"Polygon","coordinates":[[[-70.65183,-33.45569],[-70.6515,-33.45447],[-70.65247,-33.45452],[-70.65183,-33.45569]]]},"properties":{"COD_MZN":"13101151004002","BARRIO":"MATTA NORTE","TERRITORIO":"CENTRO ORIENTE","COMUNA":"SANTIAGO"}},
{"type":"Feature","geometry":{"type":"Polygon","coordinates":[[[-70.64982,-33.45571],[-70.65124,-33.45571],[-70.65098,-33.45712],[-70.64966,-33.45685],[-70.64982,-33.45571]]]},"properties":{"COD_MZN":"13101151004003","BARRIO":"MATTA NORTE","TERRITORIO":"CENTRO ORIENTE","COMUNA":"SANTIAGO"}},
{"type":"Feature","geometry":{"type":"Polygon","coordinates":[[[-70.6515,-33.45721],[-70.65112,-33.4571],[-70.65131,-33.45575],[-70.65171,-33.45578],[-70.6515,-33.45721]]]},"properties":{"COD_MZN":"13101151004004","BARRIO":"MATTA NORTE","TERRITORIO":"CENTRO ORIENTE","COMUNA":"SANTIAGO"}},
{"type":"Feature","geometry":{"type":"Polygon","coordinates":[[[-70.65166,-33.45723],[-70.65178,-33.45576],[-70.65225,-33.45585],[-70.65166,-33.45723]]]},"properties":{"COD_MZN":"13101151004005","BARRIO":"MATTA NORTE","TERRITORIO":"CENTRO ORIENTE","COMUNA":"SANTIAGO"}},
{"type":"Feature","geometry":{"type":"Polygon","coordinates":[[[-70.65013,-33.45756],[-70.65078,-33.45865],[-70.64937,-33.4586],[-70.65013,-33.45756]]]},"properties":{"COD_MZN":"13101151004006","BARRIO":"MATTA NORTE","TERRITORIO":"CENTRO ORIENTE","COMUNA":"SANTIAGO"}},
{"type":"Feature","geometry":{"type":"Polygon","coordinates":[[[-70.65184,-33.45769],[-70.65178,-33.45763],[-70.65105,-33.45756],[-70.6511,-33.45724],[-70.65192,-33.45735],[-70.65184,-33.45769]]]},"properties":{"COD_MZN":"13101151004007","BARRIO":"MATTA NORTE","TERRITORIO":"CENTRO ORIENTE","COMUNA":"SANTIAGO"}},
{"type":"Feature","geometry":{"type":"Polygon","coordinates":[[[-70.65106,-33.45826],[-70.65105,-33.45758],[-70.65156,-33.45764],[-70.65147,-33.45829],[-70.65106,-33.45826]]]},"properties":{"COD_MZN":"13101151004008","BARRIO":"MATTA NORTE","TERRITORIO":"CENTRO ORIENTE","COMUNA":"SANTIAGO"}},
{"type":"Feature","geometry":{"type":"Polygon","coordinates":[[[-70.65165,-33.45831],[-70.6515,-33.45829],[-70.65159,-33.45764],[-70.65195,-33.45773],[-70.65165,-33.45831]]]},"properties":{"COD_MZN":"13101151004009","BARRIO":"MATTA NORTE","TERRITORIO":"CENTRO ORIENTE","COMUNA":"SANTIAGO"}},
{"type":"Feature","geometry":{"type":"Polygon","coordinates":[[[-70.65096,-33.45864],[-70.65094,-33.45827],[-70.65184,-33.45834],[-70.65175,-33.45864],[-70.65096,-33.45864]]]},"properties":{"COD_MZN":"13101151004010","BARRIO":"MATTA NORTE","TERRITORIO":"CENTRO ORIENTE","COMUNA":"SANTIAGO"}},
{"type":"Feature","geometry":{"type":"Polygon","coordinates":[[[-70.65084,-33.45963],[-70.65088,-33.45874],[-70.65181,-33.45874],[-70.65167,-33.45969],[-70.65084,-33.45963]]]},"properties":{"COD_MZN":"13101151004011","BARRIO":"MATTA NORTE","TERRITORIO":"CENTRO ORIENTE","COMUNA":"SANTIAGO"}},
{"type":"Feature","geometry":{"type":"Polygon","coordinates":[[[-70.64934,-33.45878],[-70.65077,-33.45871],[-70.65064,-33.45961],[-70.6493,-33.45945],[-70.64934,-33.45878]]]},"properties":{"COD_MZN":"13101151004012","BARRIO":"MATTA NORTE","TERRITORIO":"CENTRO ORIENTE","COMUNA":"SANTIAGO"}},
{"type":"Feature","geometry":{"type":"Polygon","coordinates":[[[-70.65844,-33.44621],[-70.66042,-33.44656],[-70.65999,-33.44743],[-70.65829,-33.44718],[-70.65844,-33.44621]]]},"properties":{"COD_MZN":"13101131007003","BARRIO":"PARQUE ALMAGRO","TERRITORIO":"CENTRO ORIENTE","COMUNA":"SANTIAGO"}}
]}
