{"type":"FeatureCollection", "features": [
{"type":"Feature","geometry":{"type":"Polygon","coordinates":[[[-70.66073,-33.44639],[-70.66157,-33.44626],[-70.66155,-33.44657],[-70.66073,-33.44639]]]},"properties":{"COD_MZN":"13101281001001","BARRIO":"EJERCITO","TERRITORIO":"CENTRO PONIENTE","COMUNA":"SANTIAGO"}},
{"type":"Feature","geometry":{"type":"Polygon","coordinates":[[[-70.66241,-33.44685],[-70.66178,-33.44671],[-70.66186,-33.44632],[-70.66253,-33.44651],[-70.66241,-33.44685]]]},"properties":{"COD_MZN":"13101281001002","BARRIO":"EJERCITO","TERRITORIO":"CENTRO PONIENTE","COMUNA":"SANTIAGO"}},
{"type":"Feature","geometry":{"type":"Polygon","coordinates":[[[-70.66133,-33.44661],[-70.66087,-33.4465],[-70.66086,-33.44648],[-70.66134,-33.44659],[-70.66133,-33.44661]]]},"properties":{"COD_MZN":"13101281001003","BARRIO":"EJERCITO","TERRITORIO":"CENTRO PONIENTE","COMUNA":"SANTIAGO"}},
{"type":"Feature","geometry":{"type":"Polygon","coordinates":[[[-70.66459,-33.44731],[-70.6627,-33.44689],[-70.66274,-33.44652],[-70.66447,-33.44692],[-70.66459,-33.44731]]]},"properties":{"COD_MZN":"13101281001004","BARRIO":"EJERCITO","TERRITORIO":"CENTRO PONIENTE","COMUNA":"SANTIAGO"}},
{"type":"Feature","geometry":{"type":"Polygon","coordinates":[[[-70.65984,-33.44926],[-70.66015,-33.44815],[-70.66018,-33.44839],[-70.65994,-33.44922],[-70.65984,-33.44926]]]},"properties":{"COD_MZN":"13101281001006","BARRIO":"EJERCITO","TERRITORIO":"CENTRO PONIENTE","COMUNA":"SANTIAGO"}},
{"type":"Feature","geometry":{"type":"Polygon","coordinates":[[[-70.65957,-33.4504],[-70.65969,-33.44996],[-70.65974,-33.44965],[-70.65982,-33.44969],[-70.65957,-33.4504]]]},"properties":{"COD_MZN":"13101281002001","BARRIO":"EJERCITO","TERRITORIO":"CENTRO PONIENTE","COMUNA":"SANTIAGO"}},
{"type":"Feature","geometry":{"type":"Polygon","coordinates":[[[-70.6593,-33.45172],[-70.65984,-33.45185],[-70.65973,-33.45207],[-70.6593,-33.45172]]]},"properties":{"COD_MZN":"13101281004001","BARRIO":"EJERCITO","TERRITORIO":"CENTRO PONIENTE","COMUNA":"SANTIAGO"}},
{"type":"Feature","geometry":{"type":"Polygon","coordinates":[[[-70.65925,-33.45256],[-70.65921,-33.45205],[-70.65968,-33.45229],[-70.65925,-33.45256]]]},"properties":{"COD_MZN":"13101281004003","BARRIO":"EJERCITO","TERRITORIO":"CENTRO PONIENTE","COMUNA":"SANTIAGO"}},
{"type":"Feature","geometry":{"type":"Polygon","coordinates":[[[-70.65859,-33.45353],[-70.65882,-33.45269],[-70.65884,-33.45297],[-70.65859,-33.45353]]]},"properties":{"COD_MZN":"13101281004006","BARRIO":"EJERCITO","TERRITORIO":"CENTRO PONIENTE","COMUNA":"SANTIAGO"}},
{"type":"Feature","geometry":{"type":"Polygon","coordinates":[[[-70.65885,-33.45351],[-70.65898,-33.45281],[-70.65959,-33.45306],[-70.65885,-33.45351]]]},"properties":{"COD_MZN":"13101281004007","BARRIO":"EJERCITO","TERRITORIO":"CENTRO PONIENTE","COMUNA":"SANTIAGO"}},
{"type":"Feature","geometry":{"type":"Polygon","coordinates":[[[-70.66019,-33.45675],[-70.65976,-33.4567],[-70.65977,-33.45665],[-70.66019,-33.45675]]]},"properties":{"COD_MZN":"13101281005009","BARRIO":"EJERCITO","TERRITORIO":"CENTRO PONIENTE","COMUNA":"SANTIAGO"}},
{"type":"Feature","geometry":{"type":"Polygon","coordinates":[[[-70.66053,-33.45681],[-70.66051,-33.45673],[-70.6609,-33.45676],[-70.66056,-33.45689],[-70.66053,-33.45681]]]},"properties":{"COD_MZN":"13101281005010","BARRIO":"EJERCITO","TERRITORIO":"CENTRO PONIENTE","COMUNA":"SANTIAGO"}},
{"type":"Feature","geometry":{"type":"Polygon","coordinates":[[[-70.66241,-33.45694],[-70.66112,-33.45682],[-70.66107,-33.45677],[-70.66241,-33.45689],[-70.66241,-33.45694]]]},"properties":{"COD_MZN":"13101281005011","BARRIO":"EJERCITO","TERRITORIO":"CENTRO PONIENTE","COMUNA":"SANTIAGO"}},
{"type":"Feature","geometry":{"type":"Polygon","coordinates":[[[-70.6603,-33.45821],[-70.66036,-33.45714],[-70.66041,-33.45717],[-70.66035,-33.45816],[-70.6603,-33.45821]]]},"properties":{"COD_MZN":"13101281005012","BARRIO":"EJERCITO","TERRITORIO":"CENTRO PONIENTE","COMUNA":"SANTIAGO"}},
{"type":"Feature","geometry":{"type":"Polygon","coordinates":[[[-70.65987,-33.45823],[-70.65944,-33.45812],[-70.65968,-33.45687],[-70.66014,-33.45683],[-70.66018,-33.458],[-70.65987,-33.45823]]]},"properties":{"COD_MZN":"13101281005013","BARRIO":"EJERCITO","TERRITORIO":"CENTRO PONIENTE","COMUNA":"SANTIAGO"}},
{"type":"Feature","geometry":{"type":"Polygon","coordinates":[[[-70.66395,-33.45705],[-70.66258,-33.45694],[-70.66259,-33.45691],[-70.66394,-33.45702],[-70.66395,-33.45705]]]},"properties":{"COD_MZN":"13101281005014","BARRIO":"EJERCITO","TERRITORIO":"CENTRO PONIENTE","COMUNA":"SANTIAGO"}},
{"type":"Feature","geometry":{"type":"Polygon","coordinates":[[[-70.65705,-33.45646],[-70.65745,-33.45576],[-70.65807,-33.45519],[-70.65761,-33.45651],[-70.65705,-33.45646]]]},"properties":{"COD_MZN":"13101281006004","BARRIO":"EJERCITO","TERRITORIO":"CENTRO PONIENTE","COMUNA":"SANTIAGO"}},
{"type":"Feature","geometry":{"type":"Polygon","coordinates":[[[-70.65789,-33.45651],[-70.6579,-33.45647],[-70.65939,-33.45659],[-70.65943,-33.45664],[-70.65789,-33.45651]]]},"properties":{"COD_MZN":"13101281006005","BARRIO":"EJERCITO","TERRITORIO":"CENTRO PONIENTE","COMUNA":"SANTIAGO"}},
{"type":"Feature","geometry":{"type":"Polygon","coordinates":[[[-70.6569,-33.45803],[-70.65699,-33.45665],[-70.65945,-33.45675],[-70.65932,-33.45819],[-70.65705,-33.45806],[-70.6569,-33.45803]]]},"properties":{"COD_MZN":"13101281006006","BARRIO":"EJERCITO","TERRITORIO":"CENTRO PONIENTE","COMUNA":"SANTIAGO"}},
{"type":"Feature","geometry":{"type":"Polygon","coordinates":[[[-70.66069,-33.45835],[-70.6605,-33.45834],[-70.66049,-33.45831],[-70.6607,-33.45833],[-70.66069,-33.45835]]]},"properties":{"COD_MZN":"13101221001005","BARRIO":"EJERCITO","TERRITORIO":"CENTRO PONIENTE","COMUNA":"SANTIAGO"}},
{"type":"Feature","geometry":{"type":"Polygon","coordinates":[[[-70.65673,-33.458],[-70.65687,-33.45655],[-70.65709,-33.45599],[-70.65789,-33.45491],[-70.65814,-33.45447],[-70.65833,-33.45469],[-70.65737,-33.45574],[-70.65694,-33.45647],[-70.65679,-33.45755],[-70.65681,-33.45802],[-70.65673,-33.458]]]},"properties":{"COD_MZN":"13101281006001","BARRIO":"EJERCITO","TERRITORIO":"CENTRO PONIENTE","COMUNA":"SANTIAGO"}},
{"type":"Feature","geometry":{"type":"Polygon","coordinates":[[[-70.65897,-33.4525],[-70.65888,-33.45248],[-70.65933,-33.45128],[-70.65897,-33.4525]]]},"properties":{"COD_MZN":"13101281002006","BARRIO":"EJERCITO","TERRITORIO":"CENTRO PONIENTE","COMUNA":"SANTIAGO"}},
{"type":"Feature","geometry":{"type":"Polygon","coordinates":[[[-70.66487,-33.45713],[-70.6641,-33.45707],[-70.6641,-33.45704],[-70.66487,-33.45713]]]},"properties":{"COD_MZN":"13101231001001","BARRIO":"REPÚBLICA","TERRITORIO":"CENTRO PONIENTE","COMUNA":"SANTIAGO"}},
{"type":"Feature","geometry":{"type":"Polygon","coordinates":[[[-70.66632,-33.44763],[-70.66488,-33.44737],[-70.66476,-33.447],[-70.66631,-33.44738],[-70.66632,-33.44763]]]},"properties":{"COD_MZN":"13101271001001","BARRIO":"REPÚBLICA","TERRITORIO":"CENTRO PONIENTE","COMUNA":"SANTIAGO"}},
{"type":"Feature","geometry":{"type":"Polygon","coordinates":[[[-70.66647,-33.44766],[-70.66654,-33.44746],[-70.66727,-33.44768],[-70.66722,-33.44778],[-70.66647,-33.44766]]]},"properties":{"COD_MZN":"13101271001002","BARRIO":"REPÚBLICA","TERRITORIO":"CENTRO PONIENTE","COMUNA":"SANTIAGO"}},
{"type":"Feature","geometry":{"type":"Polygon","coordinates":[[[-70.66822,-33.44805],[-70.6675,-33.44786],[-70.6675,-33.44778],[-70.66823,-33.44797],[-70.66822,-33.44805]]]},"properties":{"COD_MZN":"13101271001005","BARRIO":"REPÚBLICA","TERRITORIO":"CENTRO PONIENTE","COMUNA":"SANTIAGO"}},
{"type":"Feature","geometry":{"type":"Polygon","coordinates":[[[-70.66559,-33.45176],[-70.66478,-33.45158],[-70.66472,-33.45109],[-70.66551,-33.45113],[-70.66559,-33.45176]]]},"properties":{"COD_MZN":"13101271002005","BARRIO":"REPÚBLICA","TERRITORIO":"CENTRO PONIENTE","COMUNA":"SANTIAGO"}},
{"type":"Feature","geometry":{"type":"Polygon","coordinates":[[[-70.66464,-33.45152],[-70.66459,-33.45149],[-70.66461,-33.45142],[-70.66464,-33.45152]]]},"properties":{"COD_MZN":"13101271002007","BARRIO":"REPÚBLICA","TERRITORIO":"CENTRO PONIENTE","COMUNA":"SANTIAGO"}},
{"type":"Feature","geometry":{"type":"Polygon","coordinates":[[[-70.66471,-33.44733],[-70.66462,-33.44699],[-70.66465,-33.44698],[-70.66473,-33.4473],[-70.66471,-33.44733]]]},"properties":{"COD_MZN":"13101281001008","BARRIO":"EJERCITO","TERRITORIO":"CENTRO PONIENTE","COMUNA":"SANTIAGO"}},
{"type":"Feature","geometry":{"type":"Polygon","coordinates":[[[-70.67394,-33.44959],[-70.67296,-33.44933],[-70.673,-33.44922],[-70.67394,-33.44959]]]},"properties":{"COD_MZN":"13101261001001","BARRIO":"MEIGGS","TERRITORIO":"CENTRO PONIENTE","COMUNA":"SANTIAGO"}},
{"type":"Feature","geometry":{"type":"Polygon","coordinates":[[[-70.6755,-33.45002],[-70.67432,-33.4497],[-70.67436,-33.4496],[-70.67552,-33.44991],[-70.6755,-33.45002]]]},"properties":{"COD_MZN":"13101261001003","BARRIO":"MEIGGS","TERRITORIO":"CENTRO PONIENTE","COMUNA":"SANTIAGO"}},
{"type":"Feature","geometry":{"type":"Polygon","coordinates":[[[-70.67426,-33.44989],[-70.67433,-33.44987],[-70.67548,-33.45018],[-70.67547,-33.45022],[-70.67426,-33.44989]]]},"properties":{"COD_MZN":"13101261001005","BARRIO":"MEIGGS","TERRITORIO":"CENTRO PONIENTE","COMUNA":"SANTIAGO"}},
{"type":"Feature","geometry":{"type":"Polygon","coordinates":[[[-70.6766,-33.45032],[-70.67572,-33.45008],[-70.67574,-33.44997],[-70.6765,-33.45019],[-70.6766,-33.45032]]]},"properties":{"COD_MZN":"13101261001007","BARRIO":"MEIGGS","TERRITORIO":"CENTRO PONIENTE","COMUNA":"SANTIAGO"}},
{"type":"Feature","geometry":{"type":"Polygon","coordinates":[[[-70.67772,-33.45062],[-70.67681,-33.45037],[-70.67671,-33.45023],[-70.67773,-33.45051],[-70.67772,-33.45062]]]},"properties":{"COD_MZN":"13101261001010","BARRIO":"MEIGGS","TERRITORIO":"CENTRO PONIENTE","COMUNA":"SANTIAGO"}},
{"type":"Feature","geometry":{"type":"Polygon","coordinates":[[[-70.67777,-33.45233],[-70.67723,-33.4522],[-70.67753,-33.45146],[-70.6778,-33.45139],[-70.67777,-33.45233]]]},"properties":{"COD_MZN":"13101261001014","BARRIO":"MEIGGS","TERRITORIO":"CENTRO PONIENTE","COMUNA":"SANTIAGO"}},
{"type":"Feature","geometry":{"type":"Polygon","coordinates":[[[-70.67716,-33.45218],[-70.67692,-33.45212],[-70.67719,-33.45148],[-70.67744,-33.45155],[-70.67716,-33.45218]]]},"properties":{"COD_MZN":"13101261001015","BARRIO":"MEIGGS","TERRITORIO":"CENTRO PONIENTE","COMUNA":"SANTIAGO"}},
{"type":"Feature","geometry":{"type":"Polygon","coordinates":[[[-70.67227,-33.4576],[-70.67229,-33.45679],[-70.67252,-33.45684],[-70.67227,-33.4576]]]},"properties":{"COD_MZN":"13101261001042","BARRIO":"MEIGGS","TERRITORIO":"CENTRO PONIENTE","COMUNA":"SANTIAGO"}},
{"type":"Feature","geometry":{"type":"Polygon","coordinates":[[[-70.67217,-33.45816],[-70.67222,-33.45778],[-70.67229,-33.45779],[-70.67217,-33.45816]]]},"properties":{"COD_MZN":"13101261001046","BARRIO":"MEIGGS","TERRITORIO":"CENTRO PONIENTE","COMUNA":"SANTIAGO"}},
{"type":"Feature","geometry":{"type":"Polygon","coordinates":[[[-70.67035,-33.44862],[-70.66846,-33.44811],[-70.66847,-33.448],[-70.67032,-33.44851],[-70.67035,-33.44862]]]},"properties":{"COD_MZN":"13101271001008","BARRIO":"REPÚBLICA","TERRITORIO":"CENTRO PONIENTE","COMUNA":"SANTIAGO"}},
{"type":"Feature","geometry":{"type":"Polygon","coordinates":[[[-70.67046,-33.44864],[-70.67049,-33.44855],[-70.67279,-33.44917],[-70.6727,-33.44926],[-70.67046,-33.44864]]]},"properties":{"COD_MZN":"13101271001011","BARRIO":"REPÚBLICA","TERRITORIO":"CENTRO PONIENTE","COMUNA":"SANTIAGO"}},
{"type":"Feature","geometry":{"type":"Polygon","coordinates":[[[-70.66708,-33.45443],[-70.66726,-33.45348],[-70.66728,-33.45348],[-70.6671,-33.45442],[-70.66708,-33.45443]]]},"properties":{"COD_MZN":"13101271003004","BARRIO":"REPÚBLICA","TERRITORIO":"CENTRO PONIENTE","COMUNA":"SANTIAGO"}},
{"type":"Feature","geometry":{"type":"Polygon","coordinates":[[[-70.66686,-33.45554],[-70.66703,-33.45461],[-70.66706,-33.45461],[-70.66686,-33.45554]]]},"properties":{"COD_MZN":"13101271003009","BARRIO":"REPÚBLICA","TERRITORIO":"CENTRO PONIENTE","COMUNA":"SANTIAGO"}},
{"type":"Feature","geometry":{"type":"Polygon","coordinates":[[[-70.66665,-33.45663],[-70.66665,-33.45661],[-70.66681,-33.45574],[-70.66684,-33.45573],[-70.66667,-33.45662],[-70.66665,-33.45663]]]},"properties":{"COD_MZN":"13101271003012","BARRIO":"REPÚBLICA","TERRITORIO":"CENTRO PONIENTE","COMUNA":"SANTIAGO"}},
{"type":"Feature","geometry":{"type":"Polygon","coordinates":[[[-70.66653,-33.45725],[-70.66662,-33.45672],[-70.66665,-33.45673],[-70.66655,-33.45723],[-70.66653,-33.45725]]]},"properties":{"COD_MZN":"13101271003017","BARRIO":"REPÚBLICA","TERRITORIO":"CENTRO PONIENTE","COMUNA":"SANTIAGO"}},
{"type":"Feature","geometry":{"type":"Polygon","coordinates":[[[-70.66091,-33.44948],[-70.66004,-33.44929],[-70.66075,-33.44668],[-70.66144,-33.44699],[-70.66091,-33.44948]]]},"properties":{"COD_MZN":"13101281001005","BARRIO":"EJERCITO","TERRITORIO":"CENTRO PONIENTE","COMUNA":"SANTIAGO"}},
{"type":"Feature","geometry":{"type":"Polygon","coordinates":[[[-70.66133,-33.44797],[-70.66241,-33.44706],[-70.662,-33.44965],[-70.66104,-33.44943],[-70.66133,-33.44797]]]},"properties":{"COD_MZN":"13101281001007","BARRIO":"EJERCITO","TERRITORIO":"CENTRO PONIENTE","COMUNA":"SANTIAGO"}},
{"type":"Feature","geometry":{"type":"Polygon","coordinates":[[[-70.6627,-33.44861],[-70.66251,-33.44708],[-70.66372,-33.44732],[-70.6627,-33.44861]]]},"properties":{"COD_MZN":"13101281001009","BARRIO":"EJERCITO","TERRITORIO":"CENTRO PONIENTE","COMUNA":"SANTIAGO"}},
{"type":"Feature","geometry":{"type":"Polygon","coordinates":[[[-70.66455,-33.45023],[-70.66346,-33.44993],[-70.66382,-33.44734],[-70.66473,-33.44754],[-70.66455,-33.45023]]]},"properties":{"COD_MZN":"13101281001010","BARRIO":"EJERCITO","TERRITORIO":"CENTRO PONIENTE","COMUNA":"SANTIAGO"}},
{"type":"Feature","geometry":{"type":"Polygon","coordinates":[[[-70.66068,-33.45066],[-70.65975,-33.45034],[-70.66008,-33.44939],[-70.66093,-33.44961],[-70.66068,-33.45066]]]},"properties":{"COD_MZN":"13101281002002","BARRIO":"EJERCITO","TERRITORIO":"CENTRO PONIENTE","COMUNA":"SANTIAGO"}},
{"type":"Feature","geometry":{"type":"Polygon","coordinates":[[[-70.66173,-33.45089],[-70.66081,-33.45062],[-70.66102,-33.44961],[-70.66198,-33.44982],[-70.66173,-33.45089]]]},"properties":{"COD_MZN":"13101281002003","BARRIO":"EJERCITO","TERRITORIO":"CENTRO PONIENTE","COMUNA":"SANTIAGO"}},
{"type":"Feature","geometry":{"type":"Polygon","coordinates":[[[-70.66208,-33.44984],[-70.66331,-33.45004],[-70.6632,-33.45117],[-70.66191,-33.4509],[-70.66208,-33.44984]]]},"properties":{"COD_MZN":"13101281002004","BARRIO":"EJERCITO","TERRITORIO":"CENTRO PONIENTE","COMUNA":"SANTIAGO"}},
{"type":"Feature","geometry":{"type":"Polygon","coordinates":[[[-70.66343,-33.45011],[-70.66457,-33.45029],[-70.66451,-33.45146],[-70.66333,-33.45126],[-70.66343,-33.45011]]]},"properties":{"COD_MZN":"13101281002005","BARRIO":"EJERCITO","TERRITORIO":"CENTRO PONIENTE","COMUNA":"SANTIAGO"}},
{"type":"Feature","geometry":{"type":"Polygon","coordinates":[[[-70.65955,-33.4517],[-70.65965,-33.4506],[-70.66067,-33.45081],[-70.66041,-33.45188],[-70.65955,-33.4517]]]},"properties":{"COD_MZN":"13101281002007","BARRIO":"EJERCITO","TERRITORIO":"CENTRO PONIENTE","COMUNA":"SANTIAGO"}},
{"type":"Feature","geometry":{"type":"Polygon","coordinates":[[[-70.66086,-33.45075],[-70.66179,-33.45101],[-70.66162,-33.45208],[-70.66057,-33.45187],[-70.66086,-33.45075]]]},"properties":{"COD_MZN":"13101281002008","BARRIO":"EJERCITO","TERRITORIO":"CENTRO PONIENTE","COMUNA":"SANTIAGO"}},
{"type":"Feature","geometry":{"type":"Polygon","coordinates":[[[-70.66299,-33.45243],[-70.66175,-33.45216],[-70.6619,-33.45103],[-70.66315,-33.45129],[-70.66299,-33.45243]]]},"properties":{"COD_MZN":"13101281002009","BARRIO":"EJERCITO","TERRITORIO":"CENTRO PONIENTE","COMUNA":"SANTIAGO"}},
{"type":"Feature","geometry":{"type":"Polygon","coordinates":[[[-70.66359,-33.45256],[-70.66332,-33.45132],[-70.6645,-33.45164],[-70.66359,-33.45256]]]},"properties":{"COD_MZN":"13101281002010","BARRIO":"EJERCITO","TERRITORIO":"CENTRO PONIENTE","COMUNA":"SANTIAGO"}},
{"type":"Feature","geometry":{"type":"Polygon","coordinates":[[[-70.66282,-33.45361],[-70.66157,-33.45336],[-70.66175,-33.45223],[-70.66302,-33.45253],[-70.66282,-33.45361]]]},"properties":{"COD_MZN":"13101281003001","BARRIO":"EJERCITO","TERRITORIO":"CENTRO PONIENTE","COMUNA":"SANTIAGO"}},
{"type":"Feature","geometry":{"type":"Polygon","coordinates":[[[-70.66423,-33.45388],[-70.663,-33.45365],[-70.66311,-33.45255],[-70.66439,-33.45283],[-70.66423,-33.45388]]]},"properties":{"COD_MZN":"13101281003002","BARRIO":"EJERCITO","TERRITORIO":"CENTRO PONIENTE","COMUNA":"SANTIAGO"}},
{"type":"Feature","geometry":{"type":"Polygon","coordinates":[[[-70.66151,-33.45347],[-70.66286,-33.45372],[-70.66268,-33.45476],[-70.6614,-33.4545],[-70.66151,-33.45347]]]},"properties":{"COD_MZN":"13101281003003","BARRIO":"EJERCITO","TERRITORIO":"CENTRO PONIENTE","COMUNA":"SANTIAGO"}},
{"type":"Feature","geometry":{"type":"Polygon","coordinates":[[[-70.66289,-33.45425],[-70.66302,-33.45372],[-70.66427,-33.454],[-70.66422,-33.4545],[-70.66289,-33.45425]]]},"properties":{"COD_MZN":"13101281003004","BARRIO":"EJERCITO","TERRITORIO":"CENTRO PONIENTE","COMUNA":"SANTIAGO"}},
{"type":"Feature","geometry":{"type":"Polygon","coordinates":[[[-70.66286,-33.45479],[-70.66288,-33.45428],[-70.66422,-33.45453],[-70.66413,-33.45505],[-70.66286,-33.45479]]]},"properties":{"COD_MZN":"13101281003005","BARRIO":"EJERCITO","TERRITORIO":"CENTRO PONIENTE","COMUNA":"SANTIAGO"}},
{"type":"Feature","geometry":{"type":"Polygon","coordinates":[[[-70.65938,-33.45266],[-70.65959,-33.45257],[-70.65997,-33.45189],[-70.66042,-33.45202],[-70.66022,-33.45307],[-70.65938,-33.45266]]]},"properties":{"COD_MZN":"13101281004002","BARRIO":"EJERCITO","TERRITORIO":"CENTRO PONIENTE","COMUNA":"SANTIAGO"}},
{"type":"Feature","geometry":{"type":"Polygon","coordinates":[[[-70.66137,-33.45333],[-70.66034,-33.45306],[-70.66054,-33.45203],[-70.6616,-33.45224],[-70.66137,-33.45333]]]},"properties":{"COD_MZN":"13101281004004","BARRIO":"EJERCITO","TERRITORIO":"CENTRO PONIENTE","COMUNA":"SANTIAGO"}},
{"type":"Feature","geometry":{"type":"Polygon","coordinates":[[[-70.6612,-33.45446],[-70.66019,-33.45426],[-70.66036,-33.45321],[-70.66141,-33.45345],[-70.6612,-33.45446]]]},"properties":{"COD_MZN":"13101281004009","BARRIO":"EJERCITO","TERRITORIO":"CENTRO PONIENTE","COMUNA":"SANTIAGO"}},
{"type":"Feature","geometry":{"type":"Polygon","coordinates":[[[-70.65996,-33.45422],[-70.65933,-33.4541],[-70.65973,-33.45306],[-70.66022,-33.45322],[-70.65996,-33.45422]]]},"properties":{"COD_MZN":"13101281004008","BARRIO":"EJERCITO","TERRITORIO":"CENTRO PONIENTE","COMUNA":"SANTIAGO"}},
{"type":"Feature","geometry":{"type":"Polygon","coordinates":[[[-70.66101,-33.4556],[-70.65995,-33.45533],[-70.66014,-33.45435],[-70.66119,-33.45453],[-70.66101,-33.4556]]]},"properties":{"COD_MZN":"13101281005001","BARRIO":"EJERCITO","TERRITORIO":"CENTRO PONIENTE","COMUNA":"SANTIAGO"}},
{"type":"Feature","geometry":{"type":"Polygon","coordinates":[[[-70.66129,-33.4549],[-70.66267,-33.45482],[-70.66256,-33.45589],[-70.66119,-33.45563],[-70.66129,-33.4549]]]},"properties":{"COD_MZN":"13101281005002","BARRIO":"EJERCITO","TERRITORIO":"CENTRO PONIENTE","COMUNA":"SANTIAGO"}},
{"type":"Feature","geometry":{"type":"Polygon","coordinates":[[[-70.66347,-33.45553],[-70.66273,-33.45545],[-70.66285,-33.45486],[-70.66413,-33.45511],[-70.66347,-33.45553]]]},"properties":{"COD_MZN":"13101281005003","BARRIO":"EJERCITO","TERRITORIO":"CENTRO PONIENTE","COMUNA":"SANTIAGO"}},
{"type":"Feature","geometry":{"type":"Polygon","coordinates":[[[-70.66088,-33.45662],[-70.65973,-33.45647],[-70.65992,-33.45549],[-70.66106,-33.45573],[-70.66088,-33.45662]]]},"properties":{"COD_MZN":"13101281005004","BARRIO":"EJERCITO","TERRITORIO":"CENTRO PONIENTE","COMUNA":"SANTIAGO"}},
{"type":"Feature","geometry":{"type":"Polygon","coordinates":[[[-70.66399,-33.45619],[-70.6627,-33.45593],[-70.66273,-33.45547],[-70.66411,-33.45563],[-70.66399,-33.45619]]]},"properties":{"COD_MZN":"13101281005005","BARRIO":"EJERCITO","TERRITORIO":"CENTRO PONIENTE","COMUNA":"SANTIAGO"}},
{"type":"Feature","geometry":{"type":"Polygon","coordinates":[[[-70.66108,-33.45665],[-70.66115,-33.45577],[-70.66212,-33.45589],[-70.66199,-33.45673],[-70.66108,-33.45665]]]},"properties":{"COD_MZN":"13101281005006","BARRIO":"EJERCITO","TERRITORIO":"CENTRO PONIENTE","COMUNA":"SANTIAGO"}},
{"type":"Feature","geometry":{"type":"Polygon","coordinates":[[[-70.66202,-33.45674],[-70.66215,-33.4559],[-70.66256,-33.45602],[-70.66243,-33.45677],[-70.66202,-33.45674]]]},"properties":{"COD_MZN":"13101281005007","BARRIO":"EJERCITO","TERRITORIO":"CENTRO PONIENTE","COMUNA":"SANTIAGO"}},
{"type":"Feature","geometry":{"type":"Polygon","coordinates":[[[-70.66264,-33.45679],[-70.6627,-33.45601],[-70.664,-33.45626],[-70.66391,-33.45691],[-70.66264,-33.45679]]]},"properties":{"COD_MZN":"13101281005008","BARRIO":"EJERCITO","TERRITORIO":"CENTRO PONIENTE","COMUNA":"SANTIAGO"}},
{"type":"Feature","geometry":{"type":"Polygon","coordinates":[[[-70.65974,-33.45536],[-70.65832,-33.45499],[-70.65868,-33.45411],[-70.65999,-33.45435],[-70.65974,-33.45536]]]},"properties":{"COD_MZN":"13101281006002","BARRIO":"EJERCITO","TERRITORIO":"CENTRO PONIENTE","COMUNA":"SANTIAGO"}},
{"type":"Feature","geometry":{"type":"Polygon","coordinates":[[[-70.65797,-33.45636],[-70.65822,-33.45518],[-70.65974,-33.45543],[-70.65952,-33.4565],[-70.65797,-33.45636]]]},"properties":{"COD_MZN":"13101281006003","BARRIO":"EJERCITO","TERRITORIO":"CENTRO PONIENTE","COMUNA":"SANTIAGO"}},
{"type":"Feature","geometry":{"type":"Polygon","coordinates":[[[-70.66543,-33.44887],[-70.6648,-33.44886],[-70.66485,-33.44759],[-70.66588,-33.44778],[-70.66543,-33.44887]]]},"properties":{"COD_MZN":"13101271001003","BARRIO":"REPÚBLICA","TERRITORIO":"CENTRO PONIENTE","COMUNA":"SANTIAGO"}},
{"type":"Feature","geometry":{"type":"Polygon","coordinates":[[[-70.66632,-33.44952],[-70.66576,-33.44932],[-70.66595,-33.44783],[-70.66645,-33.44787],[-70.66632,-33.44952]]]},"properties":{"COD_MZN":"13101271001004","BARRIO":"REPÚBLICA","TERRITORIO":"CENTRO PONIENTE","COMUNA":"SANTIAGO"}},
{"type":"Feature","geometry":{"type":"Polygon","coordinates":[[[-70.66656,-33.44791],[-70.66713,-33.44799],[-70.66704,-33.44849],[-70.66657,-33.44886],[-70.66656,-33.44791]]]},"properties":{"COD_MZN":"13101271001006","BARRIO":"REPÚBLICA","TERRITORIO":"CENTRO PONIENTE","COMUNA":"SANTIAGO"}},
{"type":"Feature","geometry":{"type":"Polygon","coordinates":[[[-70.66533,-33.44967],[-70.66554,-33.45046],[-70.66479,-33.45028],[-70.66533,-33.44967]]]},"properties":{"COD_MZN":"13101271001015","BARRIO":"REPÚBLICA","TERRITORIO":"CENTRO PONIENTE","COMUNA":"SANTIAGO"}},
{"type":"Feature","geometry":{"type":"Polygon","coordinates":[[[-70.66574,-33.44948],[-70.66636,-33.44964],[-70.66631,-33.45065],[-70.66561,-33.45046],[-70.66574,-33.44948]]]},"properties":{"COD_MZN":"13101271001016","BARRIO":"REPÚBLICA","TERRITORIO":"CENTRO PONIENTE","COMUNA":"SANTIAGO"}},
{"type":"Feature","geometry":{"type":"Polygon","coordinates":[[[-70.6665,-33.45077],[-70.66647,-33.44968],[-70.66707,-33.44976],[-70.6665,-33.45077]]]},"properties":{"COD_MZN":"13101271001017","BARRIO":"REPÚBLICA","TERRITORIO":"CENTRO PONIENTE","COMUNA":"SANTIAGO"}},
{"type":"Feature","geometry":{"type":"Polygon","coordinates":[[[-70.66472,-33.45103],[-70.66474,-33.45041],[-70.665,-33.45041],[-70.66493,-33.45104],[-70.66472,-33.45103]]]},"properties":{"COD_MZN":"13101271002001","BARRIO":"REPÚBLICA","TERRITORIO":"CENTRO PONIENTE","COMUNA":"SANTIAGO"}},
{"type":"Feature","geometry":{"type":"Polygon","coordinates":[[[-70.66496,-33.45104],[-70.66503,-33.45042],[-70.66553,-33.45058],[-70.66547,-33.45101],[-70.66496,-33.45104]]]},"properties":{"COD_MZN":"13101271002002","BARRIO":"REPÚBLICA","TERRITORIO":"CENTRO PONIENTE","COMUNA":"SANTIAGO"}},
{"type":"Feature","geometry":{"type":"Polygon","coordinates":[[[-70.6662,-33.45189],[-70.66573,-33.45172],[-70.66564,-33.4506],[-70.6663,-33.45083],[-70.6662,-33.45189]]]},"properties":{"COD_MZN":"13101271002003","BARRIO":"REPÚBLICA","TERRITORIO":"CENTRO PONIENTE","COMUNA":"SANTIAGO"}},
{"type":"Feature","geometry":{"type":"Polygon","coordinates":[[[-70.66489,-33.45283],[-70.6645,-33.45266],[-70.6646,-33.45165],[-70.6648,-33.45172],[-70.66489,-33.45283]]]},"properties":{"COD_MZN":"13101271002008","BARRIO":"REPÚBLICA","TERRITORIO":"CENTRO PONIENTE","COMUNA":"SANTIAGO"}},
{"type":"Feature","geometry":{"type":"Polygon","coordinates":[[[-70.66489,-33.45181],[-70.66624,-33.452],[-70.66619,-33.45306],[-70.66512,-33.45288],[-70.66489,-33.45181]]]},"properties":{"COD_MZN":"13101271002009","BARRIO":"REPÚBLICA","TERRITORIO":"CENTRO PONIENTE","COMUNA":"SANTIAGO"}},
{"type":"Feature","geometry":{"type":"Polygon","coordinates":[[[-70.66494,-33.45404],[-70.66438,-33.45388],[-70.66448,-33.45286],[-70.66501,-33.45297],[-70.66494,-33.45404]]]},"properties":{"COD_MZN":"13101271003001","BARRIO":"REPÚBLICA","TERRITORIO":"CENTRO PONIENTE","COMUNA":"SANTIAGO"}},
{"type":"Feature","geometry":{"type":"Polygon","coordinates":[[[-70.66561,-33.45376],[-70.66506,-33.45374],[-70.66513,-33.45295],[-70.66618,-33.45321],[-70.66561,-33.45376]]]},"properties":{"COD_MZN":"13101271003002","BARRIO":"REPÚBLICA","TERRITORIO":"CENTRO PONIENTE","COMUNA":"SANTIAGO"}},
{"type":"Feature","geometry":{"type":"Polygon","coordinates":[[[-70.66697,-33.45445],[-70.66624,-33.45425],[-70.66629,-33.45324],[-70.6672,-33.45343],[-70.66697,-33.45445]]]},"properties":{"COD_MZN":"13101271003003","BARRIO":"REPÚBLICA","TERRITORIO":"CENTRO PONIENTE","COMUNA":"SANTIAGO"}},
{"type":"Feature","geometry":{"type":"Polygon","coordinates":[[[-70.66433,-33.45431],[-70.66445,-33.45401],[-70.66493,-33.45411],[-70.66498,-33.45435],[-70.66433,-33.45431]]]},"properties":{"COD_MZN":"13101271003005","BARRIO":"REPÚBLICA","TERRITORIO":"CENTRO PONIENTE","COMUNA":"SANTIAGO"}},
{"type":"Feature","geometry":{"type":"Polygon","coordinates":[[[-70.66505,-33.45418],[-70.66609,-33.45435],[-70.66601,-33.45543],[-70.66506,-33.45523],[-70.66505,-33.45418]]]},"properties":{"COD_MZN":"13101271003006","BARRIO":"REPÚBLICA","TERRITORIO":"CENTRO PONIENTE","COMUNA":"SANTIAGO"}},
{"type":"Feature","geometry":{"type":"Polygon","coordinates":[[[-70.66492,-33.4552],[-70.66426,-33.45504],[-70.66433,-33.45434],[-70.66498,-33.45437],[-70.66492,-33.4552]]]},"properties":{"COD_MZN":"13101271003007","BARRIO":"REPÚBLICA","TERRITORIO":"CENTRO PONIENTE","COMUNA":"SANTIAGO"}},
{"type":"Feature","geometry":{"type":"Polygon","coordinates":[[[-70.66635,-33.45549],[-70.66623,-33.45444],[-70.66698,-33.45455],[-70.66635,-33.45549]]]},"properties":{"COD_MZN":"13101271003008","BARRIO":"REPÚBLICA","TERRITORIO":"CENTRO PONIENTE","COMUNA":"SANTIAGO"}},
{"type":"Feature","geometry":{"type":"Polygon","coordinates":[[[-70.66448,-33.45595],[-70.66425,-33.45517],[-70.66496,-33.45532],[-70.66448,-33.45595]]]},"properties":{"COD_MZN":"13101271003010","BARRIO":"REPÚBLICA","TERRITORIO":"CENTRO PONIENTE","COMUNA":"SANTIAGO"}},
{"type":"Feature","geometry":{"type":"Polygon","coordinates":[[[-70.66614,-33.45719],[-70.66606,-33.45657],[-70.66502,-33.45637],[-70.66509,-33.4553],[-70.66674,-33.45574],[-70.66614,-33.45719]]]},"properties":{"COD_MZN":"13101271003011","BARRIO":"REPÚBLICA","TERRITORIO":"CENTRO PONIENTE","COMUNA":"SANTIAGO"}},
{"type":"Feature","geometry":{"type":"Polygon","coordinates":[[[-70.66488,-33.457],[-70.66409,-33.45686],[-70.66419,-33.4563],[-70.66489,-33.45644],[-70.66488,-33.457]]]},"properties":{"COD_MZN":"13101271003013","BARRIO":"REPÚBLICA","TERRITORIO":"CENTRO PONIENTE","COMUNA":"SANTIAGO"}},
{"type":"Feature","geometry":{"type":"Polygon","coordinates":[[[-70.66504,-33.457],[-70.66501,-33.45651],[-70.6654,-33.45652],[-70.66504,-33.457]]]},"properties":{"COD_MZN":"13101271003014","BARRIO":"REPÚBLICA","TERRITORIO":"CENTRO PONIENTE","COMUNA":"SANTIAGO"}},
{"type":"Feature","geometry":{"type":"Polygon","coordinates":[[[-70.66528,-33.45704],[-70.66543,-33.45652],[-70.66573,-33.45658],[-70.6656,-33.4571],[-70.66528,-33.45704]]]},"properties":{"COD_MZN":"13101271003015","BARRIO":"REPÚBLICA","TERRITORIO":"CENTRO PONIENTE","COMUNA":"SANTIAGO"}},
{"type":"Feature","geometry":{"type":"Polygon","coordinates":[[[-70.66594,-33.45715],[-70.66563,-33.4571],[-70.66576,-33.45658],[-70.66602,-33.45667],[-70.66594,-33.45715]]]},"properties":{"COD_MZN":"13101271003016","BARRIO":"REPÚBLICA","TERRITORIO":"CENTRO PONIENTE","COMUNA":"SANTIAGO"}},
{"type":"Feature","geometry":{"type":"Polygon","coordinates":[[[-70.66045,-33.45819],[-70.66087,-33.45692],[-70.66378,-33.45717],[-70.66368,-33.45838],[-70.66045,-33.45819]]]},"properties":{"COD_MZN":"13101231001003","BARRIO":"EJERCITO","TERRITORIO":"CENTRO PONIENTE","COMUNA":"SANTIAGO"}},
{"type":"Feature","geometry":{"type":"Polygon","coordinates":[[[-70.67261,-33.45108],[-70.67262,-33.4495],[-70.67376,-33.44977],[-70.67261,-33.45108]]]},"properties":{"COD_MZN":"13101261001002","BARRIO":"MEIGGS","TERRITORIO":"CENTRO PONIENTE","COMUNA":"SANTIAGO"}},
{"type":"Feature","geometry":{"type":"Polygon","coordinates":[[[-70.67373,-33.45134],[-70.67343,-33.45122],[-70.67381,-33.44978],[-70.67416,-33.44986],[-70.67373,-33.45134]]]},"properties":{"COD_MZN":"13101261001004","BARRIO":"MEIGGS","TERRITORIO":"CENTRO PONIENTE","COMUNA":"SANTIAGO"}},
{"type":"Feature","geometry":{"type":"Polygon","coordinates":[[[-70.67617,-33.45194],[-70.67527,-33.45167],[-70.67567,-33.45022],[-70.67671,-33.45056],[-70.67617,-33.45194]]]},"properties":{"COD_MZN":"13101261001008","BARRIO":"MEIGGS","TERRITORIO":"CENTRO PONIENTE","COMUNA":"SANTIAGO"}},
{"type":"Feature","geometry":{"type":"Polygon","coordinates":[[[-70.67353,-33.45242],[-70.67254,-33.45213],[-70.67262,-33.45115],[-70.67379,-33.45147],[-70.67353,-33.45242]]]},"properties":{"COD_MZN":"13101261001013","BARRIO":"MEIGGS","TERRITORIO":"CENTRO PONIENTE","COMUNA":"SANTIAGO"}},
{"type":"Feature","geometry":{"type":"Polygon","coordinates":[[[-70.6771,-33.45324],[-70.67625,-33.45305],[-70.67644,-33.45211],[-70.67721,-33.45231],[-70.6771,-33.45324]]]},"properties":{"COD_MZN":"13101261001018","BARRIO":"MEIGGS","TERRITORIO":"CENTRO PONIENTE","COMUNA":"SANTIAGO"}},
{"type":"Feature","geometry":{"type":"Polygon","coordinates":[[[-70.67329,-33.45348],[-70.67251,-33.45325],[-70.67258,-33.45226],[-70.67354,-33.45253],[-70.67329,-33.45348]]]},"properties":{"COD_MZN":"13101261001019","BARRIO":"MEIGGS","TERRITORIO":"CENTRO PONIENTE","COMUNA":"SANTIAGO"}},
{"type":"Feature","geometry":{"type":"Polygon","coordinates":[[[-70.67462,-33.45377],[-70.67343,-33.45351],[-70.67368,-33.45252],[-70.67486,-33.45279],[-70.67462,-33.45377]]]},"properties":{"COD_MZN":"13101261001021","BARRIO":"MEIGGS","TERRITORIO":"CENTRO PONIENTE","COMUNA":"SANTIAGO"}},
{"type":"Feature","geometry":{"type":"Polygon","coordinates":[[[-70.67436,-33.45483],[-70.67318,-33.45459],[-70.67344,-33.45358],[-70.67459,-33.45384],[-70.67436,-33.45483]]]},"properties":{"COD_MZN":"13101261001026","BARRIO":"MEIGGS","TERRITORIO":"CENTRO PONIENTE","COMUNA":"SANTIAGO"}},
{"type":"Feature","geometry":{"type":"Polygon","coordinates":[[[-70.67681,-33.45534],[-70.67575,-33.45512],[-70.67599,-33.45414],[-70.67705,-33.45438],[-70.67681,-33.45534]]]},"properties":{"COD_MZN":"13101261001028","BARRIO":"MEIGGS","TERRITORIO":"CENTRO PONIENTE","COMUNA":"SANTIAGO"}},
{"type":"Feature","geometry":{"type":"Polygon","coordinates":[[[-70.67736,-33.45545],[-70.67695,-33.45533],[-70.67715,-33.45448],[-70.6774,-33.45449],[-70.67736,-33.45545]]]},"properties":{"COD_MZN":"13101261001029","BARRIO":"MEIGGS","TERRITORIO":"CENTRO PONIENTE","COMUNA":"SANTIAGO"}},
{"type":"Feature","geometry":{"type":"Polygon","coordinates":[[[-70.67782,-33.45549],[-70.6775,-33.45541],[-70.67748,-33.45454],[-70.67802,-33.45466],[-70.67782,-33.45549]]]},"properties":{"COD_MZN":"13101261001030","BARRIO":"MEIGGS","TERRITORIO":"CENTRO PONIENTE","COMUNA":"SANTIAGO"}},
{"type":"Feature","geometry":{"type":"Polygon","coordinates":[[[-70.67412,-33.45588],[-70.67292,-33.45564],[-70.67317,-33.45465],[-70.67438,-33.45494],[-70.67412,-33.45588]]]},"properties":{"COD_MZN":"13101261001032","BARRIO":"MEIGGS","TERRITORIO":"CENTRO PONIENTE","COMUNA":"SANTIAGO"}},
{"type":"Feature","geometry":{"type":"Polygon","coordinates":[[[-70.67533,-33.45612],[-70.67429,-33.45592],[-70.67453,-33.45493],[-70.67557,-33.45515],[-70.67533,-33.45612]]]},"properties":{"COD_MZN":"13101261001033","BARRIO":"MEIGGS","TERRITORIO":"CENTRO PONIENTE","COMUNA":"SANTIAGO"}},
{"type":"Feature","geometry":{"type":"Polygon","coordinates":[[[-70.67738,-33.45653],[-70.67671,-33.45633],[-70.67691,-33.4555],[-70.67742,-33.45556],[-70.67738,-33.45653]]]},"properties":{"COD_MZN":"13101261001035","BARRIO":"MEIGGS","TERRITORIO":"CENTRO PONIENTE","COMUNA":"SANTIAGO"}},
{"type":"Feature","geometry":{"type":"Polygon","coordinates":[[[-70.67804,-33.45667],[-70.67751,-33.45649],[-70.6775,-33.45557],[-70.67809,-33.45564],[-70.67804,-33.45667]]]},"properties":{"COD_MZN":"13101261001036","BARRIO":"MEIGGS","TERRITORIO":"CENTRO PONIENTE","COMUNA":"SANTIAGO"}},
{"type":"Feature","geometry":{"type":"Polygon","coordinates":[[[-70.6725,-33.45672],[-70.67238,-33.45568],[-70.67278,-33.45572],[-70.6725,-33.45672]]]},"properties":{"COD_MZN":"13101261001037","BARRIO":"MEIGGS","TERRITORIO":"CENTRO PONIENTE","COMUNA":"SANTIAGO"}},
{"type":"Feature","geometry":{"type":"Polygon","coordinates":[[[-70.67384,-33.45698],[-70.67268,-33.45675],[-70.67293,-33.45571],[-70.67413,-33.456],[-70.67384,-33.45698]]]},"properties":{"COD_MZN":"13101261001038","BARRIO":"MEIGGS","TERRITORIO":"CENTRO PONIENTE","COMUNA":"SANTIAGO"}},
{"type":"Feature","geometry":{"type":"Polygon","coordinates":[[[-70.6751,-33.45723],[-70.67405,-33.45702],[-70.67431,-33.45598],[-70.67538,-33.45624],[-70.6751,-33.45723]]]},"properties":{"COD_MZN":"13101261001039","BARRIO":"MEIGGS","TERRITORIO":"CENTRO PONIENTE","COMUNA":"SANTIAGO"}},
{"type":"Feature","geometry":{"type":"Polygon","coordinates":[[[-70.6759,-33.4566],[-70.67634,-33.45748],[-70.67528,-33.45727],[-70.6759,-33.4566]]]},"properties":{"COD_MZN":"13101261001040","BARRIO":"MEIGGS","TERRITORIO":"CENTRO PONIENTE","COMUNA":"SANTIAGO"}},
{"type":"Feature","geometry":{"type":"Polygon","coordinates":[[[-70.67628,-33.45844],[-70.67667,-33.45651],[-70.67811,-33.45674],[-70.67827,-33.458],[-70.67628,-33.45844]]]},"properties":{"COD_MZN":"13101261001041","BARRIO":"MEIGGS","TERRITORIO":"CENTRO PONIENTE","COMUNA":"SANTIAGO"}},
{"type":"Feature","geometry":{"type":"Polygon","coordinates":[[[-70.67236,-33.45827],[-70.67267,-33.45682],[-70.67387,-33.45709],[-70.67359,-33.45828],[-70.67236,-33.45827]]]},"properties":{"COD_MZN":"13101261001043","BARRIO":"MEIGGS","TERRITORIO":"CENTRO PONIENTE","COMUNA":"SANTIAGO"}},
{"type":"Feature","geometry":{"type":"Polygon","coordinates":[[[-70.67386,-33.45835],[-70.67398,-33.45711],[-70.67511,-33.45735],[-70.67482,-33.45841],[-70.67386,-33.45835]]]},"properties":{"COD_MZN":"13101261001044","BARRIO":"MEIGGS","TERRITORIO":"CENTRO PONIENTE","COMUNA":"SANTIAGO"}},
{"type":"Feature","geometry":{"type":"Polygon","coordinates":[[[-70.67607,-33.45845],[-70.67501,-33.45842],[-70.67519,-33.45736],[-70.67635,-33.45757],[-70.67607,-33.45845]]]},"properties":{"COD_MZN":"13101261001045","BARRIO":"MEIGGS","TERRITORIO":"CENTRO PONIENTE","COMUNA":"SANTIAGO"}},
{"type":"Feature","geometry":{"type":"Polygon","coordinates":[[[-70.67599,-33.45407],[-70.6762,-33.45313],[-70.67715,-33.45336],[-70.67707,-33.45431],[-70.67599,-33.45407]]]},"properties":{"COD_MZN":"13101261001020","BARRIO":"MEIGGS","TERRITORIO":"CENTRO PONIENTE","COMUNA":"SANTIAGO"}},
{"type":"Feature","geometry":{"type":"Polygon","coordinates":[[[-70.6751,-33.45167],[-70.67395,-33.45139],[-70.67418,-33.45023],[-70.67539,-33.45059],[-70.6751,-33.45167]]]},"properties":{"COD_MZN":"13101261001006","BARRIO":"MEIGGS","TERRITORIO":"CENTRO PONIENTE","COMUNA":"SANTIAGO"}},
{"type":"Feature","geometry":{"type":"Polygon","coordinates":[[[-70.67302,-33.45455],[-70.6725,-33.45445],[-70.6725,-33.45345],[-70.6733,-33.45357],[-70.67302,-33.45455]]]},"properties":{"COD_MZN":"13101261001025","BARRIO":"MEIGGS","TERRITORIO":"CENTRO PONIENTE","COMUNA":"SANTIAGO"}},
{"type":"Feature","geometry":{"type":"Polygon","coordinates":[[[-70.67561,-33.45509],[-70.67454,-33.45487],[-70.67478,-33.45388],[-70.67586,-33.45412],[-70.67561,-33.45509]]]},"properties":{"COD_MZN":"13101261001027","BARRIO":"MEIGGS","TERRITORIO":"CENTRO PONIENTE","COMUNA":"SANTIAGO"}},
{"type":"Feature","geometry":{"type":"Polygon","coordinates":[[[-70.67586,-33.45404],[-70.67477,-33.45379],[-70.67503,-33.45283],[-70.67612,-33.45313],[-70.67586,-33.45404]]]},"properties":{"COD_MZN":"13101261001017","BARRIO":"MEIGGS","TERRITORIO":"CENTRO PONIENTE","COMUNA":"SANTIAGO"}},
{"type":"Feature","geometry":{"type":"Polygon","coordinates":[[[-70.67683,-33.4521],[-70.67636,-33.45183],[-70.67683,-33.45058],[-70.67743,-33.45072],[-70.67683,-33.4521]]]},"properties":{"COD_MZN":"13101261001011","BARRIO":"MEIGGS","TERRITORIO":"CENTRO PONIENTE","COMUNA":"SANTIAGO"}},
{"type":"Feature","geometry":{"type":"Polygon","coordinates":[[[-70.66993,-33.45042],[-70.669,-33.45019],[-70.66938,-33.44853],[-70.67034,-33.4489],[-70.66993,-33.45042]]]},"properties":{"COD_MZN":"13101271001010","BARRIO":"REPÚBLICA","TERRITORIO":"CENTRO PONIENTE","COMUNA":"SANTIAGO"}},
{"type":"Feature","geometry":{"type":"Polygon","coordinates":[[[-70.67108,-33.44988],[-70.67253,-33.44943],[-70.67243,-33.45104],[-70.67108,-33.44988]]]},"properties":{"COD_MZN":"13101271001013","BARRIO":"REPÚBLICA","TERRITORIO":"CENTRO PONIENTE","COMUNA":"SANTIAGO"}},
{"type":"Feature","geometry":{"type":"Polygon","coordinates":[[[-70.66853,-33.45064],[-70.66991,-33.45048],[-70.66965,-33.45152],[-70.66853,-33.45064]]]},"properties":{"COD_MZN":"13101271001019","BARRIO":"REPÚBLICA","TERRITORIO":"CENTRO PONIENTE","COMUNA":"SANTIAGO"}},
{"type":"Feature","geometry":{"type":"Polygon","coordinates":[[[-70.6724,-33.45216],[-70.66991,-33.45158],[-70.67015,-33.45055],[-70.67243,-33.4511],[-70.6724,-33.45216]]]},"properties":{"COD_MZN":"13101271001020","BARRIO":"REPÚBLICA","TERRITORIO":"CENTRO PONIENTE","COMUNA":"SANTIAGO"}},
{"type":"Feature","geometry":{"type":"Polygon","coordinates":[[[-70.66968,-33.45268],[-70.66989,-33.45164],[-70.67079,-33.45185],[-70.67041,-33.45284],[-70.66968,-33.45268]]]},"properties":{"COD_MZN":"13101271001021","BARRIO":"REPÚBLICA","TERRITORIO":"CENTRO PONIENTE","COMUNA":"SANTIAGO"}},
{"type":"Feature","geometry":{"type":"Polygon","coordinates":[[[-70.67236,-33.45327],[-70.67044,-33.45284],[-70.67082,-33.45186],[-70.67242,-33.45223],[-70.67236,-33.45327]]]},"properties":{"COD_MZN":"13101271001022","BARRIO":"REPÚBLICA","TERRITORIO":"CENTRO PONIENTE","COMUNA":"SANTIAGO"}},
{"type":"Feature","geometry":{"type":"Polygon","coordinates":[[[-70.66884,-33.45015],[-70.66807,-33.4499],[-70.66837,-33.44834],[-70.6693,-33.44852],[-70.66884,-33.45015]]]},"properties":{"COD_MZN":"13101271001009","BARRIO":"REPÚBLICA","TERRITORIO":"CENTRO PONIENTE","COMUNA":"SANTIAGO"}},
{"type":"Feature","geometry":{"type":"Polygon","coordinates":[[[-70.6678,-33.45124],[-70.66963,-33.45158],[-70.6694,-33.45263],[-70.66766,-33.45222],[-70.6678,-33.45124]]]},"properties":{"COD_MZN":"13101271002006","BARRIO":"REPÚBLICA","TERRITORIO":"CENTRO PONIENTE","COMUNA":"SANTIAGO"}},
{"type":"Feature","geometry":{"type":"Polygon","coordinates":[[[-70.66913,-33.45373],[-70.66742,-33.45337],[-70.66763,-33.45228],[-70.66937,-33.45267],[-70.66913,-33.45373]]]},"properties":{"COD_MZN":"13101271002011","BARRIO":"REPÚBLICA","TERRITORIO":"CENTRO PONIENTE","COMUNA":"SANTIAGO"}},
{"type":"Feature","geometry":{"type":"Polygon","coordinates":[[[-70.66956,-33.45277],[-70.67237,-33.45334],[-70.67232,-33.45441],[-70.66938,-33.45378],[-70.66956,-33.45277]]]},"properties":{"COD_MZN":"13101271002012","BARRIO":"REPÚBLICA","TERRITORIO":"CENTRO PONIENTE","COMUNA":"SANTIAGO"}},
{"type":"Feature","geometry":{"type":"Polygon","coordinates":[[[-70.66797,-33.45466],[-70.66719,-33.4545],[-70.66741,-33.45343],[-70.66858,-33.45368],[-70.66797,-33.45466]]]},"properties":{"COD_MZN":"13101271004001","BARRIO":"REPÚBLICA","TERRITORIO":"CENTRO PONIENTE","COMUNA":"SANTIAGO"}},
{"type":"Feature","geometry":{"type":"Polygon","coordinates":[[[-70.66861,-33.45369],[-70.66918,-33.45386],[-70.66896,-33.45481],[-70.66836,-33.45473],[-70.66861,-33.45369]]]},"properties":{"COD_MZN":"13101271004002","BARRIO":"REPÚBLICA","TERRITORIO":"CENTRO PONIENTE","COMUNA":"SANTIAGO"}},
{"type":"Feature","geometry":{"type":"Polygon","coordinates":[[[-70.67226,-33.45551],[-70.66911,-33.45488],[-70.66937,-33.45385],[-70.67232,-33.45447],[-70.67226,-33.45551]]]},"properties":{"COD_MZN":"13101271004003","BARRIO":"REPÚBLICA","TERRITORIO":"CENTRO PONIENTE","COMUNA":"SANTIAGO"}},
{"type":"Feature","geometry":{"type":"Polygon","coordinates":[[[-70.66861,-33.45594],[-70.66703,-33.45563],[-70.66718,-33.45457],[-70.66892,-33.45496],[-70.66861,-33.45594]]]},"properties":{"COD_MZN":"13101271004004","BARRIO":"REPÚBLICA","TERRITORIO":"CENTRO PONIENTE","COMUNA":"SANTIAGO"}},
{"type":"Feature","geometry":{"type":"Polygon","coordinates":[[[-70.67215,-33.45665],[-70.66888,-33.456],[-70.66912,-33.45495],[-70.67226,-33.45558],[-70.67215,-33.45665]]]},"properties":{"COD_MZN":"13101271004005","BARRIO":"REPÚBLICA","TERRITORIO":"CENTRO PONIENTE","COMUNA":"SANTIAGO"}},
{"type":"Feature","geometry":{"type":"Polygon","coordinates":[[[-70.66733,-33.45626],[-70.66855,-33.456],[-70.66839,-33.45698],[-70.66733,-33.45626]]]},"properties":{"COD_MZN":"13101271004006","BARRIO":"REPÚBLICA","TERRITORIO":"CENTRO PONIENTE","COMUNA":"SANTIAGO"}},
{"type":"Feature","geometry":{"type":"Polygon","coordinates":[[[-70.67018,-33.4573],[-70.66863,-33.45702],[-70.66888,-33.45607],[-70.67215,-33.45672],[-70.67202,-33.45822],[-70.67018,-33.4573]]]},"properties":{"COD_MZN":"13101271004007","BARRIO":"REPÚBLICA","TERRITORIO":"CENTRO PONIENTE","COMUNA":"SANTIAGO"}},
{"type":"Feature","geometry":{"type":"Polygon","coordinates":[[[-70.66827,-33.45756],[-70.66665,-33.45728],[-70.66679,-33.45676],[-70.66838,-33.45705],[-70.66827,-33.45756]]]},"properties":{"COD_MZN":"13101271004008","BARRIO":"REPÚBLICA","TERRITORIO":"CENTRO PONIENTE","COMUNA":"SANTIAGO"}},
{"type":"Feature","geometry":{"type":"Polygon","coordinates":[[[-70.66719,-33.45332],[-70.66634,-33.45314],[-70.66635,-33.45205],[-70.66752,-33.45229],[-70.66719,-33.45332]]]},"properties":{"COD_MZN":"13101271002010","BARRIO":"REPÚBLICA","TERRITORIO":"CENTRO PONIENTE","COMUNA":"SANTIAGO"}},
{"type":"Feature","geometry":{"type":"Polygon","coordinates":[[[-70.66749,-33.45218],[-70.66644,-33.45195],[-70.66641,-33.45087],[-70.66771,-33.45115],[-70.66749,-33.45218]]]},"properties":{"COD_MZN":"13101271002004","BARRIO":"REPÚBLICA","TERRITORIO":"CENTRO PONIENTE","COMUNA":"SANTIAGO"}},
{"type":"Feature","geometry":{"type":"Polygon","coordinates":[[[-70.66762,-33.45106],[-70.66701,-33.4509],[-70.6671,-33.44977],[-70.66793,-33.44998],[-70.66762,-33.45106]]]},"properties":{"COD_MZN":"13101271001018","BARRIO":"REPÚBLICA","TERRITORIO":"CENTRO PONIENTE","COMUNA":"SANTIAGO"}},
{"type":"Feature","geometry":{"type":"Polygon","coordinates":[[[-70.66735,-33.44868],[-70.66821,-33.44878],[-70.668,-33.44989],[-70.66652,-33.44957],[-70.66735,-33.44868]]]},"properties":{"COD_MZN":"13101271001012","BARRIO":"REPÚBLICA","TERRITORIO":"CENTRO PONIENTE","COMUNA":"SANTIAGO"}},
{"type":"Feature","geometry":{"type":"Polygon","coordinates":[[[-70.66821,-33.44874],[-70.6671,-33.44852],[-70.66726,-33.44796],[-70.6682,-33.44821],[-70.66821,-33.44874]]]},"properties":{"COD_MZN":"13101271001007","BARRIO":"REPÚBLICA","TERRITORIO":"CENTRO PONIENTE","COMUNA":"SANTIAGO"}}
]}
