{"type":"FeatureCollection", "features": [
{"type":"Feature","geometry":{"type":"Polygon","coordinates":[[[-70.6389,-33.435],[-70.63892,-33.43494],[-70.64238,-33.43414],[-70.64217,-33.43427],[-70.63961,-33.43486],[-70.6389,-33.435]]]},"properties":{"COD_MZN":"13101011001003","BARRIO":"SANTA LUCIA FORESTAL","TERRITORIO":"NORORIENTE","COMUNA":"SANTIAGO"}},
{"type":"Feature","geometry":{"type":"Polygon","coordinates":[[[-70.6426,-33.43443],[-70.64259,-33.43469],[-70.63916,-33.43548],[-70.639,-33.43527],[-70.6426,-33.43443]]]},"properties":{"COD_MZN":"13101011001005","BARRIO":"SANTA LUCIA FORESTAL","TERRITORIO":"NORORIENTE","COMUNA":"SANTIAGO"}},
{"type":"Feature","geometry":{"type":"Polygon","coordinates":[[[-70.64029,-33.43681],[-70.63917,-33.43564],[-70.64262,-33.43482],[-70.64306,-33.43601],[-70.64029,-33.43681]]]},"properties":{"COD_MZN":"13101011001006","BARRIO":"SANTA LUCIA FORESTAL","TERRITORIO":"NORORIENTE","COMUNA":"SANTIAGO"}},
{"type":"Feature","geometry":{"type":"Polygon","coordinates":[[[-70.64319,-33.43588],[-70.64314,-33.43575],[-70.64315,-33.43574],[-70.64321,-33.43587],[-70.64319,-33.43588]]]},"properties":{"COD_MZN":"13101011001009","BARRIO":"SANTA LUCIA FORESTAL","TERRITORIO":"NORORIENTE","COMUNA":"SANTIAGO"}},
{"type":"Feature","geometry":{"type":"Polygon","coordinates":[[[-70.63543,-33.43582],[-70.63552,-33.43573],[-70.63863,-33.43502],[-70.63799,-33.43526],[-70.63543,-33.43582]]]},"properties":{"COD_MZN":"13101011003001","BARRIO":"SANTA LUCIA FORESTAL","TERRITORIO":"NORORIENTE","COMUNA":"SANTIAGO"}},
{"type":"Feature","geometry":{"type":"Polygon","coordinates":[[[-70.63821,-33.43546],[-70.6356,-33.4363],[-70.63543,-33.43612],[-70.63821,-33.43546]]]},"properties":{"COD_MZN":"13101011003002","BARRIO":"SANTA LUCIA FORESTAL","TERRITORIO":"NORORIENTE","COMUNA":"SANTIAGO"}},
{"type":"Feature","geometry":{"type":"Polygon","coordinates":[[[-70.63592,-33.43683],[-70.63879,-33.43572],[-70.63918,-33.43681],[-70.63592,-33.43683]]]},"properties":{"COD_MZN":"13101011003003","BARRIO":"SANTA LUCIA FORESTAL","TERRITORIO":"NORORIENTE","COMUNA":"SANTIAGO"}},
{"type":"Feature","geometry":{"type":"Polygon","coordinates":[[[-70.64438,-33.43367],[-70.64517,-33.43349],[-70.64525,-33.43356],[-70.6434,-33.43397],[-70.64438,-33.43367]]]},"properties":{"COD_MZN":"13101011001001","BARRIO":"SANTA LUCIA FORESTAL","TERRITORIO":"NORORIENTE","COMUNA":"SANTIAGO"}},
{"type":"Feature","geometry":{"type":"Polygon","coordinates":[[[-70.643,-33.43454],[-70.64291,-33.43435],[-70.64534,-33.43382],[-70.64537,-33.43401],[-70.643,-33.43454]]]},"properties":{"COD_MZN":"13101011001002","BARRIO":"SANTA LUCIA FORESTAL","TERRITORIO":"NORORIENTE","COMUNA":"SANTIAGO"}},
{"type":"Feature","geometry":{"type":"Polygon","coordinates":[[[-70.64339,-33.43592],[-70.64299,-33.43473],[-70.64537,-33.43418],[-70.64573,-33.43485],[-70.64339,-33.43592]]]},"properties":{"COD_MZN":"13101011001004","BARRIO":"SANTA LUCIA FORESTAL","TERRITORIO":"NORORIENTE","COMUNA":"SANTIAGO"}},
{"type":"Feature","geometry":{"type":"Polygon","coordinates":[[[-70.64454,-33.43567],[-70.64458,-33.43548],[-70.64584,-33.43493],[-70.64454,-33.43567]]]},"properties":{"COD_MZN":"13101011001007","BARRIO":"SANTA LUCIA FORESTAL","TERRITORIO":"NORORIENTE","COMUNA":"SANTIAGO"}},
{"type":"Feature","geometry":{"type":"Polygon","coordinates":[[[-70.6434,-33.43638],[-70.64325,-33.43607],[-70.64331,-33.43606],[-70.64344,-33.43635],[-70.6434,-33.43638]]]},"properties":{"COD_MZN":"13101011001010","BARRIO":"SANTA LUCIA FORESTAL","TERRITORIO":"NORORIENTE","COMUNA":"SANTIAGO"}},
{"type":"Feature","geometry":{"type":"Polygon","coordinates":[[[-70.64801,-33.43287],[-70.64843,-33.4327],[-70.64852,-33.43279],[-70.64801,-33.43287]]]},"properties":{"COD_MZN":"13101011002001","BARRIO":"SANTA LUCIA FORESTAL","TERRITORIO":"NORORIENTE","COMUNA":"SANTIAGO"}},
{"type":"Feature","geometry":{"type":"Polygon","coordinates":[[[-70.64627,-33.43321],[-70.64776,-33.43286],[-70.64785,-33.43295],[-70.64627,-33.43321]]]},"properties":{"COD_MZN":"13101011002002","BARRIO":"SANTA LUCIA FORESTAL","TERRITORIO":"NORORIENTE","COMUNA":"SANTIAGO"}},
{"type":"Feature","geometry":{"type":"Polygon","coordinates":[[[-70.6481,-33.43328],[-70.64808,-33.43319],[-70.64861,-33.43306],[-70.64854,-33.43319],[-70.6481,-33.43328]]]},"properties":{"COD_MZN":"13101011002003","BARRIO":"SANTA LUCIA FORESTAL","TERRITORIO":"NORORIENTE","COMUNA":"SANTIAGO"}},
{"type":"Feature","geometry":{"type":"Polygon","coordinates":[[[-70.64553,-33.43399],[-70.64543,-33.4338],[-70.64792,-33.43322],[-70.64789,-33.43343],[-70.64553,-33.43399]]]},"properties":{"COD_MZN":"13101011002004","BARRIO":"SANTA LUCIA FORESTAL","TERRITORIO":"NORORIENTE","COMUNA":"SANTIAGO"}},
{"type":"Feature","geometry":{"type":"Polygon","coordinates":[[[-70.64599,-33.43472],[-70.64556,-33.43413],[-70.64787,-33.4336],[-70.6476,-33.43409],[-70.64599,-33.43472]]]},"properties":{"COD_MZN":"13101011002005","BARRIO":"SANTA LUCIA FORESTAL","TERRITORIO":"NORORIENTE","COMUNA":"SANTIAGO"}},
{"type":"Feature","geometry":{"type":"Polygon","coordinates":[[[-70.64461,-33.44148],[-70.64464,-33.44142],[-70.64471,-33.44147],[-70.64461,-33.44148]]]},"properties":{"COD_MZN":"13101011004009","BARRIO":"SANTA LUCIA FORESTAL","TERRITORIO":"NORORIENTE","COMUNA":"SANTIAGO"}},
{"type":"Feature","geometry":{"type":"Polygon","coordinates":[[[-70.6448,-33.44231],[-70.64419,-33.44214],[-70.64453,-33.44159],[-70.64504,-33.44159],[-70.6448,-33.44231]]]},"properties":{"COD_MZN":"13101011004010","BARRIO":"SANTA LUCIA FORESTAL","TERRITORIO":"NORORIENTE","COMUNA":"SANTIAGO"}},
{"type":"Feature","geometry":{"type":"Polygon","coordinates":[[[-70.64615,-33.44264],[-70.64497,-33.44231],[-70.64523,-33.4415],[-70.64639,-33.44165],[-70.64615,-33.44264]]]},"properties":{"COD_MZN":"13101011004011","BARRIO":"SANTA LUCIA FORESTAL","TERRITORIO":"NORORIENTE","COMUNA":"SANTIAGO"}},
{"type":"Feature","geometry":{"type":"Polygon","coordinates":[[[-70.64813,-33.43353],[-70.64863,-33.43339],[-70.64873,-33.43381],[-70.64795,-33.43399],[-70.64813,-33.43353]]]},"properties":{"COD_MZN":"13101021001018","BARRIO":"SANTA LUCIA FORESTAL","TERRITORIO":"NORORIENTE","COMUNA":"SANTIAGO"}},
{"type":"Feature","geometry":{"type":"Polygon","coordinates":[[[-70.64776,-33.43407],[-70.64781,-33.43398],[-70.64791,-33.43404],[-70.64776,-33.43407]]]},"properties":{"COD_MZN":"13101021001020","BARRIO":"SANTA LUCIA FORESTAL","TERRITORIO":"NORORIENTE","COMUNA":"SANTIAGO"}},
{"type":"Feature","geometry":{"type":"Polygon","coordinates":[[[-70.65165,-33.43202],[-70.65169,-33.43194],[-70.65226,-33.43179],[-70.65273,-33.43172],[-70.65278,-33.4318],[-70.65165,-33.43202]]]},"properties":{"COD_MZN":"13101021001003","BARRIO":"CENTRO HISTORICO","TERRITORIO":"NORORIENTE","COMUNA":"SANTIAGO"}},
{"type":"Feature","geometry":{"type":"Polygon","coordinates":[[[-70.65035,-33.4323],[-70.65144,-33.43202],[-70.65153,-33.43207],[-70.65059,-33.43229],[-70.65035,-33.4323]]]},"properties":{"COD_MZN":"13101021001005","BARRIO":"CENTRO HISTORICO","TERRITORIO":"NORORIENTE","COMUNA":"SANTIAGO"}},
{"type":"Feature","geometry":{"type":"Polygon","coordinates":[[[-70.65318,-33.43272],[-70.65296,-33.43207],[-70.65299,-33.43209],[-70.65316,-33.4326],[-70.65318,-33.43272]]]},"properties":{"COD_MZN":"13101021001006","BARRIO":"CENTRO HISTORICO","TERRITORIO":"NORORIENTE","COMUNA":"SANTIAGO"}},
{"type":"Feature","geometry":{"type":"Polygon","coordinates":[[[-70.65306,-33.43277],[-70.6518,-33.4326],[-70.65284,-33.43209],[-70.65306,-33.43277]]]},"properties":{"COD_MZN":"13101021001007","BARRIO":"CENTRO HISTORICO","TERRITORIO":"NORORIENTE","COMUNA":"SANTIAGO"}},
{"type":"Feature","geometry":{"type":"Polygon","coordinates":[[[-70.64877,-33.43269],[-70.6502,-33.43231],[-70.65023,-33.4324],[-70.64877,-33.43269]]]},"properties":{"COD_MZN":"13101021001008","BARRIO":"CENTRO HISTORICO","TERRITORIO":"NORORIENTE","COMUNA":"SANTIAGO"}},
{"type":"Feature","geometry":{"type":"Polygon","coordinates":[[[-70.65047,-33.43269],[-70.65159,-33.43239],[-70.65158,-33.43254],[-70.65051,-33.43281],[-70.65047,-33.43269]]]},"properties":{"COD_MZN":"13101021001009","BARRIO":"CENTRO HISTORICO","TERRITORIO":"NORORIENTE","COMUNA":"SANTIAGO"}},
{"type":"Feature","geometry":{"type":"Polygon","coordinates":[[[-70.6535,-33.4329],[-70.6546,-33.43264],[-70.65454,-33.43313],[-70.6535,-33.4329]]]},"properties":{"COD_MZN":"13101021001011","BARRIO":"CENTRO HISTORICO","TERRITORIO":"NORORIENTE","COMUNA":"SANTIAGO"}},
{"type":"Feature","geometry":{"type":"Polygon","coordinates":[[[-70.64899,-33.43315],[-70.65031,-33.43267],[-70.65037,-33.43284],[-70.64899,-33.43315]]]},"properties":{"COD_MZN":"13101021001012","BARRIO":"CENTRO HISTORICO","TERRITORIO":"NORORIENTE","COMUNA":"SANTIAGO"}},
{"type":"Feature","geometry":{"type":"Polygon","coordinates":[[[-70.65152,-33.43301],[-70.65164,-33.43271],[-70.65188,-33.43292],[-70.65152,-33.43301]]]},"properties":{"COD_MZN":"13101021001013","BARRIO":"CENTRO HISTORICO","TERRITORIO":"NORORIENTE","COMUNA":"SANTIAGO"}},
{"type":"Feature","geometry":{"type":"Polygon","coordinates":[[[-70.64907,-33.43346],[-70.65131,-33.43278],[-70.65142,-33.43307],[-70.64941,-33.43362],[-70.64907,-33.43346]]]},"properties":{"COD_MZN":"13101021001014","BARRIO":"CENTRO HISTORICO","TERRITORIO":"NORORIENTE","COMUNA":"SANTIAGO"}},
{"type":"Feature","geometry":{"type":"Polygon","coordinates":[[[-70.65724,-33.4344],[-70.65606,-33.43436],[-70.65605,-33.4342],[-70.65723,-33.43425],[-70.65724,-33.4344]]]},"properties":{"COD_MZN":"13101021001021","BARRIO":"CENTRO HISTORICO","TERRITORIO":"NORORIENTE","COMUNA":"SANTIAGO"}},
{"type":"Feature","geometry":{"type":"Polygon","coordinates":[[[-70.65086,-33.43419],[-70.65041,-33.43352],[-70.65163,-33.43321],[-70.6516,-33.43403],[-70.65086,-33.43419]]]},"properties":{"COD_MZN":"13101021004003","BARRIO":"CENTRO HISTORICO","TERRITORIO":"NORORIENTE","COMUNA":"SANTIAGO"}},
{"type":"Feature","geometry":{"type":"Polygon","coordinates":[[[-70.65305,-33.4352],[-70.6531,-33.43439],[-70.65352,-33.43436],[-70.65335,-33.43525],[-70.65305,-33.4352]]]},"properties":{"COD_MZN":"13101021004008","BARRIO":"CENTRO HISTORICO","TERRITORIO":"NORORIENTE","COMUNA":"SANTIAGO"}},
{"type":"Feature","geometry":{"type":"Polygon","coordinates":[[[-70.65004,-33.43559],[-70.64955,-33.43469],[-70.65018,-33.43464],[-70.65004,-33.43559]]]},"properties":{"COD_MZN":"13101021004010","BARRIO":"CENTRO HISTORICO","TERRITORIO":"NORORIENTE","COMUNA":"SANTIAGO"}},
{"type":"Feature","geometry":{"type":"Polygon","coordinates":[[[-70.65381,-33.43989],[-70.65387,-33.43885],[-70.65455,-33.43892],[-70.6544,-33.4399],[-70.65381,-33.43989]]]},"properties":{"COD_MZN":"13101021005006","BARRIO":"CENTRO HISTORICO","TERRITORIO":"NORORIENTE","COMUNA":"SANTIAGO"}},
{"type":"Feature","geometry":{"type":"Polygon","coordinates":[[[-70.65541,-33.44004],[-70.65532,-33.43973],[-70.65575,-33.43978],[-70.65571,-33.44007],[-70.65541,-33.44004]]]},"properties":{"COD_MZN":"13101021005014","BARRIO":"CENTRO HISTORICO","TERRITORIO":"NORORIENTE","COMUNA":"SANTIAGO"}},
{"type":"Feature","geometry":{"type":"Polygon","coordinates":[[[-70.64935,-33.44121],[-70.6494,-33.44076],[-70.64986,-33.44073],[-70.64984,-33.44123],[-70.64935,-33.44121]]]},"properties":{"COD_MZN":"13101021005023","BARRIO":"CENTRO HISTORICO","TERRITORIO":"NORORIENTE","COMUNA":"SANTIAGO"}},
{"type":"Feature","geometry":{"type":"Polygon","coordinates":[[[-70.65149,-33.44127],[-70.6508,-33.4412],[-70.65092,-33.44084],[-70.65202,-33.44094],[-70.65149,-33.44127]]]},"properties":{"COD_MZN":"13101021005025","BARRIO":"CENTRO HISTORICO","TERRITORIO":"NORORIENTE","COMUNA":"SANTIAGO"}},
{"type":"Feature","geometry":{"type":"Polygon","coordinates":[[[-70.65354,-33.44118],[-70.65479,-33.44123],[-70.65452,-33.44226],[-70.65342,-33.44215],[-70.65354,-33.44118]]]},"properties":{"COD_MZN":"13101021005027","BARRIO":"CENTRO HISTORICO","TERRITORIO":"NORORIENTE","COMUNA":"SANTIAGO"}},
{"type":"Feature","geometry":{"type":"Polygon","coordinates":[[[-70.64967,-33.44182],[-70.64926,-33.44174],[-70.64932,-33.44128],[-70.6498,-33.4413],[-70.64967,-33.44182]]]},"properties":{"COD_MZN":"13101021005030","BARRIO":"CENTRO HISTORICO","TERRITORIO":"NORORIENTE","COMUNA":"SANTIAGO"}},
{"type":"Feature","geometry":{"type":"Polygon","coordinates":[[[-70.65538,-33.44232],[-70.6548,-33.44227],[-70.65488,-33.44176],[-70.65554,-33.44186],[-70.65538,-33.44232]]]},"properties":{"COD_MZN":"13101021005034","BARRIO":"CENTRO HISTORICO","TERRITORIO":"NORORIENTE","COMUNA":"SANTIAGO"}},
{"type":"Feature","geometry":{"type":"Polygon","coordinates":[[[-70.64961,-33.44228],[-70.64921,-33.44224],[-70.64923,-33.4419],[-70.64969,-33.44189],[-70.64961,-33.44228]]]},"properties":{"COD_MZN":"13101021005035","BARRIO":"CENTRO HISTORICO","TERRITORIO":"NORORIENTE","COMUNA":"SANTIAGO"}},
{"type":"Feature","geometry":{"type":"Polygon","coordinates":[[[-70.65579,-33.44189],[-70.65607,-33.44236],[-70.65551,-33.44236],[-70.65579,-33.44189]]]},"properties":{"COD_MZN":"13101021005036","BARRIO":"CENTRO HISTORICO","TERRITORIO":"NORORIENTE","COMUNA":"SANTIAGO"}},
{"type":"Feature","geometry":{"type":"Polygon","coordinates":[[[-70.65117,-33.44269],[-70.65082,-33.44199],[-70.65179,-33.44207],[-70.65117,-33.44269]]]},"properties":{"COD_MZN":"13101021005038","BARRIO":"CENTRO HISTORICO","TERRITORIO":"NORORIENTE","COMUNA":"SANTIAGO"}},
{"type":"Feature","geometry":{"type":"Polygon","coordinates":[[[-70.65408,-33.44431],[-70.65309,-33.44408],[-70.65337,-33.44227],[-70.6545,-33.44234],[-70.65408,-33.44431]]]},"properties":{"COD_MZN":"13101021005041","BARRIO":"CENTRO HISTORICO","TERRITORIO":"NORORIENTE","COMUNA":"SANTIAGO"}},
{"type":"Feature","geometry":{"type":"Polygon","coordinates":[[[-70.65162,-33.44303],[-70.65123,-33.44274],[-70.65169,-33.44234],[-70.65162,-33.44303]]]},"properties":{"COD_MZN":"13101021005042","BARRIO":"CENTRO HISTORICO","TERRITORIO":"NORORIENTE","COMUNA":"SANTIAGO"}},
{"type":"Feature","geometry":{"type":"Polygon","coordinates":[[[-70.65158,-33.44384],[-70.65109,-33.44366],[-70.65116,-33.44312],[-70.65174,-33.44313],[-70.65158,-33.44384]]]},"properties":{"COD_MZN":"13101021005045","BARRIO":"CENTRO HISTORICO","TERRITORIO":"NORORIENTE","COMUNA":"SANTIAGO"}},
{"type":"Feature","geometry":{"type":"Polygon","coordinates":[[[-70.6548,-33.44448],[-70.65438,-33.44439],[-70.65448,-33.44343],[-70.6551,-33.44355],[-70.6548,-33.44448]]]},"properties":{"COD_MZN":"13101021005046","BARRIO":"CENTRO HISTORICO","TERRITORIO":"NORORIENTE","COMUNA":"SANTIAGO"}},
{"type":"Feature","geometry":{"type":"Polygon","coordinates":[[[-70.65115,-33.4373],[-70.64998,-33.43706],[-70.65018,-33.4361],[-70.65134,-33.43623],[-70.65115,-33.4373]]]},"properties":{"COD_MZN":"13101021008001","BARRIO":"CENTRO HISTORICO","TERRITORIO":"NORORIENTE","COMUNA":"SANTIAGO"}},
{"type":"Feature","geometry":{"type":"Polygon","coordinates":[[[-70.65273,-33.43748],[-70.65275,-33.43695],[-70.65348,-33.43701],[-70.6534,-33.43755],[-70.65273,-33.43748]]]},"properties":{"COD_MZN":"13101021008004","BARRIO":"CENTRO HISTORICO","TERRITORIO":"NORORIENTE","COMUNA":"SANTIAGO"}},
{"type":"Feature","geometry":{"type":"Polygon","coordinates":[[[-70.6509,-33.43843],[-70.64977,-33.43824],[-70.65001,-33.43726],[-70.65121,-33.43745],[-70.6509,-33.43843]]]},"properties":{"COD_MZN":"13101021008005","BARRIO":"CENTRO HISTORICO","TERRITORIO":"NORORIENTE","COMUNA":"SANTIAGO"}},
{"type":"Feature","geometry":{"type":"Polygon","coordinates":[[[-70.65374,-33.43872],[-70.65254,-33.43853],[-70.65272,-33.43757],[-70.6539,-33.4377],[-70.65374,-33.43872]]]},"properties":{"COD_MZN":"13101021008007","BARRIO":"CENTRO HISTORICO","TERRITORIO":"NORORIENTE","COMUNA":"SANTIAGO"}},
{"type":"Feature","geometry":{"type":"Polygon","coordinates":[[[-70.65751,-33.43062],[-70.65969,-33.43008],[-70.65993,-33.43008],[-70.65751,-33.43066],[-70.65751,-33.43062]]]},"properties":{"COD_MZN":"13101031001002","BARRIO":"SANTA ANA","TERRITORIO":"NORORIENTE","COMUNA":"SANTIAGO"}},
{"type":"Feature","geometry":{"type":"Polygon","coordinates":[[[-70.6575,-33.4318],[-70.65751,-33.43096],[-70.66049,-33.43037],[-70.66064,-33.43084],[-70.6575,-33.4318]]]},"properties":{"COD_MZN":"13101031001004","BARRIO":"SANTA ANA","TERRITORIO":"NORORIENTE","COMUNA":"SANTIAGO"}},
{"type":"Feature","geometry":{"type":"Polygon","coordinates":[[[-70.65955,-33.43136],[-70.66066,-33.43101],[-70.66052,-33.43159],[-70.66043,-33.43143],[-70.66017,-33.43137],[-70.65955,-33.43136]]]},"properties":{"COD_MZN":"13101031001006","BARRIO":"SANTA ANA","TERRITORIO":"NORORIENTE","COMUNA":"SANTIAGO"}},
{"type":"Feature","geometry":{"type":"Polygon","coordinates":[[[-70.65924,-33.43194],[-70.65897,-33.43165],[-70.65925,-33.43159],[-70.65924,-33.43194]]]},"properties":{"COD_MZN":"13101031001007","BARRIO":"SANTA ANA","TERRITORIO":"NORORIENTE","COMUNA":"SANTIAGO"}},
{"type":"Feature","geometry":{"type":"Polygon","coordinates":[[[-70.66045,-33.43254],[-70.66038,-33.4324],[-70.66054,-33.43227],[-70.66045,-33.43254]]]},"properties":{"COD_MZN":"13101031001009","BARRIO":"SANTA ANA","TERRITORIO":"NORORIENTE","COMUNA":"SANTIAGO"}},
{"type":"Feature","geometry":{"type":"Polygon","coordinates":[[[-70.65757,-33.43205],[-70.65875,-33.43164],[-70.65891,-33.43196],[-70.65757,-33.43205]]]},"properties":{"COD_MZN":"13101031001010","BARRIO":"SANTA ANA","TERRITORIO":"NORORIENTE","COMUNA":"SANTIAGO"}},
{"type":"Feature","geometry":{"type":"Polygon","coordinates":[[[-70.66015,-33.43447],[-70.66012,-33.43442],[-70.66032,-33.43308],[-70.6603,-33.43266],[-70.6604,-33.43258],[-70.66032,-33.43354],[-70.66015,-33.43447]]]},"properties":{"COD_MZN":"13101031001013","BARRIO":"SANTA ANA","TERRITORIO":"NORORIENTE","COMUNA":"SANTIAGO"}},
{"type":"Feature","geometry":{"type":"Polygon","coordinates":[[[-70.66039,-33.43462],[-70.66017,-33.43461],[-70.66007,-33.43509],[-70.65997,-33.43526],[-70.66007,-33.43463],[-70.66012,-33.4346],[-70.66039,-33.43461],[-70.66039,-33.43462]]]},"properties":{"COD_MZN":"13101031003002","BARRIO":"SANTA ANA","TERRITORIO":"NORORIENTE","COMUNA":"SANTIAGO"}},
{"type":"Feature","geometry":{"type":"Polygon","coordinates":[[[-70.65979,-33.43654],[-70.65982,-33.43625],[-70.65988,-33.43616],[-70.65981,-33.43653],[-70.65979,-33.43654]]]},"properties":{"COD_MZN":"13101031003005","BARRIO":"SANTA ANA","TERRITORIO":"NORORIENTE","COMUNA":"SANTIAGO"}},
{"type":"Feature","geometry":{"type":"Polygon","coordinates":[[[-70.65975,-33.43709],[-70.65978,-33.43685],[-70.65988,-33.43656],[-70.65997,-33.43602],[-70.65999,-33.43602],[-70.6599,-33.43663],[-70.65982,-33.4371],[-70.65975,-33.43709]]]},"properties":{"COD_MZN":"13101031003006","BARRIO":"SANTA ANA","TERRITORIO":"NORORIENTE","COMUNA":"SANTIAGO"}},
{"type":"Feature","geometry":{"type":"Polygon","coordinates":[[[-70.65301,-33.4317],[-70.65338,-33.43159],[-70.6559,-33.43099],[-70.65728,-33.43067],[-70.6575,-33.43067],[-70.65302,-33.43174],[-70.65301,-33.4317]]]},"properties":{"COD_MZN":"13101021001001","BARRIO":"CENTRO HISTORICO","TERRITORIO":"NORORIENTE","COMUNA":"SANTIAGO"}},
{"type":"Feature","geometry":{"type":"Polygon","coordinates":[[[-70.65345,-33.43274],[-70.65356,-33.43185],[-70.6575,-33.43096],[-70.6575,-33.43184],[-70.65345,-33.43274]]]},"properties":{"COD_MZN":"13101021001002","BARRIO":"CENTRO HISTORICO","TERRITORIO":"NORORIENTE","COMUNA":"SANTIAGO"}},
{"type":"Feature","geometry":{"type":"Polygon","coordinates":[[[-70.6596,-33.43823],[-70.65961,-33.43781],[-70.65969,-33.43731],[-70.65979,-33.43723],[-70.6596,-33.43823]]]},"properties":{"COD_MZN":"13101031003009","BARRIO":"SANTA ANA","TERRITORIO":"NORORIENTE","COMUNA":"SANTIAGO"}},
{"type":"Feature","geometry":{"type":"Polygon","coordinates":[[[-70.6595,-33.43927],[-70.65948,-33.4392],[-70.65952,-33.43881],[-70.65959,-33.43831],[-70.65962,-33.4383],[-70.65956,-33.43863],[-70.6595,-33.43927]]]},"properties":{"COD_MZN":"13101031004003","BARRIO":"SANTA ANA","TERRITORIO":"NORORIENTE","COMUNA":"SANTIAGO"}},
{"type":"Feature","geometry":{"type":"Polygon","coordinates":[[[-70.65975,-33.44155],[-70.65937,-33.44062],[-70.65954,-33.44056],[-70.65975,-33.44155]]]},"properties":{"COD_MZN":"13101031004007","BARRIO":"SANTA ANA","TERRITORIO":"NORORIENTE","COMUNA":"SANTIAGO"}},
{"type":"Feature","geometry":{"type":"Polygon","coordinates":[[[-70.66003,-33.44283],[-70.65996,-33.4428],[-70.65979,-33.4419],[-70.66008,-33.44283],[-70.66003,-33.44283]]]},"properties":{"COD_MZN":"13101031006005","BARRIO":"SANTA ANA","TERRITORIO":"NORORIENTE","COMUNA":"SANTIAGO"}},
{"type":"Feature","geometry":{"type":"Polygon","coordinates":[[[-70.65899,-33.44272],[-70.65914,-33.44181],[-70.65917,-33.44183],[-70.65913,-33.44199],[-70.65902,-33.4426],[-70.65899,-33.44272]]]},"properties":{"COD_MZN":"13101031006006","BARRIO":"SANTA ANA","TERRITORIO":"NORORIENTE","COMUNA":"SANTIAGO"}},
{"type":"Feature","geometry":{"type":"Polygon","coordinates":[[[-70.6606,-33.44474],[-70.66033,-33.44411],[-70.66048,-33.44378],[-70.66061,-33.44452],[-70.6606,-33.44474]]]},"properties":{"COD_MZN":"13101031007005","BARRIO":"SANTA ANA","TERRITORIO":"NORORIENTE","COMUNA":"SANTIAGO"}},
{"type":"Feature","geometry":{"type":"Polygon","coordinates":[[[-70.65854,-33.44462],[-70.65851,-33.4446],[-70.65854,-33.4444],[-70.65858,-33.4444],[-70.65854,-33.44462]]]},"properties":{"COD_MZN":"13101031007008","BARRIO":"SANTA ANA","TERRITORIO":"NORORIENTE","COMUNA":"SANTIAGO"}},
{"type":"Feature","geometry":{"type":"Polygon","coordinates":[[[-70.65871,-33.44438],[-70.65878,-33.44435],[-70.65871,-33.4448],[-70.65866,-33.44473],[-70.6587,-33.44472],[-70.65875,-33.44439],[-70.65871,-33.44438]]]},"properties":{"COD_MZN":"13101031007009","BARRIO":"SANTA ANA","TERRITORIO":"NORORIENTE","COMUNA":"SANTIAGO"}},
{"type":"Feature","geometry":{"type":"Polygon","coordinates":[[[-70.65867,-33.44506],[-70.65862,-33.44499],[-70.65868,-33.44501],[-70.65867,-33.44506]]]},"properties":{"COD_MZN":"13101031007010","BARRIO":"SANTA ANA","TERRITORIO":"NORORIENTE","COMUNA":"SANTIAGO"}},
{"type":"Feature","geometry":{"type":"Polygon","coordinates":[[[-70.66045,-33.42974],[-70.66054,-33.42962],[-70.66079,-33.42996],[-70.66052,-33.42998],[-70.66045,-33.42974]]]},"properties":{"COD_MZN":"13101031001001","BARRIO":"SANTA ANA","TERRITORIO":"NORORIENTE","COMUNA":"SANTIAGO"}},
{"type":"Feature","geometry":{"type":"Polygon","coordinates":[[[-70.66073,-33.43069],[-70.66062,-33.43034],[-70.6609,-33.43028],[-70.66104,-33.43072],[-70.66073,-33.43069]]]},"properties":{"COD_MZN":"13101031001003","BARRIO":"SANTA ANA","TERRITORIO":"NORORIENTE","COMUNA":"SANTIAGO"}},
{"type":"Feature","geometry":{"type":"Polygon","coordinates":[[[-70.66071,-33.43198],[-70.66079,-33.43097],[-70.66107,-33.43108],[-70.66071,-33.43198]]]},"properties":{"COD_MZN":"13101031001005","BARRIO":"SANTA ANA","TERRITORIO":"NORORIENTE","COMUNA":"SANTIAGO"}},
{"type":"Feature","geometry":{"type":"Polygon","coordinates":[[[-70.65975,-33.43939],[-70.65953,-33.43937],[-70.65944,-33.43938],[-70.65946,-33.43935],[-70.65976,-33.43938],[-70.65975,-33.43939]]]},"properties":{"COD_MZN":"13101031004006","BARRIO":"SANTA ANA","TERRITORIO":"NORORIENTE","COMUNA":"SANTIAGO"}},
{"type":"Feature","geometry":{"type":"Polygon","coordinates":[[[-70.66005,-33.4417],[-70.65989,-33.44169],[-70.65978,-33.44174],[-70.65977,-33.44163],[-70.66004,-33.44165],[-70.66005,-33.4417]]]},"properties":{"COD_MZN":"13101031006003","BARRIO":"SANTA ANA","TERRITORIO":"NORORIENTE","COMUNA":"SANTIAGO"}},
{"type":"Feature","geometry":{"type":"Polygon","coordinates":[[[-70.66023,-33.4454],[-70.6603,-33.44439],[-70.66057,-33.44493],[-70.66059,-33.44571],[-70.66013,-33.44575],[-70.66023,-33.4454]]]},"properties":{"COD_MZN":"13101031007007","BARRIO":"SANTA ANA","TERRITORIO":"NORORIENTE","COMUNA":"SANTIAGO"}},
{"type":"Feature","geometry":{"type":"Polygon","coordinates":[[[-70.64239,-33.44043],[-70.64273,-33.43838],[-70.64337,-33.43803],[-70.64464,-33.44047],[-70.64411,-33.44211],[-70.64184,-33.4409],[-70.64239,-33.44043]]]},"properties":{"COD_MZN":"13101011004003","BARRIO":"SANTA LUCIA FORESTAL","TERRITORIO":"NORORIENTE","COMUNA":"SANTIAGO"}},
{"type":"Feature","geometry":{"type":"Polygon","coordinates":[[[-70.64332,-33.4379],[-70.64321,-33.43789],[-70.64331,-33.43773],[-70.64337,-33.43775],[-70.64332,-33.4379]]]},"properties":{"COD_MZN":"13101011004001","BARRIO":"SANTA LUCIA FORESTAL","TERRITORIO":"NORORIENTE","COMUNA":"SANTIAGO"}},
{"type":"Feature","geometry":{"type":"Polygon","coordinates":[[[-70.64069,-33.43679],[-70.64292,-33.43612],[-70.6429,-33.43652],[-70.64069,-33.43679]]]},"properties":{"COD_MZN":"13101011001011","BARRIO":"SANTA LUCIA FORESTAL","TERRITORIO":"NORORIENTE","COMUNA":"SANTIAGO"}},
{"type":"Feature","geometry":{"type":"Polygon","coordinates":[[[-70.64189,-33.43672],[-70.64333,-33.43656],[-70.64318,-33.4376],[-70.64189,-33.43672]]]},"properties":{"COD_MZN":"13101011001012","BARRIO":"SANTA LUCIA FORESTAL","TERRITORIO":"NORORIENTE","COMUNA":"SANTIAGO"}},
{"type":"Feature","geometry":{"type":"Polygon","coordinates":[[[-70.64258,-33.43835],[-70.64109,-33.43776],[-70.64134,-33.43725],[-70.64309,-33.43768],[-70.64258,-33.43835]]]},"properties":{"COD_MZN":"13101011001013","BARRIO":"SANTA LUCIA FORESTAL","TERRITORIO":"NORORIENTE","COMUNA":"SANTIAGO"}},
{"type":"Feature","geometry":{"type":"Polygon","coordinates":[[[-70.6411,-33.43796],[-70.64252,-33.43841],[-70.64228,-33.43946],[-70.64119,-33.43898],[-70.6411,-33.43796]]]},"properties":{"COD_MZN":"13101011001014","BARRIO":"SANTA LUCIA FORESTAL","TERRITORIO":"NORORIENTE","COMUNA":"SANTIAGO"}},
{"type":"Feature","geometry":{"type":"Polygon","coordinates":[[[-70.63536,-33.43692],[-70.63675,-33.43688],[-70.63657,-33.43738],[-70.63536,-33.43692]]]},"properties":{"COD_MZN":"13101011003004","BARRIO":"SANTA LUCIA FORESTAL","TERRITORIO":"NORORIENTE","COMUNA":"SANTIAGO"}},
{"type":"Feature","geometry":{"type":"Polygon","coordinates":[[[-70.63883,-33.43722],[-70.63775,-33.43715],[-70.63769,-33.43695],[-70.63881,-33.43695],[-70.63883,-33.43722]]]},"properties":{"COD_MZN":"13101011003005","BARRIO":"SANTA LUCIA FORESTAL","TERRITORIO":"NORORIENTE","COMUNA":"SANTIAGO"}},
{"type":"Feature","geometry":{"type":"Polygon","coordinates":[[[-70.63714,-33.43695],[-70.63759,-33.43695],[-70.63754,-33.43712],[-70.63714,-33.43695]]]},"properties":{"COD_MZN":"13101011003006","BARRIO":"SANTA LUCIA FORESTAL","TERRITORIO":"NORORIENTE","COMUNA":"SANTIAGO"}},
{"type":"Feature","geometry":{"type":"Polygon","coordinates":[[[-70.63895,-33.43743],[-70.64101,-33.43718],[-70.64103,-33.4381],[-70.63935,-33.43819],[-70.63895,-33.43743]]]},"properties":{"COD_MZN":"13101011003007","BARRIO":"SANTA LUCIA FORESTAL","TERRITORIO":"NORORIENTE","COMUNA":"SANTIAGO"}},
{"type":"Feature","geometry":{"type":"Polygon","coordinates":[[[-70.63702,-33.43764],[-70.63887,-33.43728],[-70.6382,-33.43832],[-70.63702,-33.43764]]]},"properties":{"COD_MZN":"13101011003008","BARRIO":"SANTA LUCIA FORESTAL","TERRITORIO":"NORORIENTE","COMUNA":"SANTIAGO"}},
{"type":"Feature","geometry":{"type":"Polygon","coordinates":[[[-70.63934,-33.4392],[-70.64098,-33.43827],[-70.64116,-33.43971],[-70.64069,-33.44012],[-70.63934,-33.4392]]]},"properties":{"COD_MZN":"13101011003009","BARRIO":"SANTA LUCIA FORESTAL","TERRITORIO":"NORORIENTE","COMUNA":"SANTIAGO"}},
{"type":"Feature","geometry":{"type":"Polygon","coordinates":[[[-70.64177,-33.44083],[-70.64086,-33.44023],[-70.64124,-33.43972],[-70.64127,-33.43909],[-70.64225,-33.43953],[-70.64177,-33.44083]]]},"properties":{"COD_MZN":"13101011003010","BARRIO":"SANTA LUCIA FORESTAL","TERRITORIO":"NORORIENTE","COMUNA":"SANTIAGO"}},
{"type":"Feature","geometry":{"type":"Polygon","coordinates":[[[-70.64359,-33.43624],[-70.64349,-33.43598],[-70.64434,-33.43559],[-70.64439,-33.43578],[-70.64359,-33.43624]]]},"properties":{"COD_MZN":"13101011001008","BARRIO":"SANTA LUCIA FORESTAL","TERRITORIO":"NORORIENTE","COMUNA":"SANTIAGO"}},
{"type":"Feature","geometry":{"type":"Polygon","coordinates":[[[-70.6463,-33.43472],[-70.64737,-33.43429],[-70.6474,-33.4346],[-70.6463,-33.43472]]]},"properties":{"COD_MZN":"13101011002006","BARRIO":"SANTA LUCIA FORESTAL","TERRITORIO":"NORORIENTE","COMUNA":"SANTIAGO"}},
{"type":"Feature","geometry":{"type":"Polygon","coordinates":[[[-70.64694,-33.43571],[-70.64624,-33.43482],[-70.64748,-33.43471],[-70.64694,-33.43571]]]},"properties":{"COD_MZN":"13101011002007","BARRIO":"SANTA LUCIA FORESTAL","TERRITORIO":"NORORIENTE","COMUNA":"SANTIAGO"}},
{"type":"Feature","geometry":{"type":"Polygon","coordinates":[[[-70.64584,-33.43555],[-70.64513,-33.4354],[-70.64586,-33.43499],[-70.64584,-33.43555]]]},"properties":{"COD_MZN":"13101011002008","BARRIO":"SANTA LUCIA FORESTAL","TERRITORIO":"NORORIENTE","COMUNA":"SANTIAGO"}},
{"type":"Feature","geometry":{"type":"Polygon","coordinates":[[[-70.64563,-33.43669],[-70.6444,-33.43656],[-70.64438,-33.43587],[-70.64588,-33.4357],[-70.64563,-33.43669]]]},"properties":{"COD_MZN":"13101011002009","BARRIO":"SANTA LUCIA FORESTAL","TERRITORIO":"NORORIENTE","COMUNA":"SANTIAGO"}},
{"type":"Feature","geometry":{"type":"Polygon","coordinates":[[[-70.64585,-33.43672],[-70.64594,-33.43571],[-70.64727,-33.43581],[-70.64709,-33.43686],[-70.64585,-33.43672]]]},"properties":{"COD_MZN":"13101011002010","BARRIO":"SANTA LUCIA FORESTAL","TERRITORIO":"NORORIENTE","COMUNA":"SANTIAGO"}},
{"type":"Feature","geometry":{"type":"Polygon","coordinates":[[[-70.64368,-33.43649],[-70.64435,-33.43589],[-70.64437,-33.43656],[-70.64368,-33.43649]]]},"properties":{"COD_MZN":"13101011002011","BARRIO":"SANTA LUCIA FORESTAL","TERRITORIO":"NORORIENTE","COMUNA":"SANTIAGO"}},
{"type":"Feature","geometry":{"type":"Polygon","coordinates":[[[-70.64403,-33.43895],[-70.6436,-33.43779],[-70.64548,-33.43798],[-70.64536,-33.43905],[-70.64403,-33.43895]]]},"properties":{"COD_MZN":"13101011004002","BARRIO":"SANTA LUCIA FORESTAL","TERRITORIO":"NORORIENTE","COMUNA":"SANTIAGO"}},
{"type":"Feature","geometry":{"type":"Polygon","coordinates":[[[-70.64405,-33.43911],[-70.64532,-33.43912],[-70.64537,-33.43948],[-70.64432,-33.43961],[-70.64405,-33.43911]]]},"properties":{"COD_MZN":"13101011004004","BARRIO":"SANTA LUCIA FORESTAL","TERRITORIO":"NORORIENTE","COMUNA":"SANTIAGO"}},
{"type":"Feature","geometry":{"type":"Polygon","coordinates":[[[-70.64549,-33.43918],[-70.64674,-33.43925],[-70.6466,-33.44033],[-70.64539,-33.44028],[-70.64549,-33.43918]]]},"properties":{"COD_MZN":"13101011004005","BARRIO":"SANTA LUCIA FORESTAL","TERRITORIO":"NORORIENTE","COMUNA":"SANTIAGO"}},
{"type":"Feature","geometry":{"type":"Polygon","coordinates":[[[-70.64477,-33.44022],[-70.64438,-33.43966],[-70.64535,-33.43961],[-70.64526,-33.44023],[-70.64477,-33.44022]]]},"properties":{"COD_MZN":"13101011004006","BARRIO":"SANTA LUCIA FORESTAL","TERRITORIO":"NORORIENTE","COMUNA":"SANTIAGO"}},
{"type":"Feature","geometry":{"type":"Polygon","coordinates":[[[-70.64477,-33.44138],[-70.64466,-33.44035],[-70.64524,-33.44039],[-70.64477,-33.44138]]]},"properties":{"COD_MZN":"13101011004007","BARRIO":"SANTA LUCIA FORESTAL","TERRITORIO":"NORORIENTE","COMUNA":"SANTIAGO"}},
{"type":"Feature","geometry":{"type":"Polygon","coordinates":[[[-70.64531,-33.44041],[-70.64653,-33.44046],[-70.64633,-33.44153],[-70.64514,-33.44137],[-70.64531,-33.44041]]]},"properties":{"COD_MZN":"13101011004008","BARRIO":"SANTA LUCIA FORESTAL","TERRITORIO":"NORORIENTE","COMUNA":"SANTIAGO"}},
{"type":"Feature","geometry":{"type":"Polygon","coordinates":[[[-70.64415,-33.43775],[-70.64345,-33.4376],[-70.64356,-33.43663],[-70.64432,-33.43666],[-70.64415,-33.43775]]]},"properties":{"COD_MZN":"13101011005001","BARRIO":"SANTA LUCIA FORESTAL","TERRITORIO":"NORORIENTE","COMUNA":"SANTIAGO"}},
{"type":"Feature","geometry":{"type":"Polygon","coordinates":[[[-70.64436,-33.43666],[-70.64566,-33.43676],[-70.64557,-33.43785],[-70.64421,-33.43774],[-70.64436,-33.43666]]]},"properties":{"COD_MZN":"13101011005002","BARRIO":"SANTA LUCIA FORESTAL","TERRITORIO":"NORORIENTE","COMUNA":"SANTIAGO"}},
{"type":"Feature","geometry":{"type":"Polygon","coordinates":[[[-70.64579,-33.43686],[-70.64712,-33.43701],[-70.64692,-33.43801],[-70.64566,-33.43786],[-70.64579,-33.43686]]]},"properties":{"COD_MZN":"13101011005003","BARRIO":"SANTA LUCIA FORESTAL","TERRITORIO":"NORORIENTE","COMUNA":"SANTIAGO"}},
{"type":"Feature","geometry":{"type":"Polygon","coordinates":[[[-70.64664,-33.43918],[-70.64556,-33.43905],[-70.6457,-33.438],[-70.64692,-33.43811],[-70.64664,-33.43918]]]},"properties":{"COD_MZN":"13101011005004","BARRIO":"SANTA LUCIA FORESTAL","TERRITORIO":"NORORIENTE","COMUNA":"SANTIAGO"}},
{"type":"Feature","geometry":{"type":"Polygon","coordinates":[[[-70.65725,-33.43419],[-70.65604,-33.43414],[-70.65608,-33.43326],[-70.65738,-33.43336],[-70.65725,-33.43419]]]},"properties":{"COD_MZN":"13101021001015","BARRIO":"CENTRO HISTORICO","TERRITORIO":"NORORIENTE","COMUNA":"SANTIAGO"}},
{"type":"Feature","geometry":{"type":"Polygon","coordinates":[[[-70.6546,-33.43381],[-70.65466,-33.43331],[-70.65487,-33.43326],[-70.65485,-33.43383],[-70.6546,-33.43381]]]},"properties":{"COD_MZN":"13101021001016","BARRIO":"CENTRO HISTORICO","TERRITORIO":"NORORIENTE","COMUNA":"SANTIAGO"}},
{"type":"Feature","geometry":{"type":"Polygon","coordinates":[[[-70.65487,-33.43435],[-70.6549,-33.43326],[-70.65592,-33.43332],[-70.65589,-33.43434],[-70.65487,-33.43435]]]},"properties":{"COD_MZN":"13101021001017","BARRIO":"CENTRO HISTORICO","TERRITORIO":"NORORIENTE","COMUNA":"SANTIAGO"}},
{"type":"Feature","geometry":{"type":"Polygon","coordinates":[[[-70.65457,-33.43433],[-70.65459,-33.43384],[-70.65485,-33.43386],[-70.65484,-33.43435],[-70.65457,-33.43433]]]},"properties":{"COD_MZN":"13101021001019","BARRIO":"CENTRO HISTORICO","TERRITORIO":"NORORIENTE","COMUNA":"SANTIAGO"}},
{"type":"Feature","geometry":{"type":"Polygon","coordinates":[[[-70.6557,-33.43555],[-70.65442,-33.4354],[-70.65452,-33.43441],[-70.65578,-33.43444],[-70.6557,-33.43555]]]},"properties":{"COD_MZN":"13101021001022","BARRIO":"CENTRO HISTORICO","TERRITORIO":"NORORIENTE","COMUNA":"SANTIAGO"}},
{"type":"Feature","geometry":{"type":"Polygon","coordinates":[[[-70.6571,-33.43567],[-70.65589,-33.43557],[-70.65594,-33.4345],[-70.65722,-33.4345],[-70.6571,-33.43567]]]},"properties":{"COD_MZN":"13101021001023","BARRIO":"CENTRO HISTORICO","TERRITORIO":"NORORIENTE","COMUNA":"SANTIAGO"}},
{"type":"Feature","geometry":{"type":"Polygon","coordinates":[[[-70.65715,-33.43313],[-70.65588,-33.43234],[-70.65742,-33.43198],[-70.65715,-33.43313]]]},"properties":{"COD_MZN":"13101021001004","BARRIO":"CENTRO HISTORICO","TERRITORIO":"NORORIENTE","COMUNA":"SANTIAGO"}},
{"type":"Feature","geometry":{"type":"Polygon","coordinates":[[[-70.65691,-33.43678],[-70.65575,-33.43659],[-70.65589,-33.43564],[-70.65705,-33.43573],[-70.65691,-33.43678]]]},"properties":{"COD_MZN":"13101021002001","BARRIO":"CENTRO HISTORICO","TERRITORIO":"NORORIENTE","COMUNA":"SANTIAGO"}},
{"type":"Feature","geometry":{"type":"Polygon","coordinates":[[[-70.65572,-33.43677],[-70.6569,-33.43686],[-70.65684,-33.43784],[-70.65561,-33.43778],[-70.65572,-33.43677]]]},"properties":{"COD_MZN":"13101021002002","BARRIO":"CENTRO HISTORICO","TERRITORIO":"NORORIENTE","COMUNA":"SANTIAGO"}},
{"type":"Feature","geometry":{"type":"Polygon","coordinates":[[[-70.65553,-33.43663],[-70.65427,-33.43648],[-70.65436,-33.43553],[-70.65568,-33.43562],[-70.65553,-33.43663]]]},"properties":{"COD_MZN":"13101021003001","BARRIO":"CENTRO HISTORICO","TERRITORIO":"NORORIENTE","COMUNA":"SANTIAGO"}},
{"type":"Feature","geometry":{"type":"Polygon","coordinates":[[[-70.6542,-33.43659],[-70.65555,-33.4367],[-70.65546,-33.43771],[-70.65409,-33.43762],[-70.6542,-33.43659]]]},"properties":{"COD_MZN":"13101021003002","BARRIO":"CENTRO HISTORICO","TERRITORIO":"NORORIENTE","COMUNA":"SANTIAGO"}},
{"type":"Feature","geometry":{"type":"Polygon","coordinates":[[[-70.65266,-33.43317],[-70.65313,-33.43317],[-70.6531,-33.43341],[-70.65216,-33.43342],[-70.65221,-33.43317],[-70.65266,-33.43317]]]},"properties":{"COD_MZN":"13101021004001","BARRIO":"CENTRO HISTORICO","TERRITORIO":"NORORIENTE","COMUNA":"SANTIAGO"}},
{"type":"Feature","geometry":{"type":"Polygon","coordinates":[[[-70.65177,-33.43326],[-70.65213,-33.43348],[-70.65313,-33.4335],[-70.653,-33.43428],[-70.65175,-33.43415],[-70.65177,-33.43326]]]},"properties":{"COD_MZN":"13101021004002","BARRIO":"CENTRO HISTORICO","TERRITORIO":"NORORIENTE","COMUNA":"SANTIAGO"}},
{"type":"Feature","geometry":{"type":"Polygon","coordinates":[[[-70.65436,-33.43433],[-70.65316,-33.43429],[-70.65325,-33.43322],[-70.65455,-33.43332],[-70.65436,-33.43433]]]},"properties":{"COD_MZN":"13101021004004","BARRIO":"CENTRO HISTORICO","TERRITORIO":"NORORIENTE","COMUNA":"SANTIAGO"}},
{"type":"Feature","geometry":{"type":"Polygon","coordinates":[[[-70.64952,-33.43457],[-70.64914,-33.43389],[-70.65032,-33.43364],[-70.65015,-33.43457],[-70.64952,-33.43457]]]},"properties":{"COD_MZN":"13101021004005","BARRIO":"CENTRO HISTORICO","TERRITORIO":"NORORIENTE","COMUNA":"SANTIAGO"}},
{"type":"Feature","geometry":{"type":"Polygon","coordinates":[[[-70.65422,-33.43537],[-70.65338,-33.43525],[-70.65355,-33.43436],[-70.6544,-33.43445],[-70.65422,-33.43537]]]},"properties":{"COD_MZN":"13101021004009","BARRIO":"CENTRO HISTORICO","TERRITORIO":"NORORIENTE","COMUNA":"SANTIAGO"}},
{"type":"Feature","geometry":{"type":"Polygon","coordinates":[[[-70.65046,-33.43496],[-70.65155,-33.43511],[-70.6514,-33.43612],[-70.65008,-33.43594],[-70.65046,-33.43496]]]},"properties":{"COD_MZN":"13101021004011","BARRIO":"CENTRO HISTORICO","TERRITORIO":"NORORIENTE","COMUNA":"SANTIAGO"}},
{"type":"Feature","geometry":{"type":"Polygon","coordinates":[[[-70.65265,-33.4363],[-70.65148,-33.43614],[-70.65161,-33.43515],[-70.65286,-33.43525],[-70.65265,-33.4363]]]},"properties":{"COD_MZN":"13101021004012","BARRIO":"CENTRO HISTORICO","TERRITORIO":"NORORIENTE","COMUNA":"SANTIAGO"}},
{"type":"Feature","geometry":{"type":"Polygon","coordinates":[[[-70.65287,-33.43632],[-70.65298,-33.43532],[-70.65421,-33.43547],[-70.65408,-33.43645],[-70.65287,-33.43632]]]},"properties":{"COD_MZN":"13101021004013","BARRIO":"CENTRO HISTORICO","TERRITORIO":"NORORIENTE","COMUNA":"SANTIAGO"}},
{"type":"Feature","geometry":{"type":"Polygon","coordinates":[[[-70.65287,-33.43518],[-70.65168,-33.43502],[-70.65173,-33.43433],[-70.65297,-33.43434],[-70.65287,-33.43518]]]},"properties":{"COD_MZN":"13101021004006","BARRIO":"CENTRO HISTORICO","TERRITORIO":"NORORIENTE","COMUNA":"SANTIAGO"}},
{"type":"Feature","geometry":{"type":"Polygon","coordinates":[[[-70.64802,-33.43932],[-70.64691,-33.43917],[-70.64716,-33.43815],[-70.64828,-33.43835],[-70.64802,-33.43932]]]},"properties":{"COD_MZN":"13101021005001","BARRIO":"CENTRO HISTORICO","TERRITORIO":"NORORIENTE","COMUNA":"SANTIAGO"}},
{"type":"Feature","geometry":{"type":"Polygon","coordinates":[[[-70.64941,-33.43945],[-70.64828,-33.43934],[-70.64838,-33.43834],[-70.64966,-33.43842],[-70.64941,-33.43945]]]},"properties":{"COD_MZN":"13101021005002","BARRIO":"CENTRO HISTORICO","TERRITORIO":"NORORIENTE","COMUNA":"SANTIAGO"}},
{"type":"Feature","geometry":{"type":"Polygon","coordinates":[[[-70.65078,-33.43958],[-70.64959,-33.43942],[-70.64981,-33.43839],[-70.65106,-33.43857],[-70.65078,-33.43958]]]},"properties":{"COD_MZN":"13101021005003","BARRIO":"CENTRO HISTORICO","TERRITORIO":"NORORIENTE","COMUNA":"SANTIAGO"}},
{"type":"Feature","geometry":{"type":"Polygon","coordinates":[[[-70.65218,-33.43972],[-70.65109,-33.43961],[-70.65116,-33.43862],[-70.65242,-33.43874],[-70.65218,-33.43972]]]},"properties":{"COD_MZN":"13101021005004","BARRIO":"CENTRO HISTORICO","TERRITORIO":"NORORIENTE","COMUNA":"SANTIAGO"}},
{"type":"Feature","geometry":{"type":"Polygon","coordinates":[[[-70.65508,-33.44001],[-70.65447,-33.43991],[-70.65463,-33.43895],[-70.65528,-33.43904],[-70.65508,-33.44001]]]},"properties":{"COD_MZN":"13101021005007","BARRIO":"CENTRO HISTORICO","TERRITORIO":"NORORIENTE","COMUNA":"SANTIAGO"}},
{"type":"Feature","geometry":{"type":"Polygon","coordinates":[[[-70.64784,-33.44048],[-70.64675,-33.44038],[-70.64694,-33.43927],[-70.64811,-33.43945],[-70.64784,-33.44048]]]},"properties":{"COD_MZN":"13101021005010","BARRIO":"CENTRO HISTORICO","TERRITORIO":"NORORIENTE","COMUNA":"SANTIAGO"}},
{"type":"Feature","geometry":{"type":"Polygon","coordinates":[[[-70.64924,-33.4406],[-70.64812,-33.4405],[-70.64828,-33.43941],[-70.64943,-33.43953],[-70.64924,-33.4406]]]},"properties":{"COD_MZN":"13101021005011","BARRIO":"CENTRO HISTORICO","TERRITORIO":"NORORIENTE","COMUNA":"SANTIAGO"}},
{"type":"Feature","geometry":{"type":"Polygon","coordinates":[[[-70.65576,-33.44008],[-70.6558,-33.43979],[-70.65657,-33.43987],[-70.65649,-33.44015],[-70.65576,-33.44008]]]},"properties":{"COD_MZN":"13101021005015","BARRIO":"CENTRO HISTORICO","TERRITORIO":"NORORIENTE","COMUNA":"SANTIAGO"}},
{"type":"Feature","geometry":{"type":"Polygon","coordinates":[[[-70.65373,-33.44003],[-70.65507,-33.44008],[-70.65489,-33.44109],[-70.65362,-33.44102],[-70.65373,-33.44003]]]},"properties":{"COD_MZN":"13101021005017","BARRIO":"CENTRO HISTORICO","TERRITORIO":"NORORIENTE","COMUNA":"SANTIAGO"}},
{"type":"Feature","geometry":{"type":"Polygon","coordinates":[[[-70.64698,-33.44159],[-70.6465,-33.44148],[-70.64667,-33.44053],[-70.64721,-33.44056],[-70.64698,-33.44159]]]},"properties":{"COD_MZN":"13101021005019","BARRIO":"CENTRO HISTORICO","TERRITORIO":"NORORIENTE","COMUNA":"SANTIAGO"}},
{"type":"Feature","geometry":{"type":"Polygon","coordinates":[[[-70.64841,-33.4412],[-70.64932,-33.44073],[-70.64918,-33.44174],[-70.64841,-33.4412]]]},"properties":{"COD_MZN":"13101021005022","BARRIO":"CENTRO HISTORICO","TERRITORIO":"NORORIENTE","COMUNA":"SANTIAGO"}},
{"type":"Feature","geometry":{"type":"Polygon","coordinates":[[[-70.64666,-33.44274],[-70.64648,-33.44168],[-70.64701,-33.44169],[-70.64666,-33.44274]]]},"properties":{"COD_MZN":"13101021005031","BARRIO":"CENTRO HISTORICO","TERRITORIO":"NORORIENTE","COMUNA":"SANTIAGO"}},
{"type":"Feature","geometry":{"type":"Polygon","coordinates":[[[-70.64755,-33.44294],[-70.64674,-33.44273],[-70.64705,-33.4417],[-70.6478,-33.44184],[-70.64755,-33.44294]]]},"properties":{"COD_MZN":"13101021005032","BARRIO":"CENTRO HISTORICO","TERRITORIO":"NORORIENTE","COMUNA":"SANTIAGO"}},
{"type":"Feature","geometry":{"type":"Polygon","coordinates":[[[-70.64814,-33.44262],[-70.64799,-33.44174],[-70.64915,-33.4419],[-70.64897,-33.44317],[-70.64814,-33.44262]]]},"properties":{"COD_MZN":"13101021005033","BARRIO":"CENTRO HISTORICO","TERRITORIO":"NORORIENTE","COMUNA":"SANTIAGO"}},
{"type":"Feature","geometry":{"type":"Polygon","coordinates":[[[-70.6509,-33.44372],[-70.65046,-33.44354],[-70.65067,-33.44207],[-70.65111,-33.44274],[-70.6509,-33.44372]]]},"properties":{"COD_MZN":"13101021005039","BARRIO":"CENTRO HISTORICO","TERRITORIO":"NORORIENTE","COMUNA":"SANTIAGO"}},
{"type":"Feature","geometry":{"type":"Polygon","coordinates":[[[-70.65514,-33.44344],[-70.6545,-33.44331],[-70.65466,-33.44241],[-70.65541,-33.4425],[-70.65514,-33.44344]]]},"properties":{"COD_MZN":"13101021005043","BARRIO":"CENTRO HISTORICO","TERRITORIO":"NORORIENTE","COMUNA":"SANTIAGO"}},
{"type":"Feature","geometry":{"type":"Polygon","coordinates":[[[-70.65576,-33.44352],[-70.65528,-33.44338],[-70.65548,-33.44247],[-70.65603,-33.44257],[-70.65576,-33.44352]]]},"properties":{"COD_MZN":"13101021005044","BARRIO":"CENTRO HISTORICO","TERRITORIO":"NORORIENTE","COMUNA":"SANTIAGO"}},
{"type":"Feature","geometry":{"type":"Polygon","coordinates":[[[-70.65553,-33.44466],[-70.65493,-33.44448],[-70.65516,-33.44357],[-70.6558,-33.44365],[-70.65553,-33.44466]]]},"properties":{"COD_MZN":"13101021005047","BARRIO":"CENTRO HISTORICO","TERRITORIO":"NORORIENTE","COMUNA":"SANTIAGO"}},
{"type":"Feature","geometry":{"type":"Polygon","coordinates":[[[-70.65562,-33.43949],[-70.6566,-33.4391],[-70.65658,-33.43984],[-70.65562,-33.43949]]]},"properties":{"COD_MZN":"13101021005008","BARRIO":"CENTRO HISTORICO","TERRITORIO":"NORORIENTE","COMUNA":"SANTIAGO"}},
{"type":"Feature","geometry":{"type":"Polygon","coordinates":[[[-70.65061,-33.44073],[-70.64947,-33.44062],[-70.64963,-33.43955],[-70.65083,-33.43967],[-70.65061,-33.44073]]]},"properties":{"COD_MZN":"13101021005012","BARRIO":"CENTRO HISTORICO","TERRITORIO":"NORORIENTE","COMUNA":"SANTIAGO"}},
{"type":"Feature","geometry":{"type":"Polygon","coordinates":[[[-70.65336,-33.44099],[-70.65223,-33.44088],[-70.65241,-33.43983],[-70.65356,-33.43994],[-70.65336,-33.44099]]]},"properties":{"COD_MZN":"13101021005005","BARRIO":"CENTRO HISTORICO","TERRITORIO":"NORORIENTE","COMUNA":"SANTIAGO"}},
{"type":"Feature","geometry":{"type":"Polygon","coordinates":[[[-70.64773,-33.44165],[-70.64711,-33.44156],[-70.64726,-33.44056],[-70.64797,-33.44064],[-70.64773,-33.44165]]]},"properties":{"COD_MZN":"13101021005020","BARRIO":"CENTRO HISTORICO","TERRITORIO":"NORORIENTE","COMUNA":"SANTIAGO"}},
{"type":"Feature","geometry":{"type":"Polygon","coordinates":[[[-70.65508,-33.44116],[-70.6553,-33.4401],[-70.65649,-33.44023],[-70.65632,-33.44124],[-70.65508,-33.44116]]]},"properties":{"COD_MZN":"13101021005018","BARRIO":"CENTRO HISTORICO","TERRITORIO":"NORORIENTE","COMUNA":"SANTIAGO"}},
{"type":"Feature","geometry":{"type":"Polygon","coordinates":[[[-70.64979,-33.44195],[-70.65036,-33.4435],[-70.64903,-33.44321],[-70.64917,-33.4423],[-70.64964,-33.44232],[-70.64979,-33.44195]]]},"properties":{"COD_MZN":"13101021005024","BARRIO":"CENTRO HISTORICO","TERRITORIO":"NORORIENTE","COMUNA":"SANTIAGO"}},
{"type":"Feature","geometry":{"type":"Polygon","coordinates":[[[-70.65282,-33.44408],[-70.65171,-33.44385],[-70.65199,-33.44214],[-70.65326,-33.4422],[-70.65282,-33.44408]]]},"properties":{"COD_MZN":"13101021005026","BARRIO":"CENTRO HISTORICO","TERRITORIO":"NORORIENTE","COMUNA":"SANTIAGO"}},
{"type":"Feature","geometry":{"type":"Polygon","coordinates":[[[-70.64737,-33.43588],[-70.64866,-33.43601],[-70.6484,-33.43699],[-70.64727,-33.43688],[-70.64737,-33.43588]]]},"properties":{"COD_MZN":"13101021006001","BARRIO":"CENTRO HISTORICO","TERRITORIO":"NORORIENTE","COMUNA":"SANTIAGO"}},
{"type":"Feature","geometry":{"type":"Polygon","coordinates":[[[-70.64723,-33.43806],[-70.64726,-33.43698],[-70.64842,-33.43708],[-70.64832,-33.4381],[-70.64723,-33.43806]]]},"properties":{"COD_MZN":"13101021006002","BARRIO":"CENTRO HISTORICO","TERRITORIO":"NORORIENTE","COMUNA":"SANTIAGO"}},
{"type":"Feature","geometry":{"type":"Polygon","coordinates":[[[-70.64803,-33.43417],[-70.64885,-33.43396],[-70.64882,-33.43456],[-70.64803,-33.43417]]]},"properties":{"COD_MZN":"13101021007001","BARRIO":"CENTRO HISTORICO","TERRITORIO":"NORORIENTE","COMUNA":"SANTIAGO"}},
{"type":"Feature","geometry":{"type":"Polygon","coordinates":[[[-70.64902,-33.43455],[-70.64904,-33.43415],[-70.64929,-33.43452],[-70.64902,-33.43455]]]},"properties":{"COD_MZN":"13101021007002","BARRIO":"CENTRO HISTORICO","TERRITORIO":"NORORIENTE","COMUNA":"SANTIAGO"}},
{"type":"Feature","geometry":{"type":"Polygon","coordinates":[[[-70.64761,-33.4346],[-70.6477,-33.43424],[-70.648,-33.43417],[-70.64799,-33.43459],[-70.64761,-33.4346]]]},"properties":{"COD_MZN":"13101021007003","BARRIO":"CENTRO HISTORICO","TERRITORIO":"NORORIENTE","COMUNA":"SANTIAGO"}},
{"type":"Feature","geometry":{"type":"Polygon","coordinates":[[[-70.64896,-33.43469],[-70.64987,-33.436],[-70.64878,-33.43587],[-70.64896,-33.43469]]]},"properties":{"COD_MZN":"13101021007004","BARRIO":"CENTRO HISTORICO","TERRITORIO":"NORORIENTE","COMUNA":"SANTIAGO"}},
{"type":"Feature","geometry":{"type":"Polygon","coordinates":[[[-70.6482,-33.43465],[-70.64863,-33.43589],[-70.64739,-33.43572],[-70.6482,-33.43465]]]},"properties":{"COD_MZN":"13101021007005","BARRIO":"CENTRO HISTORICO","TERRITORIO":"NORORIENTE","COMUNA":"SANTIAGO"}},
{"type":"Feature","geometry":{"type":"Polygon","coordinates":[[[-70.64916,-33.43644],[-70.64999,-33.43617],[-70.6498,-33.43712],[-70.64866,-33.43701],[-70.64916,-33.43644]]]},"properties":{"COD_MZN":"13101021007006","BARRIO":"CENTRO HISTORICO","TERRITORIO":"NORORIENTE","COMUNA":"SANTIAGO"}},
{"type":"Feature","geometry":{"type":"Polygon","coordinates":[[[-70.64846,-33.4382],[-70.64858,-33.43715],[-70.64941,-33.43717],[-70.64922,-33.43827],[-70.64846,-33.4382]]]},"properties":{"COD_MZN":"13101021007007","BARRIO":"CENTRO HISTORICO","TERRITORIO":"NORORIENTE","COMUNA":"SANTIAGO"}},
{"type":"Feature","geometry":{"type":"Polygon","coordinates":[[[-70.64961,-33.4383],[-70.64926,-33.43826],[-70.64949,-33.43778],[-70.64977,-33.43783],[-70.64961,-33.4383]]]},"properties":{"COD_MZN":"13101021007008","BARRIO":"CENTRO HISTORICO","TERRITORIO":"NORORIENTE","COMUNA":"SANTIAGO"}},
{"type":"Feature","geometry":{"type":"Polygon","coordinates":[[[-70.65399,-33.43823],[-70.65539,-33.43786],[-70.65531,-33.43881],[-70.65399,-33.43823]]]},"properties":{"COD_MZN":"13101021008008","BARRIO":"CENTRO HISTORICO","TERRITORIO":"NORORIENTE","COMUNA":"SANTIAGO"}},
{"type":"Feature","geometry":{"type":"Polygon","coordinates":[[[-70.65656,-33.43901],[-70.65544,-33.43883],[-70.65563,-33.43787],[-70.65676,-33.43799],[-70.65656,-33.43901]]]},"properties":{"COD_MZN":"13101021008009","BARRIO":"CENTRO HISTORICO","TERRITORIO":"NORORIENTE","COMUNA":"SANTIAGO"}},
{"type":"Feature","geometry":{"type":"Polygon","coordinates":[[[-70.65127,-33.43747],[-70.65254,-33.43754],[-70.6524,-33.43859],[-70.65118,-33.43848],[-70.65127,-33.43747]]]},"properties":{"COD_MZN":"13101021008002","BARRIO":"CENTRO HISTORICO","TERRITORIO":"NORORIENTE","COMUNA":"SANTIAGO"}},
{"type":"Feature","geometry":{"type":"Polygon","coordinates":[[[-70.65947,-33.43198],[-70.65954,-33.43159],[-70.66027,-33.43142],[-70.66045,-33.43158],[-70.66039,-33.43202],[-70.65947,-33.43198]]]},"properties":{"COD_MZN":"13101031001008","BARRIO":"SANTA ANA","TERRITORIO":"NORORIENTE","COMUNA":"SANTIAGO"}},
{"type":"Feature","geometry":{"type":"Polygon","coordinates":[[[-70.65901,-33.43233],[-70.66031,-33.43238],[-70.6602,-33.43325],[-70.65893,-33.4332],[-70.65901,-33.43233]]]},"properties":{"COD_MZN":"13101031001011","BARRIO":"SANTA ANA","TERRITORIO":"NORORIENTE","COMUNA":"SANTIAGO"}},
{"type":"Feature","geometry":{"type":"Polygon","coordinates":[[[-70.65824,-33.43324],[-70.65753,-33.43261],[-70.65888,-33.4325],[-70.65824,-33.43324]]]},"properties":{"COD_MZN":"13101031001012","BARRIO":"SANTA ANA","TERRITORIO":"NORORIENTE","COMUNA":"SANTIAGO"}},
{"type":"Feature","geometry":{"type":"Polygon","coordinates":[[[-70.65793,-33.43356],[-70.65878,-33.43333],[-70.65882,-33.43359],[-70.65793,-33.43356]]]},"properties":{"COD_MZN":"13101031002001","BARRIO":"SANTA ANA","TERRITORIO":"NORORIENTE","COMUNA":"SANTIAGO"}},
{"type":"Feature","geometry":{"type":"Polygon","coordinates":[[[-70.65912,-33.43449],[-70.65896,-33.43333],[-70.66017,-33.43334],[-70.66002,-33.43448],[-70.65912,-33.43449]]]},"properties":{"COD_MZN":"13101031002002","BARRIO":"SANTA ANA","TERRITORIO":"NORORIENTE","COMUNA":"SANTIAGO"}},
{"type":"Feature","geometry":{"type":"Polygon","coordinates":[[[-70.65747,-33.43359],[-70.65881,-33.43362],[-70.65865,-33.43448],[-70.65739,-33.43441],[-70.65747,-33.43359]]]},"properties":{"COD_MZN":"13101031002003","BARRIO":"SANTA ANA","TERRITORIO":"NORORIENTE","COMUNA":"SANTIAGO"}},
{"type":"Feature","geometry":{"type":"Polygon","coordinates":[[[-70.65736,-33.43466],[-70.65868,-33.43459],[-70.65848,-33.43576],[-70.65726,-33.43569],[-70.65736,-33.43466]]]},"properties":{"COD_MZN":"13101031002004","BARRIO":"SANTA ANA","TERRITORIO":"NORORIENTE","COMUNA":"SANTIAGO"}},
{"type":"Feature","geometry":{"type":"Polygon","coordinates":[[[-70.65967,-33.43584],[-70.65861,-33.43577],[-70.65875,-33.43461],[-70.65997,-33.43463],[-70.65967,-33.43584]]]},"properties":{"COD_MZN":"13101031003001","BARRIO":"SANTA ANA","TERRITORIO":"NORORIENTE","COMUNA":"SANTIAGO"}},
{"type":"Feature","geometry":{"type":"Polygon","coordinates":[[[-70.65713,-33.43681],[-70.65727,-33.43575],[-70.65846,-33.43584],[-70.65836,-33.4369],[-70.65713,-33.43681]]]},"properties":{"COD_MZN":"13101031003003","BARRIO":"SANTA ANA","TERRITORIO":"NORORIENTE","COMUNA":"SANTIAGO"}},
{"type":"Feature","geometry":{"type":"Polygon","coordinates":[[[-70.65853,-33.43696],[-70.65858,-33.43588],[-70.6598,-33.436],[-70.65964,-33.43703],[-70.65853,-33.43696]]]},"properties":{"COD_MZN":"13101031003004","BARRIO":"SANTA ANA","TERRITORIO":"NORORIENTE","COMUNA":"SANTIAGO"}},
{"type":"Feature","geometry":{"type":"Polygon","coordinates":[[[-70.65703,-33.43795],[-70.65714,-33.43689],[-70.65829,-33.43701],[-70.65822,-33.43804],[-70.65703,-33.43795]]]},"properties":{"COD_MZN":"13101031003007","BARRIO":"SANTA ANA","TERRITORIO":"NORORIENTE","COMUNA":"SANTIAGO"}},
{"type":"Feature","geometry":{"type":"Polygon","coordinates":[[[-70.65836,-33.43809],[-70.65849,-33.43703],[-70.6596,-33.43719],[-70.65951,-33.43818],[-70.65836,-33.43809]]]},"properties":{"COD_MZN":"13101031003008","BARRIO":"SANTA ANA","TERRITORIO":"NORORIENTE","COMUNA":"SANTIAGO"}},
{"type":"Feature","geometry":{"type":"Polygon","coordinates":[[[-70.658,-33.43915],[-70.65681,-33.43897],[-70.65698,-33.43801],[-70.65813,-33.43813],[-70.658,-33.43915]]]},"properties":{"COD_MZN":"13101031004001","BARRIO":"SANTA ANA","TERRITORIO":"NORORIENTE","COMUNA":"SANTIAGO"}},
{"type":"Feature","geometry":{"type":"Polygon","coordinates":[[[-70.65829,-33.4382],[-70.6595,-33.43832],[-70.65937,-33.43925],[-70.65819,-33.4391],[-70.65829,-33.4382]]]},"properties":{"COD_MZN":"13101031004002","BARRIO":"SANTA ANA","TERRITORIO":"NORORIENTE","COMUNA":"SANTIAGO"}},
{"type":"Feature","geometry":{"type":"Polygon","coordinates":[[[-70.65671,-33.44018],[-70.65678,-33.43919],[-70.65803,-33.43923],[-70.65793,-33.44027],[-70.65671,-33.44018]]]},"properties":{"COD_MZN":"13101031004004","BARRIO":"SANTA ANA","TERRITORIO":"NORORIENTE","COMUNA":"SANTIAGO"}},
{"type":"Feature","geometry":{"type":"Polygon","coordinates":[[[-70.65906,-33.44042],[-70.65807,-33.44032],[-70.65823,-33.43924],[-70.65934,-33.43943],[-70.65906,-33.44042]]]},"properties":{"COD_MZN":"13101031004005","BARRIO":"SANTA ANA","TERRITORIO":"NORORIENTE","COMUNA":"SANTIAGO"}},
{"type":"Feature","geometry":{"type":"Polygon","coordinates":[[[-70.65652,-33.44078],[-70.65787,-33.44037],[-70.65779,-33.44139],[-70.65652,-33.44078]]]},"properties":{"COD_MZN":"13101031005001","BARRIO":"SANTA ANA","TERRITORIO":"NORORIENTE","COMUNA":"SANTIAGO"}},
{"type":"Feature","geometry":{"type":"Polygon","coordinates":[[[-70.65801,-33.44042],[-70.65914,-33.44049],[-70.65958,-33.44155],[-70.65792,-33.44143],[-70.65801,-33.44042]]]},"properties":{"COD_MZN":"13101031005002","BARRIO":"SANTA ANA","TERRITORIO":"NORORIENTE","COMUNA":"SANTIAGO"}},
{"type":"Feature","geometry":{"type":"Polygon","coordinates":[[[-70.65737,-33.44197],[-70.65629,-33.4418],[-70.65646,-33.44137],[-70.65773,-33.4415],[-70.65737,-33.44197]]]},"properties":{"COD_MZN":"13101031006001","BARRIO":"SANTA ANA","TERRITORIO":"NORORIENTE","COMUNA":"SANTIAGO"}},
{"type":"Feature","geometry":{"type":"Polygon","coordinates":[[[-70.6578,-33.44205],[-70.65899,-33.44162],[-70.6589,-33.44265],[-70.6578,-33.44205]]]},"properties":{"COD_MZN":"13101031006002","BARRIO":"SANTA ANA","TERRITORIO":"NORORIENTE","COMUNA":"SANTIAGO"}},
{"type":"Feature","geometry":{"type":"Polygon","coordinates":[[[-70.65914,-33.44274],[-70.65921,-33.44194],[-70.65918,-33.44165],[-70.65965,-33.44178],[-70.65989,-33.44278],[-70.65914,-33.44274]]]},"properties":{"COD_MZN":"13101031006004","BARRIO":"SANTA ANA","TERRITORIO":"NORORIENTE","COMUNA":"SANTIAGO"}},
{"type":"Feature","geometry":{"type":"Polygon","coordinates":[[[-70.65627,-33.44188],[-70.65771,-33.44205],[-70.65766,-33.44251],[-70.65624,-33.44244],[-70.65627,-33.44188]]]},"properties":{"COD_MZN":"13101031006007","BARRIO":"SANTA ANA","TERRITORIO":"NORORIENTE","COMUNA":"SANTIAGO"}},
{"type":"Feature","geometry":{"type":"Polygon","coordinates":[[[-70.65614,-33.44255],[-70.65764,-33.44269],[-70.65734,-33.445],[-70.65571,-33.44463],[-70.65614,-33.44255]]]},"properties":{"COD_MZN":"13101031007001","BARRIO":"SANTA ANA","TERRITORIO":"NORORIENTE","COMUNA":"SANTIAGO"}},
{"type":"Feature","geometry":{"type":"Polygon","coordinates":[[[-70.65796,-33.44412],[-70.65773,-33.44271],[-70.65887,-33.44277],[-70.65881,-33.44419],[-70.65796,-33.44412]]]},"properties":{"COD_MZN":"13101031007002","BARRIO":"SANTA ANA","TERRITORIO":"NORORIENTE","COMUNA":"SANTIAGO"}},
{"type":"Feature","geometry":{"type":"Polygon","coordinates":[[[-70.65903,-33.44371],[-70.65899,-33.44279],[-70.65967,-33.44285],[-70.65959,-33.44372],[-70.65903,-33.44371]]]},"properties":{"COD_MZN":"13101031007003","BARRIO":"SANTA ANA","TERRITORIO":"NORORIENTE","COMUNA":"SANTIAGO"}},
{"type":"Feature","geometry":{"type":"Polygon","coordinates":[[[-70.65998,-33.44571],[-70.65935,-33.44549],[-70.65992,-33.44293],[-70.66026,-33.44416],[-70.65998,-33.44571]]]},"properties":{"COD_MZN":"13101031007004","BARRIO":"SANTA ANA","TERRITORIO":"NORORIENTE","COMUNA":"SANTIAGO"}},
{"type":"Feature","geometry":{"type":"Polygon","coordinates":[[[-70.65922,-33.44553],[-70.65871,-33.44531],[-70.65894,-33.44386],[-70.65958,-33.44444],[-70.65922,-33.44553]]]},"properties":{"COD_MZN":"13101031007006","BARRIO":"SANTA ANA","TERRITORIO":"NORORIENTE","COMUNA":"SANTIAGO"}}
]}
