{"type":"FeatureCollection", "features": [
{"type":"Feature","geometry":{"type":"Polygon","coordinates":[[[-70.65695,-33.46397],[-70.65719,-33.46062],[-70.65733,-33.46057],[-70.65705,-33.46361],[-70.65695,-33.46397]]]},"properties":{"COD_MZN":"13101221001009","BARRIO":"PARQUE OHIGGINS","TERRITORIO":"SURPONIENTE","COMUNA":"SANTIAGO"}},
{"type":"Feature","geometry":{"type":"Polygon","coordinates":[[[-70.65651,-33.46997],[-70.65657,-33.46874],[-70.65665,-33.46891],[-70.65657,-33.46997],[-70.65651,-33.46997]]]},"properties":{"COD_MZN":"13101221001010","BARRIO":"PARQUE OHIGGINS","TERRITORIO":"SURPONIENTE","COMUNA":"SANTIAGO"}},
{"type":"Feature","geometry":{"type":"Polygon","coordinates":[[[-70.65677,-33.46846],[-70.65679,-33.46811],[-70.65712,-33.46845],[-70.65677,-33.46846]]]},"properties":{"COD_MZN":"13101221001011","BARRIO":"PARQUE OHIGGINS","TERRITORIO":"SURPONIENTE","COMUNA":"SANTIAGO"}},
{"type":"Feature","geometry":{"type":"Polygon","coordinates":[[[-70.65717,-33.46999],[-70.65668,-33.46997],[-70.65674,-33.46894],[-70.65727,-33.46916],[-70.65717,-33.46999]]]},"properties":{"COD_MZN":"13101221001012","BARRIO":"PARQUE OHIGGINS","TERRITORIO":"SURPONIENTE","COMUNA":"SANTIAGO"}},
{"type":"Feature","geometry":{"type":"Polygon","coordinates":[[[-70.66335,-33.47038],[-70.66329,-33.47034],[-70.66336,-33.47032],[-70.66335,-33.47038]]]},"properties":{"COD_MZN":"13101221001024","BARRIO":"PARQUE OHIGGINS","TERRITORIO":"SURPONIENTE","COMUNA":"SANTIAGO"}},
{"type":"Feature","geometry":{"type":"Polygon","coordinates":[[[-70.65705,-33.45806],[-70.65741,-33.45925],[-70.65718,-33.45963],[-70.65704,-33.45855],[-70.6569,-33.45803],[-70.65705,-33.45806]]]},"properties":{"COD_MZN":"13101221001002","BARRIO":"PARQUE OHIGGINS","TERRITORIO":"SURPONIENTE","COMUNA":"SANTIAGO"}},
{"type":"Feature","geometry":{"type":"Polygon","coordinates":[[[-70.65726,-33.45851],[-70.6571,-33.45811],[-70.6576,-33.45814],[-70.65726,-33.45851]]]},"properties":{"COD_MZN":"13101221001003","BARRIO":"PARQUE OHIGGINS","TERRITORIO":"SURPONIENTE","COMUNA":"SANTIAGO"}},
{"type":"Feature","geometry":{"type":"Polygon","coordinates":[[[-70.66365,-33.45853],[-70.66377,-33.45853],[-70.66376,-33.45855],[-70.66365,-33.45853]]]},"properties":{"COD_MZN":"13101221001007","BARRIO":"PARQUE OHIGGINS","TERRITORIO":"SURPONIENTE","COMUNA":"SANTIAGO"}},
{"type":"Feature","geometry":{"type":"Polygon","coordinates":[[[-70.66394,-33.4586],[-70.66389,-33.45855],[-70.66396,-33.45851],[-70.664,-33.45854],[-70.66394,-33.4586]]]},"properties":{"COD_MZN":"13101221001006","BARRIO":"CLUB HIPICO","TERRITORIO":"SURPONIENTE","COMUNA":"SANTIAGO"}},
{"type":"Feature","geometry":{"type":"Polygon","coordinates":[[[-70.66424,-33.45858],[-70.66478,-33.4586],[-70.66484,-33.45862],[-70.66424,-33.45858]]]},"properties":{"COD_MZN":"13101231001007","BARRIO":"CLUB HIPICO","TERRITORIO":"SURPONIENTE","COMUNA":"SANTIAGO"}},
{"type":"Feature","geometry":{"type":"Polygon","coordinates":[[[-70.66393,-33.45882],[-70.66393,-33.45871],[-70.66392,-33.45868],[-70.66396,-33.45868],[-70.66394,-33.45873],[-70.66393,-33.45882]]]},"properties":{"COD_MZN":"13101221001008","BARRIO":"CLUB HIPICO","TERRITORIO":"SURPONIENTE","COMUNA":"SANTIAGO"}},
{"type":"Feature","geometry":{"type":"Polygon","coordinates":[[[-70.66565,-33.45726],[-70.6664,-33.45737],[-70.66639,-33.4574],[-70.66565,-33.45726]]]},"properties":{"COD_MZN":"13101231001002","BARRIO":"CLUB HIPICO","TERRITORIO":"SURPONIENTE","COMUNA":"SANTIAGO"}},
{"type":"Feature","geometry":{"type":"Polygon","coordinates":[[[-70.66717,-33.47116],[-70.66719,-33.4711],[-70.66758,-33.47068],[-70.66764,-33.47069],[-70.66717,-33.47116]]]},"properties":{"COD_MZN":"13101231001025","BARRIO":"SAN EUGENIO","TERRITORIO":"SURPONIENTE","COMUNA":"SANTIAGO"}},
{"type":"Feature","geometry":{"type":"Polygon","coordinates":[[[-70.66665,-33.47172],[-70.6667,-33.47162],[-70.66702,-33.47129],[-70.66705,-33.47133],[-70.6667,-33.47171],[-70.66665,-33.47172]]]},"properties":{"COD_MZN":"13101231001027","BARRIO":"SAN EUGENIO","TERRITORIO":"SURPONIENTE","COMUNA":"SANTIAGO"}},
{"type":"Feature","geometry":{"type":"Polygon","coordinates":[[[-70.66609,-33.47234],[-70.66607,-33.4723],[-70.66643,-33.47191],[-70.66647,-33.47194],[-70.66609,-33.47234]]]},"properties":{"COD_MZN":"13101231001029","BARRIO":"SAN EUGENIO","TERRITORIO":"SURPONIENTE","COMUNA":"SANTIAGO"}},
{"type":"Feature","geometry":{"type":"Polygon","coordinates":[[[-70.66506,-33.47342],[-70.66596,-33.47241],[-70.66602,-33.47243],[-70.66506,-33.47342]]]},"properties":{"COD_MZN":"13101231001032","BARRIO":"SAN EUGENIO","TERRITORIO":"SURPONIENTE","COMUNA":"SANTIAGO"}},
{"type":"Feature","geometry":{"type":"Polygon","coordinates":[[[-70.66566,-33.47353],[-70.66654,-33.47196],[-70.66716,-33.47357],[-70.66566,-33.47353]]]},"properties":{"COD_MZN":"13101241001011","BARRIO":"SAN EUGENIO","TERRITORIO":"SURPONIENTE","COMUNA":"SANTIAGO"}},
{"type":"Feature","geometry":{"type":"Polygon","coordinates":[[[-70.66831,-33.4727],[-70.66789,-33.47269],[-70.66789,-33.4725],[-70.66833,-33.47251],[-70.66831,-33.4727]]]},"properties":{"COD_MZN":"13101241001016","BARRIO":"SAN EUGENIO","TERRITORIO":"SURPONIENTE","COMUNA":"SANTIAGO"}},
{"type":"Feature","geometry":{"type":"Polygon","coordinates":[[[-70.66838,-33.47251],[-70.66883,-33.47251],[-70.66882,-33.4727],[-70.66838,-33.47273],[-70.66838,-33.47251]]]},"properties":{"COD_MZN":"13101241001017","BARRIO":"SAN EUGENIO","TERRITORIO":"SURPONIENTE","COMUNA":"SANTIAGO"}},
{"type":"Feature","geometry":{"type":"Polygon","coordinates":[[[-70.66743,-33.47386],[-70.66737,-33.47347],[-70.66808,-33.47352],[-70.66798,-33.47387],[-70.66743,-33.47386]]]},"properties":{"COD_MZN":"13101241001028","BARRIO":"SAN EUGENIO","TERRITORIO":"SURPONIENTE","COMUNA":"SANTIAGO"}},
{"type":"Feature","geometry":{"type":"Polygon","coordinates":[[[-70.66497,-33.4737],[-70.66503,-33.47357],[-70.66542,-33.47357],[-70.66542,-33.47371],[-70.66497,-33.4737]]]},"properties":{"COD_MZN":"13101241001029","BARRIO":"SAN EUGENIO","TERRITORIO":"SURPONIENTE","COMUNA":"SANTIAGO"}},
{"type":"Feature","geometry":{"type":"Polygon","coordinates":[[[-70.66561,-33.47365],[-70.66562,-33.47361],[-70.66632,-33.47362],[-70.66632,-33.47366],[-70.66561,-33.47365]]]},"properties":{"COD_MZN":"13101241001030","BARRIO":"SAN EUGENIO","TERRITORIO":"SURPONIENTE","COMUNA":"SANTIAGO"}},
{"type":"Feature","geometry":{"type":"Polygon","coordinates":[[[-70.66646,-33.47366],[-70.66646,-33.47363],[-70.66653,-33.47363],[-70.66652,-33.47366],[-70.66646,-33.47366]]]},"properties":{"COD_MZN":"13101241001031","BARRIO":"SAN EUGENIO","TERRITORIO":"SURPONIENTE","COMUNA":"SANTIAGO"}},
{"type":"Feature","geometry":{"type":"Polygon","coordinates":[[[-70.66671,-33.47367],[-70.66671,-33.47363],[-70.66721,-33.47364],[-70.66721,-33.47368],[-70.66671,-33.47367]]]},"properties":{"COD_MZN":"13101241001032","BARRIO":"SAN EUGENIO","TERRITORIO":"SURPONIENTE","COMUNA":"SANTIAGO"}},
{"type":"Feature","geometry":{"type":"Polygon","coordinates":[[[-70.66547,-33.47378],[-70.66787,-33.47398],[-70.66772,-33.47574],[-70.66494,-33.47569],[-70.66547,-33.47378]]]},"properties":{"COD_MZN":"13101241001033","BARRIO":"SAN EUGENIO","TERRITORIO":"SURPONIENTE","COMUNA":"SANTIAGO"}},
{"type":"Feature","geometry":{"type":"Polygon","coordinates":[[[-70.66482,-33.47431],[-70.66483,-33.47377],[-70.66485,-33.47377],[-70.66484,-33.47431],[-70.66482,-33.47431]]]},"properties":{"COD_MZN":"13101241001034","BARRIO":"SAN EUGENIO","TERRITORIO":"SURPONIENTE","COMUNA":"SANTIAGO"}},
{"type":"Feature","geometry":{"type":"Polygon","coordinates":[[[-70.66482,-33.47509],[-70.66481,-33.47461],[-70.66484,-33.47461],[-70.66482,-33.47509]]]},"properties":{"COD_MZN":"13101241001042","BARRIO":"SAN EUGENIO","TERRITORIO":"SURPONIENTE","COMUNA":"SANTIAGO"}},
{"type":"Feature","geometry":{"type":"Polygon","coordinates":[[[-70.6717,-33.47583],[-70.67168,-33.47487],[-70.67278,-33.47488],[-70.67238,-33.47561],[-70.6717,-33.47583]]]},"properties":{"COD_MZN":"13101241001043","BARRIO":"SAN EUGENIO","TERRITORIO":"SURPONIENTE","COMUNA":"SANTIAGO"}},
{"type":"Feature","geometry":{"type":"Polygon","coordinates":[[[-70.6648,-33.47562],[-70.6648,-33.47527],[-70.66483,-33.47526],[-70.66482,-33.4756],[-70.6648,-33.47562]]]},"properties":{"COD_MZN":"13101241001044","BARRIO":"SAN EUGENIO","TERRITORIO":"SURPONIENTE","COMUNA":"SANTIAGO"}},
{"type":"Feature","geometry":{"type":"Polygon","coordinates":[[[-70.67164,-33.47614],[-70.67164,-33.47588],[-70.6717,-33.47596],[-70.67168,-33.47609],[-70.67164,-33.47614]]]},"properties":{"COD_MZN":"13101241001046","BARRIO":"SAN EUGENIO","TERRITORIO":"SURPONIENTE","COMUNA":"SANTIAGO"}},
{"type":"Feature","geometry":{"type":"Polygon","coordinates":[[[-70.66799,-33.45768],[-70.66659,-33.45743],[-70.6666,-33.4574],[-70.66799,-33.45765],[-70.66799,-33.45768]]]},"properties":{"COD_MZN":"13101231001005","BARRIO":"CLUB HIPICO","TERRITORIO":"SURPONIENTE","COMUNA":"SANTIAGO"}},
{"type":"Feature","geometry":{"type":"Polygon","coordinates":[[[-70.67199,-33.45838],[-70.66853,-33.45777],[-70.66854,-33.45775],[-70.67197,-33.45835],[-70.67199,-33.45838]]]},"properties":{"COD_MZN":"13101231001006","BARRIO":"CLUB HIPICO","TERRITORIO":"SURPONIENTE","COMUNA":"SANTIAGO"}},
{"type":"Feature","geometry":{"type":"Polygon","coordinates":[[[-70.66783,-33.47047],[-70.66788,-33.47037],[-70.66878,-33.46941],[-70.66882,-33.46944],[-70.66783,-33.47047]]]},"properties":{"COD_MZN":"13101231001020","BARRIO":"SAN EUGENIO","TERRITORIO":"SURPONIENTE","COMUNA":"SANTIAGO"}},
{"type":"Feature","geometry":{"type":"Polygon","coordinates":[[[-70.66933,-33.46977],[-70.66896,-33.46976],[-70.6693,-33.46936],[-70.66933,-33.46977]]]},"properties":{"COD_MZN":"13101241002029","BARRIO":"SAN EUGENIO","TERRITORIO":"SURPONIENTE","COMUNA":"SANTIAGO"}},
{"type":"Feature","geometry":{"type":"Polygon","coordinates":[[[-70.66987,-33.46828],[-70.66994,-33.46815],[-70.67083,-33.46721],[-70.67088,-33.46723],[-70.66987,-33.46828]]]},"properties":{"COD_MZN":"13101231001016","BARRIO":"SAN EUGENIO","TERRITORIO":"SURPONIENTE","COMUNA":"SANTIAGO"}},
{"type":"Feature","geometry":{"type":"Polygon","coordinates":[[[-70.66886,-33.46935],[-70.66976,-33.46836],[-70.66981,-33.46838],[-70.66886,-33.46935]]]},"properties":{"COD_MZN":"13101231001018","BARRIO":"SAN EUGENIO","TERRITORIO":"SURPONIENTE","COMUNA":"SANTIAGO"}},
{"type":"Feature","geometry":{"type":"Polygon","coordinates":[[[-70.67757,-33.45884],[-70.67728,-33.45859],[-70.67811,-33.4582],[-70.67822,-33.45889],[-70.67757,-33.45884]]]},"properties":{"COD_MZN":"13101251001001","BARRIO":"SAN VICENTE","TERRITORIO":"SURPONIENTE","COMUNA":"SANTIAGO"}},
{"type":"Feature","geometry":{"type":"Polygon","coordinates":[[[-70.67224,-33.45841],[-70.67224,-33.45839],[-70.67348,-33.45847],[-70.67348,-33.45849],[-70.67224,-33.45841]]]},"properties":{"COD_MZN":"13101251001002","BARRIO":"SAN VICENTE","TERRITORIO":"SURPONIENTE","COMUNA":"SANTIAGO"}},
{"type":"Feature","geometry":{"type":"Polygon","coordinates":[[[-70.67479,-33.45856],[-70.67369,-33.4585],[-70.67369,-33.45848],[-70.67479,-33.45856]]]},"properties":{"COD_MZN":"13101251001003","BARRIO":"SAN VICENTE","TERRITORIO":"SURPONIENTE","COMUNA":"SANTIAGO"}},
{"type":"Feature","geometry":{"type":"Polygon","coordinates":[[[-70.67492,-33.45857],[-70.67493,-33.45856],[-70.67608,-33.45862],[-70.67606,-33.45864],[-70.67492,-33.45857]]]},"properties":{"COD_MZN":"13101251001005","BARRIO":"SAN VICENTE","TERRITORIO":"SURPONIENTE","COMUNA":"SANTIAGO"}},
{"type":"Feature","geometry":{"type":"Polygon","coordinates":[[[-70.6765,-33.45982],[-70.67594,-33.45965],[-70.67619,-33.45878],[-70.67676,-33.4589],[-70.6765,-33.45982]]]},"properties":{"COD_MZN":"13101251001008","BARRIO":"SAN VICENTE","TERRITORIO":"SURPONIENTE","COMUNA":"SANTIAGO"}},
{"type":"Feature","geometry":{"type":"Polygon","coordinates":[[[-70.67523,-33.46265],[-70.67532,-33.46228],[-70.67599,-33.4624],[-70.67589,-33.4628],[-70.67523,-33.46265]]]},"properties":{"COD_MZN":"13101251001031","BARRIO":"SAN VICENTE","TERRITORIO":"SURPONIENTE","COMUNA":"SANTIAGO"}},
{"type":"Feature","geometry":{"type":"Polygon","coordinates":[[[-70.67102,-33.46706],[-70.671,-33.46703],[-70.67143,-33.46656],[-70.67146,-33.4666],[-70.67102,-33.46706]]]},"properties":{"COD_MZN":"13101231001014","BARRIO":"SAN EUGENIO","TERRITORIO":"SURPONIENTE","COMUNA":"SANTIAGO"}},
{"type":"Feature","geometry":{"type":"Polygon","coordinates":[[[-70.67154,-33.46636],[-70.67156,-33.46628],[-70.67162,-33.46635],[-70.67154,-33.46636]]]},"properties":{"COD_MZN":"13101231001013","BARRIO":"SAN VICENTE","TERRITORIO":"SURPONIENTE","COMUNA":"SANTIAGO"}},
{"type":"Feature","geometry":{"type":"Polygon","coordinates":[[[-70.67408,-33.46941],[-70.67304,-33.4694],[-70.67302,-33.46842],[-70.67418,-33.46839],[-70.67408,-33.46941]]]},"properties":{"COD_MZN":"13101241002024","BARRIO":"SAN EUGENIO","TERRITORIO":"SURPONIENTE","COMUNA":"SANTIAGO"}},
{"type":"Feature","geometry":{"type":"Polygon","coordinates":[[[-70.67921,-33.47059],[-70.6791,-33.46963],[-70.67978,-33.47059],[-70.67921,-33.47059]]]},"properties":{"COD_MZN":"13101241002041","BARRIO":"SAN EUGENIO","TERRITORIO":"SURPONIENTE","COMUNA":"SANTIAGO"}},
{"type":"Feature","geometry":{"type":"Polygon","coordinates":[[[-70.67175,-33.47641],[-70.67585,-33.47675],[-70.67937,-33.47655],[-70.68069,-33.47685],[-70.67553,-33.47682],[-70.67175,-33.47641]]]},"properties":{"COD_MZN":"13101241001047","BARRIO":"SAN EUGENIO","TERRITORIO":"SURPONIENTE","COMUNA":"SANTIAGO"}},
{"type":"Feature","geometry":{"type":"Polygon","coordinates":[[[-70.67551,-33.47694],[-70.6763,-33.47694],[-70.67815,-33.47686],[-70.68065,-33.47692],[-70.68065,-33.47696],[-70.67912,-33.47691],[-70.67776,-33.4769],[-70.67624,-33.47696],[-70.67551,-33.47694]]]},"properties":{"COD_MZN":"13101241001048","BARRIO":"SAN EUGENIO","TERRITORIO":"SURPONIENTE","COMUNA":"SANTIAGO"}},
{"type":"Feature","geometry":{"type":"Polygon","coordinates":[[[-70.68013,-33.47833],[-70.6808,-33.47827],[-70.6808,-33.47833],[-70.68013,-33.47833]]]},"properties":{"COD_MZN":"13101241001050","BARRIO":"SAN EUGENIO","TERRITORIO":"SURPONIENTE","COMUNA":"SANTIAGO"}},
{"type":"Feature","geometry":{"type":"Polygon","coordinates":[[[-70.65681,-33.45802],[-70.65698,-33.46028],[-70.65635,-33.46995],[-70.6565,-33.46603],[-70.65691,-33.45993],[-70.65673,-33.458],[-70.65681,-33.45802]]]},"properties":{"COD_MZN":"13101221001001","BARRIO":"PARQUE OHIGGINS","TERRITORIO":"SURPONIENTE","COMUNA":"SANTIAGO"}},
{"type":"Feature","geometry":{"type":"Polygon","coordinates":[[[-70.65505,-33.47297],[-70.65599,-33.47156],[-70.65633,-33.47016],[-70.65608,-33.47164],[-70.65518,-33.47298],[-70.65505,-33.47297]]]},"properties":{"COD_MZN":"13101211001012","BARRIO":"RONDIZZONI","TERRITORIO":"SURPONIENTE","COMUNA":"SANTIAGO"}},
{"type":"Feature","geometry":{"type":"Polygon","coordinates":[[[-70.65518,-33.47298],[-70.65449,-33.47444],[-70.65445,-33.4749],[-70.65453,-33.47548],[-70.65493,-33.47647],[-70.6546,-33.47577],[-70.65448,-33.47537],[-70.65444,-33.47506],[-70.65448,-33.47419],[-70.65505,-33.47297],[-70.65518,-33.47298]]]},"properties":{"COD_MZN":"13101211002003","BARRIO":"RONDIZZONI","TERRITORIO":"SURPONIENTE","COMUNA":"SANTIAGO"}},
{"type":"Feature","geometry":{"type":"Polygon","coordinates":[[[-70.65633,-33.47016],[-70.65622,-33.47157],[-70.65491,-33.47355],[-70.65455,-33.47436],[-70.65455,-33.47553],[-70.65493,-33.47647],[-70.65453,-33.47548],[-70.65445,-33.4749],[-70.65449,-33.47444],[-70.65518,-33.47298],[-70.65608,-33.47164],[-70.65633,-33.47016]]]},"properties":{"COD_MZN":"13101221001017","BARRIO":"RONDIZZONI","TERRITORIO":"SURPONIENTE","COMUNA":"SANTIAGO"}},
{"type":"Feature","geometry":{"type":"Polygon","coordinates":[[[-70.65636,-33.47166],[-70.65647,-33.47129],[-70.65651,-33.47073],[-70.65651,-33.47016],[-70.65657,-33.47019],[-70.65658,-33.47083],[-70.65653,-33.47125],[-70.65636,-33.47166]]]},"properties":{"COD_MZN":"13101221001018","BARRIO":"RONDIZZONI","TERRITORIO":"SURPONIENTE","COMUNA":"SANTIAGO"}},
{"type":"Feature","geometry":{"type":"Polygon","coordinates":[[[-70.65461,-33.47527],[-70.65459,-33.4749],[-70.65465,-33.47446],[-70.65474,-33.47413],[-70.65498,-33.47363],[-70.65614,-33.47191],[-70.65575,-33.47261],[-70.65513,-33.47344],[-70.65476,-33.47414],[-70.65462,-33.47472],[-70.65461,-33.47527]]]},"properties":{"COD_MZN":"13101221001032","BARRIO":"RONDIZZONI","TERRITORIO":"SURPONIENTE","COMUNA":"SANTIAGO"}},
{"type":"Feature","geometry":{"type":"Polygon","coordinates":[[[-70.65562,-33.47317],[-70.65551,-33.47309],[-70.65585,-33.47261],[-70.65586,-33.47313],[-70.65562,-33.47317]]]},"properties":{"COD_MZN":"13101221001033","BARRIO":"RONDIZZONI","TERRITORIO":"SURPONIENTE","COMUNA":"SANTIAGO"}},
{"type":"Feature","geometry":{"type":"Polygon","coordinates":[[[-70.65594,-33.47319],[-70.65595,-33.47305],[-70.65608,-33.47305],[-70.65606,-33.4732],[-70.65594,-33.47319]]]},"properties":{"COD_MZN":"13101221001034","BARRIO":"RONDIZZONI","TERRITORIO":"SURPONIENTE","COMUNA":"SANTIAGO"}},
{"type":"Feature","geometry":{"type":"Polygon","coordinates":[[[-70.65616,-33.47321],[-70.65619,-33.47305],[-70.65695,-33.4731],[-70.65695,-33.47325],[-70.65616,-33.47321]]]},"properties":{"COD_MZN":"13101221001035","BARRIO":"RONDIZZONI","TERRITORIO":"SURPONIENTE","COMUNA":"SANTIAGO"}},
{"type":"Feature","geometry":{"type":"Polygon","coordinates":[[[-70.65804,-33.47332],[-70.65712,-33.47325],[-70.65712,-33.47311],[-70.65805,-33.47316],[-70.65804,-33.47332]]]},"properties":{"COD_MZN":"13101221001036","BARRIO":"RONDIZZONI","TERRITORIO":"SURPONIENTE","COMUNA":"SANTIAGO"}},
{"type":"Feature","geometry":{"type":"Polygon","coordinates":[[[-70.65934,-33.47338],[-70.65822,-33.47333],[-70.65824,-33.47317],[-70.65935,-33.47323],[-70.65934,-33.47338]]]},"properties":{"COD_MZN":"13101221001037","BARRIO":"RONDIZZONI","TERRITORIO":"SURPONIENTE","COMUNA":"SANTIAGO"}},
{"type":"Feature","geometry":{"type":"Polygon","coordinates":[[[-70.66104,-33.47348],[-70.66317,-33.47345],[-70.66318,-33.4736],[-70.66104,-33.47348]]]},"properties":{"COD_MZN":"13101221001039","BARRIO":"RONDIZZONI","TERRITORIO":"SURPONIENTE","COMUNA":"SANTIAGO"}},
{"type":"Feature","geometry":{"type":"Polygon","coordinates":[[[-70.65477,-33.47556],[-70.65468,-33.47504],[-70.65473,-33.47489],[-70.65482,-33.47551],[-70.65477,-33.47556]]]},"properties":{"COD_MZN":"13101221001040","BARRIO":"RONDIZZONI","TERRITORIO":"SURPONIENTE","COMUNA":"SANTIAGO"}},
{"type":"Feature","geometry":{"type":"Polygon","coordinates":[[[-70.65829,-33.47015],[-70.65738,-33.47009],[-70.65742,-33.47005],[-70.65825,-33.4701],[-70.65829,-33.47015]]]},"properties":{"COD_MZN":"13101221001013","BARRIO":"PARQUE OHIGGINS","TERRITORIO":"SURPONIENTE","COMUNA":"SANTIAGO"}},
{"type":"Feature","geometry":{"type":"Polygon","coordinates":[[[-70.65634,-33.47006],[-70.65634,-33.47004],[-70.65658,-33.47005],[-70.65657,-33.47007],[-70.65634,-33.47006]]]},"properties":{"COD_MZN":"13101221001014","BARRIO":"RONDIZZONI","TERRITORIO":"SURPONIENTE","COMUNA":"SANTIAGO"}},
{"type":"Feature","geometry":{"type":"Polygon","coordinates":[[[-70.65853,-33.47016],[-70.65944,-33.47017],[-70.65944,-33.47021],[-70.65853,-33.47016]]]},"properties":{"COD_MZN":"13101221001015","BARRIO":"PARQUE OHIGGINS","TERRITORIO":"SURPONIENTE","COMUNA":"SANTIAGO"}},
{"type":"Feature","geometry":{"type":"Polygon","coordinates":[[[-70.66104,-33.47031],[-70.66105,-33.47026],[-70.66207,-33.47032],[-70.66206,-33.47037],[-70.66104,-33.47031]]]},"properties":{"COD_MZN":"13101221001022","BARRIO":"PARQUE OHIGGINS","TERRITORIO":"SURPONIENTE","COMUNA":"SANTIAGO"}},
{"type":"Feature","geometry":{"type":"Polygon","coordinates":[[[-70.66302,-33.47042],[-70.66231,-33.47038],[-70.66233,-33.47034],[-70.66302,-33.47042]]]},"properties":{"COD_MZN":"13101221001025","BARRIO":"PARQUE OHIGGINS","TERRITORIO":"SURPONIENTE","COMUNA":"SANTIAGO"}},
{"type":"Feature","geometry":{"type":"Polygon","coordinates":[[[-70.66488,-33.47592],[-70.66492,-33.47574],[-70.67151,-33.47587],[-70.67146,-33.47605],[-70.66488,-33.47592]]]},"properties":{"COD_MZN":"13101241001045","BARRIO":"SAN EUGENIO","TERRITORIO":"SURPONIENTE","COMUNA":"SANTIAGO"}},
{"type":"Feature","geometry":{"type":"Polygon","coordinates":[[[-70.66469,-33.47369],[-70.66469,-33.47355],[-70.6648,-33.47357],[-70.66469,-33.47369]]]},"properties":{"COD_MZN":"13101231001034","BARRIO":"SAN EUGENIO","TERRITORIO":"SURPONIENTE","COMUNA":"SANTIAGO"}},
{"type":"Feature","geometry":{"type":"Polygon","coordinates":[[[-70.66341,-33.47362],[-70.66343,-33.47347],[-70.66433,-33.47351],[-70.66436,-33.47367],[-70.66341,-33.47362]]]},"properties":{"COD_MZN":"13101231001033","BARRIO":"SAN EUGENIO","TERRITORIO":"SURPONIENTE","COMUNA":"SANTIAGO"}},
{"type":"Feature","geometry":{"type":"Polygon","coordinates":[[[-70.65634,-33.47006],[-70.65615,-33.47006],[-70.65615,-33.47004],[-70.65634,-33.47004],[-70.65634,-33.47006]]]},"properties":{"COD_MZN":"13101211001008","BARRIO":"RONDIZZONI","TERRITORIO":"SURPONIENTE","COMUNA":"SANTIAGO"}},
{"type":"Feature","geometry":{"type":"Polygon","coordinates":[[[-70.66482,-33.46096],[-70.66391,-33.46078],[-70.66402,-33.45876],[-70.66493,-33.45878],[-70.66482,-33.46096]]]},"properties":{"COD_MZN":"13101231001008","BARRIO":"CLUB HIPICO","TERRITORIO":"SURPONIENTE","COMUNA":"SANTIAGO"}},
{"type":"Feature","geometry":{"type":"Polygon","coordinates":[[[-70.66482,-33.46225],[-70.66386,-33.46218],[-70.66393,-33.46106],[-70.66491,-33.46106],[-70.66482,-33.46225]]]},"properties":{"COD_MZN":"13101231001009","BARRIO":"CLUB HIPICO","TERRITORIO":"SURPONIENTE","COMUNA":"SANTIAGO"}},
{"type":"Feature","geometry":{"type":"Polygon","coordinates":[[[-70.66387,-33.46347],[-70.6639,-33.4623],[-70.66491,-33.46237],[-70.6649,-33.46345],[-70.66387,-33.46347]]]},"properties":{"COD_MZN":"13101231001010","BARRIO":"CLUB HIPICO","TERRITORIO":"SURPONIENTE","COMUNA":"SANTIAGO"}},
{"type":"Feature","geometry":{"type":"Polygon","coordinates":[[[-70.66481,-33.4655],[-70.66372,-33.46531],[-70.66381,-33.46356],[-70.6649,-33.46359],[-70.66481,-33.4655]]]},"properties":{"COD_MZN":"13101231001011","BARRIO":"CLUB HIPICO","TERRITORIO":"SURPONIENTE","COMUNA":"SANTIAGO"}},
{"type":"Feature","geometry":{"type":"Polygon","coordinates":[[[-70.66372,-33.46545],[-70.66481,-33.46556],[-70.66481,-33.46643],[-70.6637,-33.46641],[-70.66372,-33.46545]]]},"properties":{"COD_MZN":"13101231001012","BARRIO":"CLUB HIPICO","TERRITORIO":"SURPONIENTE","COMUNA":"SANTIAGO"}},
{"type":"Feature","geometry":{"type":"Polygon","coordinates":[[[-70.6636,-33.46924],[-70.66364,-33.46732],[-70.66485,-33.4674],[-70.66484,-33.46922],[-70.6636,-33.46924]]]},"properties":{"COD_MZN":"13101231001017","BARRIO":"CLUB HIPICO","TERRITORIO":"SURPONIENTE","COMUNA":"SANTIAGO"}},
{"type":"Feature","geometry":{"type":"Polygon","coordinates":[[[-70.66477,-33.46964],[-70.66356,-33.46961],[-70.66359,-33.46929],[-70.66479,-33.46931],[-70.66477,-33.46964]]]},"properties":{"COD_MZN":"13101231001019","BARRIO":"CLUB HIPICO","TERRITORIO":"SURPONIENTE","COMUNA":"SANTIAGO"}},
{"type":"Feature","geometry":{"type":"Polygon","coordinates":[[[-70.66356,-33.46999],[-70.66358,-33.46966],[-70.66479,-33.46969],[-70.66477,-33.47002],[-70.66356,-33.46999]]]},"properties":{"COD_MZN":"13101231001021","BARRIO":"CLUB HIPICO","TERRITORIO":"SURPONIENTE","COMUNA":"SANTIAGO"}},
{"type":"Feature","geometry":{"type":"Polygon","coordinates":[[[-70.66476,-33.47046],[-70.66357,-33.4704],[-70.66356,-33.47004],[-70.66479,-33.47007],[-70.66476,-33.47046]]]},"properties":{"COD_MZN":"13101231001022","BARRIO":"CLUB HIPICO","TERRITORIO":"SURPONIENTE","COMUNA":"SANTIAGO"}},
{"type":"Feature","geometry":{"type":"Polygon","coordinates":[[[-70.66344,-33.472],[-70.66356,-33.47052],[-70.66478,-33.47057],[-70.6648,-33.47206],[-70.66344,-33.472]]]},"properties":{"COD_MZN":"13101231001023","BARRIO":"SAN EUGENIO","TERRITORIO":"SURPONIENTE","COMUNA":"SANTIAGO"}},
{"type":"Feature","geometry":{"type":"Polygon","coordinates":[[[-70.66695,-33.47119],[-70.66497,-33.47116],[-70.66502,-33.47056],[-70.66695,-33.47119]]]},"properties":{"COD_MZN":"13101231001024","BARRIO":"SAN EUGENIO","TERRITORIO":"SURPONIENTE","COMUNA":"SANTIAGO"}},
{"type":"Feature","geometry":{"type":"Polygon","coordinates":[[[-70.6664,-33.4718],[-70.66496,-33.47177],[-70.66497,-33.4712],[-70.6669,-33.47123],[-70.6664,-33.4718]]]},"properties":{"COD_MZN":"13101231001026","BARRIO":"SAN EUGENIO","TERRITORIO":"SURPONIENTE","COMUNA":"SANTIAGO"}},
{"type":"Feature","geometry":{"type":"Polygon","coordinates":[[[-70.66493,-33.47337],[-70.66492,-33.47187],[-70.66635,-33.4719],[-70.66493,-33.47337]]]},"properties":{"COD_MZN":"13101231001028","BARRIO":"SAN EUGENIO","TERRITORIO":"SURPONIENTE","COMUNA":"SANTIAGO"}},
{"type":"Feature","geometry":{"type":"Polygon","coordinates":[[[-70.66392,-33.47343],[-70.66334,-33.47331],[-70.6634,-33.47209],[-70.66404,-33.47215],[-70.66392,-33.47343]]]},"properties":{"COD_MZN":"13101231001030","BARRIO":"SAN EUGENIO","TERRITORIO":"SURPONIENTE","COMUNA":"SANTIAGO"}},
{"type":"Feature","geometry":{"type":"Polygon","coordinates":[[[-70.66468,-33.47347],[-70.66406,-33.47339],[-70.6641,-33.47215],[-70.6648,-33.47218],[-70.66468,-33.47347]]]},"properties":{"COD_MZN":"13101231001031","BARRIO":"SAN EUGENIO","TERRITORIO":"SURPONIENTE","COMUNA":"SANTIAGO"}},
{"type":"Feature","geometry":{"type":"Polygon","coordinates":[[[-70.66902,-33.47187],[-70.66675,-33.47185],[-70.66775,-33.47066],[-70.66909,-33.47064],[-70.66902,-33.47187]]]},"properties":{"COD_MZN":"13101241001001","BARRIO":"SAN EUGENIO","TERRITORIO":"SURPONIENTE","COMUNA":"SANTIAGO"}},
{"type":"Feature","geometry":{"type":"Polygon","coordinates":[[[-70.66917,-33.47187],[-70.66916,-33.47067],[-70.67032,-33.47072],[-70.67031,-33.47184],[-70.66917,-33.47187]]]},"properties":{"COD_MZN":"13101241001002","BARRIO":"SAN EUGENIO","TERRITORIO":"SURPONIENTE","COMUNA":"SANTIAGO"}},
{"type":"Feature","geometry":{"type":"Polygon","coordinates":[[[-70.67041,-33.47187],[-70.6704,-33.4707],[-70.6716,-33.47068],[-70.67159,-33.47184],[-70.67041,-33.47187]]]},"properties":{"COD_MZN":"13101241001003","BARRIO":"SAN EUGENIO","TERRITORIO":"SURPONIENTE","COMUNA":"SANTIAGO"}},
{"type":"Feature","geometry":{"type":"Polygon","coordinates":[[[-70.66725,-33.47248],[-70.66682,-33.47199],[-70.66737,-33.47192],[-70.66725,-33.47248]]]},"properties":{"COD_MZN":"13101241001007","BARRIO":"SAN EUGENIO","TERRITORIO":"SURPONIENTE","COMUNA":"SANTIAGO"}},
{"type":"Feature","geometry":{"type":"Polygon","coordinates":[[[-70.66733,-33.47267],[-70.66741,-33.47192],[-70.66785,-33.47196],[-70.66784,-33.47269],[-70.66733,-33.47267]]]},"properties":{"COD_MZN":"13101241001008","BARRIO":"SAN EUGENIO","TERRITORIO":"SURPONIENTE","COMUNA":"SANTIAGO"}},
{"type":"Feature","geometry":{"type":"Polygon","coordinates":[[[-70.66789,-33.47247],[-70.6679,-33.47197],[-70.66834,-33.47199],[-70.66833,-33.47248],[-70.66789,-33.47247]]]},"properties":{"COD_MZN":"13101241001009","BARRIO":"SAN EUGENIO","TERRITORIO":"SURPONIENTE","COMUNA":"SANTIAGO"}},
{"type":"Feature","geometry":{"type":"Polygon","coordinates":[[[-70.6686,-33.47248],[-70.66839,-33.47197],[-70.66883,-33.47198],[-70.6686,-33.47248]]]},"properties":{"COD_MZN":"13101241001010","BARRIO":"SAN EUGENIO","TERRITORIO":"SURPONIENTE","COMUNA":"SANTIAGO"}},
{"type":"Feature","geometry":{"type":"Polygon","coordinates":[[[-70.66888,-33.47249],[-70.66888,-33.47199],[-70.66933,-33.47198],[-70.66932,-33.47249],[-70.66888,-33.47249]]]},"properties":{"COD_MZN":"13101241001012","BARRIO":"SAN EUGENIO","TERRITORIO":"SURPONIENTE","COMUNA":"SANTIAGO"}},
{"type":"Feature","geometry":{"type":"Polygon","coordinates":[[[-70.66942,-33.4731],[-70.66938,-33.47199],[-70.67031,-33.47197],[-70.6703,-33.47305],[-70.66942,-33.4731]]]},"properties":{"COD_MZN":"13101241001013","BARRIO":"SAN EUGENIO","TERRITORIO":"SURPONIENTE","COMUNA":"SANTIAGO"}},
{"type":"Feature","geometry":{"type":"Polygon","coordinates":[[[-70.67149,-33.47312],[-70.67037,-33.47308],[-70.67038,-33.47197],[-70.67155,-33.47195],[-70.67149,-33.47312]]]},"properties":{"COD_MZN":"13101241001014","BARRIO":"SAN EUGENIO","TERRITORIO":"SURPONIENTE","COMUNA":"SANTIAGO"}},
{"type":"Feature","geometry":{"type":"Polygon","coordinates":[[[-70.67174,-33.47195],[-70.67285,-33.472],[-70.67278,-33.47267],[-70.67175,-33.47266],[-70.67174,-33.47195]]]},"properties":{"COD_MZN":"13101241001015","BARRIO":"SAN EUGENIO","TERRITORIO":"SURPONIENTE","COMUNA":"SANTIAGO"}},
{"type":"Feature","geometry":{"type":"Polygon","coordinates":[[[-70.66887,-33.47308],[-70.66888,-33.47251],[-70.66932,-33.47252],[-70.66932,-33.47307],[-70.66887,-33.47308]]]},"properties":{"COD_MZN":"13101241001018","BARRIO":"SAN EUGENIO","TERRITORIO":"SURPONIENTE","COMUNA":"SANTIAGO"}},
{"type":"Feature","geometry":{"type":"Polygon","coordinates":[[[-70.66777,-33.47341],[-70.66731,-33.47333],[-70.66733,-33.4727],[-70.66784,-33.47271],[-70.66777,-33.47341]]]},"properties":{"COD_MZN":"13101241001019","BARRIO":"SAN EUGENIO","TERRITORIO":"SURPONIENTE","COMUNA":"SANTIAGO"}},
{"type":"Feature","geometry":{"type":"Polygon","coordinates":[[[-70.6682,-33.47349],[-70.66788,-33.47337],[-70.66789,-33.47272],[-70.66833,-33.47272],[-70.6682,-33.47349]]]},"properties":{"COD_MZN":"13101241001020","BARRIO":"SAN EUGENIO","TERRITORIO":"SURPONIENTE","COMUNA":"SANTIAGO"}},
{"type":"Feature","geometry":{"type":"Polygon","coordinates":[[[-70.67172,-33.47373],[-70.67167,-33.47276],[-70.67224,-33.47277],[-70.67223,-33.47369],[-70.67172,-33.47373]]]},"properties":{"COD_MZN":"13101241001021","BARRIO":"SAN EUGENIO","TERRITORIO":"SURPONIENTE","COMUNA":"SANTIAGO"}},
{"type":"Feature","geometry":{"type":"Polygon","coordinates":[[[-70.66857,-33.47276],[-70.66882,-33.47314],[-70.66837,-33.47338],[-70.66838,-33.47276],[-70.66857,-33.47276]]]},"properties":{"COD_MZN":"13101241001022","BARRIO":"SAN EUGENIO","TERRITORIO":"SURPONIENTE","COMUNA":"SANTIAGO"}},
{"type":"Feature","geometry":{"type":"Polygon","coordinates":[[[-70.67234,-33.47374],[-70.67231,-33.47278],[-70.67284,-33.47277],[-70.67284,-33.47371],[-70.67234,-33.47374]]]},"properties":{"COD_MZN":"13101241001023","BARRIO":"SAN EUGENIO","TERRITORIO":"SURPONIENTE","COMUNA":"SANTIAGO"}},
{"type":"Feature","geometry":{"type":"Polygon","coordinates":[[[-70.66921,-33.47434],[-70.66886,-33.47411],[-70.66887,-33.47326],[-70.66931,-33.47322],[-70.66921,-33.47434]]]},"properties":{"COD_MZN":"13101241001024","BARRIO":"SAN EUGENIO","TERRITORIO":"SURPONIENTE","COMUNA":"SANTIAGO"}},
{"type":"Feature","geometry":{"type":"Polygon","coordinates":[[[-70.6694,-33.47434],[-70.66941,-33.47318],[-70.67029,-33.4732],[-70.67029,-33.47432],[-70.6694,-33.47434]]]},"properties":{"COD_MZN":"13101241001025","BARRIO":"SAN EUGENIO","TERRITORIO":"SURPONIENTE","COMUNA":"SANTIAGO"}},
{"type":"Feature","geometry":{"type":"Polygon","coordinates":[[[-70.67152,-33.47436],[-70.67036,-33.47433],[-70.67037,-33.47323],[-70.67157,-33.47321],[-70.67152,-33.47436]]]},"properties":{"COD_MZN":"13101241001026","BARRIO":"SAN EUGENIO","TERRITORIO":"SURPONIENTE","COMUNA":"SANTIAGO"}},
{"type":"Feature","geometry":{"type":"Polygon","coordinates":[[[-70.66876,-33.4741],[-70.6683,-33.47355],[-70.66881,-33.4733],[-70.66876,-33.4741]]]},"properties":{"COD_MZN":"13101241001027","BARRIO":"SAN EUGENIO","TERRITORIO":"SURPONIENTE","COMUNA":"SANTIAGO"}},
{"type":"Feature","geometry":{"type":"Polygon","coordinates":[[[-70.67168,-33.47482],[-70.67166,-33.47383],[-70.67222,-33.47383],[-70.67222,-33.47475],[-70.67168,-33.47482]]]},"properties":{"COD_MZN":"13101241001035","BARRIO":"SAN EUGENIO","TERRITORIO":"SURPONIENTE","COMUNA":"SANTIAGO"}},
{"type":"Feature","geometry":{"type":"Polygon","coordinates":[[[-70.67233,-33.47482],[-70.67231,-33.47382],[-70.67284,-33.47384],[-70.67283,-33.47478],[-70.67233,-33.47482]]]},"properties":{"COD_MZN":"13101241001036","BARRIO":"SAN EUGENIO","TERRITORIO":"SURPONIENTE","COMUNA":"SANTIAGO"}},
{"type":"Feature","geometry":{"type":"Polygon","coordinates":[[[-70.66797,-33.47574],[-70.66794,-33.47401],[-70.66876,-33.47418],[-70.66797,-33.47574]]]},"properties":{"COD_MZN":"13101241001037","BARRIO":"SAN EUGENIO","TERRITORIO":"SURPONIENTE","COMUNA":"SANTIAGO"}},
{"type":"Feature","geometry":{"type":"Polygon","coordinates":[[[-70.66861,-33.47576],[-70.6686,-33.47463],[-70.6689,-33.47474],[-70.66887,-33.47574],[-70.66861,-33.47576]]]},"properties":{"COD_MZN":"13101241001038","BARRIO":"SAN EUGENIO","TERRITORIO":"SURPONIENTE","COMUNA":"SANTIAGO"}},
{"type":"Feature","geometry":{"type":"Polygon","coordinates":[[[-70.66942,-33.47577],[-70.66934,-33.4745],[-70.67028,-33.47445],[-70.67027,-33.47571],[-70.66942,-33.47577]]]},"properties":{"COD_MZN":"13101241001039","BARRIO":"SAN EUGENIO","TERRITORIO":"SURPONIENTE","COMUNA":"SANTIAGO"}},
{"type":"Feature","geometry":{"type":"Polygon","coordinates":[[[-70.67142,-33.4758],[-70.67034,-33.47574],[-70.67039,-33.47441],[-70.67157,-33.47446],[-70.67142,-33.4758]]]},"properties":{"COD_MZN":"13101241001040","BARRIO":"SAN EUGENIO","TERRITORIO":"SURPONIENTE","COMUNA":"SANTIAGO"}},
{"type":"Feature","geometry":{"type":"Polygon","coordinates":[[[-70.66901,-33.47576],[-70.66897,-33.47466],[-70.66929,-33.47447],[-70.66928,-33.47569],[-70.66901,-33.47576]]]},"properties":{"COD_MZN":"13101241001041","BARRIO":"SAN EUGENIO","TERRITORIO":"SURPONIENTE","COMUNA":"SANTIAGO"}},
{"type":"Feature","geometry":{"type":"Polygon","coordinates":[[[-70.66511,-33.45856],[-70.6651,-33.45729],[-70.67184,-33.4585],[-70.67203,-33.45877],[-70.67149,-33.46318],[-70.67146,-33.46643],[-70.66768,-33.47048],[-70.66494,-33.47039],[-70.66502,-33.45876],[-70.66511,-33.45856]]]},"properties":{"COD_MZN":"13101231001004","BARRIO":"CLUB HIPICO","TERRITORIO":"SURPONIENTE","COMUNA":"SANTIAGO"}},
{"type":"Feature","geometry":{"type":"Polygon","coordinates":[[[-70.67173,-33.47188],[-70.67169,-33.4707],[-70.67206,-33.4707],[-70.67205,-33.47183],[-70.67173,-33.47188]]]},"properties":{"COD_MZN":"13101241001004","BARRIO":"SAN EUGENIO","TERRITORIO":"SURPONIENTE","COMUNA":"SANTIAGO"}},
{"type":"Feature","geometry":{"type":"Polygon","coordinates":[[[-70.67217,-33.47189],[-70.67212,-33.4707],[-70.67246,-33.47069],[-70.67244,-33.47185],[-70.67217,-33.47189]]]},"properties":{"COD_MZN":"13101241001005","BARRIO":"SAN EUGENIO","TERRITORIO":"SURPONIENTE","COMUNA":"SANTIAGO"}},
{"type":"Feature","geometry":{"type":"Polygon","coordinates":[[[-70.67254,-33.47189],[-70.67252,-33.47068],[-70.67286,-33.47071],[-70.67285,-33.47181],[-70.67254,-33.47189]]]},"properties":{"COD_MZN":"13101241001006","BARRIO":"SAN EUGENIO","TERRITORIO":"SURPONIENTE","COMUNA":"SANTIAGO"}},
{"type":"Feature","geometry":{"type":"Polygon","coordinates":[[[-70.67291,-33.46714],[-70.67179,-33.46714],[-70.67177,-33.4665],[-70.67292,-33.46651],[-70.67291,-33.46714]]]},"properties":{"COD_MZN":"13101241002001","BARRIO":"SAN EUGENIO","TERRITORIO":"SURPONIENTE","COMUNA":"SANTIAGO"}},
{"type":"Feature","geometry":{"type":"Polygon","coordinates":[[[-70.67116,-33.46713],[-70.67164,-33.46654],[-70.67163,-33.4671],[-70.67116,-33.46713]]]},"properties":{"COD_MZN":"13101241002004","BARRIO":"SAN EUGENIO","TERRITORIO":"SURPONIENTE","COMUNA":"SANTIAGO"}},
{"type":"Feature","geometry":{"type":"Polygon","coordinates":[[[-70.67096,-33.46723],[-70.67162,-33.46827],[-70.67017,-33.46807],[-70.67096,-33.46723]]]},"properties":{"COD_MZN":"13101241002008","BARRIO":"SAN EUGENIO","TERRITORIO":"SURPONIENTE","COMUNA":"SANTIAGO"}},
{"type":"Feature","geometry":{"type":"Polygon","coordinates":[[[-70.67179,-33.46789],[-70.67179,-33.4672],[-70.6729,-33.46721],[-70.6729,-33.4679],[-70.67179,-33.46789]]]},"properties":{"COD_MZN":"13101241002009","BARRIO":"SAN EUGENIO","TERRITORIO":"SURPONIENTE","COMUNA":"SANTIAGO"}},
{"type":"Feature","geometry":{"type":"Polygon","coordinates":[[[-70.67175,-33.4683],[-70.67177,-33.46794],[-70.67287,-33.46795],[-70.67287,-33.46831],[-70.67175,-33.4683]]]},"properties":{"COD_MZN":"13101241002017","BARRIO":"SAN EUGENIO","TERRITORIO":"SURPONIENTE","COMUNA":"SANTIAGO"}},
{"type":"Feature","geometry":{"type":"Polygon","coordinates":[[[-70.67017,-33.46937],[-70.66917,-33.46914],[-70.67002,-33.46823],[-70.67017,-33.46937]]]},"properties":{"COD_MZN":"13101241002018","BARRIO":"SAN EUGENIO","TERRITORIO":"SURPONIENTE","COMUNA":"SANTIAGO"}},
{"type":"Feature","geometry":{"type":"Polygon","coordinates":[[[-70.67035,-33.46937],[-70.67033,-33.46842],[-70.67072,-33.46836],[-70.6707,-33.46938],[-70.67035,-33.46937]]]},"properties":{"COD_MZN":"13101241002019","BARRIO":"SAN EUGENIO","TERRITORIO":"SURPONIENTE","COMUNA":"SANTIAGO"}},
{"type":"Feature","geometry":{"type":"Polygon","coordinates":[[[-70.67073,-33.46938],[-70.67075,-33.46836],[-70.67163,-33.46841],[-70.67162,-33.46935],[-70.67073,-33.46938]]]},"properties":{"COD_MZN":"13101241002020","BARRIO":"SAN EUGENIO","TERRITORIO":"SURPONIENTE","COMUNA":"SANTIAGO"}},
{"type":"Feature","geometry":{"type":"Polygon","coordinates":[[[-70.67174,-33.46939],[-70.67172,-33.46842],[-70.67208,-33.46841],[-70.67207,-33.46935],[-70.67174,-33.46939]]]},"properties":{"COD_MZN":"13101241002021","BARRIO":"SAN EUGENIO","TERRITORIO":"SURPONIENTE","COMUNA":"SANTIAGO"}},
{"type":"Feature","geometry":{"type":"Polygon","coordinates":[[[-70.67218,-33.46939],[-70.67214,-33.46844],[-70.67248,-33.46843],[-70.67247,-33.46936],[-70.67218,-33.46939]]]},"properties":{"COD_MZN":"13101241002022","BARRIO":"SAN EUGENIO","TERRITORIO":"SURPONIENTE","COMUNA":"SANTIAGO"}},
{"type":"Feature","geometry":{"type":"Polygon","coordinates":[[[-70.67257,-33.46939],[-70.67254,-33.46844],[-70.67295,-33.46843],[-70.67293,-33.46934],[-70.67257,-33.46939]]]},"properties":{"COD_MZN":"13101241002023","BARRIO":"SAN EUGENIO","TERRITORIO":"SURPONIENTE","COMUNA":"SANTIAGO"}},
{"type":"Feature","geometry":{"type":"Polygon","coordinates":[[[-70.66887,-33.46971],[-70.66872,-33.46962],[-70.66904,-33.46928],[-70.66927,-33.46934],[-70.66887,-33.46971]]]},"properties":{"COD_MZN":"13101241002028","BARRIO":"SAN EUGENIO","TERRITORIO":"SURPONIENTE","COMUNA":"SANTIAGO"}},
{"type":"Feature","geometry":{"type":"Polygon","coordinates":[[[-70.66944,-33.46943],[-70.66983,-33.46943],[-70.6698,-33.4705],[-70.66939,-33.47053],[-70.66944,-33.46943]]]},"properties":{"COD_MZN":"13101241002030","BARRIO":"SAN EUGENIO","TERRITORIO":"SURPONIENTE","COMUNA":"SANTIAGO"}},
{"type":"Feature","geometry":{"type":"Polygon","coordinates":[[[-70.67016,-33.47054],[-70.66983,-33.4705],[-70.66986,-33.46943],[-70.67022,-33.46947],[-70.67016,-33.47054]]]},"properties":{"COD_MZN":"13101241002031","BARRIO":"SAN EUGENIO","TERRITORIO":"SURPONIENTE","COMUNA":"SANTIAGO"}},
{"type":"Feature","geometry":{"type":"Polygon","coordinates":[[[-70.67031,-33.46948],[-70.67158,-33.46945],[-70.6716,-33.47051],[-70.67029,-33.47051],[-70.67031,-33.46948]]]},"properties":{"COD_MZN":"13101241002032","BARRIO":"SAN EUGENIO","TERRITORIO":"SURPONIENTE","COMUNA":"SANTIAGO"}},
{"type":"Feature","geometry":{"type":"Polygon","coordinates":[[[-70.67174,-33.47056],[-70.6717,-33.46951],[-70.67207,-33.4695],[-70.67206,-33.47052],[-70.67174,-33.47056]]]},"properties":{"COD_MZN":"13101241002033","BARRIO":"SAN EUGENIO","TERRITORIO":"SURPONIENTE","COMUNA":"SANTIAGO"}},
{"type":"Feature","geometry":{"type":"Polygon","coordinates":[[[-70.67216,-33.47056],[-70.67213,-33.46949],[-70.67247,-33.4695],[-70.67246,-33.47052],[-70.67216,-33.47056]]]},"properties":{"COD_MZN":"13101241002034","BARRIO":"SAN EUGENIO","TERRITORIO":"SURPONIENTE","COMUNA":"SANTIAGO"}},
{"type":"Feature","geometry":{"type":"Polygon","coordinates":[[[-70.66861,-33.46974],[-70.6689,-33.47053],[-70.66798,-33.47042],[-70.66861,-33.46974]]]},"properties":{"COD_MZN":"13101241002042","BARRIO":"SAN EUGENIO","TERRITORIO":"SURPONIENTE","COMUNA":"SANTIAGO"}},
{"type":"Feature","geometry":{"type":"Polygon","coordinates":[[[-70.66893,-33.47053],[-70.66895,-33.46979],[-70.66915,-33.46979],[-70.66913,-33.47053],[-70.66893,-33.47053]]]},"properties":{"COD_MZN":"13101241002043","BARRIO":"SAN EUGENIO","TERRITORIO":"SURPONIENTE","COMUNA":"SANTIAGO"}},
{"type":"Feature","geometry":{"type":"Polygon","coordinates":[[[-70.66916,-33.47053],[-70.66918,-33.46979],[-70.66939,-33.46979],[-70.66936,-33.47053],[-70.66916,-33.47053]]]},"properties":{"COD_MZN":"13101241002044","BARRIO":"SAN EUGENIO","TERRITORIO":"SURPONIENTE","COMUNA":"SANTIAGO"}},
{"type":"Feature","geometry":{"type":"Polygon","coordinates":[[[-70.67331,-33.45919],[-70.67216,-33.45897],[-70.67217,-33.45854],[-70.67345,-33.45863],[-70.67331,-33.45919]]]},"properties":{"COD_MZN":"13101251001004","BARRIO":"SAN VICENTE","TERRITORIO":"SURPONIENTE","COMUNA":"SANTIAGO"}},
{"type":"Feature","geometry":{"type":"Polygon","coordinates":[[[-70.67349,-33.45919],[-70.67368,-33.45864],[-70.67477,-33.45873],[-70.67453,-33.45942],[-70.67349,-33.45919]]]},"properties":{"COD_MZN":"13101251001006","BARRIO":"SAN VICENTE","TERRITORIO":"SURPONIENTE","COMUNA":"SANTIAGO"}},
{"type":"Feature","geometry":{"type":"Polygon","coordinates":[[[-70.67718,-33.45995],[-70.67664,-33.45979],[-70.67686,-33.45886],[-70.67746,-33.45895],[-70.67718,-33.45995]]]},"properties":{"COD_MZN":"13101251001009","BARRIO":"SAN VICENTE","TERRITORIO":"SURPONIENTE","COMUNA":"SANTIAGO"}},
{"type":"Feature","geometry":{"type":"Polygon","coordinates":[[[-70.67839,-33.46019],[-70.67735,-33.45998],[-70.67754,-33.45894],[-70.67835,-33.45903],[-70.67839,-33.46019]]]},"properties":{"COD_MZN":"13101251001010","BARRIO":"SAN VICENTE","TERRITORIO":"SURPONIENTE","COMUNA":"SANTIAGO"}},
{"type":"Feature","geometry":{"type":"Polygon","coordinates":[[[-70.67253,-33.45983],[-70.67215,-33.45903],[-70.67331,-33.45925],[-70.67253,-33.45983]]]},"properties":{"COD_MZN":"13101251001011","BARRIO":"SAN VICENTE","TERRITORIO":"SURPONIENTE","COMUNA":"SANTIAGO"}},
{"type":"Feature","geometry":{"type":"Polygon","coordinates":[[[-70.67494,-33.46066],[-70.67447,-33.46049],[-70.67464,-33.45979],[-70.67518,-33.45987],[-70.67494,-33.46066]]]},"properties":{"COD_MZN":"13101251001013","BARRIO":"SAN VICENTE","TERRITORIO":"SURPONIENTE","COMUNA":"SANTIAGO"}},
{"type":"Feature","geometry":{"type":"Polygon","coordinates":[[[-70.67572,-33.4608],[-70.6759,-33.45982],[-70.67652,-33.45991],[-70.67631,-33.46085],[-70.67572,-33.4608]]]},"properties":{"COD_MZN":"13101251001014","BARRIO":"SAN VICENTE","TERRITORIO":"SURPONIENTE","COMUNA":"SANTIAGO"}},
{"type":"Feature","geometry":{"type":"Polygon","coordinates":[[[-70.67554,-33.46077],[-70.67506,-33.46064],[-70.67524,-33.45988],[-70.67578,-33.46],[-70.67554,-33.46077]]]},"properties":{"COD_MZN":"13101251001015","BARRIO":"SAN VICENTE","TERRITORIO":"SURPONIENTE","COMUNA":"SANTIAGO"}},
{"type":"Feature","geometry":{"type":"Polygon","coordinates":[[[-70.67641,-33.46094],[-70.67661,-33.45992],[-70.67721,-33.46004],[-70.67699,-33.46101],[-70.67641,-33.46094]]]},"properties":{"COD_MZN":"13101251001016","BARRIO":"SAN VICENTE","TERRITORIO":"SURPONIENTE","COMUNA":"SANTIAGO"}},
{"type":"Feature","geometry":{"type":"Polygon","coordinates":[[[-70.67846,-33.46135],[-70.6771,-33.46108],[-70.67729,-33.46007],[-70.67845,-33.46029],[-70.67846,-33.46135]]]},"properties":{"COD_MZN":"13101251001017","BARRIO":"SAN VICENTE","TERRITORIO":"SURPONIENTE","COMUNA":"SANTIAGO"}},
{"type":"Feature","geometry":{"type":"Polygon","coordinates":[[[-70.6728,-33.46141],[-70.67189,-33.46124],[-70.67202,-33.46015],[-70.67309,-33.4604],[-70.6728,-33.46141]]]},"properties":{"COD_MZN":"13101251001018","BARRIO":"SAN VICENTE","TERRITORIO":"SURPONIENTE","COMUNA":"SANTIAGO"}},
{"type":"Feature","geometry":{"type":"Polygon","coordinates":[[[-70.6732,-33.46043],[-70.67432,-33.46065],[-70.6741,-33.46161],[-70.67297,-33.46139],[-70.6732,-33.46043]]]},"properties":{"COD_MZN":"13101251001019","BARRIO":"SAN VICENTE","TERRITORIO":"SURPONIENTE","COMUNA":"SANTIAGO"}},
{"type":"Feature","geometry":{"type":"Polygon","coordinates":[[[-70.67468,-33.46175],[-70.67421,-33.46161],[-70.67443,-33.46067],[-70.67496,-33.46076],[-70.67468,-33.46175]]]},"properties":{"COD_MZN":"13101251001020","BARRIO":"SAN VICENTE","TERRITORIO":"SURPONIENTE","COMUNA":"SANTIAGO"}},
{"type":"Feature","geometry":{"type":"Polygon","coordinates":[[[-70.6753,-33.46187],[-70.6748,-33.46172],[-70.67503,-33.46077],[-70.67556,-33.46092],[-70.6753,-33.46187]]]},"properties":{"COD_MZN":"13101251001021","BARRIO":"SAN VICENTE","TERRITORIO":"SURPONIENTE","COMUNA":"SANTIAGO"}},
{"type":"Feature","geometry":{"type":"Polygon","coordinates":[[[-70.67601,-33.462],[-70.67542,-33.46185],[-70.67563,-33.46095],[-70.67627,-33.46103],[-70.67601,-33.462]]]},"properties":{"COD_MZN":"13101251001022","BARRIO":"SAN VICENTE","TERRITORIO":"SURPONIENTE","COMUNA":"SANTIAGO"}},
{"type":"Feature","geometry":{"type":"Polygon","coordinates":[[[-70.67669,-33.46213],[-70.67614,-33.46198],[-70.67635,-33.46104],[-70.67696,-33.46115],[-70.67669,-33.46213]]]},"properties":{"COD_MZN":"13101251001023","BARRIO":"SAN VICENTE","TERRITORIO":"SURPONIENTE","COMUNA":"SANTIAGO"}},
{"type":"Feature","geometry":{"type":"Polygon","coordinates":[[[-70.67857,-33.46243],[-70.67684,-33.46216],[-70.67703,-33.46118],[-70.67854,-33.4615],[-70.67857,-33.46243]]]},"properties":{"COD_MZN":"13101251001024","BARRIO":"SAN VICENTE","TERRITORIO":"SURPONIENTE","COMUNA":"SANTIAGO"}},
{"type":"Feature","geometry":{"type":"Polygon","coordinates":[[[-70.67253,-33.46252],[-70.67169,-33.46234],[-70.67182,-33.46135],[-70.67282,-33.46151],[-70.67253,-33.46252]]]},"properties":{"COD_MZN":"13101251001025","BARRIO":"SAN VICENTE","TERRITORIO":"SURPONIENTE","COMUNA":"SANTIAGO"}},
{"type":"Feature","geometry":{"type":"Polygon","coordinates":[[[-70.67316,-33.46264],[-70.67271,-33.46248],[-70.67293,-33.46154],[-70.67347,-33.46164],[-70.67316,-33.46264]]]},"properties":{"COD_MZN":"13101251001026","BARRIO":"SAN VICENTE","TERRITORIO":"SURPONIENTE","COMUNA":"SANTIAGO"}},
{"type":"Feature","geometry":{"type":"Polygon","coordinates":[[[-70.67377,-33.46275],[-70.67331,-33.46259],[-70.67355,-33.46165],[-70.67407,-33.46174],[-70.67377,-33.46275]]]},"properties":{"COD_MZN":"13101251001027","BARRIO":"SAN VICENTE","TERRITORIO":"SURPONIENTE","COMUNA":"SANTIAGO"}},
{"type":"Feature","geometry":{"type":"Polygon","coordinates":[[[-70.67452,-33.46241],[-70.67421,-33.46174],[-70.6753,-33.46194],[-70.67508,-33.46297],[-70.67452,-33.46241]]]},"properties":{"COD_MZN":"13101251001028","BARRIO":"SAN VICENTE","TERRITORIO":"SURPONIENTE","COMUNA":"SANTIAGO"}},
{"type":"Feature","geometry":{"type":"Polygon","coordinates":[[[-70.67652,-33.46247],[-70.67533,-33.46225],[-70.67544,-33.46197],[-70.67664,-33.46219],[-70.67652,-33.46247]]]},"properties":{"COD_MZN":"13101251001029","BARRIO":"SAN VICENTE","TERRITORIO":"SURPONIENTE","COMUNA":"SANTIAGO"}},
{"type":"Feature","geometry":{"type":"Polygon","coordinates":[[[-70.67678,-33.46228],[-70.67863,-33.46256],[-70.67863,-33.46336],[-70.6764,-33.46323],[-70.67678,-33.46228]]]},"properties":{"COD_MZN":"13101251001030","BARRIO":"SAN VICENTE","TERRITORIO":"SURPONIENTE","COMUNA":"SANTIAGO"}},
{"type":"Feature","geometry":{"type":"Polygon","coordinates":[[[-70.67627,-33.46322],[-70.67585,-33.46313],[-70.67602,-33.46241],[-70.67659,-33.46254],[-70.67627,-33.46322]]]},"properties":{"COD_MZN":"13101251001032","BARRIO":"SAN VICENTE","TERRITORIO":"SURPONIENTE","COMUNA":"SANTIAGO"}},
{"type":"Feature","geometry":{"type":"Polygon","coordinates":[[[-70.67227,-33.46362],[-70.67158,-33.46347],[-70.67172,-33.46243],[-70.67256,-33.4626],[-70.67227,-33.46362]]]},"properties":{"COD_MZN":"13101251001033","BARRIO":"SAN VICENTE","TERRITORIO":"SURPONIENTE","COMUNA":"SANTIAGO"}},
{"type":"Feature","geometry":{"type":"Polygon","coordinates":[[[-70.67308,-33.46321],[-70.6738,-33.46287],[-70.67358,-33.46379],[-70.67308,-33.46321]]]},"properties":{"COD_MZN":"13101251001034","BARRIO":"SAN VICENTE","TERRITORIO":"SURPONIENTE","COMUNA":"SANTIAGO"}},
{"type":"Feature","geometry":{"type":"Polygon","coordinates":[[[-70.67522,-33.46301],[-70.67523,-33.46268],[-70.67591,-33.46283],[-70.67582,-33.46313],[-70.67522,-33.46301]]]},"properties":{"COD_MZN":"13101251001035","BARRIO":"SAN VICENTE","TERRITORIO":"SURPONIENTE","COMUNA":"SANTIAGO"}},
{"type":"Feature","geometry":{"type":"Polygon","coordinates":[[[-70.67428,-33.4632],[-70.67505,-33.46309],[-70.67476,-33.46406],[-70.6737,-33.46387],[-70.67428,-33.4632]]]},"properties":{"COD_MZN":"13101251001036","BARRIO":"SAN VICENTE","TERRITORIO":"SURPONIENTE","COMUNA":"SANTIAGO"}},
{"type":"Feature","geometry":{"type":"Polygon","coordinates":[[[-70.67601,-33.46428],[-70.67491,-33.46403],[-70.67518,-33.46305],[-70.67628,-33.46333],[-70.67601,-33.46428]]]},"properties":{"COD_MZN":"13101251001037","BARRIO":"SAN VICENTE","TERRITORIO":"SURPONIENTE","COMUNA":"SANTIAGO"}},
{"type":"Feature","geometry":{"type":"Polygon","coordinates":[[[-70.67636,-33.46334],[-70.67868,-33.46346],[-70.67873,-33.46492],[-70.67602,-33.46489],[-70.67636,-33.46334]]]},"properties":{"COD_MZN":"13101251001038","BARRIO":"SAN VICENTE","TERRITORIO":"SURPONIENTE","COMUNA":"SANTIAGO"}},
{"type":"Feature","geometry":{"type":"Polygon","coordinates":[[[-70.67165,-33.46466],[-70.67158,-33.46363],[-70.6723,-33.46375],[-70.67165,-33.46466]]]},"properties":{"COD_MZN":"13101251001039","BARRIO":"SAN VICENTE","TERRITORIO":"SURPONIENTE","COMUNA":"SANTIAGO"}},
{"type":"Feature","geometry":{"type":"Polygon","coordinates":[[[-70.67241,-33.46375],[-70.67349,-33.4639],[-70.6733,-33.46492],[-70.67219,-33.46471],[-70.67241,-33.46375]]]},"properties":{"COD_MZN":"13101251001040","BARRIO":"SAN VICENTE","TERRITORIO":"SURPONIENTE","COMUNA":"SANTIAGO"}},
{"type":"Feature","geometry":{"type":"Polygon","coordinates":[[[-70.67398,-33.46433],[-70.67372,-33.46394],[-70.67477,-33.46413],[-70.67473,-33.46446],[-70.67398,-33.46433]]]},"properties":{"COD_MZN":"13101251001041","BARRIO":"SAN VICENTE","TERRITORIO":"SURPONIENTE","COMUNA":"SANTIAGO"}},
{"type":"Feature","geometry":{"type":"Polygon","coordinates":[[[-70.67573,-33.4654],[-70.67467,-33.46521],[-70.67486,-33.4642],[-70.67603,-33.46441],[-70.67573,-33.4654]]]},"properties":{"COD_MZN":"13101251001042","BARRIO":"SAN VICENTE","TERRITORIO":"SURPONIENTE","COMUNA":"SANTIAGO"}},
{"type":"Feature","geometry":{"type":"Polygon","coordinates":[[[-70.67399,-33.46468],[-70.67356,-33.46429],[-70.67472,-33.46449],[-70.67465,-33.4648],[-70.67399,-33.46468]]]},"properties":{"COD_MZN":"13101251001043","BARRIO":"SAN VICENTE","TERRITORIO":"SURPONIENTE","COMUNA":"SANTIAGO"}},
{"type":"Feature","geometry":{"type":"Polygon","coordinates":[[[-70.67453,-33.46518],[-70.67343,-33.46498],[-70.67349,-33.46462],[-70.67464,-33.46483],[-70.67453,-33.46518]]]},"properties":{"COD_MZN":"13101251001044","BARRIO":"SAN VICENTE","TERRITORIO":"SURPONIENTE","COMUNA":"SANTIAGO"}},
{"type":"Feature","geometry":{"type":"Polygon","coordinates":[[[-70.67167,-33.46631],[-70.6716,-33.46478],[-70.67205,-33.46483],[-70.67167,-33.46631]]]},"properties":{"COD_MZN":"13101251001045","BARRIO":"SAN VICENTE","TERRITORIO":"SURPONIENTE","COMUNA":"SANTIAGO"}},
{"type":"Feature","geometry":{"type":"Polygon","coordinates":[[[-70.6727,-33.46529],[-70.67209,-33.46517],[-70.67221,-33.46482],[-70.67325,-33.46501],[-70.6727,-33.46529]]]},"properties":{"COD_MZN":"13101251001046","BARRIO":"SAN VICENTE","TERRITORIO":"SURPONIENTE","COMUNA":"SANTIAGO"}},
{"type":"Feature","geometry":{"type":"Polygon","coordinates":[[[-70.67598,-33.46498],[-70.67878,-33.46502],[-70.6788,-33.46662],[-70.67601,-33.46651],[-70.67624,-33.46556],[-70.67598,-33.46498]]]},"properties":{"COD_MZN":"13101251001047","BARRIO":"SAN VICENTE","TERRITORIO":"SURPONIENTE","COMUNA":"SANTIAGO"}},
{"type":"Feature","geometry":{"type":"Polygon","coordinates":[[[-70.67402,-33.46645],[-70.67307,-33.46636],[-70.67338,-33.46507],[-70.6745,-33.46524],[-70.67402,-33.46645]]]},"properties":{"COD_MZN":"13101251001048","BARRIO":"SAN VICENTE","TERRITORIO":"SURPONIENTE","COMUNA":"SANTIAGO"}},
{"type":"Feature","geometry":{"type":"Polygon","coordinates":[[[-70.67202,-33.46548],[-70.67319,-33.4654],[-70.67297,-33.46632],[-70.6718,-33.46639],[-70.67202,-33.46548]]]},"properties":{"COD_MZN":"13101251001049","BARRIO":"SAN VICENTE","TERRITORIO":"SURPONIENTE","COMUNA":"SANTIAGO"}},
{"type":"Feature","geometry":{"type":"Polygon","coordinates":[[[-70.67461,-33.46529],[-70.67577,-33.46552],[-70.67555,-33.46647],[-70.67438,-33.46646],[-70.67461,-33.46529]]]},"properties":{"COD_MZN":"13101251001050","BARRIO":"SAN VICENTE","TERRITORIO":"SURPONIENTE","COMUNA":"SANTIAGO"}},
{"type":"Feature","geometry":{"type":"Polygon","coordinates":[[[-70.67568,-33.4665],[-70.67585,-33.46552],[-70.67621,-33.46555],[-70.67597,-33.46651],[-70.67568,-33.4665]]]},"properties":{"COD_MZN":"13101251001051","BARRIO":"SAN VICENTE","TERRITORIO":"SURPONIENTE","COMUNA":"SANTIAGO"}},
{"type":"Feature","geometry":{"type":"Polygon","coordinates":[[[-70.67429,-33.46053],[-70.67326,-33.46033],[-70.67351,-33.45928],[-70.67458,-33.45954],[-70.67429,-33.46053]]]},"properties":{"COD_MZN":"13101251001007","BARRIO":"SAN VICENTE","TERRITORIO":"SURPONIENTE","COMUNA":"SANTIAGO"}},
{"type":"Feature","geometry":{"type":"Polygon","coordinates":[[[-70.67309,-33.46714],[-70.67306,-33.46657],[-70.67348,-33.46653],[-70.67349,-33.46715],[-70.67309,-33.46714]]]},"properties":{"COD_MZN":"13101241002002","BARRIO":"SAN EUGENIO","TERRITORIO":"SURPONIENTE","COMUNA":"SANTIAGO"}},
{"type":"Feature","geometry":{"type":"Polygon","coordinates":[[[-70.67403,-33.46715],[-70.67352,-33.46715],[-70.67351,-33.46653],[-70.67423,-33.46655],[-70.67403,-33.46715]]]},"properties":{"COD_MZN":"13101241002003","BARRIO":"SAN EUGENIO","TERRITORIO":"SURPONIENTE","COMUNA":"SANTIAGO"}},
{"type":"Feature","geometry":{"type":"Polygon","coordinates":[[[-70.67437,-33.46715],[-70.67437,-33.46655],[-70.67553,-33.46658],[-70.67548,-33.46716],[-70.67437,-33.46715]]]},"properties":{"COD_MZN":"13101241002005","BARRIO":"SAN EUGENIO","TERRITORIO":"SURPONIENTE","COMUNA":"SANTIAGO"}},
{"type":"Feature","geometry":{"type":"Polygon","coordinates":[[[-70.67566,-33.46716],[-70.67569,-33.46659],[-70.67695,-33.46667],[-70.67723,-33.46718],[-70.67566,-33.46716]]]},"properties":{"COD_MZN":"13101241002006","BARRIO":"SAN EUGENIO","TERRITORIO":"SURPONIENTE","COMUNA":"SANTIAGO"}},
{"type":"Feature","geometry":{"type":"Polygon","coordinates":[[[-70.67898,-33.46907],[-70.67715,-33.46677],[-70.67892,-33.4668],[-70.67898,-33.46907]]]},"properties":{"COD_MZN":"13101241002007","BARRIO":"SAN EUGENIO","TERRITORIO":"SURPONIENTE","COMUNA":"SANTIAGO"}},
{"type":"Feature","geometry":{"type":"Polygon","coordinates":[[[-70.67308,-33.46831],[-70.67304,-33.46724],[-70.67344,-33.46721],[-70.67342,-33.46832],[-70.67308,-33.46831]]]},"properties":{"COD_MZN":"13101241002010","BARRIO":"SAN EUGENIO","TERRITORIO":"SURPONIENTE","COMUNA":"SANTIAGO"}},
{"type":"Feature","geometry":{"type":"Polygon","coordinates":[[[-70.67345,-33.46832],[-70.67347,-33.46721],[-70.67381,-33.46721],[-70.67382,-33.46832],[-70.67345,-33.46832]]]},"properties":{"COD_MZN":"13101241002011","BARRIO":"SAN EUGENIO","TERRITORIO":"SURPONIENTE","COMUNA":"SANTIAGO"}},
{"type":"Feature","geometry":{"type":"Polygon","coordinates":[[[-70.67406,-33.46832],[-70.67384,-33.46721],[-70.67424,-33.46725],[-70.67406,-33.46832]]]},"properties":{"COD_MZN":"13101241002012","BARRIO":"SAN EUGENIO","TERRITORIO":"SURPONIENTE","COMUNA":"SANTIAGO"}},
{"type":"Feature","geometry":{"type":"Polygon","coordinates":[[[-70.67435,-33.46832],[-70.67432,-33.46726],[-70.67489,-33.46725],[-70.67487,-33.46827],[-70.67435,-33.46832]]]},"properties":{"COD_MZN":"13101241002013","BARRIO":"SAN EUGENIO","TERRITORIO":"SURPONIENTE","COMUNA":"SANTIAGO"}},
{"type":"Feature","geometry":{"type":"Polygon","coordinates":[[[-70.67546,-33.46833],[-70.67494,-33.4683],[-70.67496,-33.46725],[-70.67554,-33.46727],[-70.67546,-33.46833]]]},"properties":{"COD_MZN":"13101241002014","BARRIO":"SAN EUGENIO","TERRITORIO":"SURPONIENTE","COMUNA":"SANTIAGO"}},
{"type":"Feature","geometry":{"type":"Polygon","coordinates":[[[-70.67656,-33.46834],[-70.67564,-33.46834],[-70.67562,-33.46727],[-70.67681,-33.46728],[-70.67656,-33.46834]]]},"properties":{"COD_MZN":"13101241002015","BARRIO":"SAN EUGENIO","TERRITORIO":"SURPONIENTE","COMUNA":"SANTIAGO"}},
{"type":"Feature","geometry":{"type":"Polygon","coordinates":[[[-70.67825,-33.46836],[-70.6769,-33.46835],[-70.67744,-33.46726],[-70.67825,-33.46836]]]},"properties":{"COD_MZN":"13101241002016","BARRIO":"SAN EUGENIO","TERRITORIO":"SURPONIENTE","COMUNA":"SANTIAGO"}},
{"type":"Feature","geometry":{"type":"Polygon","coordinates":[[[-70.67432,-33.46941],[-70.67435,-33.46839],[-70.67553,-33.46845],[-70.67545,-33.46942],[-70.67432,-33.46941]]]},"properties":{"COD_MZN":"13101241002025","BARRIO":"SAN EUGENIO","TERRITORIO":"SURPONIENTE","COMUNA":"SANTIAGO"}},
{"type":"Feature","geometry":{"type":"Polygon","coordinates":[[[-70.67655,-33.46944],[-70.67559,-33.46938],[-70.6756,-33.46844],[-70.67675,-33.46841],[-70.67655,-33.46944]]]},"properties":{"COD_MZN":"13101241002026","BARRIO":"SAN EUGENIO","TERRITORIO":"SURPONIENTE","COMUNA":"SANTIAGO"}},
{"type":"Feature","geometry":{"type":"Polygon","coordinates":[[[-70.67689,-33.46944],[-70.67692,-33.46841],[-70.67838,-33.46845],[-70.67895,-33.46946],[-70.67689,-33.46944]]]},"properties":{"COD_MZN":"13101241002027","BARRIO":"SAN EUGENIO","TERRITORIO":"SURPONIENTE","COMUNA":"SANTIAGO"}},
{"type":"Feature","geometry":{"type":"Polygon","coordinates":[[[-70.67545,-33.4706],[-70.67427,-33.47053],[-70.67433,-33.46948],[-70.67552,-33.46953],[-70.67545,-33.4706]]]},"properties":{"COD_MZN":"13101241002036","BARRIO":"SAN EUGENIO","TERRITORIO":"SURPONIENTE","COMUNA":"SANTIAGO"}},
{"type":"Feature","geometry":{"type":"Polygon","coordinates":[[[-70.67559,-33.46953],[-70.67677,-33.46954],[-70.67671,-33.47061],[-70.67557,-33.47055],[-70.67559,-33.46953]]]},"properties":{"COD_MZN":"13101241002038","BARRIO":"SAN EUGENIO","TERRITORIO":"SURPONIENTE","COMUNA":"SANTIAGO"}},
{"type":"Feature","geometry":{"type":"Polygon","coordinates":[[[-70.67695,-33.47061],[-70.67684,-33.46954],[-70.67805,-33.46956],[-70.67804,-33.47059],[-70.67695,-33.47061]]]},"properties":{"COD_MZN":"13101241002039","BARRIO":"SAN EUGENIO","TERRITORIO":"SURPONIENTE","COMUNA":"SANTIAGO"}},
{"type":"Feature","geometry":{"type":"Polygon","coordinates":[[[-70.67813,-33.46959],[-70.67902,-33.46958],[-70.67908,-33.47063],[-70.67815,-33.47063],[-70.67813,-33.46959]]]},"properties":{"COD_MZN":"13101241002040","BARRIO":"SAN EUGENIO","TERRITORIO":"SURPONIENTE","COMUNA":"SANTIAGO"}},
{"type":"Feature","geometry":{"type":"Polygon","coordinates":[[[-70.6741,-33.47058],[-70.67302,-33.47057],[-70.67306,-33.46948],[-70.67421,-33.46954],[-70.6741,-33.47058]]]},"properties":{"COD_MZN":"13101241002035","BARRIO":"SAN EUGENIO","TERRITORIO":"SURPONIENTE","COMUNA":"SANTIAGO"}},
{"type":"Feature","geometry":{"type":"Polygon","coordinates":[[[-70.67308,-33.47682],[-70.67567,-33.47704],[-70.68071,-33.47705],[-70.67987,-33.47833],[-70.67171,-33.47843],[-70.67163,-33.4769],[-70.67308,-33.47682]]]},"properties":{"COD_MZN":"13101241001049","BARRIO":"SAN EUGENIO","TERRITORIO":"SURPONIENTE","COMUNA":"SANTIAGO"}},
{"type":"Feature","geometry":{"type":"Polygon","coordinates":[[[-70.65726,-33.47158],[-70.65723,-33.47025],[-70.65836,-33.47026],[-70.65825,-33.47158],[-70.65726,-33.47158]]]},"properties":{"COD_MZN":"13101221001016","BARRIO":"RONDIZZONI","TERRITORIO":"SURPONIENTE","COMUNA":"SANTIAGO"}},
{"type":"Feature","geometry":{"type":"Polygon","coordinates":[[[-70.6567,-33.47116],[-70.65666,-33.47019],[-70.65716,-33.47023],[-70.65712,-33.47118],[-70.6567,-33.47116]]]},"properties":{"COD_MZN":"13101221001019","BARRIO":"RONDIZZONI","TERRITORIO":"SURPONIENTE","COMUNA":"SANTIAGO"}},
{"type":"Feature","geometry":{"type":"Polygon","coordinates":[[[-70.65941,-33.47169],[-70.65833,-33.4716],[-70.65844,-33.47028],[-70.65956,-33.47039],[-70.65941,-33.47169]]]},"properties":{"COD_MZN":"13101221001021","BARRIO":"RONDIZZONI","TERRITORIO":"SURPONIENTE","COMUNA":"SANTIAGO"}},
{"type":"Feature","geometry":{"type":"Polygon","coordinates":[[[-70.66202,-33.47151],[-70.66098,-33.47145],[-70.66104,-33.47036],[-70.6621,-33.47043],[-70.66202,-33.47151]]]},"properties":{"COD_MZN":"13101221001026","BARRIO":"RONDIZZONI","TERRITORIO":"SURPONIENTE","COMUNA":"SANTIAGO"}},
{"type":"Feature","geometry":{"type":"Polygon","coordinates":[[[-70.6622,-33.47152],[-70.66223,-33.47047],[-70.66329,-33.4705],[-70.66332,-33.47153],[-70.6622,-33.47152]]]},"properties":{"COD_MZN":"13101221001027","BARRIO":"RONDIZZONI","TERRITORIO":"SURPONIENTE","COMUNA":"SANTIAGO"}},
{"type":"Feature","geometry":{"type":"Polygon","coordinates":[[[-70.65658,-33.47154],[-70.6566,-33.47118],[-70.65711,-33.47121],[-70.65703,-33.47157],[-70.65658,-33.47154]]]},"properties":{"COD_MZN":"13101221001028","BARRIO":"RONDIZZONI","TERRITORIO":"SURPONIENTE","COMUNA":"SANTIAGO"}},
{"type":"Feature","geometry":{"type":"Polygon","coordinates":[[[-70.65601,-33.47298],[-70.65648,-33.47161],[-70.65709,-33.47169],[-70.65703,-33.47297],[-70.65601,-33.47298]]]},"properties":{"COD_MZN":"13101221001029","BARRIO":"RONDIZZONI","TERRITORIO":"SURPONIENTE","COMUNA":"SANTIAGO"}},
{"type":"Feature","geometry":{"type":"Polygon","coordinates":[[[-70.65805,-33.4731],[-70.6571,-33.47296],[-70.65716,-33.47169],[-70.65824,-33.47173],[-70.65805,-33.4731]]]},"properties":{"COD_MZN":"13101221001030","BARRIO":"RONDIZZONI","TERRITORIO":"SURPONIENTE","COMUNA":"SANTIAGO"}},
{"type":"Feature","geometry":{"type":"Polygon","coordinates":[[[-70.65534,-33.47331],[-70.66468,-33.47375],[-70.66466,-33.47568],[-70.66183,-33.47562],[-70.65548,-33.47624],[-70.65487,-33.47544],[-70.65534,-33.47331]]]},"properties":{"COD_MZN":"13101221001038","BARRIO":"RONDIZZONI","TERRITORIO":"SURPONIENTE","COMUNA":"SANTIAGO"}},
{"type":"Feature","geometry":{"type":"MultiPolygon","coordinates":[[[[-70.65754,-33.45863],[-70.65785,-33.45825],[-70.66386,-33.45878],[-70.66336,-33.47012],[-70.66307,-33.47033],[-70.65739,-33.46999],[-70.65728,-33.46864],[-70.6568,-33.46783],[-70.65685,-33.46544],[-70.65739,-33.46055],[-70.65775,-33.46013],[-70.65754,-33.45863]]],[[[-70.66126,-33.47328],[-70.65952,-33.47315],[-70.65969,-33.47036],[-70.66094,-33.47151],[-70.66325,-33.47164],[-70.66318,-33.47339],[-70.66126,-33.47328]]],[[[-70.65933,-33.47317],[-70.65821,-33.47306],[-70.65832,-33.47173],[-70.65947,-33.47181],[-70.65933,-33.47317]]]]},"properties":{"COD_MZN":"13101221001004","BARRIO":"PARQUE OHIGGINS","TERRITORIO":"SURPONIENTE","COMUNA":"SANTIAGO"}}
]}
