{
  "type": "FeatureCollection",
  "name": "PTO_BIB_2025_001_BIBLIOTECAS_2025",
  "crs_original": "SIRGAS 2000 / UTM zone 19S",
  "source_status": "Fuente temporal de prueba; originales sin modificación",
  "features": [
    {
      "type": "Feature",
      "id": "1",
      "properties": {
        "ID": "1",
        "NOMBRE": "Biblioteca Nacional de Chile",
        "DIRECCION": "Av. Lib. Bernardo Ohiggins 651",
        "UNIDAD": "1",
        "BARRIO": "SANTA LUCIA FORESTAL",
        "COMUNA": "SANTIAGO",
        "DISTRITO": "HUELÉN",
        "ID_MANZANA": "184098",
        "COD_MZN": "13101011004011",
        "FUENTE": "BIBLIOTECA DIGITAL",
        "ANIO": "2025"
      },
      "geometry": {
        "type": "Point",
        "coordinates": [
          -70.6455714,
          -33.4421709
        ]
      }
    },
    {
      "type": "Feature",
      "id": "2",
      "properties": {
        "ID": "2",
        "NOMBRE": "Biblioteca Fundación Palabra",
        "DIRECCION": "Ventura Lavalle 470",
        "UNIDAD": "21",
        "BARRIO": "MATTA SUR",
        "COMUNA": "SANTIAGO",
        "DISTRITO": "CARMEN",
        "ID_MANZANA": "184864",
        "COD_MZN": "13101171001027",
        "FUENTE": "BIBLIOTECA DIGITAL",
        "ANIO": "2025"
      },
      "geometry": {
        "type": "Point",
        "coordinates": [
          -70.6382472,
          -33.4589329
        ]
      }
    },
    {
      "type": "Feature",
      "id": "3",
      "properties": {
        "ID": "3",
        "NOMBRE": "Biblioteca Pública Temática",
        "DIRECCION": "Morande 226",
        "UNIDAD": "2",
        "BARRIO": "CENTRO HISTORICO",
        "COMUNA": "SANTIAGO",
        "DISTRITO": "MONEDA",
        "ID_MANZANA": "183948",
        "COD_MZN": "13101021005017",
        "FUENTE": "BIBLIOTECA DIGITAL",
        "ANIO": "2025"
      },
      "geometry": {
        "type": "Point",
        "coordinates": [
          -70.6536993,
          -33.4406937
        ]
      }
    },
    {
      "type": "Feature",
      "id": "4",
      "properties": {
        "ID": "4",
        "NOMBRE": "Biblioteca de las Mujeres",
        "DIRECCION": "Agustinas 1389",
        "UNIDAD": "2",
        "BARRIO": "CENTRO HISTORICO",
        "COMUNA": "SANTIAGO",
        "DISTRITO": "MONEDA",
        "ID_MANZANA": "183962",
        "COD_MZN": "13101021005018",
        "FUENTE": "BIBLIOTECA DIGITAL",
        "ANIO": "2025"
      },
      "geometry": {
        "type": "Point",
        "coordinates": [
          -70.6562201,
          -33.4411326
        ]
      }
    },
    {
      "type": "Feature",
      "id": "5",
      "properties": {
        "ID": "5",
        "NOMBRE": "Biblioteca Pública",
        "DIRECCION": "Huerfanos 1805",
        "UNIDAD": "5",
        "BARRIO": "BRASIL",
        "COMUNA": "SANTIAGO",
        "DISTRITO": "BRASIL",
        "ID_MANZANA": "184027",
        "COD_MZN": "13101041003003",
        "FUENTE": "BIBLIOTECA DIGITAL",
        "ANIO": "2025"
      },
      "geometry": {
        "type": "Point",
        "coordinates": [
          -70.6622691,
          -33.4406316
        ]
      }
    },
    {
      "type": "Feature",
      "id": "6",
      "properties": {
        "ID": "6",
        "NOMBRE": "Biblioteca Filial",
        "DIRECCION": "Santo Domingo 2398",
        "UNIDAD": "7",
        "BARRIO": "YUNGAY",
        "COMUNA": "SANTIAGO",
        "DISTRITO": "PORTALES",
        "ID_MANZANA": "184225",
        "COD_MZN": "13101061001001",
        "FUENTE": "BIBLIOTECA DIGITAL",
        "ANIO": "2025"
      },
      "geometry": {
        "type": "Point",
        "coordinates": [
          -70.6704671,
          -33.437817
        ]
      }
    },
    {
      "type": "Feature",
      "id": "7",
      "properties": {
        "ID": "7",
        "NOMBRE": "Biblioteca Regional",
        "DIRECCION": "Matucana 151",
        "UNIDAD": "7",
        "BARRIO": "YUNGAY",
        "COMUNA": "SANTIAGO",
        "DISTRITO": "CHACABUCO",
        "ID_MANZANA": "184566",
        "COD_MZN": "13101051002005",
        "FUENTE": "BIBLIOTECA DIGITAL",
        "ANIO": "2025"
      },
      "geometry": {
        "type": "Point",
        "coordinates": [
          -70.6789919,
          -33.4444138
        ]
      }
    }
  ]
}
