{"type":"FeatureCollection","name":"02_LIMITE_TERRITORIOS_PLADECO","crs":{"type":"name","properties":{"name":"urn:ogc:def:crs:OGC:1.3:CRS84"}},"features":[{"type":"Feature","properties":{"OBJECTID":2,"UNIDAD":2.0,"SECTORES_T":"NORPONIENTE"},"geometry":{"type":"Polygon","coordinates":[[[-70.6678221,-33.4273599],[-70.6644267,-33.4285276],[-70.6643688,-33.4285476],[-70.6637502,-33.4287618],[-70.6630992,-33.4289763],[-70.6625462,-33.4290942],[-70.6620859,-33.4291457],[-70.6617111,-33.4291662],[-70.6613792,-33.429181],[-70.6612239,-33.4292043],[-70.6611088,-33.4292429],[-70.660974,-33.4293051],[-70.6608314,-33.4293755],[-70.6606913,-33.4294453],[-70.660501,-33.4295434],[-70.6609591,-33.4308139],[-70.660957,-33.4312509],[-70.6609454,-33.4314004],[-70.6609252,-33.4316026],[-70.6607504,-33.4325416],[-70.6606301,-33.4331771],[-70.660611,-33.4332772],[-70.660525,-33.4337276],[-70.6603084,-33.4352486],[-70.6600356,-33.4371477],[-70.659998,-33.4374088],[-70.6599267,-33.4380257],[-70.6600246,-33.4380979],[-70.6600129,-33.4384071],[-70.6598912,-33.4384676],[-70.6597854,-33.4391397],[-70.6597218,-33.4395928],[-70.6597018,-33.4400614],[-70.6597356,-33.4403193],[-70.6600394,-33.4416905],[-70.6600476,-33.4417272],[-70.6605824,-33.4439352],[-70.6606312,-33.4442459],[-70.6606304,-33.4445812],[-70.6605812,-33.445928],[-70.6625773,-33.4463985],[-70.6625824,-33.4463754],[-70.6637294,-33.4466545],[-70.6646056,-33.4468622],[-70.6647156,-33.4468882],[-70.6659163,-33.447215],[-70.6674466,-33.4476608],[-70.6674467,-33.4476607],[-70.6681444,-33.4478461],[-70.6683422,-33.4478966],[-70.6704874,-33.4484443],[-70.6729489,-33.4490966],[-70.6738334,-33.449331],[-70.6769685,-33.4501853],[-70.6778565,-33.4504251],[-70.6778919,-33.4506023],[-70.6789785,-33.450842],[-70.6792152,-33.4483292],[-70.6794826,-33.4450269],[-70.6795243,-33.4445122],[-70.6795604,-33.4438702],[-70.6802623,-33.443942],[-70.6891566,-33.4443723],[-70.6923228,-33.4445279],[-70.6918917,-33.4392573],[-70.6917185,-33.4392145],[-70.6914808,-33.4391816],[-70.6832378,-33.4386422],[-70.6834603,-33.4364521],[-70.6819019,-33.4361521],[-70.680892,-33.4360129],[-70.6807808,-33.4372837],[-70.6813157,-33.4373259],[-70.6813051,-33.4374562],[-70.6814078,-33.4374627],[-70.6814116,-33.4374169],[-70.6819025,-33.4374473],[-70.681866,-33.4379435],[-70.6817642,-33.4379371],[-70.6817165,-33.4385486],[-70.6800645,-33.4384333],[-70.6802646,-33.4359549],[-70.6804813,-33.4335035],[-70.6804999,-33.4330197],[-70.6805028,-33.432943],[-70.680706,-33.4303472],[-70.6807395,-33.4298498],[-70.6807089,-33.4293804],[-70.6806043,-33.4289842],[-70.6804801,-33.4286877],[-70.6803075,-33.428401],[-70.6799371,-33.4279479],[-70.6796457,-33.427681],[-70.6793625,-33.4274572],[-70.6790887,-33.4273378],[-70.6782083,-33.4269743],[-70.6777808,-33.4268816],[-70.6775306,-33.4268481],[-70.677031,-33.4268179],[-70.6768957,-33.426817],[-70.67673,-33.4268158],[-70.6763747,-33.4268514],[-70.6760533,-33.4269296],[-70.6757905,-33.4270008],[-70.6755056,-33.4270724],[-70.6754626,-33.4270873],[-70.6751921,-33.4271812],[-70.6718223,-33.4282791],[-70.6717279,-33.4271849],[-70.6717413,-33.427117],[-70.6716144,-33.4260479],[-70.6716007,-33.4259296],[-70.6715716,-33.4256949],[-70.6714443,-33.4258051],[-70.6713228,-33.4258972],[-70.6712093,-33.4259734],[-70.6710428,-33.4260792],[-70.6707046,-33.4262775],[-70.6703089,-33.4264778],[-70.6698936,-33.4266373],[-70.6678221,-33.4273599]]]}},{"type":"Feature","properties":{"OBJECTID":3,"UNIDAD":3.0,"SECTORES_T":"CENTRO ORIENTE"},"geometry":{"type":"Polygon","coordinates":[[[-70.6438402,-33.4584659],[-70.645284,-33.4587438],[-70.645284,-33.4587437],[-70.6458845,-33.4588806],[-70.6491256,-33.4595709],[-70.6491278,-33.4595573],[-70.6497313,-33.4596519],[-70.6533858,-33.4600466],[-70.6560448,-33.4603992],[-70.6566381,-33.460627],[-70.6570957,-33.4606799],[-70.6571078,-33.4602573],[-70.6568938,-33.4590771],[-70.6567259,-33.458105],[-70.6567098,-33.4577735],[-70.6568001,-33.4570868],[-70.6568832,-33.4564402],[-70.657016,-33.4560942],[-70.6572655,-33.4557158],[-70.6577236,-33.4551257],[-70.65797,-33.454775],[-70.6580541,-33.454593],[-70.6581214,-33.4544472],[-70.658233,-33.4541444],[-70.6588269,-33.4526593],[-70.658971,-33.4522147],[-70.6596627,-33.4492354],[-70.660012,-33.4481684],[-70.6603,-33.4471545],[-70.6605812,-33.445928],[-70.6604339,-33.4458829],[-70.660063,-33.4458074],[-70.6592706,-33.4456177],[-70.6586193,-33.4454739],[-70.658616,-33.4454731],[-70.6573714,-33.4451832],[-70.6557207,-33.4447919],[-70.6555897,-33.4447727],[-70.6554435,-33.444748],[-70.6548353,-33.4445997],[-70.654291,-33.4444682],[-70.6540284,-33.4443955],[-70.65331,-33.4442464],[-70.6530764,-33.4442051],[-70.6529894,-33.4441865],[-70.6528482,-33.444151],[-70.6519012,-33.4439287],[-70.6516188,-33.4439102],[-70.6511006,-33.4438347],[-70.6510136,-33.4438139],[-70.65038,-33.4436555],[-70.648957,-33.4433321],[-70.6476596,-33.443035],[-70.6470918,-33.4429086],[-70.6467813,-33.4428394],[-70.6463496,-33.4427528],[-70.6462294,-33.4427298],[-70.6461421,-33.4427084],[-70.6452832,-33.4425173],[-70.6448898,-33.442424],[-70.644814,-33.4423975],[-70.6442895,-33.4422464],[-70.6440837,-33.4421871],[-70.6440837,-33.442187],[-70.644042,-33.4421751],[-70.6436847,-33.4420382],[-70.6435013,-33.4419679],[-70.6433051,-33.4418849],[-70.6431089,-33.4418018],[-70.6429328,-33.4417094],[-70.6427568,-33.4416171],[-70.6424355,-33.4414049],[-70.6418493,-33.4409917],[-70.6417071,-33.4408915],[-70.6407942,-33.4402723],[-70.6407039,-33.4402043],[-70.6405198,-33.4400767],[-70.6404954,-33.4400598],[-70.6395839,-33.4394586],[-70.6392251,-33.4392018],[-70.6381899,-33.43844],[-70.6381399,-33.4383975],[-70.6380429,-33.4383427],[-70.6375043,-33.437962],[-70.6368753,-33.4376367],[-70.6366715,-33.4375401],[-70.6365557,-33.4374862],[-70.6364512,-33.4374439],[-70.635903,-33.4372888],[-70.6354415,-33.4371776],[-70.6351932,-33.4371219],[-70.6340737,-33.4412616],[-70.6338918,-33.4418591],[-70.6331956,-33.4441463],[-70.6323492,-33.4470036],[-70.6316466,-33.4494164],[-70.6314935,-33.4499423],[-70.6309011,-33.4519315],[-70.6306264,-33.452854],[-70.629828,-33.4554815],[-70.6332534,-33.4562336],[-70.6358575,-33.456809],[-70.6395434,-33.4575173],[-70.6416422,-33.4579882],[-70.6432682,-33.4583416],[-70.6438402,-33.4584659]]]}},{"type":"Feature","properties":{"OBJECTID":4,"UNIDAD":4.0,"SECTORES_T":"CENTRO PONIENTE"},"geometry":{"type":"Polygon","coordinates":[[[-70.6605812,-33.445928],[-70.6603,-33.4471545],[-70.660012,-33.4481684],[-70.6596627,-33.4492354],[-70.658971,-33.4522147],[-70.6588269,-33.4526593],[-70.658233,-33.4541444],[-70.6581214,-33.4544472],[-70.6580541,-33.454593],[-70.65797,-33.454775],[-70.6577236,-33.4551257],[-70.6572655,-33.4557158],[-70.657016,-33.4560942],[-70.6568832,-33.4564402],[-70.6568001,-33.4570868],[-70.6567098,-33.4577735],[-70.6567259,-33.458105],[-70.659305,-33.4582532],[-70.6638731,-33.458545],[-70.663927,-33.4585415],[-70.6649518,-33.4586265],[-70.6649508,-33.4571147],[-70.6664986,-33.4573926],[-70.6691948,-33.4578766],[-70.6721085,-33.4583481],[-70.6721184,-33.4583487],[-70.6721185,-33.4583487],[-70.67538,-33.4585431],[-70.6761584,-33.4585652],[-70.6783486,-33.4581345],[-70.6782396,-33.456709],[-70.6780104,-33.4534865],[-70.6778679,-33.4514014],[-70.6778692,-33.4509957],[-70.6778919,-33.4506023],[-70.6778565,-33.4504251],[-70.6769685,-33.4501853],[-70.6738334,-33.449331],[-70.6729489,-33.4490966],[-70.6725317,-33.4489861],[-70.6704874,-33.4484443],[-70.6683422,-33.4478966],[-70.6681444,-33.4478461],[-70.6674467,-33.4476607],[-70.6674466,-33.4476608],[-70.6659163,-33.447215],[-70.6647156,-33.4468882],[-70.6646056,-33.4468622],[-70.6637294,-33.4466545],[-70.6625824,-33.4463754],[-70.6625773,-33.4463985],[-70.6605812,-33.445928]]]}},{"type":"Feature","properties":{"OBJECTID":6,"UNIDAD":6.0,"SECTORES_T":"SURPONIENTE"},"geometry":{"type":"Polygon","coordinates":[[[-70.6649508,-33.4571147],[-70.6649518,-33.4586265],[-70.663927,-33.4585415],[-70.6638731,-33.458545],[-70.659305,-33.4582532],[-70.6567259,-33.458105],[-70.6568938,-33.4590771],[-70.6571078,-33.4602573],[-70.6570957,-33.4606799],[-70.6566033,-33.4640599],[-70.6565711,-33.464616],[-70.6564567,-33.4665916],[-70.656352,-33.4692429],[-70.6563302,-33.4700438],[-70.6561737,-33.4700367],[-70.6561552,-33.4702964],[-70.6561327,-33.4707147],[-70.6561157,-33.4709739],[-70.6560483,-33.4712815],[-70.6559147,-33.4715809],[-70.6556602,-33.471972],[-70.6553919,-33.4723454],[-70.6550699,-33.4728141],[-70.654748,-33.4732828],[-70.654564,-33.473637],[-70.6544267,-33.4740537],[-70.6543686,-33.4743971],[-70.6543526,-33.4747716],[-70.6543898,-33.4752806],[-70.6544908,-33.47566],[-70.654641,-33.4760233],[-70.654847,-33.4764772],[-70.6548783,-33.4765359],[-70.6549983,-33.4765261],[-70.6550963,-33.476518],[-70.6608594,-33.4759711],[-70.6612686,-33.4759475],[-70.6617747,-33.4759137],[-70.6622705,-33.475907],[-70.6632628,-33.4759298],[-70.6647839,-33.475954],[-70.6648051,-33.4759543],[-70.6661718,-33.4760063],[-70.6681591,-33.4760538],[-70.6715716,-33.4761276],[-70.6715809,-33.4767847],[-70.6715551,-33.4785288],[-70.6795371,-33.4784299],[-70.6808466,-33.4784216],[-70.6807174,-33.4764623],[-70.6799949,-33.476454],[-70.6793153,-33.4764361],[-70.6786796,-33.4764538],[-70.677862,-33.4765462],[-70.6766447,-33.4765988],[-70.6764614,-33.4766013],[-70.6757725,-33.4766558],[-70.6750054,-33.4765982],[-70.6743646,-33.4764862],[-70.6735993,-33.4764178],[-70.6730047,-33.4764363],[-70.6723919,-33.4764814],[-70.6723099,-33.4764457],[-70.6721831,-33.4763687],[-70.6720504,-33.4763023],[-70.6718797,-33.4762206],[-70.6716576,-33.476178],[-70.6716523,-33.4757911],[-70.6723098,-33.4758082],[-70.6726082,-33.4754965],[-70.6728667,-33.4749841],[-70.6728976,-33.4748876],[-70.6729267,-33.4719441],[-70.6729397,-33.4706315],[-70.6798569,-33.4707005],[-70.679921,-33.4706726],[-70.6799417,-33.4706271],[-70.6799518,-33.4705908],[-70.6799617,-33.4705455],[-70.6799395,-33.4705097],[-70.6799499,-33.4704915],[-70.6790953,-33.4692201],[-70.6789759,-33.4666647],[-70.6789752,-33.4666547],[-70.678686,-33.4625306],[-70.6784342,-33.4592543],[-70.6783486,-33.4581345],[-70.6761584,-33.4585652],[-70.67538,-33.4585431],[-70.6721185,-33.4583487],[-70.6721085,-33.4583481],[-70.6691948,-33.4578766],[-70.6664986,-33.4573926],[-70.6649508,-33.4571147]]]}},{"type":"Feature","properties":{"OBJECTID":5,"UNIDAD":5.0,"SECTORES_T":"SURORIENTE"},"geometry":{"type":"Polygon","coordinates":[[[-70.6288722,-33.458759],[-70.6279952,-33.461725],[-70.627162,-33.4647266],[-70.6264163,-33.4673856],[-70.6263787,-33.4675197],[-70.6259877,-33.4688079],[-70.6258521,-33.4690536],[-70.6256718,-33.4692096],[-70.6251068,-33.4695513],[-70.6250694,-33.4695698],[-70.6254157,-33.4702158],[-70.6256041,-33.4704934],[-70.625814,-33.4707618],[-70.6260014,-33.4709852],[-70.6263307,-33.4712971],[-70.6266629,-33.471551],[-70.6267025,-33.4715813],[-70.6270619,-33.4717754],[-70.6272216,-33.4718498],[-70.6273447,-33.4719072],[-70.6298952,-33.4728133],[-70.630732,-33.4731126],[-70.6349826,-33.4746326],[-70.638546,-33.4759068],[-70.6389743,-33.4760366],[-70.6392564,-33.4761323],[-70.6396248,-33.4762268],[-70.6399495,-33.4762948],[-70.6403281,-33.476362],[-70.6404795,-33.4763871],[-70.641883,-33.476486],[-70.6419672,-33.4764898],[-70.648201,-33.4767726],[-70.6482049,-33.4767725],[-70.6540134,-33.4765919],[-70.6540183,-33.4765917],[-70.6543051,-33.4765828],[-70.6548783,-33.4765359],[-70.654847,-33.4764772],[-70.654641,-33.4760233],[-70.6544908,-33.47566],[-70.6543898,-33.4752806],[-70.6543526,-33.4747716],[-70.6543686,-33.4743971],[-70.6544267,-33.4740537],[-70.654564,-33.473637],[-70.654748,-33.4732828],[-70.6550699,-33.4728141],[-70.6553919,-33.4723454],[-70.6556602,-33.471972],[-70.6559147,-33.4715809],[-70.6560483,-33.4712815],[-70.6561157,-33.4709739],[-70.6561327,-33.4707147],[-70.6561552,-33.4702964],[-70.6561737,-33.4700367],[-70.6563302,-33.4700438],[-70.656352,-33.4692429],[-70.6564567,-33.4665916],[-70.6565711,-33.464616],[-70.6566033,-33.4640599],[-70.6570957,-33.4606799],[-70.6566381,-33.460627],[-70.6560448,-33.4603992],[-70.6533858,-33.4600466],[-70.6497313,-33.4596519],[-70.6491278,-33.4595573],[-70.6491256,-33.4595709],[-70.6458845,-33.4588806],[-70.645284,-33.4587437],[-70.645284,-33.4587438],[-70.6438402,-33.4584659],[-70.6432682,-33.4583416],[-70.6416422,-33.4579882],[-70.6395434,-33.4575173],[-70.6358575,-33.456809],[-70.6332534,-33.4562336],[-70.629828,-33.4554815],[-70.6297279,-33.4558113],[-70.6288722,-33.458759]]]}},{"type":"Feature","properties":{"OBJECTID":1,"UNIDAD":1.0,"SECTORES_T":"NORORIENTE"},"geometry":{"type":"Polygon","coordinates":[[[-70.6604339,-33.4458829],[-70.6605812,-33.445928],[-70.6606304,-33.4445812],[-70.6606312,-33.4442459],[-70.6605824,-33.4439352],[-70.6600476,-33.4417272],[-70.6600394,-33.4416905],[-70.6597356,-33.4403193],[-70.6597018,-33.4400614],[-70.6597218,-33.4395928],[-70.6597854,-33.4391397],[-70.6598912,-33.4384676],[-70.6600129,-33.4384071],[-70.6600246,-33.4380979],[-70.6599267,-33.4380257],[-70.659998,-33.4374088],[-70.6600356,-33.4371477],[-70.6603084,-33.4352486],[-70.660525,-33.4337276],[-70.660611,-33.4332772],[-70.6606301,-33.4331771],[-70.6607504,-33.4325416],[-70.6609252,-33.4316026],[-70.6609454,-33.4314004],[-70.660957,-33.4312509],[-70.6609591,-33.4308139],[-70.660501,-33.4295434],[-70.6604774,-33.4295555],[-70.6602986,-33.4296632],[-70.6601842,-33.4297334],[-70.6599261,-33.4298782],[-70.6596592,-33.430007],[-70.659396,-33.43009],[-70.6574745,-33.4305487],[-70.6559339,-33.4309165],[-70.6529719,-33.4316235],[-70.652826,-33.431656],[-70.6517278,-33.4319006],[-70.650654,-33.4321399],[-70.6485988,-33.4325977],[-70.6478228,-33.4327706],[-70.6474938,-33.4328439],[-70.6425632,-33.4339988],[-70.6419739,-33.4341368],[-70.6361748,-33.4354965],[-70.6353863,-33.4356876],[-70.635335,-33.4358238],[-70.635376,-33.4362841],[-70.6353586,-33.4365102],[-70.6351932,-33.4371219],[-70.6354415,-33.4371776],[-70.635903,-33.4372888],[-70.6364512,-33.4374439],[-70.6365557,-33.4374862],[-70.6366715,-33.4375401],[-70.6368753,-33.4376367],[-70.6375043,-33.437962],[-70.6380429,-33.4383427],[-70.6381399,-33.4383975],[-70.6381899,-33.43844],[-70.6392251,-33.4392018],[-70.6395839,-33.4394586],[-70.6404954,-33.4400598],[-70.6405198,-33.4400767],[-70.6407039,-33.4402043],[-70.6407942,-33.4402723],[-70.6417071,-33.4408915],[-70.6418493,-33.4409917],[-70.6424355,-33.4414049],[-70.6427568,-33.4416171],[-70.6429328,-33.4417094],[-70.6431089,-33.4418018],[-70.6433051,-33.4418849],[-70.6435013,-33.4419679],[-70.6436847,-33.4420382],[-70.644042,-33.4421751],[-70.6440837,-33.442187],[-70.6440837,-33.4421871],[-70.6442895,-33.4422464],[-70.644814,-33.4423975],[-70.6448898,-33.442424],[-70.6452832,-33.4425173],[-70.6461421,-33.4427084],[-70.6462294,-33.4427298],[-70.6463496,-33.4427528],[-70.6467813,-33.4428394],[-70.6470918,-33.4429086],[-70.6476596,-33.443035],[-70.648957,-33.4433321],[-70.65038,-33.4436555],[-70.6510136,-33.4438139],[-70.6511006,-33.4438347],[-70.6516188,-33.4439102],[-70.6519012,-33.4439287],[-70.6528482,-33.444151],[-70.6529894,-33.4441865],[-70.6530764,-33.4442051],[-70.65331,-33.4442464],[-70.6540284,-33.4443955],[-70.654291,-33.4444682],[-70.6548353,-33.4445997],[-70.6554435,-33.444748],[-70.6555897,-33.4447727],[-70.6557207,-33.4447919],[-70.6573714,-33.4451832],[-70.658616,-33.4454731],[-70.6586193,-33.4454739],[-70.6592706,-33.4456177],[-70.660063,-33.4458074],[-70.6604339,-33.4458829]]]}}]}