{
"type": "FeatureCollection",
"name": "UNIDADES_VECINALES",
"features": [
{ "type": "Feature", "properties": { "ID": 1.0, "U_VECINAL": "1 / 1", "AGRUP_VECI": "AV1", "BARRIOS": "SANTA LUCIA FORESTAL", "PERSONAS": 4198.0, "HOMBRES": 2125.0, "MUJERES": 2073.0, "DE_0_A_5_A": 132.0, "DE_6_A_14_": 102.0, "DE_15_A_64": 3425.0, "DE_65_MAS_": 441.0, "INMIGRANTE": 659.0, "PUEBLOS_OR": 343.0, "VIVIENDA_P": 2790.0, "VIVIENDA_C": 15.0, "VIVI_OCUPA": 2127.0, "TOTAL_VIVI": 2805.0, "TOTAL_HOGA": 2212.0, "CASA": 56.0, "DEPTO": 2718.0, "VIV_INDIGE": 0.0, "CONVENTILL": 4.0, "MEDIAGUA": 1.0, "MOVIL": 0.0, "OTRA_VIV_P": 11.0, "VIV_HORMIG": 1864.0, "VIV_ALBANI": 244.0, "VIV_TABIQU": 2.0, "VIV_TAB_SI": 0.0, "VIV_ADOBE": 3.0, "VIV_MATPRE": 0.0, "TECHO_TEJA": 351.0, "TECHO_LOSA": 1551.0, "TECHO_PLAN": 198.0, "TECHO_FONO": 1.0, "TECHO_PAJA": 0.0, "TECHO_PREC": 0.0, "SIN_TECHO": 0.0, "PISO_PARQU": 2099.0, "PISO_RADIE": 2.0, "PISO_BALDO": 0.0, "PISO_CAP_C": 0.0, "PISO_TIERR": 0.0, "MAT_ACEP": 2078.0, "MAT_REC": 4.0, "MAT_IRRE": 0.0, "AGUA_R_PUB": 2113.0, "AGUA_POZO": 1.0, "AGUA_CAMIO": 0.0, "AGUA_RIO": 0.0, "AREA_HA": 33.08, "DENS_HA_HA": 126.9, "DENS_HA_VI": 84.79, "M_ACEP_P": 97.7, "M_REC_P": 0.2, "M_IRRE_P": 0.0 }, "geometry": { "type": "Polygon", "coordinates": [ [ [ -70.635212, -33.437061 ], [ -70.635377, -33.43645 ], [ -70.635394, -33.436224 ], [ -70.635353, -33.435763 ], [ -70.635405, -33.435627 ], [ -70.636193, -33.435436 ], [ -70.641992, -33.434076 ], [ -70.642582, -33.433938 ], [ -70.642847, -33.434639 ], [ -70.642835, -33.434776 ], [ -70.643125, -33.435483 ], [ -70.64322, -33.435688 ], [ -70.643296, -33.435839 ], [ -70.643264, -33.435919 ], [ -70.643208, -33.436011 ], [ -70.643411, -33.436437 ], [ -70.643463, -33.436509 ], [ -70.643361, -33.437637 ], [ -70.643354, -33.437645 ], [ -70.643146, -33.437854 ], [ -70.642831, -33.438138 ], [ -70.642768, -33.438197 ], [ -70.64271, -33.438279 ], [ -70.642655, -33.438364 ], [ -70.642628, -33.438432 ], [ -70.642366, -33.439369 ], [ -70.642353, -33.439454 ], [ -70.642352, -33.439533 ], [ -70.642368, -33.440262 ], [ -70.642358, -33.440456 ], [ -70.642347, -33.440484 ], [ -70.642285, -33.440499 ], [ -70.642225, -33.440484 ], [ -70.642193, -33.440488 ], [ -70.641915, -33.440742 ], [ -70.641853, -33.44078 ], [ -70.641789, -33.44081 ], [ -70.641726, -33.440831 ], [ -70.640813, -33.440212 ], [ -70.640722, -33.440144 ], [ -70.640538, -33.440016 ], [ -70.640514, -33.439999 ], [ -70.639602, -33.439398 ], [ -70.639244, -33.439141 ], [ -70.638208, -33.43838 ], [ -70.638158, -33.438337 ], [ -70.638061, -33.438282 ], [ -70.637523, -33.437902 ], [ -70.636894, -33.437576 ], [ -70.63669, -33.43748 ], [ -70.636574, -33.437426 ], [ -70.63647, -33.437383 ], [ -70.635921, -33.437228 ], [ -70.63546, -33.437117 ], [ -70.635212, -33.437061 ] ] ] } },
{ "type": "Feature", "properties": { "ID": 12.0, "U_VECINAL": "3 / 3", "AGRUP_VECI": "AV3", "BARRIOS": "YUNGAY", "PERSONAS": 5781.0, "HOMBRES": 2734.0, "MUJERES": 3047.0, "DE_0_A_5_A": 380.0, "DE_6_A_14_": 465.0, "DE_15_A_64": 4333.0, "DE_65_MAS_": 569.0, "INMIGRANTE": 1462.0, "PUEBLOS_OR": 536.0, "VIVIENDA_P": 2431.0, "VIVIENDA_C": 18.0, "VIVI_OCUPA": 2144.0, "TOTAL_VIVI": 2449.0, "TOTAL_HOGA": 2287.0, "CASA": 713.0, "DEPTO": 1374.0, "VIV_INDIGE": 1.0, "CONVENTILL": 333.0, "MEDIAGUA": 4.0, "MOVIL": 0.0, "OTRA_VIV_P": 6.0, "VIV_HORMIG": 1293.0, "VIV_ALBANI": 400.0, "VIV_TABIQU": 30.0, "VIV_TAB_SI": 12.0, "VIV_ADOBE": 392.0, "VIV_MATPRE": 2.0, "TECHO_TEJA": 555.0, "TECHO_LOSA": 884.0, "TECHO_PLAN": 670.0, "TECHO_FONO": 3.0, "TECHO_PAJA": 0.0, "TECHO_PREC": 2.0, "SIN_TECHO": 1.0, "PISO_PARQU": 2040.0, "PISO_RADIE": 14.0, "PISO_BALDO": 45.0, "PISO_CAP_C": 7.0, "PISO_TIERR": 5.0, "MAT_ACEP": 1666.0, "MAT_REC": 423.0, "MAT_IRRE": 8.0, "AGUA_R_PUB": 2124.0, "AGUA_POZO": 1.0, "AGUA_CAMIO": 2.0, "AGUA_RIO": 0.0, "AREA_HA": 30.88, "DENS_HA_HA": 187.21, "DENS_HA_VI": 79.31, "M_ACEP_P": 77.7, "M_REC_P": 19.7, "M_IRRE_P": 0.4 }, "geometry": { "type": "Polygon", "coordinates": [ [ [ -70.668674, -33.437579 ], [ -70.671568, -33.437787 ], [ -70.674438, -33.437982 ], [ -70.674407, -33.438327 ], [ -70.674283, -33.439687 ], [ -70.674176, -33.440879 ], [ -70.673977, -33.443126 ], [ -70.672192, -33.442908 ], [ -70.672174, -33.443093 ], [ -70.669889, -33.442827 ], [ -70.667951, -33.442488 ], [ -70.668165, -33.441445 ], [ -70.668505, -33.440192 ], [ -70.668492, -33.43951 ], [ -70.668531, -33.43909 ], [ -70.668549, -33.4389 ], [ -70.668639, -33.437951 ], [ -70.668674, -33.437579 ] ] ] } },
{ "type": "Feature", "properties": { "ID": 17.0, "U_VECINAL": "7 / 4", "AGRUP_VECI": "AV7", "BARRIOS": "SAN BORJA", "PERSONAS": 4311.0, "HOMBRES": 2104.0, "MUJERES": 2207.0, "DE_0_A_5_A": 150.0, "DE_6_A_14_": 169.0, "DE_15_A_64": 3465.0, "DE_65_MAS_": 507.0, "INMIGRANTE": 672.0, "PUEBLOS_OR": 315.0, "VIVIENDA_P": 2276.0, "VIVIENDA_C": 6.0, "VIVI_OCUPA": 1940.0, "TOTAL_VIVI": 2282.0, "TOTAL_HOGA": 2157.0, "CASA": 87.0, "DEPTO": 2185.0, "VIV_INDIGE": 0.0, "CONVENTILL": 1.0, "MEDIAGUA": 0.0, "MOVIL": 0.0, "OTRA_VIV_P": 3.0, "VIV_HORMIG": 1838.0, "VIV_ALBANI": 88.0, "VIV_TABIQU": 2.0, "VIV_TAB_SI": 0.0, "VIV_ADOBE": 0.0, "VIV_MATPRE": 0.0, "TECHO_TEJA": 112.0, "TECHO_LOSA": 1761.0, "TECHO_PLAN": 48.0, "TECHO_FONO": 0.0, "TECHO_PAJA": 0.0, "TECHO_PREC": 0.0, "SIN_TECHO": 0.0, "PISO_PARQU": 1914.0, "PISO_RADIE": 3.0, "PISO_BALDO": 2.0, "PISO_CAP_C": 0.0, "PISO_TIERR": 0.0, "MAT_ACEP": 1902.0, "MAT_REC": 5.0, "MAT_IRRE": 0.0, "AGUA_R_PUB": 1913.0, "AGUA_POZO": 5.0, "AGUA_CAMIO": 0.0, "AGUA_RIO": 0.0, "AREA_HA": 23.7, "DENS_HA_HA": 181.9, "DENS_HA_VI": 96.29, "M_ACEP_P": 98.0, "M_REC_P": 0.3, "M_IRRE_P": 0.0 }, "geometry": { "type": "Polygon", "coordinates": [ [ [ -70.635212, -33.437061 ], [ -70.63546, -33.437117 ], [ -70.635921, -33.437228 ], [ -70.63647, -33.437383 ], [ -70.636574, -33.437426 ], [ -70.63669, -33.43748 ], [ -70.636894, -33.437576 ], [ -70.637523, -33.437902 ], [ -70.638061, -33.438282 ], [ -70.638158, -33.438337 ], [ -70.638208, -33.43838 ], [ -70.639244, -33.439141 ], [ -70.639602, -33.439398 ], [ -70.640514, -33.439999 ], [ -70.640538, -33.440016 ], [ -70.640038, -33.440489 ], [ -70.638856, -33.441756 ], [ -70.637822, -33.44296 ], [ -70.63391, -33.441799 ], [ -70.634092, -33.441201 ], [ -70.635212, -33.437061 ] ] ] } },
{ "type": "Feature", "properties": { "ID": 18.0, "U_VECINAL": "7 / 5", "AGRUP_VECI": "AV7", "BARRIOS": "SANTA ISABEL", "PERSONAS": 17156.0, "HOMBRES": 8436.0, "MUJERES": 8720.0, "DE_0_A_5_A": 762.0, "DE_6_A_14_": 591.0, "DE_15_A_64": 14646.0, "DE_65_MAS_": 914.0, "INMIGRANTE": 3747.0, "PUEBLOS_OR": 1198.0, "VIVIENDA_P": 10045.0, "VIVIENDA_C": 5.0, "VIVI_OCUPA": 8678.0, "TOTAL_VIVI": 10050.0, "TOTAL_HOGA": 9009.0, "CASA": 327.0, "DEPTO": 9662.0, "VIV_INDIGE": 1.0, "CONVENTILL": 47.0, "MEDIAGUA": 1.0, "MOVIL": 0.0, "OTRA_VIV_P": 7.0, "VIV_HORMIG": 8075.0, "VIV_ALBANI": 464.0, "VIV_TABIQU": 12.0, "VIV_TAB_SI": 14.0, "VIV_ADOBE": 77.0, "VIV_MATPRE": 1.0, "TECHO_TEJA": 752.0, "TECHO_LOSA": 7443.0, "TECHO_PLAN": 422.0, "TECHO_FONO": 1.0, "TECHO_PAJA": 0.0, "TECHO_PREC": 1.0, "SIN_TECHO": 0.0, "PISO_PARQU": 8592.0, "PISO_RADIE": 2.0, "PISO_BALDO": 15.0, "PISO_CAP_C": 0.0, "PISO_TIERR": 0.0, "MAT_ACEP": 8470.0, "MAT_REC": 104.0, "MAT_IRRE": 1.0, "AGUA_R_PUB": 8634.0, "AGUA_POZO": 0.0, "AGUA_CAMIO": 1.0, "AGUA_RIO": 0.0, "AREA_HA": 33.84, "DENS_HA_HA": 506.97, "DENS_HA_VI": 296.99, "M_ACEP_P": 97.6, "M_REC_P": 1.2, "M_IRRE_P": 0.0 }, "geometry": { "type": "Polygon", "coordinates": [ [ [ -70.637822, -33.44296 ], [ -70.637816, -33.442967 ], [ -70.637221, -33.443903 ], [ -70.636514, -33.445102 ], [ -70.636318, -33.445434 ], [ -70.635821, -33.446413 ], [ -70.63558, -33.447127 ], [ -70.635427, -33.447654 ], [ -70.635099, -33.448909 ], [ -70.634797, -33.45017 ], [ -70.634464, -33.451507 ], [ -70.634455, -33.451505 ], [ -70.634282, -33.45158 ], [ -70.632436, -33.451605 ], [ -70.63092, -33.451871 ], [ -70.631512, -33.449882 ], [ -70.631665, -33.449356 ], [ -70.632368, -33.446943 ], [ -70.633214, -33.444086 ], [ -70.63391, -33.441799 ], [ -70.637822, -33.44296 ] ] ] } },
{ "type": "Feature", "properties": { "ID": 21.0, "U_VECINAL": "7 / 8", "AGRUP_VECI": "AV7", "BARRIOS": "DIEZ DE JULIO", "PERSONAS": 11488.0, "HOMBRES": 5632.0, "MUJERES": 5856.0, "DE_0_A_5_A": 598.0, "DE_6_A_14_": 713.0, "DE_15_A_64": 9192.0, "DE_65_MAS_": 824.0, "INMIGRANTE": 3173.0, "PUEBLOS_OR": 885.0, "VIVIENDA_P": 6121.0, "VIVIENDA_C": 6.0, "VIVI_OCUPA": 4748.0, "TOTAL_VIVI": 6127.0, "TOTAL_HOGA": 5083.0, "CASA": 956.0, "DEPTO": 4909.0, "VIV_INDIGE": 0.0, "CONVENTILL": 224.0, "MEDIAGUA": 1.0, "MOVIL": 0.0, "OTRA_VIV_P": 31.0, "VIV_HORMIG": 3483.0, "VIV_ALBANI": 720.0, "VIV_TABIQU": 52.0, "VIV_TAB_SI": 13.0, "VIV_ADOBE": 415.0, "VIV_MATPRE": 2.0, "TECHO_TEJA": 525.0, "TECHO_LOSA": 3185.0, "TECHO_PLAN": 929.0, "TECHO_FONO": 2.0, "TECHO_PAJA": 1.0, "TECHO_PREC": 12.0, "SIN_TECHO": 0.0, "PISO_PARQU": 4597.0, "PISO_RADIE": 13.0, "PISO_BALDO": 33.0, "PISO_CAP_C": 3.0, "PISO_TIERR": 0.0, "MAT_ACEP": 4157.0, "MAT_REC": 432.0, "MAT_IRRE": 14.0, "AGUA_R_PUB": 4667.0, "AGUA_POZO": 0.0, "AGUA_CAMIO": 0.0, "AGUA_RIO": 0.0, "AREA_HA": 66.12, "DENS_HA_HA": 173.74, "DENS_HA_VI": 92.66, "M_ACEP_P": 87.6, "M_REC_P": 9.1, "M_IRRE_P": 0.3 }, "geometry": { "type": "Polygon", "coordinates": [ [ [ -70.634464, -33.451507 ], [ -70.635418, -33.451675 ], [ -70.635519, -33.451674 ], [ -70.637736, -33.452034 ], [ -70.637999, -33.452104 ], [ -70.640684, -33.452641 ], [ -70.642303, -33.452925 ], [ -70.644024, -33.453257 ], [ -70.64382, -33.454766 ], [ -70.643416, -33.45732 ], [ -70.643287, -33.458281 ], [ -70.641661, -33.457928 ], [ -70.639562, -33.457457 ], [ -70.635876, -33.456749 ], [ -70.633272, -33.456173 ], [ -70.629846, -33.455421 ], [ -70.630645, -33.452794 ], [ -70.63092, -33.451871 ], [ -70.632436, -33.451605 ], [ -70.634282, -33.45158 ], [ -70.634455, -33.451505 ], [ -70.634464, -33.451507 ] ] ] } },
{ "type": "Feature", "properties": { "ID": 30.0, "U_VECINAL": "9 / 3", "AGRUP_VECI": "AV9", "BARRIOS": "MEIGGS / BARRIO UNIVERSITARIO", "PERSONAS": 11194.0, "HOMBRES": 5718.0, "MUJERES": 5461.0, "DE_0_A_5_A": 710.0, "DE_6_A_14_": 782.0, "DE_15_A_64": 8821.0, "DE_65_MAS_": 683.0, "INMIGRANTE": 3894.0, "PUEBLOS_OR": 1169.0, "VIVIENDA_P": 4930.0, "VIVIENDA_C": 18.0, "VIVI_OCUPA": 4106.0, "TOTAL_VIVI": 4948.0, "TOTAL_HOGA": 4426.0, "CASA": 1279.0, "DEPTO": 3328.0, "VIV_INDIGE": 1.0, "CONVENTILL": 292.0, "MEDIAGUA": 4.0, "MOVIL": 0.0, "OTRA_VIV_P": 26.0, "VIV_HORMIG": 2513.0, "VIV_ALBANI": 746.0, "VIV_TABIQU": 84.0, "VIV_TAB_SI": 37.0, "VIV_ADOBE": 668.0, "VIV_MATPRE": 3.0, "TECHO_TEJA": 739.0, "TECHO_LOSA": 2177.0, "TECHO_PLAN": 1076.0, "TECHO_FONO": 6.0, "TECHO_PAJA": 0.0, "TECHO_PREC": 34.0, "SIN_TECHO": 1.0, "PISO_PARQU": 3903.0, "PISO_RADIE": 30.0, "PISO_BALDO": 59.0, "PISO_CAP_C": 14.0, "PISO_TIERR": 1.0, "MAT_ACEP": 3215.0, "MAT_REC": 726.0, "MAT_IRRE": 34.0, "AGUA_R_PUB": 4051.0, "AGUA_POZO": 0.0, "AGUA_CAMIO": 3.0, "AGUA_RIO": 0.0, "AREA_HA": 100.77, "DENS_HA_HA": 111.08, "DENS_HA_VI": 49.1, "M_ACEP_P": 78.3, "M_REC_P": 17.7, "M_IRRE_P": 0.8 }, "geometry": { "type": "Polygon", "coordinates": [ [ [ -70.666517, -33.457332 ], [ -70.666614, -33.456798 ], [ -70.666899, -33.455321 ], [ -70.667196, -33.453795 ], [ -70.667511, -33.452188 ], [ -70.66775, -33.45102 ], [ -70.667932, -33.450065 ], [ -70.668262, -33.448387 ], [ -70.668361, -33.447836 ], [ -70.670506, -33.448384 ], [ -70.672967, -33.449036 ], [ -70.673852, -33.449271 ], [ -70.676987, -33.450125 ], [ -70.677875, -33.450365 ], [ -70.67791, -33.450542 ], [ -70.677888, -33.450935 ], [ -70.677886, -33.451341 ], [ -70.678029, -33.453426 ], [ -70.678258, -33.456649 ], [ -70.678367, -33.458074 ], [ -70.676177, -33.458505 ], [ -70.675399, -33.458483 ], [ -70.672137, -33.458288 ], [ -70.672127, -33.458288 ], [ -70.669213, -33.457816 ], [ -70.666517, -33.457332 ] ] ] } },
{ "type": "Feature", "properties": { "ID": 27.0, "U_VECINAL": "9 / 0", "AGRUP_VECI": "AV9", "BARRIOS": "CLUB HIPICO", "PERSONAS": 183.0, "HOMBRES": 107.0, "MUJERES": 76.0, "DE_0_A_5_A": 14.0, "DE_6_A_14_": 16.0, "DE_15_A_64": 148.0, "DE_65_MAS_": 5.0, "INMIGRANTE": 0.0, "PUEBLOS_OR": 17.0, "VIVIENDA_P": 66.0, "VIVIENDA_C": 0.0, "VIVI_OCUPA": 61.0, "TOTAL_VIVI": 66.0, "TOTAL_HOGA": 61.0, "CASA": 38.0, "DEPTO": 0.0, "VIV_INDIGE": 0.0, "CONVENTILL": 9.0, "MEDIAGUA": 0.0, "MOVIL": 0.0, "OTRA_VIV_P": 19.0, "VIV_HORMIG": 0.0, "VIV_ALBANI": 24.0, "VIV_TABIQU": 6.0, "VIV_TAB_SI": 4.0, "VIV_ADOBE": 25.0, "VIV_MATPRE": 0.0, "TECHO_TEJA": 10.0, "TECHO_LOSA": 0.0, "TECHO_PLAN": 46.0, "TECHO_FONO": 1.0, "TECHO_PAJA": 0.0, "TECHO_PREC": 2.0, "SIN_TECHO": 0.0, "PISO_PARQU": 46.0, "PISO_RADIE": 3.0, "PISO_BALDO": 6.0, "PISO_CAP_C": 4.0, "PISO_TIERR": 0.0, "MAT_ACEP": 19.0, "MAT_REC": 38.0, "MAT_IRRE": 2.0, "AGUA_R_PUB": 36.0, "AGUA_POZO": 23.0, "AGUA_CAMIO": 0.0, "AGUA_RIO": 0.0, "AREA_HA": 81.06, "DENS_HA_HA": 2.26, "DENS_HA_VI": 0.81, "M_ACEP_P": 31.1, "M_REC_P": 62.3, "M_IRRE_P": 3.3 }, "geometry": { "type": "Polygon", "coordinates": [ [ [ -70.666517, -33.457332 ], [ -70.669213, -33.457816 ], [ -70.672127, -33.458288 ], [ -70.672137, -33.458288 ], [ -70.672099, -33.458781 ], [ -70.671934, -33.459949 ], [ -70.671776, -33.461216 ], [ -70.671618, -33.462475 ], [ -70.671541, -33.463482 ], [ -70.671547, -33.46383 ], [ -70.671553, -33.464624 ], [ -70.671594, -33.466275 ], [ -70.671616, -33.466359 ], [ -70.667705, -33.470494 ], [ -70.664873, -33.47044 ], [ -70.664928, -33.465486 ], [ -70.664948, -33.463448 ], [ -70.664972, -33.460957 ], [ -70.664969, -33.457054 ], [ -70.666517, -33.457332 ] ] ] } },
{ "type": "Feature", "properties": { "ID": 32.0, "U_VECINAL": "9 / 6", "AGRUP_VECI": "AV9", "BARRIOS": "SAN VICENTE", "PERSONAS": 5150.0, "HOMBRES": 2652.0, "MUJERES": 2498.0, "DE_0_A_5_A": 324.0, "DE_6_A_14_": 501.0, "DE_15_A_64": 3613.0, "DE_65_MAS_": 642.0, "INMIGRANTE": 1553.0, "PUEBLOS_OR": 498.0, "VIVIENDA_P": 1638.0, "VIVIENDA_C": 4.0, "VIVI_OCUPA": 1469.0, "TOTAL_VIVI": 1642.0, "TOTAL_HOGA": 1802.0, "CASA": 1237.0, "DEPTO": 45.0, "VIV_INDIGE": 2.0, "CONVENTILL": 311.0, "MEDIAGUA": 4.0, "MOVIL": 1.0, "OTRA_VIV_P": 38.0, "VIV_HORMIG": 146.0, "VIV_ALBANI": 550.0, "VIV_TABIQU": 128.0, "VIV_TAB_SI": 48.0, "VIV_ADOBE": 581.0, "VIV_MATPRE": 1.0, "TECHO_TEJA": 227.0, "TECHO_LOSA": 32.0, "TECHO_PLAN": 1180.0, "TECHO_FONO": 5.0, "TECHO_PAJA": 0.0, "TECHO_PREC": 3.0, "SIN_TECHO": 1.0, "PISO_PARQU": 1318.0, "PISO_RADIE": 31.0, "PISO_BALDO": 78.0, "PISO_CAP_C": 23.0, "PISO_TIERR": 1.0, "MAT_ACEP": 749.0, "MAT_REC": 693.0, "MAT_IRRE": 4.0, "AGUA_R_PUB": 1451.0, "AGUA_POZO": 0.0, "AGUA_CAMIO": 0.0, "AGUA_RIO": 0.0, "AREA_HA": 58.26, "DENS_HA_HA": 88.4, "DENS_HA_VI": 28.18, "M_ACEP_P": 51.0, "M_REC_P": 47.2, "M_IRRE_P": 0.3 }, "geometry": { "type": "Polygon", "coordinates": [ [ [ -70.672137, -33.458288 ], [ -70.675399, -33.458483 ], [ -70.676177, -33.458505 ], [ -70.678367, -33.458074 ], [ -70.678453, -33.459194 ], [ -70.678705, -33.46247 ], [ -70.678994, -33.466594 ], [ -70.674978, -33.466461 ], [ -70.673031, -33.466417 ], [ -70.673012, -33.466416 ], [ -70.672866, -33.466388 ], [ -70.671616, -33.466359 ], [ -70.671594, -33.466275 ], [ -70.671553, -33.464624 ], [ -70.671547, -33.46383 ], [ -70.671541, -33.463482 ], [ -70.671618, -33.462475 ], [ -70.671776, -33.461216 ], [ -70.671934, -33.459949 ], [ -70.672099, -33.458781 ], [ -70.672137, -33.458288 ] ] ] } },
{ "type": "Feature", "properties": { "ID": 29.0, "U_VECINAL": "9 / 2", "AGRUP_VECI": "AV9", "BARRIOS": "SAN EUGENIO / CLUB HIPICO", "PERSONAS": 5684.0, "HOMBRES": 2782.0, "MUJERES": 2902.0, "DE_0_A_5_A": 324.0, "DE_6_A_14_": 472.0, "DE_15_A_64": 3914.0, "DE_65_MAS_": 888.0, "INMIGRANTE": 437.0, "PUEBLOS_OR": 472.0, "VIVIENDA_P": 2055.0, "VIVIENDA_C": 4.0, "VIVI_OCUPA": 1869.0, "TOTAL_VIVI": 2059.0, "TOTAL_HOGA": 2004.0, "CASA": 1206.0, "DEPTO": 767.0, "VIV_INDIGE": 0.0, "CONVENTILL": 58.0, "MEDIAGUA": 0.0, "MOVIL": 0.0, "OTRA_VIV_P": 24.0, "VIV_HORMIG": 937.0, "VIV_ALBANI": 752.0, "VIV_TABIQU": 59.0, "VIV_TAB_SI": 15.0, "VIV_ADOBE": 97.0, "VIV_MATPRE": 0.0, "TECHO_TEJA": 448.0, "TECHO_LOSA": 560.0, "TECHO_PLAN": 842.0, "TECHO_FONO": 2.0, "TECHO_PAJA": 0.0, "TECHO_PREC": 2.0, "SIN_TECHO": 0.0, "PISO_PARQU": 1726.0, "PISO_RADIE": 15.0, "PISO_BALDO": 106.0, "PISO_CAP_C": 2.0, "PISO_TIERR": 1.0, "MAT_ACEP": 1610.0, "MAT_REC": 227.0, "MAT_IRRE": 3.0, "AGUA_R_PUB": 1854.0, "AGUA_POZO": 0.0, "AGUA_CAMIO": 0.0, "AGUA_RIO": 1.0, "AREA_HA": 57.82, "DENS_HA_HA": 98.31, "DENS_HA_VI": 35.61, "M_ACEP_P": 86.1, "M_REC_P": 12.1, "M_IRRE_P": 0.2 }, "geometry": { "type": "Polygon", "coordinates": [ [ [ -70.667705, -33.470494 ], [ -70.671643, -33.470539 ], [ -70.671628, -33.471862 ], [ -70.672945, -33.471884 ], [ -70.672916, -33.474827 ], [ -70.672885, -33.474924 ], [ -70.672627, -33.475436 ], [ -70.672328, -33.475748 ], [ -70.671671, -33.475731 ], [ -70.671676, -33.476118 ], [ -70.67159, -33.476067 ], [ -70.668178, -33.475994 ], [ -70.66619, -33.475946 ], [ -70.664824, -33.475894 ], [ -70.664802, -33.475894 ], [ -70.664848, -33.473564 ], [ -70.663287, -33.473478 ], [ -70.663426, -33.470366 ], [ -70.663497, -33.468798 ], [ -70.663679, -33.464574 ], [ -70.663726, -33.463435 ], [ -70.664948, -33.463448 ], [ -70.664928, -33.465486 ], [ -70.664873, -33.47044 ], [ -70.667705, -33.470494 ] ] ] } },
{ "type": "Feature", "properties": { "ID": 31.0, "U_VECINAL": "9 / 4", "AGRUP_VECI": "AV9", "BARRIOS": "SAN EUGENIO", "PERSONAS": 2208.0, "HOMBRES": 1037.0, "MUJERES": 1171.0, "DE_0_A_5_A": 117.0, "DE_6_A_14_": 143.0, "DE_15_A_64": 1455.0, "DE_65_MAS_": 396.0, "INMIGRANTE": 215.0, "PUEBLOS_OR": 144.0, "VIVIENDA_P": 796.0, "VIVIENDA_C": 0.0, "VIVI_OCUPA": 740.0, "TOTAL_VIVI": 796.0, "TOTAL_HOGA": 768.0, "CASA": 525.0, "DEPTO": 239.0, "VIV_INDIGE": 0.0, "CONVENTILL": 25.0, "MEDIAGUA": 1.0, "MOVIL": 0.0, "OTRA_VIV_P": 6.0, "VIV_HORMIG": 270.0, "VIV_ALBANI": 388.0, "VIV_TABIQU": 14.0, "VIV_TAB_SI": 8.0, "VIV_ADOBE": 57.0, "VIV_MATPRE": 0.0, "TECHO_TEJA": 308.0, "TECHO_LOSA": 102.0, "TECHO_PLAN": 322.0, "TECHO_FONO": 0.0, "TECHO_PAJA": 0.0, "TECHO_PREC": 3.0, "SIN_TECHO": 0.0, "PISO_PARQU": 698.0, "PISO_RADIE": 7.0, "PISO_BALDO": 25.0, "PISO_CAP_C": 1.0, "PISO_TIERR": 0.0, "MAT_ACEP": 639.0, "MAT_REC": 85.0, "MAT_IRRE": 3.0, "AGUA_R_PUB": 737.0, "AGUA_POZO": 0.0, "AGUA_CAMIO": 0.0, "AGUA_RIO": 0.0, "AREA_HA": 16.15, "DENS_HA_HA": 136.72, "DENS_HA_VI": 49.29, "M_ACEP_P": 86.4, "M_REC_P": 11.5, "M_IRRE_P": 0.4 }, "geometry": { "type": "Polygon", "coordinates": [ [ [ -70.673031, -33.466417 ], [ -70.672999, -33.468287 ], [ -70.672958, -33.470571 ], [ -70.672945, -33.471884 ], [ -70.671628, -33.471862 ], [ -70.671643, -33.470539 ], [ -70.667705, -33.470494 ], [ -70.671616, -33.466359 ], [ -70.672866, -33.466388 ], [ -70.673012, -33.466416 ], [ -70.673031, -33.466417 ] ] ] } },
{ "type": "Feature", "properties": { "ID": 33.0, "U_VECINAL": "9 / 7", "AGRUP_VECI": "AV9", "BARRIOS": "SAN EUGENIO", "PERSONAS": 2908.0, "HOMBRES": 1424.0, "MUJERES": 1484.0, "DE_0_A_5_A": 215.0, "DE_6_A_14_": 270.0, "DE_15_A_64": 2059.0, "DE_65_MAS_": 338.0, "INMIGRANTE": 559.0, "PUEBLOS_OR": 266.0, "VIVIENDA_P": 942.0, "VIVIENDA_C": 2.0, "VIVI_OCUPA": 870.0, "TOTAL_VIVI": 944.0, "TOTAL_HOGA": 992.0, "CASA": 501.0, "DEPTO": 357.0, "VIV_INDIGE": 0.0, "CONVENTILL": 76.0, "MEDIAGUA": 1.0, "MOVIL": 0.0, "OTRA_VIV_P": 7.0, "VIV_HORMIG": 372.0, "VIV_ALBANI": 317.0, "VIV_TABIQU": 29.0, "VIV_TAB_SI": 11.0, "VIV_ADOBE": 134.0, "VIV_MATPRE": 1.0, "TECHO_TEJA": 143.0, "TECHO_LOSA": 193.0, "TECHO_PLAN": 523.0, "TECHO_FONO": 2.0, "TECHO_PAJA": 0.0, "TECHO_PREC": 1.0, "SIN_TECHO": 0.0, "PISO_PARQU": 769.0, "PISO_RADIE": 26.0, "PISO_BALDO": 58.0, "PISO_CAP_C": 6.0, "PISO_TIERR": 0.0, "MAT_ACEP": 644.0, "MAT_REC": 202.0, "MAT_IRRE": 2.0, "AGUA_R_PUB": 865.0, "AGUA_POZO": 1.0, "AGUA_CAMIO": 0.0, "AGUA_RIO": 0.0, "AREA_HA": 26.45, "DENS_HA_HA": 109.94, "DENS_HA_VI": 35.69, "M_ACEP_P": 74.0, "M_REC_P": 23.2, "M_IRRE_P": 0.2 }, "geometry": { "type": "Polygon", "coordinates": [ [ [ -70.678994, -33.466594 ], [ -70.678994, -33.466604 ], [ -70.679114, -33.46916 ], [ -70.679968, -33.470431 ], [ -70.679958, -33.470449 ], [ -70.67998, -33.470485 ], [ -70.67997, -33.470531 ], [ -70.67996, -33.470567 ], [ -70.67994, -33.470612 ], [ -70.679875, -33.47064 ], [ -70.672958, -33.470571 ], [ -70.672999, -33.468287 ], [ -70.673031, -33.466417 ], [ -70.674978, -33.466461 ], [ -70.678994, -33.466594 ] ] ] } },
{ "type": "Feature", "properties": { "ID": 34.0, "U_VECINAL": "9 / 8", "AGRUP_VECI": "AV9", "BARRIOS": "SAN EUGENIO", "PERSONAS": 129.0, "HOMBRES": 57.0, "MUJERES": 72.0, "DE_0_A_5_A": 10.0, "DE_6_A_14_": 16.0, "DE_15_A_64": 80.0, "DE_65_MAS_": 23.0, "INMIGRANTE": 12.0, "PUEBLOS_OR": 0.0, "VIVIENDA_P": 47.0, "VIVIENDA_C": 0.0, "VIVI_OCUPA": 42.0, "TOTAL_VIVI": 47.0, "TOTAL_HOGA": 46.0, "CASA": 46.0, "DEPTO": 0.0, "VIV_INDIGE": 0.0, "CONVENTILL": 0.0, "MEDIAGUA": 0.0, "MOVIL": 0.0, "OTRA_VIV_P": 1.0, "VIV_HORMIG": 23.0, "VIV_ALBANI": 17.0, "VIV_TABIQU": 1.0, "VIV_TAB_SI": 1.0, "VIV_ADOBE": 0.0, "VIV_MATPRE": 0.0, "TECHO_TEJA": 6.0, "TECHO_LOSA": 3.0, "TECHO_PLAN": 33.0, "TECHO_FONO": 0.0, "TECHO_PAJA": 0.0, "TECHO_PREC": 0.0, "SIN_TECHO": 0.0, "PISO_PARQU": 32.0, "PISO_RADIE": 0.0, "PISO_BALDO": 10.0, "PISO_CAP_C": 0.0, "PISO_TIERR": 0.0, "MAT_ACEP": 32.0, "MAT_REC": 10.0, "MAT_IRRE": 0.0, "AGUA_R_PUB": 41.0, "AGUA_POZO": 0.0, "AGUA_CAMIO": 0.0, "AGUA_RIO": 0.0, "AREA_HA": 18.79, "DENS_HA_HA": 6.87, "DENS_HA_VI": 2.5, "M_ACEP_P": 76.2, "M_REC_P": 23.8, "M_IRRE_P": 0.0 }, "geometry": { "type": "Polygon", "coordinates": [ [ [ -70.671676, -33.476118 ], [ -70.671898, -33.47616 ], [ -70.672069, -33.476242 ], [ -70.672202, -33.476308 ], [ -70.672328, -33.476385 ], [ -70.67241, -33.476421 ], [ -70.673023, -33.476376 ], [ -70.673618, -33.476358 ], [ -70.674383, -33.476426 ], [ -70.675024, -33.476538 ], [ -70.675791, -33.476595 ], [ -70.67648, -33.476541 ], [ -70.676663, -33.476538 ], [ -70.677881, -33.476486 ], [ -70.678698, -33.476393 ], [ -70.679334, -33.476376 ], [ -70.680013, -33.476394 ], [ -70.680736, -33.476402 ], [ -70.680865, -33.478361 ], [ -70.679556, -33.47837 ], [ -70.671574, -33.478468 ], [ -70.671599, -33.476724 ], [ -70.67159, -33.476067 ], [ -70.671676, -33.476118 ] ] ] } },
{ "type": "Feature", "properties": { "ID": 35.0, "U_VECINAL": "10 / 1", "AGRUP_VECI": "AV10", "BARRIOS": "SANTA ELENA", "PERSONAS": 11038.0, "HOMBRES": 5568.0, "MUJERES": 5470.0, "DE_0_A_5_A": 626.0, "DE_6_A_14_": 599.0, "DE_15_A_64": 9350.0, "DE_65_MAS_": 441.0, "INMIGRANTE": 3996.0, "PUEBLOS_OR": 721.0, "VIVIENDA_P": 5571.0, "VIVIENDA_C": 4.0, "VIVI_OCUPA": 4830.0, "TOTAL_VIVI": 5575.0, "TOTAL_HOGA": 5071.0, "CASA": 720.0, "DEPTO": 4825.0, "VIV_INDIGE": 1.0, "CONVENTILL": 23.0, "MEDIAGUA": 1.0, "MOVIL": 0.0, "OTRA_VIV_P": 1.0, "VIV_HORMIG": 3905.0, "VIV_ALBANI": 612.0, "VIV_TABIQU": 26.0, "VIV_TAB_SI": 11.0, "VIV_ADOBE": 239.0, "VIV_MATPRE": 1.0, "TECHO_TEJA": 747.0, "TECHO_LOSA": 3564.0, "TECHO_PLAN": 456.0, "TECHO_FONO": 4.0, "TECHO_PAJA": 1.0, "TECHO_PREC": 2.0, "SIN_TECHO": 0.0, "PISO_PARQU": 4692.0, "PISO_RADIE": 6.0, "PISO_BALDO": 59.0, "PISO_CAP_C": 2.0, "PISO_TIERR": 1.0, "MAT_ACEP": 4443.0, "MAT_REC": 289.0, "MAT_IRRE": 2.0, "AGUA_R_PUB": 4775.0, "AGUA_POZO": 2.0, "AGUA_CAMIO": 2.0, "AGUA_RIO": 2.0, "AREA_HA": 46.36, "DENS_HA_HA": 238.09, "DENS_HA_VI": 120.25, "M_ACEP_P": 92.0, "M_REC_P": 6.0, "M_IRRE_P": 0.0 }, "geometry": { "type": "Polygon", "coordinates": [ [ [ -70.629846, -33.455421 ], [ -70.633272, -33.456173 ], [ -70.633319, -33.4563 ], [ -70.632672, -33.458687 ], [ -70.632084, -33.46094 ], [ -70.631985, -33.461297 ], [ -70.631453, -33.463224 ], [ -70.630888, -33.465345 ], [ -70.630248, -33.467728 ], [ -70.627908, -33.467463 ], [ -70.626435, -33.467325 ], [ -70.62718, -33.464666 ], [ -70.628014, -33.461665 ], [ -70.628891, -33.458699 ], [ -70.629746, -33.455751 ], [ -70.629846, -33.455421 ] ] ] } },
{ "type": "Feature", "properties": { "ID": 38.0, "U_VECINAL": "10 / 4", "AGRUP_VECI": "AV10", "BARRIOS": "MATTA SUR", "PERSONAS": 5638.0, "HOMBRES": 2855.0, "MUJERES": 2757.0, "DE_0_A_5_A": 344.0, "DE_6_A_14_": 283.0, "DE_15_A_64": 4168.0, "DE_65_MAS_": 643.0, "INMIGRANTE": 1790.0, "PUEBLOS_OR": 490.0, "VIVIENDA_P": 2253.0, "VIVIENDA_C": 7.0, "VIVI_OCUPA": 1741.0, "TOTAL_VIVI": 2260.0, "TOTAL_HOGA": 2050.0, "CASA": 1163.0, "DEPTO": 728.0, "VIV_INDIGE": 2.0, "CONVENTILL": 342.0, "MEDIAGUA": 3.0, "MOVIL": 0.0, "OTRA_VIV_P": 15.0, "VIV_HORMIG": 465.0, "VIV_ALBANI": 536.0, "VIV_TABIQU": 83.0, "VIV_TAB_SI": 22.0, "VIV_ADOBE": 621.0, "VIV_MATPRE": 0.0, "TECHO_TEJA": 365.0, "TECHO_LOSA": 328.0, "TECHO_PLAN": 1005.0, "TECHO_FONO": 4.0, "TECHO_PAJA": 3.0, "TECHO_PREC": 7.0, "SIN_TECHO": 0.0, "PISO_PARQU": 1637.0, "PISO_RADIE": 15.0, "PISO_BALDO": 60.0, "PISO_CAP_C": 12.0, "PISO_TIERR": 0.0, "MAT_ACEP": 1043.0, "MAT_REC": 658.0, "MAT_IRRE": 7.0, "AGUA_R_PUB": 1720.0, "AGUA_POZO": 0.0, "AGUA_CAMIO": 0.0, "AGUA_RIO": 0.0, "AREA_HA": 55.35, "DENS_HA_HA": 101.86, "DENS_HA_VI": 40.83, "M_ACEP_P": 59.9, "M_REC_P": 37.8, "M_IRRE_P": 0.4 }, "geometry": { "type": "Polygon", "coordinates": [ [ [ -70.633272, -33.456173 ], [ -70.635876, -33.456749 ], [ -70.639562, -33.457457 ], [ -70.641661, -33.457928 ], [ -70.643287, -33.458281 ], [ -70.643097, -33.459772 ], [ -70.642969, -33.460655 ], [ -70.642732, -33.462848 ], [ -70.642684, -33.463029 ], [ -70.639332, -33.462673 ], [ -70.639181, -33.462624 ], [ -70.638219, -33.46244 ], [ -70.637913, -33.462381 ], [ -70.635727, -33.461981 ], [ -70.631985, -33.461297 ], [ -70.632084, -33.46094 ], [ -70.632672, -33.458687 ], [ -70.633319, -33.4563 ], [ -70.633272, -33.456173 ] ] ] } },
{ "type": "Feature", "properties": { "ID": 43.0, "U_VECINAL": "10 / 9", "AGRUP_VECI": "AV10", "BARRIOS": "BOGOTA", "PERSONAS": 4517.0, "HOMBRES": 2260.0, "MUJERES": 2257.0, "DE_0_A_5_A": 372.0, "DE_6_A_14_": 454.0, "DE_15_A_64": 3162.0, "DE_65_MAS_": 517.0, "INMIGRANTE": 1291.0, "PUEBLOS_OR": 307.0, "VIVIENDA_P": 1594.0, "VIVIENDA_C": 9.0, "VIVI_OCUPA": 1427.0, "TOTAL_VIVI": 1603.0, "TOTAL_HOGA": 1548.0, "CASA": 748.0, "DEPTO": 515.0, "VIV_INDIGE": 2.0, "CONVENTILL": 307.0, "MEDIAGUA": 2.0, "MOVIL": 0.0, "OTRA_VIV_P": 20.0, "VIV_HORMIG": 493.0, "VIV_ALBANI": 360.0, "VIV_TABIQU": 37.0, "VIV_TAB_SI": 26.0, "VIV_ADOBE": 496.0, "VIV_MATPRE": 0.0, "TECHO_TEJA": 276.0, "TECHO_LOSA": 311.0, "TECHO_PLAN": 805.0, "TECHO_FONO": 1.0, "TECHO_PAJA": 1.0, "TECHO_PREC": 1.0, "SIN_TECHO": 0.0, "PISO_PARQU": 1311.0, "PISO_RADIE": 13.0, "PISO_BALDO": 57.0, "PISO_CAP_C": 18.0, "PISO_TIERR": 0.0, "MAT_ACEP": 823.0, "MAT_REC": 554.0, "MAT_IRRE": 1.0, "AGUA_R_PUB": 1414.0, "AGUA_POZO": 0.0, "AGUA_CAMIO": 1.0, "AGUA_RIO": 0.0, "AREA_HA": 39.41, "DENS_HA_HA": 114.62, "DENS_HA_VI": 40.67, "M_ACEP_P": 57.7, "M_REC_P": 38.8, "M_IRRE_P": 0.1 }, "geometry": { "type": "Polygon", "coordinates": [ [ [ -70.648548, -33.469741 ], [ -70.646793, -33.469539 ], [ -70.642277, -33.469057 ], [ -70.642282, -33.468977 ], [ -70.642386, -33.46665 ], [ -70.64238, -33.466576 ], [ -70.642416, -33.466189 ], [ -70.642438, -33.465297 ], [ -70.642523, -33.464565 ], [ -70.64267, -33.463083 ], [ -70.642684, -33.463029 ], [ -70.644682, -33.463242 ], [ -70.647046, -33.463479 ], [ -70.648898, -33.463665 ], [ -70.648888, -33.463872 ], [ -70.648783, -33.465543 ], [ -70.648699, -33.467258 ], [ -70.648588, -33.468995 ], [ -70.648548, -33.469741 ] ] ] } },
{ "type": "Feature", "properties": { "ID": 44.0, "U_VECINAL": "10 / 10", "AGRUP_VECI": "AV10", "BARRIOS": "FRANKLIN", "PERSONAS": 2227.0, "HOMBRES": 1143.0, "MUJERES": 1084.0, "DE_0_A_5_A": 177.0, "DE_6_A_14_": 202.0, "DE_15_A_64": 1629.0, "DE_65_MAS_": 181.0, "INMIGRANTE": 842.0, "PUEBLOS_OR": 137.0, "VIVIENDA_P": 688.0, "VIVIENDA_C": 2.0, "VIVI_OCUPA": 633.0, "TOTAL_VIVI": 690.0, "TOTAL_HOGA": 734.0, "CASA": 558.0, "DEPTO": 59.0, "VIV_INDIGE": 0.0, "CONVENTILL": 61.0, "MEDIAGUA": 1.0, "MOVIL": 0.0, "OTRA_VIV_P": 9.0, "VIV_HORMIG": 87.0, "VIV_ALBANI": 278.0, "VIV_TABIQU": 34.0, "VIV_TAB_SI": 20.0, "VIV_ADOBE": 209.0, "VIV_MATPRE": 0.0, "TECHO_TEJA": 161.0, "TECHO_LOSA": 33.0, "TECHO_PLAN": 423.0, "TECHO_FONO": 1.0, "TECHO_PAJA": 1.0, "TECHO_PREC": 8.0, "SIN_TECHO": 1.0, "PISO_PARQU": 559.0, "PISO_RADIE": 8.0, "PISO_BALDO": 39.0, "PISO_CAP_C": 19.0, "PISO_TIERR": 1.0, "MAT_ACEP": 355.0, "MAT_REC": 259.0, "MAT_IRRE": 10.0, "AGUA_R_PUB": 626.0, "AGUA_POZO": 0.0, "AGUA_CAMIO": 1.0, "AGUA_RIO": 1.0, "AREA_HA": 46.4, "DENS_HA_HA": 48.0, "DENS_HA_VI": 14.87, "M_ACEP_P": 56.1, "M_REC_P": 40.9, "M_IRRE_P": 1.6 }, "geometry": { "type": "Polygon", "coordinates": [ [ [ -70.648548, -33.469741 ], [ -70.648497, -33.470704 ], [ -70.648393, -33.472413 ], [ -70.648275, -33.474117 ], [ -70.64825, -33.475896 ], [ -70.648223, -33.476712 ], [ -70.648219, -33.476712 ], [ -70.641986, -33.47643 ], [ -70.641991, -33.476225 ], [ -70.642032, -33.474597 ], [ -70.642092, -33.472868 ], [ -70.642092, -33.472863 ], [ -70.642138, -33.471806 ], [ -70.642198, -33.470343 ], [ -70.642277, -33.469057 ], [ -70.646793, -33.469539 ], [ -70.648548, -33.469741 ] ] ] } },
{ "type": "Feature", "properties": { "ID": 47.0, "U_VECINAL": "10 / 13", "AGRUP_VECI": "AV10", "BARRIOS": "HUEMUL", "PERSONAS": 5096.0, "HOMBRES": 2544.0, "MUJERES": 2552.0, "DE_0_A_5_A": 312.0, "DE_6_A_14_": 472.0, "DE_15_A_64": 3761.0, "DE_65_MAS_": 525.0, "INMIGRANTE": 1025.0, "PUEBLOS_OR": 430.0, "VIVIENDA_P": 2031.0, "VIVIENDA_C": 3.0, "VIVI_OCUPA": 1784.0, "TOTAL_VIVI": 2034.0, "TOTAL_HOGA": 1927.0, "CASA": 628.0, "DEPTO": 1206.0, "VIV_INDIGE": 5.0, "CONVENTILL": 169.0, "MEDIAGUA": 6.0, "MOVIL": 0.0, "OTRA_VIV_P": 17.0, "VIV_HORMIG": 895.0, "VIV_ALBANI": 547.0, "VIV_TABIQU": 59.0, "VIV_TAB_SI": 23.0, "VIV_ADOBE": 241.0, "VIV_MATPRE": 2.0, "TECHO_TEJA": 414.0, "TECHO_LOSA": 673.0, "TECHO_PLAN": 669.0, "TECHO_FONO": 3.0, "TECHO_PAJA": 0.0, "TECHO_PREC": 6.0, "SIN_TECHO": 1.0, "PISO_PARQU": 1657.0, "PISO_RADIE": 5.0, "PISO_BALDO": 64.0, "PISO_CAP_C": 23.0, "PISO_TIERR": 2.0, "MAT_ACEP": 1422.0, "MAT_REC": 314.0, "MAT_IRRE": 9.0, "AGUA_R_PUB": 1760.0, "AGUA_POZO": 1.0, "AGUA_CAMIO": 1.0, "AGUA_RIO": 0.0, "AREA_HA": 40.36, "DENS_HA_HA": 126.26, "DENS_HA_VI": 50.4, "M_ACEP_P": 79.7, "M_REC_P": 17.6, "M_IRRE_P": 0.5 }, "geometry": { "type": "Polygon", "coordinates": [ [ [ -70.654572, -33.47036 ], [ -70.654177, -33.474894 ], [ -70.654032, -33.476532 ], [ -70.648223, -33.476712 ], [ -70.64825, -33.475896 ], [ -70.648275, -33.474117 ], [ -70.648393, -33.472413 ], [ -70.648497, -33.470704 ], [ -70.648548, -33.469741 ], [ -70.650103, -33.469895 ], [ -70.652134, -33.470115 ], [ -70.654415, -33.470358 ], [ -70.654572, -33.47036 ] ] ] } },
{ "type": "Feature", "properties": { "ID": 48.0, "U_VECINAL": "10 / 14", "AGRUP_VECI": "AV10", "BARRIOS": "BARRIO JUDICIAL / HUEMUL", "PERSONAS": 11256.0, "HOMBRES": 10176.0, "MUJERES": 1065.0, "DE_0_A_5_A": 65.0, "DE_6_A_14_": 111.0, "DE_15_A_64": 10604.0, "DE_65_MAS_": 348.0, "INMIGRANTE": 722.0, "PUEBLOS_OR": 1517.0, "VIVIENDA_P": 810.0, "VIVIENDA_C": 8.0, "VIVI_OCUPA": 723.0, "TOTAL_VIVI": 818.0, "TOTAL_HOGA": 783.0, "CASA": 234.0, "DEPTO": 558.0, "VIV_INDIGE": 0.0, "CONVENTILL": 15.0, "MEDIAGUA": 0.0, "MOVIL": 0.0, "OTRA_VIV_P": 3.0, "VIV_HORMIG": 286.0, "VIV_ALBANI": 365.0, "VIV_TABIQU": 14.0, "VIV_TAB_SI": 7.0, "VIV_ADOBE": 49.0, "VIV_MATPRE": 0.0, "TECHO_TEJA": 121.0, "TECHO_LOSA": 372.0, "TECHO_PLAN": 225.0, "TECHO_FONO": 1.0, "TECHO_PAJA": 0.0, "TECHO_PREC": 0.0, "SIN_TECHO": 1.0, "PISO_PARQU": 695.0, "PISO_RADIE": 3.0, "PISO_BALDO": 13.0, "PISO_CAP_C": 5.0, "PISO_TIERR": 2.0, "MAT_ACEP": 641.0, "MAT_REC": 71.0, "MAT_IRRE": 3.0, "AGUA_R_PUB": 719.0, "AGUA_POZO": 0.0, "AGUA_CAMIO": 0.0, "AGUA_RIO": 0.0, "AREA_HA": 59.15, "DENS_HA_HA": 190.3, "DENS_HA_VI": 13.83, "M_ACEP_P": 88.7, "M_REC_P": 9.8, "M_IRRE_P": 0.4 }, "geometry": { "type": "Polygon", "coordinates": [ [ [ -70.664802, -33.475894 ], [ -70.663281, -33.47587 ], [ -70.662289, -33.475847 ], [ -70.661793, -33.475853 ], [ -70.661287, -33.475887 ], [ -70.660878, -33.475911 ], [ -70.655115, -33.476458 ], [ -70.655017, -33.476466 ], [ -70.654324, -33.476523 ], [ -70.654037, -33.476531 ], [ -70.654032, -33.476532 ], [ -70.654177, -33.474894 ], [ -70.654572, -33.47036 ], [ -70.65485, -33.470365 ], [ -70.65506, -33.470353 ], [ -70.655214, -33.470277 ], [ -70.655655, -33.470103 ], [ -70.65599, -33.469975 ], [ -70.656008, -33.469968 ], [ -70.656349, -33.469983 ], [ -70.656964, -33.470011 ], [ -70.657309, -33.470007 ], [ -70.663426, -33.470366 ], [ -70.663287, -33.473478 ], [ -70.664848, -33.473564 ], [ -70.664802, -33.475894 ] ] ] } },
{ "type": "Feature", "properties": { "ID": 39.0, "U_VECINAL": "10 / 5", "AGRUP_VECI": "AV10", "BARRIOS": "BOGOTA", "PERSONAS": 2271.0, "HOMBRES": 1104.0, "MUJERES": 1167.0, "DE_0_A_5_A": 85.0, "DE_6_A_14_": 104.0, "DE_15_A_64": 1611.0, "DE_65_MAS_": 376.0, "INMIGRANTE": 472.0, "PUEBLOS_OR": 260.0, "VIVIENDA_P": 808.0, "VIVIENDA_C": 1.0, "VIVI_OCUPA": 712.0, "TOTAL_VIVI": 809.0, "TOTAL_HOGA": 833.0, "CASA": 674.0, "DEPTO": 14.0, "VIV_INDIGE": 0.0, "CONVENTILL": 114.0, "MEDIAGUA": 0.0, "MOVIL": 0.0, "OTRA_VIV_P": 6.0, "VIV_HORMIG": 64.0, "VIV_ALBANI": 331.0, "VIV_TABIQU": 30.0, "VIV_TAB_SI": 6.0, "VIV_ADOBE": 278.0, "VIV_MATPRE": 0.0, "TECHO_TEJA": 85.0, "TECHO_LOSA": 11.0, "TECHO_PLAN": 604.0, "TECHO_FONO": 4.0, "TECHO_PAJA": 0.0, "TECHO_PREC": 2.0, "SIN_TECHO": 0.0, "PISO_PARQU": 649.0, "PISO_RADIE": 6.0, "PISO_BALDO": 37.0, "PISO_CAP_C": 10.0, "PISO_TIERR": 1.0, "MAT_ACEP": 392.0, "MAT_REC": 305.0, "MAT_IRRE": 3.0, "AGUA_R_PUB": 706.0, "AGUA_POZO": 0.0, "AGUA_CAMIO": 0.0, "AGUA_RIO": 0.0, "AREA_HA": 25.47, "DENS_HA_HA": 89.16, "DENS_HA_VI": 31.76, "M_ACEP_P": 55.1, "M_REC_P": 42.8, "M_IRRE_P": 0.4 }, "geometry": { "type": "Polygon", "coordinates": [ [ [ -70.635727, -33.461981 ], [ -70.635464, -33.462879 ], [ -70.634697, -33.465765 ], [ -70.634048, -33.468158 ], [ -70.633228, -33.468069 ], [ -70.630825, -33.467782 ], [ -70.630248, -33.467728 ], [ -70.630888, -33.465345 ], [ -70.631453, -33.463224 ], [ -70.631985, -33.461297 ], [ -70.635727, -33.461981 ] ] ] } },
{ "type": "Feature", "properties": { "ID": 40.0, "U_VECINAL": "10 / 6", "AGRUP_VECI": "AV10", "BARRIOS": "BOGOTA", "PERSONAS": 6218.0, "HOMBRES": 3044.0, "MUJERES": 3174.0, "DE_0_A_5_A": 442.0, "DE_6_A_14_": 582.0, "DE_15_A_64": 4447.0, "DE_65_MAS_": 657.0, "INMIGRANTE": 1482.0, "PUEBLOS_OR": 605.0, "VIVIENDA_P": 2288.0, "VIVIENDA_C": 3.0, "VIVI_OCUPA": 2054.0, "TOTAL_VIVI": 2291.0, "TOTAL_HOGA": 2216.0, "CASA": 1240.0, "DEPTO": 842.0, "VIV_INDIGE": 2.0, "CONVENTILL": 194.0, "MEDIAGUA": 0.0, "MOVIL": 0.0, "OTRA_VIV_P": 10.0, "VIV_HORMIG": 770.0, "VIV_ALBANI": 499.0, "VIV_TABIQU": 48.0, "VIV_TAB_SI": 42.0, "VIV_ADOBE": 685.0, "VIV_MATPRE": 0.0, "TECHO_TEJA": 344.0, "TECHO_LOSA": 612.0, "TECHO_PLAN": 1053.0, "TECHO_FONO": 7.0, "TECHO_PAJA": 0.0, "TECHO_PREC": 8.0, "SIN_TECHO": 0.0, "PISO_PARQU": 1907.0, "PISO_RADIE": 31.0, "PISO_BALDO": 78.0, "PISO_CAP_C": 11.0, "PISO_TIERR": 3.0, "MAT_ACEP": 1244.0, "MAT_REC": 761.0, "MAT_IRRE": 11.0, "AGUA_R_PUB": 2036.0, "AGUA_POZO": 0.0, "AGUA_CAMIO": 1.0, "AGUA_RIO": 0.0, "AREA_HA": 48.1, "DENS_HA_HA": 129.27, "DENS_HA_VI": 47.63, "M_ACEP_P": 60.6, "M_REC_P": 37.0, "M_IRRE_P": 0.5 }, "geometry": { "type": "Polygon", "coordinates": [ [ [ -70.642684, -33.463029 ], [ -70.64267, -33.463083 ], [ -70.642523, -33.464565 ], [ -70.642438, -33.465297 ], [ -70.642416, -33.466189 ], [ -70.64238, -33.466576 ], [ -70.642386, -33.46665 ], [ -70.642282, -33.468977 ], [ -70.642277, -33.469057 ], [ -70.63662, -33.46844 ], [ -70.636468, -33.468423 ], [ -70.634048, -33.468158 ], [ -70.634697, -33.465765 ], [ -70.635464, -33.462879 ], [ -70.635727, -33.461981 ], [ -70.637913, -33.462381 ], [ -70.638219, -33.46244 ], [ -70.639181, -33.462624 ], [ -70.639332, -33.462673 ], [ -70.642684, -33.463029 ] ] ] } },
{ "type": "Feature", "properties": { "ID": 36.0, "U_VECINAL": "10 / 2", "AGRUP_VECI": "AV10", "BARRIOS": "SIERRA BELLA", "PERSONAS": 2913.0, "HOMBRES": 1499.0, "MUJERES": 1414.0, "DE_0_A_5_A": 122.0, "DE_6_A_14_": 142.0, "DE_15_A_64": 2218.0, "DE_65_MAS_": 332.0, "INMIGRANTE": 571.0, "PUEBLOS_OR": 226.0, "VIVIENDA_P": 1195.0, "VIVIENDA_C": 1.0, "VIVI_OCUPA": 1037.0, "TOTAL_VIVI": 1196.0, "TOTAL_HOGA": 1130.0, "CASA": 644.0, "DEPTO": 497.0, "VIV_INDIGE": 0.0, "CONVENTILL": 36.0, "MEDIAGUA": 3.0, "MOVIL": 0.0, "OTRA_VIV_P": 15.0, "VIV_HORMIG": 510.0, "VIV_ALBANI": 359.0, "VIV_TABIQU": 30.0, "VIV_TAB_SI": 7.0, "VIV_ADOBE": 117.0, "VIV_MATPRE": 0.0, "TECHO_TEJA": 130.0, "TECHO_LOSA": 365.0, "TECHO_PLAN": 523.0, "TECHO_FONO": 0.0, "TECHO_PAJA": 0.0, "TECHO_PREC": 1.0, "SIN_TECHO": 0.0, "PISO_PARQU": 985.0, "PISO_RADIE": 10.0, "PISO_BALDO": 26.0, "PISO_CAP_C": 2.0, "PISO_TIERR": 0.0, "MAT_ACEP": 866.0, "MAT_REC": 149.0, "MAT_IRRE": 1.0, "AGUA_R_PUB": 1023.0, "AGUA_POZO": 0.0, "AGUA_CAMIO": 0.0, "AGUA_RIO": 0.0, "AREA_HA": 31.71, "DENS_HA_HA": 91.86, "DENS_HA_VI": 37.72, "M_ACEP_P": 83.5, "M_REC_P": 14.4, "M_IRRE_P": 0.1 }, "geometry": { "type": "Polygon", "coordinates": [ [ [ -70.630248, -33.467728 ], [ -70.630825, -33.467782 ], [ -70.633228, -33.468069 ], [ -70.634048, -33.468158 ], [ -70.63369, -33.469584 ], [ -70.633279, -33.471089 ], [ -70.632981, -33.472204 ], [ -70.632315, -33.472162 ], [ -70.632186, -33.472119 ], [ -70.631029, -33.471904 ], [ -70.629218, -33.471568 ], [ -70.626801, -33.471121 ], [ -70.626681, -33.471491 ], [ -70.626349, -33.471237 ], [ -70.62602, -33.470925 ], [ -70.625832, -33.470701 ], [ -70.625623, -33.470433 ], [ -70.625434, -33.470156 ], [ -70.625088, -33.46951 ], [ -70.625125, -33.469491 ], [ -70.62569, -33.469149 ], [ -70.625871, -33.468993 ], [ -70.626006, -33.468748 ], [ -70.626397, -33.467459 ], [ -70.626435, -33.467325 ], [ -70.627908, -33.467463 ], [ -70.630248, -33.467728 ] ] ] } },
{ "type": "Feature", "properties": { "ID": 41.0, "U_VECINAL": "10 / 7", "AGRUP_VECI": "AV10", "BARRIOS": "SIERRA BELLA", "PERSONAS": 3074.0, "HOMBRES": 1573.0, "MUJERES": 1501.0, "DE_0_A_5_A": 195.0, "DE_6_A_14_": 204.0, "DE_15_A_64": 2121.0, "DE_65_MAS_": 438.0, "INMIGRANTE": 1010.0, "PUEBLOS_OR": 216.0, "VIVIENDA_P": 890.0, "VIVIENDA_C": 3.0, "VIVI_OCUPA": 889.0, "TOTAL_VIVI": 893.0, "TOTAL_HOGA": 1054.0, "CASA": 738.0, "DEPTO": 22.0, "VIV_INDIGE": 0.0, "CONVENTILL": 105.0, "MEDIAGUA": 6.0, "MOVIL": 0.0, "OTRA_VIV_P": 19.0, "VIV_HORMIG": 103.0, "VIV_ALBANI": 370.0, "VIV_TABIQU": 120.0, "VIV_TAB_SI": 43.0, "VIV_ADOBE": 228.0, "VIV_MATPRE": 0.0, "TECHO_TEJA": 145.0, "TECHO_LOSA": 8.0, "TECHO_PLAN": 692.0, "TECHO_FONO": 0.0, "TECHO_PAJA": 0.0, "TECHO_PREC": 11.0, "SIN_TECHO": 0.0, "PISO_PARQU": 744.0, "PISO_RADIE": 33.0, "PISO_BALDO": 55.0, "PISO_CAP_C": 29.0, "PISO_TIERR": 1.0, "MAT_ACEP": 506.0, "MAT_REC": 336.0, "MAT_IRRE": 12.0, "AGUA_R_PUB": 858.0, "AGUA_POZO": 0.0, "AGUA_CAMIO": 1.0, "AGUA_RIO": 0.0, "AREA_HA": 35.52, "DENS_HA_HA": 86.54, "DENS_HA_VI": 25.14, "M_ACEP_P": 56.9, "M_REC_P": 37.8, "M_IRRE_P": 1.3 }, "geometry": { "type": "Polygon", "coordinates": [ [ [ -70.642277, -33.469057 ], [ -70.642198, -33.470343 ], [ -70.642138, -33.471806 ], [ -70.642092, -33.472863 ], [ -70.642092, -33.472868 ], [ -70.637352, -33.472518 ], [ -70.63558, -33.472389 ], [ -70.63362, -33.472245 ], [ -70.632981, -33.472204 ], [ -70.633279, -33.471089 ], [ -70.63369, -33.469584 ], [ -70.634048, -33.468158 ], [ -70.636468, -33.468423 ], [ -70.63662, -33.46844 ], [ -70.642277, -33.469057 ] ] ] } },
{ "type": "Feature", "properties": { "ID": 37.0, "U_VECINAL": "10 / 3", "AGRUP_VECI": "AV10", "BARRIOS": "SIERRA BELLA", "PERSONAS": 1962.0, "HOMBRES": 995.0, "MUJERES": 949.0, "DE_0_A_5_A": 90.0, "DE_6_A_14_": 150.0, "DE_15_A_64": 1384.0, "DE_65_MAS_": 217.0, "INMIGRANTE": 491.0, "PUEBLOS_OR": 161.0, "VIVIENDA_P": 640.0, "VIVIENDA_C": 1.0, "VIVI_OCUPA": 579.0, "TOTAL_VIVI": 641.0, "TOTAL_HOGA": 681.0, "CASA": 554.0, "DEPTO": 15.0, "VIV_INDIGE": 3.0, "CONVENTILL": 57.0, "MEDIAGUA": 2.0, "MOVIL": 0.0, "OTRA_VIV_P": 9.0, "VIV_HORMIG": 65.0, "VIV_ALBANI": 281.0, "VIV_TABIQU": 37.0, "VIV_TAB_SI": 19.0, "VIV_ADOBE": 171.0, "VIV_MATPRE": 2.0, "TECHO_TEJA": 127.0, "TECHO_LOSA": 3.0, "TECHO_PLAN": 438.0, "TECHO_FONO": 4.0, "TECHO_PAJA": 0.0, "TECHO_PREC": 2.0, "SIN_TECHO": 0.0, "PISO_PARQU": 516.0, "PISO_RADIE": 18.0, "PISO_BALDO": 27.0, "PISO_CAP_C": 9.0, "PISO_TIERR": 3.0, "MAT_ACEP": 343.0, "MAT_REC": 221.0, "MAT_IRRE": 3.0, "AGUA_R_PUB": 575.0, "AGUA_POZO": 1.0, "AGUA_CAMIO": 0.0, "AGUA_RIO": 0.0, "AREA_HA": 33.31, "DENS_HA_HA": 58.9, "DENS_HA_VI": 19.24, "M_ACEP_P": 59.2, "M_REC_P": 38.2, "M_IRRE_P": 0.5 }, "geometry": { "type": "Polygon", "coordinates": [ [ [ -70.629218, -33.471568 ], [ -70.631029, -33.471904 ], [ -70.632186, -33.472119 ], [ -70.632315, -33.472162 ], [ -70.632981, -33.472204 ], [ -70.63362, -33.472245 ], [ -70.63558, -33.472389 ], [ -70.637352, -33.472518 ], [ -70.642092, -33.472868 ], [ -70.642032, -33.474597 ], [ -70.641991, -33.476225 ], [ -70.641986, -33.47643 ], [ -70.641901, -33.476426 ], [ -70.640498, -33.476327 ], [ -70.640347, -33.476302 ], [ -70.639968, -33.476234 ], [ -70.639643, -33.476166 ], [ -70.639275, -33.476072 ], [ -70.638993, -33.475976 ], [ -70.638564, -33.475846 ], [ -70.635001, -33.474572 ], [ -70.63075, -33.473052 ], [ -70.629914, -33.472753 ], [ -70.627363, -33.471847 ], [ -70.62724, -33.47179 ], [ -70.62708, -33.471715 ], [ -70.626721, -33.471521 ], [ -70.626681, -33.471491 ], [ -70.626801, -33.471121 ], [ -70.629218, -33.471568 ] ] ] } },
{ "type": "Feature", "properties": { "ID": 15.0, "U_VECINAL": "3 / 6", "AGRUP_VECI": "AV3", "BARRIOS": "YUNGAY", "PERSONAS": 6879.0, "HOMBRES": 3358.0, "MUJERES": 3521.0, "DE_0_A_5_A": 529.0, "DE_6_A_14_": 630.0, "DE_15_A_64": 5207.0, "DE_65_MAS_": 455.0, "INMIGRANTE": 2488.0, "PUEBLOS_OR": 564.0, "VIVIENDA_P": 2626.0, "VIVIENDA_C": 10.0, "VIVI_OCUPA": 2396.0, "TOTAL_VIVI": 2636.0, "TOTAL_HOGA": 2581.0, "CASA": 767.0, "DEPTO": 1603.0, "VIV_INDIGE": 8.0, "CONVENTILL": 216.0, "MEDIAGUA": 2.0, "MOVIL": 0.0, "OTRA_VIV_P": 30.0, "VIV_HORMIG": 1284.0, "VIV_ALBANI": 559.0, "VIV_TABIQU": 44.0, "VIV_TAB_SI": 24.0, "VIV_ADOBE": 477.0, "VIV_MATPRE": 0.0, "TECHO_TEJA": 448.0, "TECHO_LOSA": 1046.0, "TECHO_PLAN": 857.0, "TECHO_FONO": 2.0, "TECHO_PAJA": 0.0, "TECHO_PREC": 3.0, "SIN_TECHO": 1.0, "PISO_PARQU": 2251.0, "PISO_RADIE": 46.0, "PISO_BALDO": 45.0, "PISO_CAP_C": 27.0, "PISO_TIERR": 0.0, "MAT_ACEP": 1772.0, "MAT_REC": 560.0, "MAT_IRRE": 4.0, "AGUA_R_PUB": 2380.0, "AGUA_POZO": 0.0, "AGUA_CAMIO": 0.0, "AGUA_RIO": 0.0, "AREA_HA": 32.11, "DENS_HA_HA": 214.23, "DENS_HA_VI": 82.09, "M_ACEP_P": 74.0, "M_REC_P": 23.4, "M_IRRE_P": 0.2 }, "geometry": { "type": "Polygon", "coordinates": [ [ [ -70.680083, -33.438373 ], [ -70.6784, -33.438266 ], [ -70.675218, -33.438035 ], [ -70.674438, -33.437982 ], [ -70.674549, -33.436753 ], [ -70.67471, -33.434939 ], [ -70.674854, -33.433367 ], [ -70.674929, -33.432429 ], [ -70.675191, -33.432448 ], [ -70.676366, -33.432541 ], [ -70.676367, -33.432541 ], [ -70.678287, -33.432723 ], [ -70.680518, -33.432959 ], [ -70.6805, -33.433443 ], [ -70.680283, -33.435895 ], [ -70.680083, -33.438373 ] ] ] } },
{ "type": "Feature", "properties": { "ID": 7.0, "U_VECINAL": "2 / 4", "AGRUP_VECI": "AV2", "BARRIOS": "PANAMA", "PERSONAS": 8143.0, "HOMBRES": 3860.0, "MUJERES": 4283.0, "DE_0_A_5_A": 539.0, "DE_6_A_14_": 697.0, "DE_15_A_64": 6238.0, "DE_65_MAS_": 601.0, "INMIGRANTE": 2170.0, "PUEBLOS_OR": 624.0, "VIVIENDA_P": 3636.0, "VIVIENDA_C": 4.0, "VIVI_OCUPA": 3250.0, "TOTAL_VIVI": 3640.0, "TOTAL_HOGA": 3377.0, "CASA": 615.0, "DEPTO": 2690.0, "VIV_INDIGE": 1.0, "CONVENTILL": 305.0, "MEDIAGUA": 2.0, "MOVIL": 2.0, "OTRA_VIV_P": 21.0, "VIV_HORMIG": 2076.0, "VIV_ALBANI": 578.0, "VIV_TABIQU": 107.0, "VIV_TAB_SI": 24.0, "VIV_ADOBE": 429.0, "VIV_MATPRE": 3.0, "TECHO_TEJA": 925.0, "TECHO_LOSA": 1634.0, "TECHO_PLAN": 620.0, "TECHO_FONO": 13.0, "TECHO_PAJA": 1.0, "TECHO_PREC": 10.0, "SIN_TECHO": 0.0, "PISO_PARQU": 3120.0, "PISO_RADIE": 26.0, "PISO_BALDO": 38.0, "PISO_CAP_C": 16.0, "PISO_TIERR": 1.0, "MAT_ACEP": 2671.0, "MAT_REC": 491.0, "MAT_IRRE": 12.0, "AGUA_R_PUB": 3210.0, "AGUA_POZO": 3.0, "AGUA_CAMIO": 1.0, "AGUA_RIO": 0.0, "AREA_HA": 36.37, "DENS_HA_HA": 223.89, "DENS_HA_VI": 100.08, "M_ACEP_P": 82.2, "M_REC_P": 15.1, "M_IRRE_P": 0.4 }, "geometry": { "type": "Polygon", "coordinates": [ [ [ -70.668674, -33.437579 ], [ -70.668639, -33.437951 ], [ -70.664605, -33.437562 ], [ -70.660054, -33.437087 ], [ -70.660327, -33.435188 ], [ -70.660544, -33.433667 ], [ -70.66063, -33.433217 ], [ -70.661813, -33.433261 ], [ -70.66188, -33.433206 ], [ -70.664989, -33.433314 ], [ -70.665008, -33.433464 ], [ -70.66904, -33.433738 ], [ -70.668938, -33.434803 ], [ -70.668765, -33.436619 ], [ -70.668674, -33.437579 ] ] ] } },
{ "type": "Feature", "properties": { "ID": 16.0, "U_VECINAL": "3 / 7", "AGRUP_VECI": "AV3", "BARRIOS": "YUNGAY", "PERSONAS": 6762.0, "HOMBRES": 3449.0, "MUJERES": 3313.0, "DE_0_A_5_A": 544.0, "DE_6_A_14_": 368.0, "DE_15_A_64": 5053.0, "DE_65_MAS_": 591.0, "INMIGRANTE": 1858.0, "PUEBLOS_OR": 619.0, "VIVIENDA_P": 2630.0, "VIVIENDA_C": 24.0, "VIVI_OCUPA": 2160.0, "TOTAL_VIVI": 2654.0, "TOTAL_HOGA": 2430.0, "CASA": 864.0, "DEPTO": 1251.0, "VIV_INDIGE": 6.0, "CONVENTILL": 479.0, "MEDIAGUA": 7.0, "MOVIL": 4.0, "OTRA_VIV_P": 19.0, "VIV_HORMIG": 824.0, "VIV_ALBANI": 650.0, "VIV_TABIQU": 113.0, "VIV_TAB_SI": 48.0, "VIV_ADOBE": 499.0, "VIV_MATPRE": 5.0, "TECHO_TEJA": 565.0, "TECHO_LOSA": 682.0, "TECHO_PLAN": 865.0, "TECHO_FONO": 6.0, "TECHO_PAJA": 0.0, "TECHO_PREC": 3.0, "SIN_TECHO": 2.0, "PISO_PARQU": 2054.0, "PISO_RADIE": 8.0, "PISO_BALDO": 42.0, "PISO_CAP_C": 20.0, "PISO_TIERR": 10.0, "MAT_ACEP": 1528.0, "MAT_REC": 562.0, "MAT_IRRE": 14.0, "AGUA_R_PUB": 2130.0, "AGUA_POZO": 1.0, "AGUA_CAMIO": 1.0, "AGUA_RIO": 0.0, "AREA_HA": 104.32, "DENS_HA_HA": 64.82, "DENS_HA_VI": 25.44, "M_ACEP_P": 70.7, "M_REC_P": 26.0, "M_IRRE_P": 0.6 }, "geometry": { "type": "Polygon", "coordinates": [ [ [ -70.680083, -33.438373 ], [ -70.681735, -33.438488 ], [ -70.681783, -33.437877 ], [ -70.681885, -33.437883 ], [ -70.681921, -33.437387 ], [ -70.68143, -33.437356 ], [ -70.681426, -33.437402 ], [ -70.681324, -33.437396 ], [ -70.681334, -33.437265 ], [ -70.680799, -33.437223 ], [ -70.680911, -33.435952 ], [ -70.681921, -33.436092 ], [ -70.683479, -33.436392 ], [ -70.683256, -33.438582 ], [ -70.691499, -33.439121 ], [ -70.691737, -33.439154 ], [ -70.69191, -33.439197 ], [ -70.692341, -33.444467 ], [ -70.689175, -33.444312 ], [ -70.680281, -33.443882 ], [ -70.679579, -33.44381 ], [ -70.673977, -33.443126 ], [ -70.674176, -33.440879 ], [ -70.674283, -33.439687 ], [ -70.674407, -33.438327 ], [ -70.674438, -33.437982 ], [ -70.675218, -33.438035 ], [ -70.6784, -33.438266 ], [ -70.680083, -33.438373 ] ] ] } },
{ "type": "Feature", "properties": { "ID": 13.0, "U_VECINAL": "3 / 4", "AGRUP_VECI": "AV3", "BARRIOS": "YUNGAY", "PERSONAS": 9914.0, "HOMBRES": 4872.0, "MUJERES": 5042.0, "DE_0_A_5_A": 675.0, "DE_6_A_14_": 821.0, "DE_15_A_64": 7503.0, "DE_65_MAS_": 858.0, "INMIGRANTE": 3450.0, "PUEBLOS_OR": 1014.0, "VIVIENDA_P": 3999.0, "VIVIENDA_C": 17.0, "VIVI_OCUPA": 3525.0, "TOTAL_VIVI": 4016.0, "TOTAL_HOGA": 4030.0, "CASA": 1322.0, "DEPTO": 2202.0, "VIV_INDIGE": 3.0, "CONVENTILL": 451.0, "MEDIAGUA": 1.0, "MOVIL": 0.0, "OTRA_VIV_P": 20.0, "VIV_HORMIG": 1656.0, "VIV_ALBANI": 735.0, "VIV_TABIQU": 108.0, "VIV_TAB_SI": 51.0, "VIV_ADOBE": 914.0, "VIV_MATPRE": 1.0, "TECHO_TEJA": 788.0, "TECHO_LOSA": 1401.0, "TECHO_PLAN": 1190.0, "TECHO_FONO": 14.0, "TECHO_PAJA": 6.0, "TECHO_PREC": 24.0, "SIN_TECHO": 1.0, "PISO_PARQU": 3275.0, "PISO_RADIE": 14.0, "PISO_BALDO": 125.0, "PISO_CAP_C": 32.0, "PISO_TIERR": 0.0, "MAT_ACEP": 2375.0, "MAT_REC": 988.0, "MAT_IRRE": 26.0, "AGUA_R_PUB": 3438.0, "AGUA_POZO": 1.0, "AGUA_CAMIO": 1.0, "AGUA_RIO": 13.0, "AREA_HA": 72.34, "DENS_HA_HA": 137.05, "DENS_HA_VI": 55.52, "M_ACEP_P": 67.4, "M_REC_P": 28.0, "M_IRRE_P": 0.7 }, "geometry": { "type": "Polygon", "coordinates": [ [ [ -70.673977, -33.443126 ], [ -70.679579, -33.44381 ], [ -70.679543, -33.444452 ], [ -70.679501, -33.444967 ], [ -70.679234, -33.448269 ], [ -70.678997, -33.450782 ], [ -70.67791, -33.450542 ], [ -70.677875, -33.450365 ], [ -70.676987, -33.450125 ], [ -70.673852, -33.449271 ], [ -70.672967, -33.449036 ], [ -70.670506, -33.448384 ], [ -70.668361, -33.447836 ], [ -70.668163, -33.447786 ], [ -70.667465, -33.4476 ], [ -70.667512, -33.447504 ], [ -70.667589, -33.447256 ], [ -70.667677, -33.446253 ], [ -70.667834, -33.444235 ], [ -70.667869, -33.443704 ], [ -70.667948, -33.442498 ], [ -70.667951, -33.442488 ], [ -70.669889, -33.442827 ], [ -70.672174, -33.443093 ], [ -70.672192, -33.442908 ], [ -70.673977, -33.443126 ] ] ] } },
{ "type": "Feature", "properties": { "ID": 10.0, "U_VECINAL": "3 / 1", "AGRUP_VECI": "AV3", "BARRIOS": "BALMACEDA", "PERSONAS": 8710.0, "HOMBRES": 4207.0, "MUJERES": 4503.0, "DE_0_A_5_A": 620.0, "DE_6_A_14_": 921.0, "DE_15_A_64": 6372.0, "DE_65_MAS_": 701.0, "INMIGRANTE": 1832.0, "PUEBLOS_OR": 670.0, "VIVIENDA_P": 3510.0, "VIVIENDA_C": 2.0, "VIVI_OCUPA": 3059.0, "TOTAL_VIVI": 3512.0, "TOTAL_HOGA": 3166.0, "CASA": 490.0, "DEPTO": 2900.0, "VIV_INDIGE": 0.0, "CONVENTILL": 117.0, "MEDIAGUA": 2.0, "MOVIL": 0.0, "OTRA_VIV_P": 1.0, "VIV_HORMIG": 2096.0, "VIV_ALBANI": 649.0, "VIV_TABIQU": 22.0, "VIV_TAB_SI": 10.0, "VIV_ADOBE": 267.0, "VIV_MATPRE": 3.0, "TECHO_TEJA": 466.0, "TECHO_LOSA": 1859.0, "TECHO_PLAN": 698.0, "TECHO_FONO": 0.0, "TECHO_PAJA": 0.0, "TECHO_PREC": 4.0, "SIN_TECHO": 0.0, "PISO_PARQU": 2958.0, "PISO_RADIE": 16.0, "PISO_BALDO": 24.0, "PISO_CAP_C": 3.0, "PISO_TIERR": 0.0, "MAT_ACEP": 2680.0, "MAT_REC": 292.0, "MAT_IRRE": 7.0, "AGUA_R_PUB": 3035.0, "AGUA_POZO": 0.0, "AGUA_CAMIO": 0.0, "AGUA_RIO": 0.0, "AREA_HA": 41.64, "DENS_HA_HA": 209.17, "DENS_HA_VI": 84.34, "M_ACEP_P": 87.6, "M_REC_P": 9.5, "M_IRRE_P": 0.2 }, "geometry": { "type": "Polygon", "coordinates": [ [ [ -70.667841, -33.427299 ], [ -70.669912, -33.426577 ], [ -70.670327, -33.426417 ], [ -70.670723, -33.426217 ], [ -70.671061, -33.426019 ], [ -70.671228, -33.425913 ], [ -70.671341, -33.425837 ], [ -70.671463, -33.425745 ], [ -70.67159, -33.425634 ], [ -70.671619, -33.425869 ], [ -70.671633, -33.425987 ], [ -70.67176, -33.427057 ], [ -70.671746, -33.427124 ], [ -70.671841, -33.428219 ], [ -70.675211, -33.427121 ], [ -70.675481, -33.427027 ], [ -70.675524, -33.427012 ], [ -70.675809, -33.42694 ], [ -70.676072, -33.426869 ], [ -70.676393, -33.426791 ], [ -70.676749, -33.426755 ], [ -70.676914, -33.426757 ], [ -70.676366, -33.432541 ], [ -70.675191, -33.432448 ], [ -70.674929, -33.432429 ], [ -70.670243, -33.432099 ], [ -70.669202, -33.43205 ], [ -70.669485, -33.429036 ], [ -70.669484, -33.429036 ], [ -70.669409, -33.42888 ], [ -70.668708, -33.429104 ], [ -70.668404, -33.428503 ], [ -70.667841, -33.427299 ] ] ] } },
{ "type": "Feature", "properties": { "ID": 14.0, "U_VECINAL": "3 / 5", "AGRUP_VECI": "AV3", "BARRIOS": "BALMACEDA", "PERSONAS": 5009.0, "HOMBRES": 2439.0, "MUJERES": 2570.0, "DE_0_A_5_A": 417.0, "DE_6_A_14_": 493.0, "DE_15_A_64": 3715.0, "DE_65_MAS_": 353.0, "INMIGRANTE": 1645.0, "PUEBLOS_OR": 449.0, "VIVIENDA_P": 2063.0, "VIVIENDA_C": 11.0, "VIVI_OCUPA": 1656.0, "TOTAL_VIVI": 2074.0, "TOTAL_HOGA": 1815.0, "CASA": 597.0, "DEPTO": 1403.0, "VIV_INDIGE": 0.0, "CONVENTILL": 59.0, "MEDIAGUA": 1.0, "MOVIL": 0.0, "OTRA_VIV_P": 3.0, "VIV_HORMIG": 866.0, "VIV_ALBANI": 427.0, "VIV_TABIQU": 49.0, "VIV_TAB_SI": 4.0, "VIV_ADOBE": 295.0, "VIV_MATPRE": 3.0, "TECHO_TEJA": 390.0, "TECHO_LOSA": 754.0, "TECHO_PLAN": 481.0, "TECHO_FONO": 5.0, "TECHO_PAJA": 0.0, "TECHO_PREC": 2.0, "SIN_TECHO": 1.0, "PISO_PARQU": 1583.0, "PISO_RADIE": 3.0, "PISO_BALDO": 33.0, "PISO_CAP_C": 13.0, "PISO_TIERR": 3.0, "MAT_ACEP": 1296.0, "MAT_REC": 316.0, "MAT_IRRE": 8.0, "AGUA_R_PUB": 1630.0, "AGUA_POZO": 1.0, "AGUA_CAMIO": 0.0, "AGUA_RIO": 1.0, "AREA_HA": 22.66, "DENS_HA_HA": 221.05, "DENS_HA_VI": 91.53, "M_ACEP_P": 78.3, "M_REC_P": 19.1, "M_IRRE_P": 0.5 }, "geometry": { "type": "Polygon", "coordinates": [ [ [ -70.676366, -33.432541 ], [ -70.676914, -33.426757 ], [ -70.67705, -33.426757 ], [ -70.677549, -33.426788 ], [ -70.677799, -33.426821 ], [ -70.678227, -33.426914 ], [ -70.679107, -33.427277 ], [ -70.679381, -33.427397 ], [ -70.679664, -33.427621 ], [ -70.679956, -33.427887 ], [ -70.680326, -33.428341 ], [ -70.680499, -33.428627 ], [ -70.680623, -33.428924 ], [ -70.680727, -33.42932 ], [ -70.680758, -33.429789 ], [ -70.680725, -33.430287 ], [ -70.680521, -33.432883 ], [ -70.680518, -33.432959 ], [ -70.678287, -33.432723 ], [ -70.676367, -33.432541 ], [ -70.676366, -33.432541 ] ] ] } },
{ "type": "Feature", "properties": { "ID": 6.0, "U_VECINAL": "2 / 3", "AGRUP_VECI": "AV2", "BARRIOS": "PANAMA", "PERSONAS": 4737.0, "HOMBRES": 2296.0, "MUJERES": 2424.0, "DE_0_A_5_A": 316.0, "DE_6_A_14_": 438.0, "DE_15_A_64": 3312.0, "DE_65_MAS_": 552.0, "INMIGRANTE": 1253.0, "PUEBLOS_OR": 472.0, "VIVIENDA_P": 2071.0, "VIVIENDA_C": 1.0, "VIVI_OCUPA": 1545.0, "TOTAL_VIVI": 2072.0, "TOTAL_HOGA": 1782.0, "CASA": 1076.0, "DEPTO": 933.0, "VIV_INDIGE": 0.0, "CONVENTILL": 61.0, "MEDIAGUA": 0.0, "MOVIL": 0.0, "OTRA_VIV_P": 1.0, "VIV_HORMIG": 546.0, "VIV_ALBANI": 512.0, "VIV_TABIQU": 20.0, "VIV_TAB_SI": 14.0, "VIV_ADOBE": 443.0, "VIV_MATPRE": 1.0, "TECHO_TEJA": 295.0, "TECHO_LOSA": 449.0, "TECHO_PLAN": 763.0, "TECHO_FONO": 8.0, "TECHO_PAJA": 0.0, "TECHO_PREC": 12.0, "SIN_TECHO": 5.0, "PISO_PARQU": 1449.0, "PISO_RADIE": 10.0, "PISO_BALDO": 57.0, "PISO_CAP_C": 17.0, "PISO_TIERR": 1.0, "MAT_ACEP": 1017.0, "MAT_REC": 493.0, "MAT_IRRE": 19.0, "AGUA_R_PUB": 1530.0, "AGUA_POZO": 1.0, "AGUA_CAMIO": 0.0, "AGUA_RIO": 0.0, "AREA_HA": 43.49, "DENS_HA_HA": 108.92, "DENS_HA_VI": 47.64, "M_ACEP_P": 65.8, "M_REC_P": 31.9, "M_IRRE_P": 1.2 }, "geometry": { "type": "Polygon", "coordinates": [ [ [ -70.667841, -33.427299 ], [ -70.668404, -33.428503 ], [ -70.668708, -33.429104 ], [ -70.669409, -33.42888 ], [ -70.669484, -33.429036 ], [ -70.669485, -33.429036 ], [ -70.669202, -33.43205 ], [ -70.669154, -33.432551 ], [ -70.66904, -33.433738 ], [ -70.665008, -33.433464 ], [ -70.664989, -33.433314 ], [ -70.66188, -33.433206 ], [ -70.661813, -33.433261 ], [ -70.66063, -33.433217 ], [ -70.660649, -33.433117 ], [ -70.660769, -33.432481 ], [ -70.660944, -33.431542 ], [ -70.660964, -33.43134 ], [ -70.660975, -33.43119 ], [ -70.660978, -33.430753 ], [ -70.660519, -33.429483 ], [ -70.66071, -33.429385 ], [ -70.66085, -33.429315 ], [ -70.660992, -33.429245 ], [ -70.661127, -33.429182 ], [ -70.661242, -33.429144 ], [ -70.661398, -33.429121 ], [ -70.66173, -33.429106 ], [ -70.662104, -33.429085 ], [ -70.662565, -33.429034 ], [ -70.663118, -33.428916 ], [ -70.663769, -33.428701 ], [ -70.664387, -33.428487 ], [ -70.664445, -33.428467 ], [ -70.667841, -33.427299 ] ] ] } },
{ "type": "Feature", "properties": { "ID": 4.0, "U_VECINAL": "2 / 1", "AGRUP_VECI": "AV2", "BARRIOS": "SANTA ANA", "PERSONAS": 12407.0, "HOMBRES": 6374.0, "MUJERES": 6033.0, "DE_0_A_5_A": 671.0, "DE_6_A_14_": 572.0, "DE_15_A_64": 10774.0, "DE_65_MAS_": 335.0, "INMIGRANTE": 5021.0, "PUEBLOS_OR": 706.0, "VIVIENDA_P": 6502.0, "VIVIENDA_C": 4.0, "VIVI_OCUPA": 5557.0, "TOTAL_VIVI": 6506.0, "TOTAL_HOGA": 5734.0, "CASA": 154.0, "DEPTO": 6213.0, "VIV_INDIGE": 1.0, "CONVENTILL": 133.0, "MEDIAGUA": 0.0, "MOVIL": 0.0, "OTRA_VIV_P": 1.0, "VIV_HORMIG": 4776.0, "VIV_ALBANI": 650.0, "VIV_TABIQU": 42.0, "VIV_TAB_SI": 13.0, "VIV_ADOBE": 46.0, "VIV_MATPRE": 1.0, "TECHO_TEJA": 677.0, "TECHO_LOSA": 4598.0, "TECHO_PLAN": 216.0, "TECHO_FONO": 8.0, "TECHO_PAJA": 0.0, "TECHO_PREC": 1.0, "SIN_TECHO": 0.0, "PISO_PARQU": 5456.0, "PISO_RADIE": 11.0, "PISO_BALDO": 12.0, "PISO_CAP_C": 0.0, "PISO_TIERR": 0.0, "MAT_ACEP": 5372.0, "MAT_REC": 76.0, "MAT_IRRE": 1.0, "AGUA_R_PUB": 5513.0, "AGUA_POZO": 1.0, "AGUA_CAMIO": 0.0, "AGUA_RIO": 0.0, "AREA_HA": 22.79, "DENS_HA_HA": 544.41, "DENS_HA_VI": 285.48, "M_ACEP_P": 96.7, "M_REC_P": 1.4, "M_IRRE_P": 0.0 }, "geometry": { "type": "Polygon", "coordinates": [ [ [ -70.66063, -33.433217 ], [ -70.660544, -33.433667 ], [ -70.660327, -33.435188 ], [ -70.660054, -33.437087 ], [ -70.659572, -33.43703 ], [ -70.657021, -33.436768 ], [ -70.657021, -33.436768 ], [ -70.657169, -33.435645 ], [ -70.657329, -33.434536 ], [ -70.657335, -33.43441 ], [ -70.657358, -33.434166 ], [ -70.657422, -33.433489 ], [ -70.657459, -33.433227 ], [ -70.657451, -33.433092 ], [ -70.657481, -33.432496 ], [ -70.657493, -33.430488 ], [ -70.659415, -33.43003 ], [ -70.659678, -33.429947 ], [ -70.659945, -33.429818 ], [ -70.660203, -33.429673 ], [ -70.660317, -33.429603 ], [ -70.660496, -33.429495 ], [ -70.660519, -33.429483 ], [ -70.660978, -33.430753 ], [ -70.660975, -33.43119 ], [ -70.660964, -33.43134 ], [ -70.660944, -33.431542 ], [ -70.660769, -33.432481 ], [ -70.660649, -33.433117 ], [ -70.66063, -33.433217 ] ] ] } },
{ "type": "Feature", "properties": { "ID": 11.0, "U_VECINAL": "3 / 2", "AGRUP_VECI": "AV3", "BARRIOS": "YUNGAY", "PERSONAS": 6370.0, "HOMBRES": 3222.0, "MUJERES": 3148.0, "DE_0_A_5_A": 473.0, "DE_6_A_14_": 578.0, "DE_15_A_64": 4772.0, "DE_65_MAS_": 530.0, "INMIGRANTE": 2559.0, "PUEBLOS_OR": 562.0, "VIVIENDA_P": 2439.0, "VIVIENDA_C": 8.0, "VIVI_OCUPA": 2236.0, "TOTAL_VIVI": 2447.0, "TOTAL_HOGA": 2485.0, "CASA": 1016.0, "DEPTO": 867.0, "VIV_INDIGE": 1.0, "CONVENTILL": 540.0, "MEDIAGUA": 4.0, "MOVIL": 0.0, "OTRA_VIV_P": 11.0, "VIV_HORMIG": 761.0, "VIV_ALBANI": 418.0, "VIV_TABIQU": 178.0, "VIV_TAB_SI": 79.0, "VIV_ADOBE": 768.0, "VIV_MATPRE": 0.0, "TECHO_TEJA": 542.0, "TECHO_LOSA": 544.0, "TECHO_PLAN": 1105.0, "TECHO_FONO": 5.0, "TECHO_PAJA": 1.0, "TECHO_PREC": 3.0, "SIN_TECHO": 0.0, "PISO_PARQU": 1999.0, "PISO_RADIE": 63.0, "PISO_BALDO": 89.0, "PISO_CAP_C": 44.0, "PISO_TIERR": 4.0, "MAT_ACEP": 1249.0, "MAT_REC": 910.0, "MAT_IRRE": 7.0, "AGUA_R_PUB": 2217.0, "AGUA_POZO": 0.0, "AGUA_CAMIO": 0.0, "AGUA_RIO": 0.0, "AREA_HA": 33.13, "DENS_HA_HA": 192.27, "DENS_HA_VI": 73.86, "M_ACEP_P": 55.9, "M_REC_P": 40.7, "M_IRRE_P": 0.3 }, "geometry": { "type": "Polygon", "coordinates": [ [ [ -70.674929, -33.432429 ], [ -70.674854, -33.433367 ], [ -70.67471, -33.434939 ], [ -70.674549, -33.436753 ], [ -70.674438, -33.437982 ], [ -70.671568, -33.437787 ], [ -70.668674, -33.437579 ], [ -70.668765, -33.436619 ], [ -70.668938, -33.434803 ], [ -70.66904, -33.433738 ], [ -70.669154, -33.432551 ], [ -70.669202, -33.43205 ], [ -70.670243, -33.432099 ], [ -70.674929, -33.432429 ] ] ] } },
{ "type": "Feature", "properties": { "ID": 5.0, "U_VECINAL": "2 / 2", "AGRUP_VECI": "AV2", "BARRIOS": "SANTA ANA", "PERSONAS": 11175.0, "HOMBRES": 5718.0, "MUJERES": 5457.0, "DE_0_A_5_A": 559.0, "DE_6_A_14_": 471.0, "DE_15_A_64": 8889.0, "DE_65_MAS_": 734.0, "INMIGRANTE": 2803.0, "PUEBLOS_OR": 854.0, "VIVIENDA_P": 6812.0, "VIVIENDA_C": 15.0, "VIVI_OCUPA": 5205.0, "TOTAL_VIVI": 6827.0, "TOTAL_HOGA": 5358.0, "CASA": 129.0, "DEPTO": 6676.0, "VIV_INDIGE": 0.0, "CONVENTILL": 3.0, "MEDIAGUA": 0.0, "MOVIL": 0.0, "OTRA_VIV_P": 4.0, "VIV_HORMIG": 4204.0, "VIV_ALBANI": 970.0, "VIV_TABIQU": 3.0, "VIV_TAB_SI": 3.0, "VIV_ADOBE": 2.0, "VIV_MATPRE": 0.0, "TECHO_TEJA": 1037.0, "TECHO_LOSA": 3864.0, "TECHO_PLAN": 253.0, "TECHO_FONO": 3.0, "TECHO_PAJA": 0.0, "TECHO_PREC": 0.0, "SIN_TECHO": 1.0, "PISO_PARQU": 5149.0, "PISO_RADIE": 0.0, "PISO_BALDO": 1.0, "PISO_CAP_C": 3.0, "PISO_TIERR": 0.0, "MAT_ACEP": 5114.0, "MAT_REC": 8.0, "MAT_IRRE": 1.0, "AGUA_R_PUB": 5178.0, "AGUA_POZO": 1.0, "AGUA_CAMIO": 1.0, "AGUA_RIO": 0.0, "AREA_HA": 32.73, "DENS_HA_HA": 341.43, "DENS_HA_VI": 208.59, "M_ACEP_P": 98.3, "M_REC_P": 0.2, "M_IRRE_P": 0.0 }, "geometry": { "type": "Polygon", "coordinates": [ [ [ -70.660054, -33.437087 ], [ -70.660017, -33.437348 ], [ -70.659945, -33.437965 ], [ -70.660043, -33.438038 ], [ -70.660031, -33.438347 ], [ -70.65991, -33.438407 ], [ -70.659804, -33.439079 ], [ -70.65974, -33.439532 ], [ -70.65972, -33.440001 ], [ -70.659754, -33.440259 ], [ -70.660058, -33.44163 ], [ -70.660066, -33.441667 ], [ -70.660601, -33.443875 ], [ -70.66065, -33.444185 ], [ -70.660649, -33.444521 ], [ -70.6606, -33.445868 ], [ -70.660452, -33.445823 ], [ -70.660082, -33.445747 ], [ -70.659289, -33.445557 ], [ -70.658638, -33.445413 ], [ -70.658635, -33.445413 ], [ -70.65739, -33.445123 ], [ -70.655739, -33.444731 ], [ -70.655608, -33.444712 ], [ -70.655665, -33.444551 ], [ -70.655869, -33.443511 ], [ -70.65611, -33.442398 ], [ -70.656234, -33.441799 ], [ -70.656362, -33.44125 ], [ -70.656574, -33.440201 ], [ -70.656591, -33.440137 ], [ -70.656751, -33.439008 ], [ -70.656885, -33.437897 ], [ -70.657021, -33.436768 ], [ -70.659572, -33.43703 ], [ -70.660054, -33.437087 ] ] ] } },
{ "type": "Feature", "properties": { "ID": 8.0, "U_VECINAL": "2 / 5", "AGRUP_VECI": "AV2", "BARRIOS": "BRASIL", "PERSONAS": 8347.0, "HOMBRES": 4007.0, "MUJERES": 4340.0, "DE_0_A_5_A": 474.0, "DE_6_A_14_": 563.0, "DE_15_A_64": 6511.0, "DE_65_MAS_": 799.0, "INMIGRANTE": 1756.0, "PUEBLOS_OR": 726.0, "VIVIENDA_P": 4033.0, "VIVIENDA_C": 17.0, "VIVI_OCUPA": 3470.0, "TOTAL_VIVI": 4050.0, "TOTAL_HOGA": 3585.0, "CASA": 368.0, "DEPTO": 3373.0, "VIV_INDIGE": 5.0, "CONVENTILL": 265.0, "MEDIAGUA": 1.0, "MOVIL": 0.0, "OTRA_VIV_P": 21.0, "VIV_HORMIG": 2569.0, "VIV_ALBANI": 575.0, "VIV_TABIQU": 81.0, "VIV_TAB_SI": 31.0, "VIV_ADOBE": 182.0, "VIV_MATPRE": 0.0, "TECHO_TEJA": 719.0, "TECHO_LOSA": 2154.0, "TECHO_PLAN": 538.0, "TECHO_FONO": 3.0, "TECHO_PAJA": 1.0, "TECHO_PREC": 2.0, "SIN_TECHO": 0.0, "PISO_PARQU": 3387.0, "PISO_RADIE": 5.0, "PISO_BALDO": 32.0, "PISO_CAP_C": 1.0, "PISO_TIERR": 0.0, "MAT_ACEP": 3163.0, "MAT_REC": 224.0, "MAT_IRRE": 1.0, "AGUA_R_PUB": 3426.0, "AGUA_POZO": 3.0, "AGUA_CAMIO": 1.0, "AGUA_RIO": 2.0, "AREA_HA": 39.58, "DENS_HA_HA": 210.89, "DENS_HA_VI": 102.32, "M_ACEP_P": 91.2, "M_REC_P": 6.5, "M_IRRE_P": 0.0 }, "geometry": { "type": "Polygon", "coordinates": [ [ [ -70.660054, -33.437087 ], [ -70.664605, -33.437562 ], [ -70.668639, -33.437951 ], [ -70.668549, -33.4389 ], [ -70.668531, -33.43909 ], [ -70.668492, -33.43951 ], [ -70.668505, -33.440192 ], [ -70.668165, -33.441445 ], [ -70.667951, -33.442488 ], [ -70.666461, -33.442238 ], [ -70.66261, -33.441864 ], [ -70.660058, -33.44163 ], [ -70.659754, -33.440259 ], [ -70.65972, -33.440001 ], [ -70.65974, -33.439532 ], [ -70.659804, -33.439079 ], [ -70.65991, -33.438407 ], [ -70.660031, -33.438347 ], [ -70.660043, -33.438038 ], [ -70.659945, -33.437965 ], [ -70.660017, -33.437348 ], [ -70.660054, -33.437087 ] ] ] } },
{ "type": "Feature", "properties": { "ID": 9.0, "U_VECINAL": "2 / 6", "AGRUP_VECI": "AV2", "BARRIOS": "BRASIL", "PERSONAS": 5218.0, "HOMBRES": 2532.0, "MUJERES": 2686.0, "DE_0_A_5_A": 193.0, "DE_6_A_14_": 295.0, "DE_15_A_64": 3982.0, "DE_65_MAS_": 674.0, "INMIGRANTE": 827.0, "PUEBLOS_OR": 437.0, "VIVIENDA_P": 2617.0, "VIVIENDA_C": 17.0, "VIVI_OCUPA": 2249.0, "TOTAL_VIVI": 2634.0, "TOTAL_HOGA": 2418.0, "CASA": 301.0, "DEPTO": 1984.0, "VIV_INDIGE": 0.0, "CONVENTILL": 328.0, "MEDIAGUA": 1.0, "MOVIL": 0.0, "OTRA_VIV_P": 3.0, "VIV_HORMIG": 1464.0, "VIV_ALBANI": 513.0, "VIV_TABIQU": 42.0, "VIV_TAB_SI": 10.0, "VIV_ADOBE": 196.0, "VIV_MATPRE": 1.0, "TECHO_TEJA": 438.0, "TECHO_LOSA": 1218.0, "TECHO_PLAN": 556.0, "TECHO_FONO": 3.0, "TECHO_PAJA": 0.0, "TECHO_PREC": 2.0, "SIN_TECHO": 0.0, "PISO_PARQU": 2208.0, "PISO_RADIE": 4.0, "PISO_BALDO": 3.0, "PISO_CAP_C": 1.0, "PISO_TIERR": 0.0, "MAT_ACEP": 1983.0, "MAT_REC": 208.0, "MAT_IRRE": 3.0, "AGUA_R_PUB": 2233.0, "AGUA_POZO": 0.0, "AGUA_CAMIO": 0.0, "AGUA_RIO": 0.0, "AREA_HA": 35.27, "DENS_HA_HA": 147.94, "DENS_HA_VI": 74.68, "M_ACEP_P": 88.2, "M_REC_P": 9.2, "M_IRRE_P": 0.1 }, "geometry": { "type": "Polygon", "coordinates": [ [ [ -70.667951, -33.442488 ], [ -70.667948, -33.442498 ], [ -70.667869, -33.443704 ], [ -70.667834, -33.444235 ], [ -70.667677, -33.446253 ], [ -70.667589, -33.447256 ], [ -70.667512, -33.447504 ], [ -70.667465, -33.4476 ], [ -70.667465, -33.4476 ], [ -70.665935, -33.447155 ], [ -70.664734, -33.446828 ], [ -70.664624, -33.446802 ], [ -70.663748, -33.446594 ], [ -70.662601, -33.446315 ], [ -70.662596, -33.446338 ], [ -70.6606, -33.445868 ], [ -70.660649, -33.444521 ], [ -70.66065, -33.444185 ], [ -70.660601, -33.443875 ], [ -70.660066, -33.441667 ], [ -70.660058, -33.44163 ], [ -70.66261, -33.441864 ], [ -70.666461, -33.442238 ], [ -70.667951, -33.442488 ] ] ] } },
{ "type": "Feature", "properties": { "ID": 24.0, "U_VECINAL": "8 / 4", "AGRUP_VECI": "AV8", "BARRIOS": "PARQUE ALMAGRO", "PERSONAS": 25453.0, "HOMBRES": 12783.0, "MUJERES": 12618.0, "DE_0_A_5_A": 1216.0, "DE_6_A_14_": 1042.0, "DE_15_A_64": 21669.0, "DE_65_MAS_": 1143.0, "INMIGRANTE": 7151.0, "PUEBLOS_OR": 1842.0, "VIVIENDA_P": 14442.0, "VIVIENDA_C": 11.0, "VIVI_OCUPA": 12097.0, "TOTAL_VIVI": 14453.0, "TOTAL_HOGA": 12504.0, "CASA": 590.0, "DEPTO": 13735.0, "VIV_INDIGE": 0.0, "CONVENTILL": 113.0, "MEDIAGUA": 0.0, "MOVIL": 0.0, "OTRA_VIV_P": 4.0, "VIV_HORMIG": 11089.0, "VIV_ALBANI": 725.0, "VIV_TABIQU": 24.0, "VIV_TAB_SI": 6.0, "VIV_ADOBE": 143.0, "VIV_MATPRE": 0.0, "TECHO_TEJA": 1216.0, "TECHO_LOSA": 10274.0, "TECHO_PLAN": 433.0, "TECHO_FONO": 3.0, "TECHO_PAJA": 0.0, "TECHO_PREC": 1.0, "SIN_TECHO": 0.0, "PISO_PARQU": 11895.0, "PISO_RADIE": 2.0, "PISO_BALDO": 9.0, "PISO_CAP_C": 3.0, "PISO_TIERR": 1.0, "MAT_ACEP": 11665.0, "MAT_REC": 154.0, "MAT_IRRE": 2.0, "AGUA_R_PUB": 11953.0, "AGUA_POZO": 0.0, "AGUA_CAMIO": 2.0, "AGUA_RIO": 0.0, "AREA_HA": 87.31, "DENS_HA_HA": 291.52, "DENS_HA_VI": 165.54, "M_ACEP_P": 96.4, "M_REC_P": 1.3, "M_IRRE_P": 0.0 }, "geometry": { "type": "Polygon", "coordinates": [ [ [ -70.655608, -33.444712 ], [ -70.655739, -33.444731 ], [ -70.65739, -33.445123 ], [ -70.658635, -33.445413 ], [ -70.658638, -33.445413 ], [ -70.659289, -33.445557 ], [ -70.660082, -33.445747 ], [ -70.660452, -33.445823 ], [ -70.6606, -33.445868 ], [ -70.660318, -33.447094 ], [ -70.660031, -33.448108 ], [ -70.659681, -33.449175 ], [ -70.65899, -33.452154 ], [ -70.658845, -33.452599 ], [ -70.658251, -33.454084 ], [ -70.65814, -33.454387 ], [ -70.658073, -33.454533 ], [ -70.65777, -33.454506 ], [ -70.656576, -33.454445 ], [ -70.655581, -33.454419 ], [ -70.654071, -33.45438 ], [ -70.653933, -33.454377 ], [ -70.651476, -33.454315 ], [ -70.650042, -33.454061 ], [ -70.650172, -33.453193 ], [ -70.650382, -33.451818 ], [ -70.65056, -33.450514 ], [ -70.650569, -33.450461 ], [ -70.650769, -33.449272 ], [ -70.651049, -33.447432 ], [ -70.65129, -33.445893 ], [ -70.651385, -33.445209 ], [ -70.65157, -33.444118 ], [ -70.651637, -33.44385 ], [ -70.65192, -33.443868 ], [ -70.652867, -33.444091 ], [ -70.653008, -33.444126 ], [ -70.653095, -33.444145 ], [ -70.653328, -33.444186 ], [ -70.654047, -33.444335 ], [ -70.654309, -33.444408 ], [ -70.654854, -33.444539 ], [ -70.655462, -33.444688 ], [ -70.655608, -33.444712 ] ] ] } },
{ "type": "Feature", "properties": { "ID": 26.0, "U_VECINAL": "8 / 8", "AGRUP_VECI": "AV8", "BARRIOS": "EJERCITO", "PERSONAS": 15136.0, "HOMBRES": 7400.0, "MUJERES": 7736.0, "DE_0_A_5_A": 863.0, "DE_6_A_14_": 920.0, "DE_15_A_64": 12182.0, "DE_65_MAS_": 1085.0, "INMIGRANTE": 2443.0, "PUEBLOS_OR": 1187.0, "VIVIENDA_P": 8305.0, "VIVIENDA_C": 9.0, "VIVI_OCUPA": 6955.0, "TOTAL_VIVI": 8314.0, "TOTAL_HOGA": 7318.0, "CASA": 580.0, "DEPTO": 7514.0, "VIV_INDIGE": 1.0, "CONVENTILL": 204.0, "MEDIAGUA": 2.0, "MOVIL": 1.0, "OTRA_VIV_P": 3.0, "VIV_HORMIG": 5747.0, "VIV_ALBANI": 873.0, "VIV_TABIQU": 46.0, "VIV_TAB_SI": 12.0, "VIV_ADOBE": 238.0, "VIV_MATPRE": 0.0, "TECHO_TEJA": 1047.0, "TECHO_LOSA": 5227.0, "TECHO_PLAN": 593.0, "TECHO_FONO": 1.0, "TECHO_PAJA": 2.0, "TECHO_PREC": 1.0, "SIN_TECHO": 0.0, "PISO_PARQU": 6865.0, "PISO_RADIE": 3.0, "PISO_BALDO": 18.0, "PISO_CAP_C": 3.0, "PISO_TIERR": 0.0, "MAT_ACEP": 6579.0, "MAT_REC": 254.0, "MAT_IRRE": 1.0, "AGUA_R_PUB": 6912.0, "AGUA_POZO": 2.0, "AGUA_CAMIO": 1.0, "AGUA_RIO": 1.0, "AREA_HA": 70.78, "DENS_HA_HA": 213.85, "DENS_HA_VI": 117.46, "M_ACEP_P": 94.6, "M_REC_P": 3.7, "M_IRRE_P": 0.0 }, "geometry": { "type": "Polygon", "coordinates": [ [ [ -70.6606, -33.445868 ], [ -70.662596, -33.446338 ], [ -70.662601, -33.446315 ], [ -70.663748, -33.446594 ], [ -70.664624, -33.446802 ], [ -70.664805, -33.447441 ], [ -70.664724, -33.449339 ], [ -70.66468, -33.450248 ], [ -70.66455, -33.451581 ], [ -70.664434, -33.452712 ], [ -70.664218, -33.455039 ], [ -70.664108, -33.456185 ], [ -70.664033, -33.456961 ], [ -70.663934, -33.4571 ], [ -70.663912, -33.457441 ], [ -70.663862, -33.458428 ], [ -70.663892, -33.458485 ], [ -70.659324, -33.458193 ], [ -70.656744, -33.458045 ], [ -70.656728, -33.457713 ], [ -70.656819, -33.457026 ], [ -70.656902, -33.45638 ], [ -70.657034, -33.456034 ], [ -70.657284, -33.455655 ], [ -70.657742, -33.455065 ], [ -70.657988, -33.454715 ], [ -70.658073, -33.454533 ], [ -70.65814, -33.454387 ], [ -70.658251, -33.454084 ], [ -70.658845, -33.452599 ], [ -70.65899, -33.452154 ], [ -70.659681, -33.449175 ], [ -70.660031, -33.448108 ], [ -70.660318, -33.447094 ], [ -70.6606, -33.445868 ] ] ] } },
{ "type": "Feature", "properties": { "ID": 28.0, "U_VECINAL": "9 / 1", "AGRUP_VECI": "AV9", "BARRIOS": "BARRIO UNIVERSITARIO / CLUB HIPICO", "PERSONAS": 7083.0, "HOMBRES": 3541.0, "MUJERES": 3542.0, "DE_0_A_5_A": 344.0, "DE_6_A_14_": 428.0, "DE_15_A_64": 5494.0, "DE_65_MAS_": 696.0, "INMIGRANTE": 1128.0, "PUEBLOS_OR": 613.0, "VIVIENDA_P": 3275.0, "VIVIENDA_C": 12.0, "VIVI_OCUPA": 2872.0, "TOTAL_VIVI": 3287.0, "TOTAL_HOGA": 3090.0, "CASA": 621.0, "DEPTO": 2495.0, "VIV_INDIGE": 0.0, "CONVENTILL": 149.0, "MEDIAGUA": 0.0, "MOVIL": 0.0, "OTRA_VIV_P": 10.0, "VIV_HORMIG": 2104.0, "VIV_ALBANI": 452.0, "VIV_TABIQU": 44.0, "VIV_TAB_SI": 15.0, "VIV_ADOBE": 238.0, "VIV_MATPRE": 1.0, "TECHO_TEJA": 497.0, "TECHO_LOSA": 1769.0, "TECHO_PLAN": 572.0, "TECHO_FONO": 4.0, "TECHO_PAJA": 0.0, "TECHO_PREC": 1.0, "SIN_TECHO": 0.0, "PISO_PARQU": 2779.0, "PISO_RADIE": 2.0, "PISO_BALDO": 55.0, "PISO_CAP_C": 1.0, "PISO_TIERR": 0.0, "MAT_ACEP": 2536.0, "MAT_REC": 279.0, "MAT_IRRE": 1.0, "AGUA_R_PUB": 2846.0, "AGUA_POZO": 1.0, "AGUA_CAMIO": 0.0, "AGUA_RIO": 0.0, "AREA_HA": 38.1, "DENS_HA_HA": 185.91, "DENS_HA_VI": 86.27, "M_ACEP_P": 88.3, "M_REC_P": 9.7, "M_IRRE_P": 0.0 }, "geometry": { "type": "Polygon", "coordinates": [ [ [ -70.667465, -33.4476 ], [ -70.668163, -33.447786 ], [ -70.668361, -33.447836 ], [ -70.668262, -33.448387 ], [ -70.667932, -33.450065 ], [ -70.66775, -33.45102 ], [ -70.667511, -33.452188 ], [ -70.667196, -33.453795 ], [ -70.666899, -33.455321 ], [ -70.666614, -33.456798 ], [ -70.666517, -33.457332 ], [ -70.664969, -33.457054 ], [ -70.664972, -33.460957 ], [ -70.664948, -33.463448 ], [ -70.663726, -33.463435 ], [ -70.663808, -33.461485 ], [ -70.663943, -33.458584 ], [ -70.663892, -33.458485 ], [ -70.663862, -33.458428 ], [ -70.663912, -33.457441 ], [ -70.663934, -33.4571 ], [ -70.664033, -33.456961 ], [ -70.664108, -33.456185 ], [ -70.664218, -33.455039 ], [ -70.664434, -33.452712 ], [ -70.66455, -33.451581 ], [ -70.66468, -33.450248 ], [ -70.664724, -33.449339 ], [ -70.664805, -33.447441 ], [ -70.664624, -33.446802 ], [ -70.664734, -33.446828 ], [ -70.665935, -33.447155 ], [ -70.667465, -33.4476 ], [ -70.667465, -33.4476 ] ] ] } },
{ "type": "Feature", "properties": { "ID": 23.0, "U_VECINAL": "8 / 2", "AGRUP_VECI": "AV8", "BARRIOS": "MATTA NORTE", "PERSONAS": 12028.0, "HOMBRES": 5987.0, "MUJERES": 6041.0, "DE_0_A_5_A": 802.0, "DE_6_A_14_": 760.0, "DE_15_A_64": 9623.0, "DE_65_MAS_": 745.0, "INMIGRANTE": 4042.0, "PUEBLOS_OR": 923.0, "VIVIENDA_P": 5580.0, "VIVIENDA_C": 2.0, "VIVI_OCUPA": 4935.0, "TOTAL_VIVI": 5582.0, "TOTAL_HOGA": 5269.0, "CASA": 790.0, "DEPTO": 4408.0, "VIV_INDIGE": 1.0, "CONVENTILL": 362.0, "MEDIAGUA": 2.0, "MOVIL": 0.0, "OTRA_VIV_P": 17.0, "VIV_HORMIG": 3337.0, "VIV_ALBANI": 968.0, "VIV_TABIQU": 60.0, "VIV_TAB_SI": 7.0, "VIV_ADOBE": 490.0, "VIV_MATPRE": 0.0, "TECHO_TEJA": 1044.0, "TECHO_LOSA": 2969.0, "TECHO_PLAN": 834.0, "TECHO_FONO": 2.0, "TECHO_PAJA": 1.0, "TECHO_PREC": 4.0, "SIN_TECHO": 0.0, "PISO_PARQU": 4771.0, "PISO_RADIE": 9.0, "PISO_BALDO": 58.0, "PISO_CAP_C": 11.0, "PISO_TIERR": 3.0, "MAT_ACEP": 4254.0, "MAT_REC": 530.0, "MAT_IRRE": 7.0, "AGUA_R_PUB": 4853.0, "AGUA_POZO": 1.0, "AGUA_CAMIO": 1.0, "AGUA_RIO": 0.0, "AREA_HA": 56.17, "DENS_HA_HA": 214.14, "DENS_HA_VI": 99.38, "M_ACEP_P": 86.2, "M_REC_P": 10.7, "M_IRRE_P": 0.1 }, "geometry": { "type": "Polygon", "coordinates": [ [ [ -70.650042, -33.454061 ], [ -70.650022, -33.454195 ], [ -70.649801, -33.455437 ], [ -70.649571, -33.456871 ], [ -70.649146, -33.459497 ], [ -70.649144, -33.459511 ], [ -70.645903, -33.45882 ], [ -70.645302, -33.458683 ], [ -70.645302, -33.458683 ], [ -70.643859, -33.458406 ], [ -70.643287, -33.458281 ], [ -70.643416, -33.45732 ], [ -70.64382, -33.454766 ], [ -70.644024, -33.453257 ], [ -70.644216, -33.451835 ], [ -70.644213, -33.451689 ], [ -70.644574, -33.449556 ], [ -70.648063, -33.450052 ], [ -70.649073, -33.450152 ], [ -70.650508, -33.450453 ], [ -70.650569, -33.450461 ], [ -70.65056, -33.450514 ], [ -70.650382, -33.451818 ], [ -70.650172, -33.453193 ], [ -70.650042, -33.454061 ] ] ] } },
{ "type": "Feature", "properties": { "ID": 25.0, "U_VECINAL": "8 / 6", "AGRUP_VECI": "AV8", "BARRIOS": "MATTA NORTE", "PERSONAS": 9597.0, "HOMBRES": 4789.0, "MUJERES": 4808.0, "DE_0_A_5_A": 604.0, "DE_6_A_14_": 695.0, "DE_15_A_64": 7557.0, "DE_65_MAS_": 637.0, "INMIGRANTE": 2709.0, "PUEBLOS_OR": 867.0, "VIVIENDA_P": 4404.0, "VIVIENDA_C": 3.0, "VIVI_OCUPA": 3846.0, "TOTAL_VIVI": 4407.0, "TOTAL_HOGA": 4099.0, "CASA": 920.0, "DEPTO": 3183.0, "VIV_INDIGE": 0.0, "CONVENTILL": 291.0, "MEDIAGUA": 1.0, "MOVIL": 0.0, "OTRA_VIV_P": 9.0, "VIV_HORMIG": 2671.0, "VIV_ALBANI": 516.0, "VIV_TABIQU": 48.0, "VIV_TAB_SI": 10.0, "VIV_ADOBE": 584.0, "VIV_MATPRE": 2.0, "TECHO_TEJA": 701.0, "TECHO_LOSA": 2324.0, "TECHO_PLAN": 787.0, "TECHO_FONO": 7.0, "TECHO_PAJA": 2.0, "TECHO_PREC": 4.0, "SIN_TECHO": 0.0, "PISO_PARQU": 3728.0, "PISO_RADIE": 6.0, "PISO_BALDO": 61.0, "PISO_CAP_C": 16.0, "PISO_TIERR": 0.0, "MAT_ACEP": 3176.0, "MAT_REC": 619.0, "MAT_IRRE": 5.0, "AGUA_R_PUB": 3819.0, "AGUA_POZO": 0.0, "AGUA_CAMIO": 1.0, "AGUA_RIO": 0.0, "AREA_HA": 43.9, "DENS_HA_HA": 218.61, "DENS_HA_VI": 100.39, "M_ACEP_P": 82.6, "M_REC_P": 16.1, "M_IRRE_P": 0.1 }, "geometry": { "type": "Polygon", "coordinates": [ [ [ -70.655581, -33.454419 ], [ -70.656576, -33.454445 ], [ -70.65777, -33.454506 ], [ -70.658073, -33.454533 ], [ -70.657988, -33.454715 ], [ -70.657742, -33.455065 ], [ -70.657284, -33.455655 ], [ -70.657034, -33.456034 ], [ -70.656902, -33.45638 ], [ -70.656819, -33.457026 ], [ -70.656728, -33.457713 ], [ -70.656744, -33.458045 ], [ -70.656912, -33.459017 ], [ -70.657126, -33.460197 ], [ -70.657114, -33.46062 ], [ -70.656657, -33.460567 ], [ -70.656063, -33.460339 ], [ -70.653404, -33.459986 ], [ -70.64975, -33.459592 ], [ -70.649146, -33.459497 ], [ -70.649571, -33.456871 ], [ -70.649801, -33.455437 ], [ -70.650022, -33.454195 ], [ -70.650042, -33.454061 ], [ -70.651476, -33.454315 ], [ -70.653933, -33.454377 ], [ -70.654071, -33.45438 ], [ -70.655581, -33.454419 ] ] ] } },
{ "type": "Feature", "properties": { "ID": 42.0, "U_VECINAL": "10 / 8", "AGRUP_VECI": "AV10", "BARRIOS": "MATTA SUR", "PERSONAS": 3813.0, "HOMBRES": 1977.0, "MUJERES": 1836.0, "DE_0_A_5_A": 263.0, "DE_6_A_14_": 246.0, "DE_15_A_64": 3062.0, "DE_65_MAS_": 203.0, "INMIGRANTE": 1683.0, "PUEBLOS_OR": 268.0, "VIVIENDA_P": 1501.0, "VIVIENDA_C": 5.0, "VIVI_OCUPA": 1364.0, "TOTAL_VIVI": 1506.0, "TOTAL_HOGA": 1520.0, "CASA": 422.0, "DEPTO": 950.0, "VIV_INDIGE": 1.0, "CONVENTILL": 101.0, "MEDIAGUA": 4.0, "MOVIL": 0.0, "OTRA_VIV_P": 23.0, "VIV_HORMIG": 868.0, "VIV_ALBANI": 261.0, "VIV_TABIQU": 22.0, "VIV_TAB_SI": 10.0, "VIV_ADOBE": 191.0, "VIV_MATPRE": 1.0, "TECHO_TEJA": 373.0, "TECHO_LOSA": 641.0, "TECHO_PLAN": 334.0, "TECHO_FONO": 1.0, "TECHO_PAJA": 0.0, "TECHO_PREC": 1.0, "SIN_TECHO": 0.0, "PISO_PARQU": 1302.0, "PISO_RADIE": 5.0, "PISO_BALDO": 31.0, "PISO_CAP_C": 2.0, "PISO_TIERR": 0.0, "MAT_ACEP": 1115.0, "MAT_REC": 218.0, "MAT_IRRE": 2.0, "AGUA_R_PUB": 1345.0, "AGUA_POZO": 3.0, "AGUA_CAMIO": 0.0, "AGUA_RIO": 3.0, "AREA_HA": 28.14, "DENS_HA_HA": 135.5, "DENS_HA_VI": 53.52, "M_ACEP_P": 81.7, "M_REC_P": 16.0, "M_IRRE_P": 0.1 }, "geometry": { "type": "Polygon", "coordinates": [ [ [ -70.643287, -33.458281 ], [ -70.643859, -33.458406 ], [ -70.645302, -33.458683 ], [ -70.645302, -33.458683 ], [ -70.645903, -33.45882 ], [ -70.649144, -33.459511 ], [ -70.649146, -33.459497 ], [ -70.649108, -33.460027 ], [ -70.649045, -33.461148 ], [ -70.648971, -33.462152 ], [ -70.648898, -33.463665 ], [ -70.647046, -33.463479 ], [ -70.644682, -33.463242 ], [ -70.642684, -33.463029 ], [ -70.642732, -33.462848 ], [ -70.642969, -33.460655 ], [ -70.643097, -33.459772 ], [ -70.643287, -33.458281 ] ] ] } },
{ "type": "Feature", "properties": { "ID": 45.0, "U_VECINAL": "10 / 11", "AGRUP_VECI": "AV10", "BARRIOS": "VIEL", "PERSONAS": 4915.0, "HOMBRES": 2440.0, "MUJERES": 2475.0, "DE_0_A_5_A": 299.0, "DE_6_A_14_": 411.0, "DE_15_A_64": 3642.0, "DE_65_MAS_": 459.0, "INMIGRANTE": 1187.0, "PUEBLOS_OR": 363.0, "VIVIENDA_P": 2165.0, "VIVIENDA_C": 0.0, "VIVI_OCUPA": 1783.0, "TOTAL_VIVI": 2165.0, "TOTAL_HOGA": 1934.0, "CASA": 629.0, "DEPTO": 1410.0, "VIV_INDIGE": 0.0, "CONVENTILL": 93.0, "MEDIAGUA": 18.0, "MOVIL": 0.0, "OTRA_VIV_P": 15.0, "VIV_HORMIG": 944.0, "VIV_ALBANI": 440.0, "VIV_TABIQU": 49.0, "VIV_TAB_SI": 56.0, "VIV_ADOBE": 270.0, "VIV_MATPRE": 6.0, "TECHO_TEJA": 358.0, "TECHO_LOSA": 777.0, "TECHO_PLAN": 601.0, "TECHO_FONO": 8.0, "TECHO_PAJA": 0.0, "TECHO_PREC": 8.0, "SIN_TECHO": 1.0, "PISO_PARQU": 1692.0, "PISO_RADIE": 14.0, "PISO_BALDO": 38.0, "PISO_CAP_C": 9.0, "PISO_TIERR": 2.0, "MAT_ACEP": 1385.0, "MAT_REC": 339.0, "MAT_IRRE": 12.0, "AGUA_R_PUB": 1758.0, "AGUA_POZO": 0.0, "AGUA_CAMIO": 1.0, "AGUA_RIO": 0.0, "AREA_HA": 33.56, "DENS_HA_HA": 146.45, "DENS_HA_VI": 64.51, "M_ACEP_P": 77.7, "M_REC_P": 19.0, "M_IRRE_P": 0.7 }, "geometry": { "type": "Polygon", "coordinates": [ [ [ -70.649146, -33.459497 ], [ -70.64975, -33.459592 ], [ -70.653404, -33.459986 ], [ -70.656063, -33.460339 ], [ -70.656657, -33.460567 ], [ -70.657114, -33.46062 ], [ -70.656622, -33.464 ], [ -70.65659, -33.464556 ], [ -70.654998, -33.464348 ], [ -70.653919, -33.464254 ], [ -70.652849, -33.464112 ], [ -70.651137, -33.463917 ], [ -70.648898, -33.463665 ], [ -70.648971, -33.462152 ], [ -70.649045, -33.461148 ], [ -70.649108, -33.460027 ], [ -70.649146, -33.459497 ] ] ] } },
{ "type": "Feature", "properties": { "ID": 46.0, "U_VECINAL": "10 / 12", "AGRUP_VECI": "AV10", "BARRIOS": "VIEL", "PERSONAS": 10341.0, "HOMBRES": 5213.0, "MUJERES": 5128.0, "DE_0_A_5_A": 731.0, "DE_6_A_14_": 780.0, "DE_15_A_64": 8041.0, "DE_65_MAS_": 705.0, "INMIGRANTE": 3833.0, "PUEBLOS_OR": 737.0, "VIVIENDA_P": 3984.0, "VIVIENDA_C": 2.0, "VIVI_OCUPA": 3619.0, "TOTAL_VIVI": 3986.0, "TOTAL_HOGA": 3852.0, "CASA": 866.0, "DEPTO": 2971.0, "VIV_INDIGE": 1.0, "CONVENTILL": 112.0, "MEDIAGUA": 2.0, "MOVIL": 0.0, "OTRA_VIV_P": 32.0, "VIV_HORMIG": 2444.0, "VIV_ALBANI": 830.0, "VIV_TABIQU": 60.0, "VIV_TAB_SI": 31.0, "VIV_ADOBE": 212.0, "VIV_MATPRE": 0.0, "TECHO_TEJA": 686.0, "TECHO_LOSA": 2132.0, "TECHO_PLAN": 725.0, "TECHO_FONO": 5.0, "TECHO_PAJA": 1.0, "TECHO_PREC": 5.0, "SIN_TECHO": 0.0, "PISO_PARQU": 3438.0, "PISO_RADIE": 19.0, "PISO_BALDO": 88.0, "PISO_CAP_C": 17.0, "PISO_TIERR": 0.0, "MAT_ACEP": 3189.0, "MAT_REC": 343.0, "MAT_IRRE": 5.0, "AGUA_R_PUB": 3574.0, "AGUA_POZO": 1.0, "AGUA_CAMIO": 3.0, "AGUA_RIO": 1.0, "AREA_HA": 47.83, "DENS_HA_HA": 216.2, "DENS_HA_VI": 83.34, "M_ACEP_P": 88.1, "M_REC_P": 9.5, "M_IRRE_P": 0.1 }, "geometry": { "type": "Polygon", "coordinates": [ [ [ -70.65659, -33.464556 ], [ -70.656475, -33.466531 ], [ -70.65637, -33.469183 ], [ -70.656349, -33.469983 ], [ -70.656008, -33.469968 ], [ -70.65599, -33.469975 ], [ -70.655655, -33.470103 ], [ -70.655214, -33.470277 ], [ -70.65506, -33.470353 ], [ -70.65485, -33.470365 ], [ -70.654572, -33.47036 ], [ -70.654415, -33.470358 ], [ -70.652134, -33.470115 ], [ -70.650103, -33.469895 ], [ -70.648548, -33.469741 ], [ -70.648588, -33.468995 ], [ -70.648699, -33.467258 ], [ -70.648783, -33.465543 ], [ -70.648888, -33.463872 ], [ -70.648898, -33.463665 ], [ -70.651137, -33.463917 ], [ -70.652849, -33.464112 ], [ -70.653919, -33.464254 ], [ -70.654998, -33.464348 ], [ -70.65659, -33.464556 ] ] ] } },
{ "type": "Feature", "properties": { "ID": 3.0, "U_VECINAL": "1 / 3", "AGRUP_VECI": "AV1", "BARRIOS": "CENTRO HISTORICO", "PERSONAS": 20954.0, "HOMBRES": 10755.0, "MUJERES": 10144.0, "DE_0_A_5_A": 1111.0, "DE_6_A_14_": 959.0, "DE_15_A_64": 17455.0, "DE_65_MAS_": 1232.0, "INMIGRANTE": 7824.0, "PUEBLOS_OR": 1476.0, "VIVIENDA_P": 11782.0, "VIVIENDA_C": 21.0, "VIVI_OCUPA": 9549.0, "TOTAL_VIVI": 11803.0, "TOTAL_HOGA": 9890.0, "CASA": 415.0, "DEPTO": 11260.0, "VIV_INDIGE": 4.0, "CONVENTILL": 88.0, "MEDIAGUA": 0.0, "MOVIL": 0.0, "OTRA_VIV_P": 15.0, "VIV_HORMIG": 8266.0, "VIV_ALBANI": 1167.0, "VIV_TABIQU": 14.0, "VIV_TAB_SI": 9.0, "VIV_ADOBE": 12.0, "VIV_MATPRE": 1.0, "TECHO_TEJA": 1325.0, "TECHO_LOSA": 7644.0, "TECHO_PLAN": 417.0, "TECHO_FONO": 0.0, "TECHO_PAJA": 0.0, "TECHO_PREC": 3.0, "SIN_TECHO": 0.0, "PISO_PARQU": 9375.0, "PISO_RADIE": 2.0, "PISO_BALDO": 9.0, "PISO_CAP_C": 0.0, "PISO_TIERR": 0.0, "MAT_ACEP": 9265.0, "MAT_REC": 30.0, "MAT_IRRE": 3.0, "AGUA_R_PUB": 9441.0, "AGUA_POZO": 2.0, "AGUA_CAMIO": 1.0, "AGUA_RIO": 2.0, "AREA_HA": 120.45, "DENS_HA_HA": 173.96, "DENS_HA_VI": 97.99, "M_ACEP_P": 97.0, "M_REC_P": 0.3, "M_IRRE_P": 0.0 }, "geometry": { "type": "Polygon", "coordinates": [ [ [ -70.657493, -33.430488 ], [ -70.657481, -33.432496 ], [ -70.657451, -33.433092 ], [ -70.657459, -33.433227 ], [ -70.657422, -33.433489 ], [ -70.657358, -33.434166 ], [ -70.657335, -33.43441 ], [ -70.657329, -33.434536 ], [ -70.657169, -33.435645 ], [ -70.657021, -33.436768 ], [ -70.657021, -33.436768 ], [ -70.656885, -33.437897 ], [ -70.656751, -33.439008 ], [ -70.656591, -33.440137 ], [ -70.656574, -33.440201 ], [ -70.656362, -33.44125 ], [ -70.656234, -33.441799 ], [ -70.65611, -33.442398 ], [ -70.655869, -33.443511 ], [ -70.655665, -33.444551 ], [ -70.655608, -33.444712 ], [ -70.655462, -33.444688 ], [ -70.654854, -33.444539 ], [ -70.654309, -33.444408 ], [ -70.654047, -33.444335 ], [ -70.653328, -33.444186 ], [ -70.653095, -33.444145 ], [ -70.653008, -33.444126 ], [ -70.652867, -33.444091 ], [ -70.65192, -33.443868 ], [ -70.651637, -33.44385 ], [ -70.651119, -33.443774 ], [ -70.651032, -33.443754 ], [ -70.650398, -33.443595 ], [ -70.648976, -33.443272 ], [ -70.647678, -33.442975 ], [ -70.64711, -33.442848 ], [ -70.6468, -33.442779 ], [ -70.646368, -33.442692 ], [ -70.646248, -33.442669 ], [ -70.646477, -33.441502 ], [ -70.646658, -33.440355 ], [ -70.646857, -33.439169 ], [ -70.646994, -33.438326 ], [ -70.647026, -33.4381 ], [ -70.647031, -33.438019 ], [ -70.64702, -33.43792 ], [ -70.647181, -33.436845 ], [ -70.647188, -33.436745 ], [ -70.64736, -33.435718 ], [ -70.647517, -33.434622 ], [ -70.647523, -33.434577 ], [ -70.647577, -33.434251 ], [ -70.64761, -33.434161 ], [ -70.647656, -33.434098 ], [ -70.647661, -33.434091 ], [ -70.648998, -33.433781 ], [ -70.648913, -33.433438 ], [ -70.648842, -33.433201 ], [ -70.648617, -33.432537 ], [ -70.650672, -33.432079 ], [ -70.651746, -33.43184 ], [ -70.652845, -33.431596 ], [ -70.65299, -33.431563 ], [ -70.655952, -33.430856 ], [ -70.657493, -33.430488 ] ] ] } },
{ "type": "Feature", "properties": { "ID": 2.0, "U_VECINAL": "1 / 2", "AGRUP_VECI": "AV1", "BARRIOS": "SANTA LUCIA FORESTAL", "PERSONAS": 6029.0, "HOMBRES": 3026.0, "MUJERES": 3003.0, "DE_0_A_5_A": 188.0, "DE_6_A_14_": 162.0, "DE_15_A_64": 5057.0, "DE_65_MAS_": 491.0, "INMIGRANTE": 1260.0, "PUEBLOS_OR": 516.0, "VIVIENDA_P": 4708.0, "VIVIENDA_C": 19.0, "VIVI_OCUPA": 3235.0, "TOTAL_VIVI": 4727.0, "TOTAL_HOGA": 3319.0, "CASA": 159.0, "DEPTO": 4523.0, "VIV_INDIGE": 0.0, "CONVENTILL": 22.0, "MEDIAGUA": 0.0, "MOVIL": 0.0, "OTRA_VIV_P": 4.0, "VIV_HORMIG": 2816.0, "VIV_ALBANI": 381.0, "VIV_TABIQU": 8.0, "VIV_TAB_SI": 0.0, "VIV_ADOBE": 5.0, "VIV_MATPRE": 0.0, "TECHO_TEJA": 452.0, "TECHO_LOSA": 2564.0, "TECHO_PLAN": 182.0, "TECHO_FONO": 1.0, "TECHO_PAJA": 0.0, "TECHO_PREC": 0.0, "SIN_TECHO": 0.0, "PISO_PARQU": 3201.0, "PISO_RADIE": 0.0, "PISO_BALDO": 2.0, "PISO_CAP_C": 1.0, "PISO_TIERR": 0.0, "MAT_ACEP": 3176.0, "MAT_REC": 9.0, "MAT_IRRE": 0.0, "AGUA_R_PUB": 3210.0, "AGUA_POZO": 2.0, "AGUA_CAMIO": 0.0, "AGUA_RIO": 0.0, "AREA_HA": 33.09, "DENS_HA_HA": 182.2, "DENS_HA_VI": 142.85, "M_ACEP_P": 98.2, "M_REC_P": 0.3, "M_IRRE_P": 0.0 }, "geometry": { "type": "Polygon", "coordinates": [ [ [ -70.648617, -33.432537 ], [ -70.648842, -33.433201 ], [ -70.648913, -33.433438 ], [ -70.648998, -33.433781 ], [ -70.647661, -33.434091 ], [ -70.647656, -33.434098 ], [ -70.64761, -33.434161 ], [ -70.647577, -33.434251 ], [ -70.647523, -33.434577 ], [ -70.647517, -33.434622 ], [ -70.64736, -33.435718 ], [ -70.647188, -33.436745 ], [ -70.647181, -33.436845 ], [ -70.64702, -33.43792 ], [ -70.647031, -33.438019 ], [ -70.647026, -33.4381 ], [ -70.646994, -33.438326 ], [ -70.646857, -33.439169 ], [ -70.646658, -33.440355 ], [ -70.646477, -33.441502 ], [ -70.646248, -33.442669 ], [ -70.646161, -33.442648 ], [ -70.645302, -33.442457 ], [ -70.644908, -33.442364 ], [ -70.644833, -33.442337 ], [ -70.644308, -33.442186 ], [ -70.644102, -33.442127 ], [ -70.644701, -33.44118 ], [ -70.644796, -33.440895 ], [ -70.644803, -33.440796 ], [ -70.644783, -33.440689 ], [ -70.644647, -33.440246 ], [ -70.644297, -33.439592 ], [ -70.643974, -33.438984 ], [ -70.643473, -33.438041 ], [ -70.643405, -33.437866 ], [ -70.643354, -33.437645 ], [ -70.643361, -33.437637 ], [ -70.643463, -33.436509 ], [ -70.643411, -33.436437 ], [ -70.643208, -33.436011 ], [ -70.643264, -33.435919 ], [ -70.643296, -33.435839 ], [ -70.64322, -33.435688 ], [ -70.643125, -33.435483 ], [ -70.642835, -33.434776 ], [ -70.642847, -33.434639 ], [ -70.642582, -33.433938 ], [ -70.647512, -33.432783 ], [ -70.647841, -33.43271 ], [ -70.648617, -33.432537 ] ] ] } },
{ "type": "Feature", "properties": { "ID": 19.0, "U_VECINAL": "7 / 6", "AGRUP_VECI": "AV7", "BARRIOS": "SAN BORJA", "PERSONAS": 17101.0, "HOMBRES": 8549.0, "MUJERES": 8552.0, "DE_0_A_5_A": 805.0, "DE_6_A_14_": 590.0, "DE_15_A_64": 14411.0, "DE_65_MAS_": 1218.0, "INMIGRANTE": 4518.0, "PUEBLOS_OR": 1184.0, "VIVIENDA_P": 9610.0, "VIVIENDA_C": 12.0, "VIVI_OCUPA": 8188.0, "TOTAL_VIVI": 9622.0, "TOTAL_HOGA": 8587.0, "CASA": 316.0, "DEPTO": 9178.0, "VIV_INDIGE": 1.0, "CONVENTILL": 89.0, "MEDIAGUA": 0.0, "MOVIL": 0.0, "OTRA_VIV_P": 26.0, "VIV_HORMIG": 7303.0, "VIV_ALBANI": 670.0, "VIV_TABIQU": 21.0, "VIV_TAB_SI": 3.0, "VIV_ADOBE": 116.0, "VIV_MATPRE": 0.0, "TECHO_TEJA": 924.0, "TECHO_LOSA": 6703.0, "TECHO_PLAN": 482.0, "TECHO_FONO": 3.0, "TECHO_PAJA": 1.0, "TECHO_PREC": 0.0, "SIN_TECHO": 0.0, "PISO_PARQU": 8054.0, "PISO_RADIE": 2.0, "PISO_BALDO": 12.0, "PISO_CAP_C": 1.0, "PISO_TIERR": 1.0, "MAT_ACEP": 7890.0, "MAT_REC": 124.0, "MAT_IRRE": 1.0, "AGUA_R_PUB": 8129.0, "AGUA_POZO": 2.0, "AGUA_CAMIO": 0.0, "AGUA_RIO": 0.0, "AREA_HA": 49.75, "DENS_HA_HA": 343.74, "DENS_HA_VI": 193.41, "M_ACEP_P": 96.4, "M_REC_P": 1.5, "M_IRRE_P": 0.0 }, "geometry": { "type": "Polygon", "coordinates": [ [ [ -70.640538, -33.440016 ], [ -70.640722, -33.440144 ], [ -70.640813, -33.440212 ], [ -70.641726, -33.440831 ], [ -70.641789, -33.44081 ], [ -70.641853, -33.44078 ], [ -70.641915, -33.440742 ], [ -70.642193, -33.440488 ], [ -70.642225, -33.440484 ], [ -70.642285, -33.440499 ], [ -70.642347, -33.440484 ], [ -70.642358, -33.440456 ], [ -70.642368, -33.440262 ], [ -70.642352, -33.439533 ], [ -70.642353, -33.439454 ], [ -70.642366, -33.439369 ], [ -70.642628, -33.438432 ], [ -70.642655, -33.438364 ], [ -70.64271, -33.438279 ], [ -70.642768, -33.438197 ], [ -70.642831, -33.438138 ], [ -70.643146, -33.437854 ], [ -70.643354, -33.437645 ], [ -70.643405, -33.437866 ], [ -70.643473, -33.438041 ], [ -70.643974, -33.438984 ], [ -70.644297, -33.439592 ], [ -70.644647, -33.440246 ], [ -70.644783, -33.440689 ], [ -70.644803, -33.440796 ], [ -70.644796, -33.440895 ], [ -70.644701, -33.44118 ], [ -70.644102, -33.442127 ], [ -70.644308, -33.442186 ], [ -70.644833, -33.442337 ], [ -70.644908, -33.442364 ], [ -70.645302, -33.442457 ], [ -70.646161, -33.442648 ], [ -70.646248, -33.442669 ], [ -70.646096, -33.443399 ], [ -70.645963, -33.443907 ], [ -70.645563, -33.445252 ], [ -70.64486, -33.447895 ], [ -70.644845, -33.447983 ], [ -70.64369, -33.447732 ], [ -70.643793, -33.447291 ], [ -70.642419, -33.446883 ], [ -70.64251, -33.446431 ], [ -70.640065, -33.445868 ], [ -70.636514, -33.445102 ], [ -70.637221, -33.443903 ], [ -70.637816, -33.442967 ], [ -70.637822, -33.44296 ], [ -70.638856, -33.441756 ], [ -70.640038, -33.440489 ], [ -70.640538, -33.440016 ] ] ] } },
{ "type": "Feature", "properties": { "ID": 22.0, "U_VECINAL": "8 / 1", "AGRUP_VECI": "AV8", "BARRIOS": "PARQUE ALMAGRO", "PERSONAS": 20856.0, "HOMBRES": 10715.0, "MUJERES": 10141.0, "DE_0_A_5_A": 1019.0, "DE_6_A_14_": 863.0, "DE_15_A_64": 18092.0, "DE_65_MAS_": 817.0, "INMIGRANTE": 7676.0, "PUEBLOS_OR": 1323.0, "VIVIENDA_P": 11184.0, "VIVIENDA_C": 13.0, "VIVI_OCUPA": 9695.0, "TOTAL_VIVI": 11197.0, "TOTAL_HOGA": 10096.0, "CASA": 514.0, "DEPTO": 10570.0, "VIV_INDIGE": 0.0, "CONVENTILL": 99.0, "MEDIAGUA": 0.0, "MOVIL": 0.0, "OTRA_VIV_P": 1.0, "VIV_HORMIG": 8419.0, "VIV_ALBANI": 926.0, "VIV_TABIQU": 36.0, "VIV_TAB_SI": 5.0, "VIV_ADOBE": 195.0, "VIV_MATPRE": 2.0, "TECHO_TEJA": 1304.0, "TECHO_LOSA": 7777.0, "TECHO_PLAN": 466.0, "TECHO_FONO": 4.0, "TECHO_PAJA": 0.0, "TECHO_PREC": 1.0, "SIN_TECHO": 0.0, "PISO_PARQU": 9502.0, "PISO_RADIE": 5.0, "PISO_BALDO": 21.0, "PISO_CAP_C": 6.0, "PISO_TIERR": 0.0, "MAT_ACEP": 9227.0, "MAT_REC": 217.0, "MAT_IRRE": 3.0, "AGUA_R_PUB": 9586.0, "AGUA_POZO": 4.0, "AGUA_CAMIO": 1.0, "AGUA_RIO": 1.0, "AREA_HA": 41.15, "DENS_HA_HA": 506.83, "DENS_HA_VI": 272.1, "M_ACEP_P": 95.2, "M_REC_P": 2.2, "M_IRRE_P": 0.0 }, "geometry": { "type": "Polygon", "coordinates": [ [ [ -70.651637, -33.44385 ], [ -70.65157, -33.444118 ], [ -70.651385, -33.445209 ], [ -70.65129, -33.445893 ], [ -70.651049, -33.447432 ], [ -70.650769, -33.449272 ], [ -70.650569, -33.450461 ], [ -70.650508, -33.450453 ], [ -70.649073, -33.450152 ], [ -70.648063, -33.450052 ], [ -70.644574, -33.449556 ], [ -70.644845, -33.447983 ], [ -70.64486, -33.447895 ], [ -70.645563, -33.445252 ], [ -70.645963, -33.443907 ], [ -70.646096, -33.443399 ], [ -70.646248, -33.442669 ], [ -70.646368, -33.442692 ], [ -70.6468, -33.442779 ], [ -70.64711, -33.442848 ], [ -70.647678, -33.442975 ], [ -70.648976, -33.443272 ], [ -70.650398, -33.443595 ], [ -70.651032, -33.443754 ], [ -70.651119, -33.443774 ], [ -70.651637, -33.44385 ] ] ] } },
{ "type": "Feature", "properties": { "ID": 20.0, "U_VECINAL": "7 / 7", "AGRUP_VECI": "AV7", "BARRIOS": "SANTA ISABEL", "PERSONAS": 29266.0, "HOMBRES": 14375.0, "MUJERES": 14872.0, "DE_0_A_5_A": 1755.0, "DE_6_A_14_": 1467.0, "DE_15_A_64": 24266.0, "DE_65_MAS_": 1271.0, "INMIGRANTE": 7198.0, "PUEBLOS_OR": 1944.0, "VIVIENDA_P": 16064.0, "VIVIENDA_C": 5.0, "VIVI_OCUPA": 13894.0, "TOTAL_VIVI": 16069.0, "TOTAL_HOGA": 14360.0, "CASA": 830.0, "DEPTO": 15063.0, "VIV_INDIGE": 1.0, "CONVENTILL": 150.0, "MEDIAGUA": 0.0, "MOVIL": 0.0, "OTRA_VIV_P": 20.0, "VIV_HORMIG": 12352.0, "VIV_ALBANI": 1117.0, "VIV_TABIQU": 41.0, "VIV_TAB_SI": 9.0, "VIV_ADOBE": 247.0, "VIV_MATPRE": 0.0, "TECHO_TEJA": 1227.0, "TECHO_LOSA": 11860.0, "TECHO_PLAN": 611.0, "TECHO_FONO": 3.0, "TECHO_PAJA": 2.0, "TECHO_PREC": 2.0, "SIN_TECHO": 0.0, "PISO_PARQU": 13654.0, "PISO_RADIE": 10.0, "PISO_BALDO": 35.0, "PISO_CAP_C": 4.0, "PISO_TIERR": 1.0, "MAT_ACEP": 13325.0, "MAT_REC": 272.0, "MAT_IRRE": 3.0, "AGUA_R_PUB": 13761.0, "AGUA_POZO": 1.0, "AGUA_CAMIO": 3.0, "AGUA_RIO": 1.0, "AREA_HA": 60.65, "DENS_HA_HA": 482.54, "DENS_HA_VI": 264.95, "M_ACEP_P": 95.9, "M_REC_P": 2.0, "M_IRRE_P": 0.0 }, "geometry": { "type": "Polygon", "coordinates": [ [ [ -70.644845, -33.447983 ], [ -70.644574, -33.449556 ], [ -70.644213, -33.451689 ], [ -70.644216, -33.451835 ], [ -70.644024, -33.453257 ], [ -70.642303, -33.452925 ], [ -70.640684, -33.452641 ], [ -70.637999, -33.452104 ], [ -70.637736, -33.452034 ], [ -70.635519, -33.451674 ], [ -70.635418, -33.451675 ], [ -70.634464, -33.451507 ], [ -70.634797, -33.45017 ], [ -70.635099, -33.448909 ], [ -70.635427, -33.447654 ], [ -70.63558, -33.447127 ], [ -70.635821, -33.446413 ], [ -70.636318, -33.445434 ], [ -70.636514, -33.445102 ], [ -70.640065, -33.445868 ], [ -70.64251, -33.446431 ], [ -70.642419, -33.446883 ], [ -70.643793, -33.447291 ], [ -70.64369, -33.447732 ], [ -70.644845, -33.447983 ] ] ] } }
]
}
