{"type":"FeatureCollection","name":"SOC_PTO_JJVV_2024","features":[{"type":"Feature","properties":{"Nombre":"JJVV Barrio Yungay","Tipo":null,"Observaci":null,"GT":null,"Jerarquia":3},"geometry":{"type":"Point","coordinates":[-70.677976,-33.437816]}},{"type":"Feature","properties":{"Nombre":"JJVV Bernardo O'Higgins","Tipo":null,"Observaci":null,"GT":null,"Jerarquia":3},"geometry":{"type":"Point","coordinates":[-70.658135,-33.455626]}},{"type":"Feature","properties":{"Nombre":"JJVV Dagoberto Godoy","Tipo":"TOCORNAL 1308","Observaci":null,"GT":null,"Jerarquia":3},"geometry":{"type":"Point","coordinates":[-70.637344,-33.460549]}},{"type":"Feature","properties":{"Nombre":"JJVV Gladis Godoy","Tipo":null,"Observaci":null,"GT":null,"Jerarquia":3},"geometry":{"type":"Point","coordinates":[-70.654735,-33.456037]}},{"type":"Feature","properties":{"Nombre":"JJVV Parque Alamgro","Tipo":"precisar ubicación","Observaci":null,"GT":null,"Jerarquia":3},"geometry":{"type":"Point","coordinates":[-70.656265,-33.450432]}},{"type":"Feature","properties":{"Nombre":"JJVV Placer Indómito","Tipo":"Placer 640","Observaci":null,"GT":null,"Jerarquia":3},"geometry":{"type":"Point","coordinates":[-70.640078,-33.475222]}},{"type":"Feature","properties":{"Nombre":"JJVV República","Tipo":null,"Observaci":null,"GT":null,"Jerarquia":3},"geometry":{"type":"Point","coordinates":[-70.667379,-33.451785]}},{"type":"Feature","properties":{"Nombre":"Junta de Vecinos \" Blas Cañas\"","Tipo":"ROOT 521 <br>Sin Teléfono","Observaci":null,"GT":null,"Jerarquia":3},"geometry":{"type":"Point","coordinates":[-70.64342,-33.447216]}},{"type":"Feature","properties":{"Nombre":"Junta de Vecinos \" Cardenal Raúl Silva Henríquez\"","Tipo":"MADRID 1288 <br>551 96 94","Observaci":null,"GT":null,"Jerarquia":3},"geometry":{"type":"Point","coordinates":[-70.634987,-33.45973]}},{"type":"Feature","properties":{"Nombre":"Junta de Vecinos \" Francisco Bascuñan Guerrero\"","Tipo":"MANUEL DE AMAT / PASAJE EL SOL <br>683 87 11","Observaci":null,"GT":null,"Jerarquia":3},"geometry":{"type":"Point","coordinates":[-70.670671,-33.46818]}},{"type":"Feature","properties":{"Nombre":"Junta de Vecinos \" Franklin\"","Tipo":"TOCORNAL 1917 <br>551 25 99 - 551 53 25","Observaci":null,"GT":null,"Jerarquia":3},"geometry":{"type":"Point","coordinates":[-70.63488,-33.470113]}},{"type":"Feature","properties":{"Nombre":"Junta de Vecinos \" La Amistad\"","Tipo":"ARGOMEDO 80 <br>Sin Teléfono","Observaci":null,"GT":null,"Jerarquia":3},"geometry":{"type":"Point","coordinates":[-70.633136,-33.449113]}},{"type":"Feature","properties":{"Nombre":"Junta de Vecinos \" Portales\"","Tipo":"ESPERANZA 1115 <br>681 23 37","Observaci":null,"GT":null,"Jerarquia":3},"geometry":{"type":"Point","coordinates":[-70.676572,-33.429722]}},{"type":"Feature","properties":{"Nombre":"Junta de Vecinos \" San Juan de Dios\"","Tipo":"SANTO DOMINGO 2808 <br>681 84 82","Observaci":null,"GT":null,"Jerarquia":3},"geometry":{"type":"Point","coordinates":[-70.675671,-33.438085]}},{"type":"Feature","properties":{"Nombre":"Junta de Vecinos \" Yungay\"","Tipo":"MAPOCHO 3155<br> 682 61 65","Observaci":null,"GT":null,"Jerarquia":3},"geometry":{"type":"Point","coordinates":[-70.678804,-33.432749]}},{"type":"Feature","properties":{"Nombre":"Junta de Vecinos \"21 de Mayo\"","Tipo":"SOTOMAYOR 56 <br>681 24 30","Observaci":null,"GT":null,"Jerarquia":3},"geometry":{"type":"Point","coordinates":[-70.672174,-33.446178]}},{"type":"Feature","properties":{"Nombre":"Junta de Vecinos \"Adelanto y Progreso\"","Tipo":"PLACER 536 <br>551 98 71 - 555 33 50","Observaci":null,"GT":null,"Jerarquia":3},"geometry":{"type":"Point","coordinates":[-70.636876,-33.475053]}},{"type":"Feature","properties":{"Nombre":"Junta de Vecinos \"Almirante Blanco Encalada\"","Tipo":"COPIAPO 1342 <br>Sin Teléfono","Observaci":null,"GT":null,"Jerarquia":3},"geometry":{"type":"Point","coordinates":[-70.651128,-33.456086]}},{"type":"Feature","properties":{"Nombre":"Junta de Vecinos \"Ambrosio O´Higgins","Tipo":"SAN PABLO 2113 2º PISO <br>Sin Teléfono","Observaci":null,"GT":null,"Jerarquia":3},"geometry":{"type":"Point","coordinates":[-70.667185,-33.434897]}},{"type":"Feature","properties":{"Nombre":"Junta de Vecinos \"Andacollo\"","Tipo":"MAPOCHO 2877 <br>681 12 25","Observaci":null,"GT":null,"Jerarquia":3},"geometry":{"type":"Point","coordinates":[-70.675092,-33.432587]}},{"type":"Feature","properties":{"Nombre":"Junta de Vecinos \"Arturo Prat\"","Tipo":"A. PRAT 1302 <br>Sin Teléfono","Observaci":null,"GT":null,"Jerarquia":3},"geometry":{"type":"Point","coordinates":[-70.647089,-33.462362]}},{"type":"Feature","properties":{"Nombre":"Junta de Vecinos \"Avenida España\"","Tipo":"ABATE MOLINA 666 <br>689 50 42","Observaci":null,"GT":null,"Jerarquia":3},"geometry":{"type":"Point","coordinates":[-70.672131,-33.457645]}},{"type":"Feature","properties":{"Nombre":"Junta de Vecinos \"Bellas Artes\"","Tipo":"MOSQUETO 459 OF. 502 <br>639 44 63","Observaci":null,"GT":null,"Jerarquia":3},"geometry":{"type":"Point","coordinates":[-70.644279,-33.437422]}},{"type":"Feature","properties":{"Nombre":"Junta de Vecinos \"Benjamin Franklin\"","Tipo":"ARTURO PRAT 1901 <br>441 93 00","Observaci":null,"GT":null,"Jerarquia":3},"geometry":{"type":"Point","coordinates":[-70.646725,-33.471849]}},{"type":"Feature","properties":{"Nombre":"Junta de Vecinos \"Bernardo O´Higgins\"","Tipo":"MANUEL RODRIGUEZ FRENTE AL #749 <br>Sin Teléfono","Observaci":null,"GT":null,"Jerarquia":3},"geometry":{"type":"Point","coordinates":[-70.680116,-33.439639]}},{"type":"Feature","properties":{"Nombre":"Junta de Vecinos \"Brasil\"","Tipo":"MATURANA 17 <br>689 87 40","Observaci":null,"GT":null,"Jerarquia":3},"geometry":{"type":"Point","coordinates":[-70.665972,-33.447028]}},{"type":"Feature","properties":{"Nombre":"Junta de Vecinos \"Capuchinos\"","Tipo":"RICARDO CUMMING 202 <br>695 59 86 - 673 37 74","Observaci":null,"GT":null,"Jerarquia":3},"geometry":{"type":"Point","coordinates":[-70.667989,-33.442096]}},{"type":"Feature","properties":{"Nombre":"Junta de Vecinos \"Caupolican\"","Tipo":"CONFERENCIA 1083 <br>Sin Teléfono","Observaci":null,"GT":null,"Jerarquia":3},"geometry":{"type":"Point","coordinates":[-70.67507,-33.462809]}},{"type":"Feature","properties":{"Nombre":"Junta de Vecinos \"Centro\"","Tipo":"SAN ANTONIO 418 PISO 9 <br>638 30 16","Observaci":null,"GT":null,"Jerarquia":3},"geometry":{"type":"Point","coordinates":[-70.648463,-33.437315]}},{"type":"Feature","properties":{"Nombre":"Junta de Vecinos \"Chile Nuevo\"","Tipo":"PADRE ORELLANA 1684 <br>Sin Teléfono","Observaci":null,"GT":null,"Jerarquia":3},"geometry":{"type":"Point","coordinates":[-70.629816,-33.4663]}},{"type":"Feature","properties":{"Nombre":"Junta de Vecinos \"Décima Comuna\"","Tipo":"NATANIEL COX 2029 <br>555 91 28","Observaci":null,"GT":null,"Jerarquia":3},"geometry":{"type":"Point","coordinates":[-70.649664,-33.472628]}},{"type":"Feature","properties":{"Nombre":"Junta de Vecinos \"El Progreso\"","Tipo":"COQUIMBO 321 <br>Sin Teléfono","Observaci":null,"GT":null,"Jerarquia":3},"geometry":{"type":"Point","coordinates":[-70.634444,-33.453842]}},{"type":"Feature","properties":{"Nombre":"Junta de Vecinos \"Gabriela Mistral II\"","Tipo":"ARTURO PRAT 1453 <br>51 08 99","Observaci":null,"GT":null,"Jerarquia":3},"geometry":{"type":"Point","coordinates":[-70.647089,-33.4646]}},{"type":"Feature","properties":{"Nombre":"Junta de Vecinos \"Gabriela Mistral\"","Tipo":"DIEZ DE JULIO 760 <br>635 14 47","Observaci":null,"GT":null,"Jerarquia":3},"geometry":{"type":"Point","coordinates":[-70.64519,-33.453456]}},{"type":"Feature","properties":{"Nombre":"Junta de Vecinos \"General Bulnes\"","Tipo":"RICARDO CUMMING 588 <br>673 38 28","Observaci":null,"GT":null,"Jerarquia":3},"geometry":{"type":"Point","coordinates":[-70.668772,-33.437852]}},{"type":"Feature","properties":{"Nombre":"Junta de Vecinos \"General Bulnes\"","Tipo":"NATANIEL COX  399<br>Sin Teléfono","Observaci":null,"GT":null,"Jerarquia":3},"geometry":{"type":"Point","coordinates":[-70.653044,-33.451021]}},{"type":"Feature","properties":{"Nombre":"Junta de Vecinos \"Igua\" o \"Parque Forestal\"","Tipo":"V. SUBERCASEAUX 191 OF 213 <br>633 55 51","Observaci":null,"GT":null,"Jerarquia":3},"geometry":{"type":"Point","coordinates":[-70.642465,-33.438613]}},{"type":"Feature","properties":{"Nombre":"Junta de Vecinos \"Javiera Carrera\"","Tipo":"SAN MARTIN 567 <br>699 00 72","Observaci":null,"GT":null,"Jerarquia":3},"geometry":{"type":"Point","coordinates":[-70.658333,-33.437395]}},{"type":"Feature","properties":{"Nombre":"Junta de Vecinos \"José Gregorio Argomedo\"","Tipo":"SANTA ISABEL 384 <br>Sin Teléfono","Observaci":null,"GT":null,"Jerarquia":3},"geometry":{"type":"Point","coordinates":[-70.636961,-33.448649]}},{"type":"Feature","properties":{"Nombre":"Junta de Vecinos \"Manuel Rodriguez\"","Tipo":"PORTUGAL 1817 <br>Sin Teléfono","Observaci":null,"GT":null,"Jerarquia":3},"geometry":{"type":"Point","coordinates":[-70.630192,-33.468135]}},{"type":"Feature","properties":{"Nombre":"Junta de Vecinos \"Nataniel Cox\"","Tipo":"LORD COCHRANNE 1304 <br>555 33 44","Observaci":null,"GT":null,"Jerarquia":3},"geometry":{"type":"Point","coordinates":[-70.653033,-33.462845]}},{"type":"Feature","properties":{"Nombre":"Junta de Vecinos \"Parque Cousiño Sur\"","Tipo":"ALAMOS 1950 <br>Sin Teléfono","Observaci":null,"GT":null,"Jerarquia":3},"geometry":{"type":"Point","coordinates":[-70.658127,-33.472138]}},{"type":"Feature","properties":{"Nombre":"Junta de Vecinos \"Paula Jaraquemada\"","Tipo":"LORD COCHARNE 1102-1996 <br>Sin Teléfono","Observaci":null,"GT":null,"Jerarquia":3},"geometry":{"type":"Point","coordinates":[-70.653355,-33.461145]}},{"type":"Feature","properties":{"Nombre":"Junta de Vecinos \"Pedro Lagos\"","Tipo":"VICTOR MANUEL 1483 <br>551 18 80","Observaci":null,"GT":null,"Jerarquia":3},"geometry":{"type":"Point","coordinates":[-70.641468,-33.464805]}},{"type":"Feature","properties":{"Nombre":"Junta de Vecinos \"Pedro Montt\"","Tipo":"BASCUÑÁN GUERRERO 2181 <br>Sin Teléfono <br>(Lunes - Miércoles -  Viernes 10.30 a 13.30 hrs)","Observaci":null,"GT":null,"Jerarquia":3},"geometry":{"type":"Point","coordinates":[-70.671616,-33.475375]}},{"type":"Feature","properties":{"Nombre":"Junta de Vecinos \"Plaza Bogota\"","Tipo":"MADRID 1645 <br>555 70 96","Observaci":null,"GT":null,"Jerarquia":3},"geometry":{"type":"Point","coordinates":[-70.633185,-33.466228]}},{"type":"Feature","properties":{"Nombre":"Junta de Vecinos \"Población Centenario\"","Tipo":"MAPOCHO 2043 <br>Sin Teléfono","Observaci":null,"GT":null,"Jerarquia":3},"geometry":{"type":"Point","coordinates":[-70.665822,-33.432167]}},{"type":"Feature","properties":{"Nombre":"Junta de Vecinos \"San Francisco\"","Tipo":"SERRANO 74 OFICINA 501 <br>633 32 90","Observaci":null,"GT":null,"Jerarquia":3},"geometry":{"type":"Point","coordinates":[-70.649225,-33.445265]}},{"type":"Feature","properties":{"Nombre":"Junta de Vecinos \"San Martin\"","Tipo":"COPIAPO 1468 <br>695 97 06","Observaci":null,"GT":null,"Jerarquia":3},"geometry":{"type":"Point","coordinates":[-70.655147,-33.456105]}},{"type":"Feature","properties":{"Nombre":"Junta de Vecinos \"Santa Ana\"","Tipo":"SANTO DOMINGO 2020 <br>695 24 99","Observaci":null,"GT":null,"Jerarquia":3},"geometry":{"type":"Point","coordinates":[-70.665843,-33.437718]}},{"type":"Feature","properties":{"Nombre":"Junta de Vecinos \"Séptimo de Línea\"","Tipo":"SEPULVEDA LEYTON 3081 <br>Sin Teléfono","Observaci":null,"GT":null,"Jerarquia":3},"geometry":{"type":"Point","coordinates":[-70.674577,-33.469558]}},{"type":"Feature","properties":{"Nombre":"Junta de Vecinos Mireya Pinto","Tipo":"ZENTENO 1695","Observaci":null,"GT":null,"Jerarquia":3},"geometry":{"type":"Point","coordinates":[-70.649579,-33.468591]}}]}