{"type":"FeatureCollection","name":"SOC_PTO_BIBLIOTECAS_2024","features":[{"type":"Feature","properties":{"Join_Count":1,"TARGET_FID":1,"Id":1,"Nombre":"Biblioteca Nacional de Chile","Dirección":"Av. Lib. Bernardo Ohiggins 651","OBJECTID_1":1,"UNIDAD":1.0,"BARRIO":"SANTA LUCIA FORESTAL","AGRP":"AV1","SUP_KM":0.737406,"Shape_Leng":3888.47853075,"Shape_Area":737401.562473,"RSH_Total":6542.0},"geometry":{"type":"Point","coordinates":[-70.645585,-33.442245]}},{"type":"Feature","properties":{"Join_Count":1,"TARGET_FID":2,"Id":2,"Nombre":"Biblioteca Fundación Palabra","Dirección":"Ventura Lavalle 470","OBJECTID_1":2,"UNIDAD":21.0,"BARRIO":"MATTA SUR","AGRP":"AV10","SUP_KM":0.834843,"Shape_Leng":4164.22221642,"Shape_Area":834837.713754,"RSH_Total":11940.0},"geometry":{"type":"Point","coordinates":[-70.638261,-33.459007]}},{"type":"Feature","properties":{"Join_Count":1,"TARGET_FID":3,"Id":3,"Nombre":"Biblioteca Pública Temática","Dirección":"Morande 226","OBJECTID_1":3,"UNIDAD":2.0,"BARRIO":"CENTRO HISTORICO","AGRP":"AV1","SUP_KM":1.204548,"Shape_Leng":4579.43132775,"Shape_Area":1204540.55342,"RSH_Total":18044.0},"geometry":{"type":"Point","coordinates":[-70.653713,-33.440768]}},{"type":"Feature","properties":{"Join_Count":1,"TARGET_FID":4,"Id":4,"Nombre":"Biblioteca de las Mujeres","Dirección":"Agustinas 1389","OBJECTID_1":4,"UNIDAD":2.0,"BARRIO":"CENTRO HISTORICO","AGRP":"AV1","SUP_KM":1.204548,"Shape_Leng":4579.43132775,"Shape_Area":1204540.55342,"RSH_Total":18044.0},"geometry":{"type":"Point","coordinates":[-70.656234,-33.441207]}},{"type":"Feature","properties":{"Join_Count":1,"TARGET_FID":5,"Id":5,"Nombre":"Biblioteca Pública","Dirección":"Huerfanos 1805","OBJECTID_1":5,"UNIDAD":5.0,"BARRIO":"BRASIL","AGRP":"AV2","SUP_KM":0.748504,"Shape_Leng":3546.51000657,"Shape_Area":748499.151709,"RSH_Total":11083.0},"geometry":{"type":"Point","coordinates":[-70.662283,-33.440706]}},{"type":"Feature","properties":{"Join_Count":1,"TARGET_FID":6,"Id":6,"Nombre":"Biblioteca Filial","Dirección":"Santo Domingo 2398","OBJECTID_1":6,"UNIDAD":7.0,"BARRIO":"YUNGAY","AGRP":"AV3","SUP_KM":2.727776,"Shape_Leng":8932.41139927,"Shape_Area":2727758.46614,"RSH_Total":32141.0},"geometry":{"type":"Point","coordinates":[-70.670481,-33.437891]}},{"type":"Feature","properties":{"Join_Count":1,"TARGET_FID":7,"Id":7,"Nombre":"Biblioteca Regional","Dirección":"Matucana 151","OBJECTID_1":7,"UNIDAD":7.0,"BARRIO":"YUNGAY","AGRP":"AV3","SUP_KM":2.727776,"Shape_Leng":8932.41139927,"Shape_Area":2727758.46614,"RSH_Total":32141.0},"geometry":{"type":"Point","coordinates":[-70.679005,-33.444488]}}]}