{
"type": "FeatureCollection",
"name": "SOC_PTO_ACOSO_SEXUAL_CALLEJERO_2025",
"features": [
{ "type": "Feature", "properties": { "FECHA": "05-04-2025", "BARRIO": "SANTA LUCIA - FORESTAL", "DIA_SEMANA": "Sábado", "TIPO_DIA": "FDS", "TRAMO_HORA": "16 A 18 HRS", "MES": "abril", "AÑO": 2025 }, "geometry": { "type": "Point", "coordinates": [ -70.64413, -33.439289, 0.0 ] } },
{ "type": "Feature", "properties": { "FECHA": "30-04-2025", "BARRIO": "HUEMUL", "DIA_SEMANA": "Miércoles", "TIPO_DIA": "SEMANA", "TRAMO_HORA": "12 A 14 HRS", "MES": "abril", "AÑO": 2025 }, "geometry": { "type": "Point", "coordinates": [ -70.649137, -33.475703, 0.0 ] } },
{ "type": "Feature", "properties": { "FECHA": "28-04-2025", "BARRIO": "BRASIL", "DIA_SEMANA": "Lunes", "TIPO_DIA": "SEMANA", "TRAMO_HORA": "10 A 12 HRS", "MES": "abril", "AÑO": 2025 }, "geometry": { "type": "Point", "coordinates": [ -70.664129, -33.443224, 0.0 ] } },
{ "type": "Feature", "properties": { "FECHA": "07-04-2025", "BARRIO": "CASCO HISTÓRICO", "DIA_SEMANA": "Lunes", "TIPO_DIA": "FDS", "TRAMO_HORA": "22 A 00 HRS", "MES": "abril", "AÑO": 2025 }, "geometry": { "type": "Point", "coordinates": [ -70.65002, -33.437182, 0.0 ] } },
{ "type": "Feature", "properties": { "FECHA": "17-01-2025", "BARRIO": "YUNGAY", "DIA_SEMANA": "Viernes", "TIPO_DIA": "SEMANA", "TRAMO_HORA": "22 A 00 HRS", "MES": "enero", "AÑO": 2025 }, "geometry": { "type": "Point", "coordinates": [ -70.677038, -33.441579, 0.0 ] } },
{ "type": "Feature", "properties": { "FECHA": "11-01-2025", "BARRIO": "EJÉRCITO", "DIA_SEMANA": "Sábado", "TIPO_DIA": "FDS", "TRAMO_HORA": "22 A 00 HRS", "MES": "enero", "AÑO": 2025 }, "geometry": { "type": "Point", "coordinates": [ -70.661565, -33.452132, 0.0 ] } },
{ "type": "Feature", "properties": { "FECHA": "14-01-2025", "BARRIO": "DIEZ DE JULIO", "DIA_SEMANA": "Martes", "TIPO_DIA": "SEMANA", "TRAMO_HORA": "06 A 08 HRS", "MES": "enero", "AÑO": 2025 }, "geometry": { "type": "Point", "coordinates": [ -70.643219, -33.458208, 0.0 ] } },
{ "type": "Feature", "properties": { "FECHA": "17-01-2025", "BARRIO": "BRASIL", "DIA_SEMANA": "Viernes", "TIPO_DIA": "SEMANA", "TRAMO_HORA": "08 A 10 HRS", "MES": "enero", "AÑO": 2025 }, "geometry": { "type": "Point", "coordinates": [ -70.666704, -33.440073, 0.0 ] } },
{ "type": "Feature", "properties": { "FECHA": "23-01-2025", "BARRIO": "PARQUE ALMAGRO", "DIA_SEMANA": "Jueves", "TIPO_DIA": "SEMANA", "TRAMO_HORA": "12 A 14 HRS", "MES": "enero", "AÑO": 2025 }, "geometry": { "type": "Point", "coordinates": [ -70.650385, -33.451882, 0.0 ] } },
{ "type": "Feature", "properties": { "FECHA": "29-01-2025", "BARRIO": "PANAMÁ", "DIA_SEMANA": "Miércoles", "TIPO_DIA": "SEMANA", "TRAMO_HORA": "18 A 20 HRS", "MES": "enero", "AÑO": 2025 }, "geometry": { "type": "Point", "coordinates": [ -70.664878, -33.435875, 0.0 ] } },
{ "type": "Feature", "properties": { "FECHA": "01-02-2025", "BARRIO": "SANTA ANA", "DIA_SEMANA": "Sábado", "TIPO_DIA": "FDS", "TRAMO_HORA": "16 A 18 HRS", "MES": "febrero", "AÑO": 2025 }, "geometry": { "type": "Point", "coordinates": [ -70.657529, -33.432182, 0.0 ] } },
{ "type": "Feature", "properties": { "FECHA": "03-02-2025", "BARRIO": "MATTA NORTE", "DIA_SEMANA": "Lunes", "TIPO_DIA": "SEMANA", "TRAMO_HORA": "22 A 00 HRS", "MES": "febrero", "AÑO": 2025 }, "geometry": { "type": "Point", "coordinates": [ -70.647851, -33.452533, 0.0 ] } },
{ "type": "Feature", "properties": { "FECHA": "04-02-2025", "BARRIO": "SANTA ISABEL", "DIA_SEMANA": "Martes", "TIPO_DIA": "SEMANA", "TRAMO_HORA": "06 A 08 HRS", "MES": "febrero", "AÑO": 2025 }, "geometry": { "type": "Point", "coordinates": [ -70.632899, -33.445995, 0.0 ] } },
{ "type": "Feature", "properties": { "FECHA": "17-03-2025", "BARRIO": "SANTA ISABEL", "DIA_SEMANA": "Lunes", "TIPO_DIA": "SEMANA", "TRAMO_HORA": "14 A 16 HRS", "MES": "marzo", "AÑO": 2025 }, "geometry": { "type": "Point", "coordinates": [ -70.636478, -33.449305, 0.0 ] } },
{ "type": "Feature", "properties": { "FECHA": "17-03-2025", "BARRIO": "SANTA ISABEL", "DIA_SEMANA": "Lunes", "TIPO_DIA": "SEMANA", "TRAMO_HORA": "14 A 16 HRS", "MES": "marzo", "AÑO": 2025 }, "geometry": { "type": "Point", "coordinates": [ -70.636478, -33.449305, 0.0 ] } },
{ "type": "Feature", "properties": { "FECHA": "22-03-2025", "BARRIO": "PARQUE ALMAGRO", "DIA_SEMANA": "Sábado", "TIPO_DIA": "FDS", "TRAMO_HORA": "00 A 02 HRS", "MES": "marzo", "AÑO": 2025 }, "geometry": { "type": "Point", "coordinates": [ -70.654849, -33.4491, 0.0 ] } },
{ "type": "Feature", "properties": { "FECHA": "24-03-2025", "BARRIO": "CLUB HÍPICO", "DIA_SEMANA": "Lunes", "TIPO_DIA": "SEMANA", "TRAMO_HORA": "06 A 08 HRS", "MES": "marzo", "AÑO": 2025 }, "geometry": { "type": "Point", "coordinates": [ -70.664513, -33.470468, 0.0 ] } },
{ "type": "Feature", "properties": { "FECHA": "29-03-2025", "BARRIO": "UNIVERSITARIO", "DIA_SEMANA": "Sábado", "TIPO_DIA": "FDS", "TRAMO_HORA": "10 A 12 HRS", "MES": "marzo", "AÑO": 2025 }, "geometry": { "type": "Point", "coordinates": [ -70.664362, -33.456975, 0.0 ] } },
{ "type": "Feature", "properties": { "FECHA": "25-06-2025", "BARRIO": "YUNGAY", "DIA_SEMANA": "Miércoles", "TIPO_DIA": "SEMANA", "TRAMO_HORA": "18 A 20 HRS", "MES": "junio", "AÑO": 0 }, "geometry": { "type": "Point", "coordinates": [ -70.670134, -33.441095, 0.0 ] } },
{ "type": "Feature", "properties": { "FECHA": "08-06-2025", "BARRIO": "SANTA ISABEL", "DIA_SEMANA": "Domingo", "TIPO_DIA": "FDS", "TRAMO_HORA": "02 A 04 HRS", "MES": "junio", "AÑO": 0 }, "geometry": { "type": "Point", "coordinates": [ -70.63678, -33.44452, 0.0 ] } },
{ "type": "Feature", "properties": { "FECHA": "23-06-2025", "BARRIO": "SANTA ISABEL", "DIA_SEMANA": "Lunes", "TIPO_DIA": "SEMANA", "TRAMO_HORA": "22 A 00 HRS", "MES": "junio", "AÑO": 0 }, "geometry": { "type": "Point", "coordinates": [ -70.642635, -33.450227, 0.0 ] } },
{ "type": "Feature", "properties": { "FECHA": "24-06-2025", "BARRIO": "CASCO HISTÓRICO", "DIA_SEMANA": "Martes", "TIPO_DIA": "SEMANA", "TRAMO_HORA": "10 A 12 HRS", "MES": "junio", "AÑO": 0 }, "geometry": { "type": "Point", "coordinates": [ -70.648325, -33.437048, 0.0 ] } },
{ "type": "Feature", "properties": { "FECHA": "02-05-2025", "BARRIO": "YUNGAY", "DIA_SEMANA": "Viernes", "TIPO_DIA": "SEMANA", "TRAMO_HORA": "12 A 14 HRS", "MES": "mayo", "AÑO": 2025 }, "geometry": { "type": "Point", "coordinates": [ -70.672641, -33.436875, 0.0 ] } },
{ "type": "Feature", "properties": { "FECHA": "09-05-2025", "BARRIO": "PARQUE ALMAGRO", "DIA_SEMANA": "Viernes", "TIPO_DIA": "SEMANA", "TRAMO_HORA": "14 A 16 HRS", "MES": "mayo", "AÑO": 2025 }, "geometry": { "type": "Point", "coordinates": [ -70.647123, -33.449952, 0.0 ] } },
{ "type": "Feature", "properties": { "FECHA": "08-05-2025", "BARRIO": "BRASIL", "DIA_SEMANA": "Jueves", "TIPO_DIA": "SEMANA", "TRAMO_HORA": "12 A 14 HRS", "MES": "mayo", "AÑO": 2025 }, "geometry": { "type": "Point", "coordinates": [ -70.66756, -33.44667, 0.0 ] } },
{ "type": "Feature", "properties": { "FECHA": "01-05-2025", "BARRIO": "BALMACEDA", "DIA_SEMANA": "Jueves", "TIPO_DIA": "SEMANA", "TRAMO_HORA": "12 A 14 HRS", "MES": "mayo", "AÑO": 2025 }, "geometry": { "type": "Point", "coordinates": [ -70.675272, -33.428821, 0.0 ] } },
{ "type": "Feature", "properties": { "FECHA": "07-07-2025", "BARRIO": "CASCO HISTORICO", "DIA_SEMANA": "Lunes", "TIPO_DIA": "SEMANA", "TRAMO_HORA": "14 A 16 HRS", "MES": "julio", "AÑO": 2025 }, "geometry": { "type": "Point", "coordinates": [ -70.656648, -33.434401, 0.0 ] } },
{ "type": "Feature", "properties": { "FECHA": "17-07-2025", "BARRIO": "PARQUE O'HIGGINS", "DIA_SEMANA": "Jueves", "TIPO_DIA": "SEMANA", "TRAMO_HORA": "12 A 14 HRS", "MES": "julio", "AÑO": 2025 }, "geometry": { "type": "Point", "coordinates": [ -70.671537, -33.470633, 0.0 ] } },
{ "type": "Feature", "properties": { "FECHA": "20-07-2025", "BARRIO": "CASCO HISTORICO", "DIA_SEMANA": "Domingo", "TIPO_DIA": "SEMANA", "TRAMO_HORA": "04 A 06 HRS", "MES": "julio", "AÑO": 2025 }, "geometry": { "type": "Point", "coordinates": [ -70.648818, -33.434626, 0.0 ] } },
{ "type": "Feature", "properties": { "FECHA": "25-07-2025", "BARRIO": "CLUB HIPICO", "DIA_SEMANA": "Viernes", "TIPO_DIA": "SEMANA", "TRAMO_HORA": "16 A 18 HRS", "MES": "julio", "AÑO": 2025 }, "geometry": { "type": "Point", "coordinates": [ -70.668986, -33.471933, 0.0 ] } },
{ "type": "Feature", "properties": { "FECHA": "11-08-2025", "BARRIO": "SANTA ISABEL", "DIA_SEMANA": "Lunes", "TIPO_DIA": "SEMANA", "TRAMO_HORA": "18 A 20 HRS", "MES": "agosto", "AÑO": 2025 }, "geometry": { "type": "Point", "coordinates": [ -70.64514, -33.446786, 0.0 ] } },
{ "type": "Feature", "properties": { "FECHA": "05-08-2025", "BARRIO": "DIEZ DE JULIO", "DIA_SEMANA": "Martes", "TIPO_DIA": "SEMANA", "TRAMO_HORA": "22 A 00 HRS", "MES": "agosto", "AÑO": 2025 }, "geometry": { "type": "Point", "coordinates": [ -70.634537, -33.451095, 0.0 ] } },
{ "type": "Feature", "properties": { "FECHA": "05-08-2025", "BARRIO": "PARQUE ALMAGRO", "DIA_SEMANA": "Martes", "TIPO_DIA": "SEMANA", "TRAMO_HORA": "22 A 00 HRS", "MES": "agosto", "AÑO": 2025 }, "geometry": { "type": "Point", "coordinates": [ -70.65362, -33.450957, 0.0 ] } }
]
}
