{
"type": "FeatureCollection",
"name": "SOC_PTO_FACTORES_RIESGO_UTEM",
"features": [
{ "type": "Feature", "properties": { "BARRIO": "BALMACEDA", "UBICACIÓN": "LIBERTAD CON PASAJE LIBERTAD", "SE": 0, "CME": 1, "VAD": 0, "AB": 0, "SC": 0, "DF": 0, "PME": 0, "EPME": 0, "MC": 1, "CV": 0, "AOD": 0, "CS": 0, "CA": 0, "VA": 0, "PUNTO": 1, "SECTOR": "SECTOR 1", "EJ1": 2 }, "geometry": { "type": "Point", "coordinates": [ -70.673494, -33.446411 ] } },
{ "type": "Feature", "properties": { "BARRIO": "BALMACEDA", "UBICACIÓN": "MAIPÚ CON AV. PRESIDENTE BALMACEDA", "SE": 0, "CME": 0, "VAD": 1, "AB": 1, "SC": 1, "DF": 1, "PME": 1, "EPME": 0, "MC": 1, "CV": 0, "AOD": 0, "CS": 0, "CA": 0, "VA": 0, "PUNTO": 2, "SECTOR": "SECTOR 1", "EJ1": 6 }, "geometry": { "type": "Point", "coordinates": [ -70.67816, -33.427039 ] } },
{ "type": "Feature", "properties": { "BARRIO": "BALMACEDA", "UBICACIÓN": "YUNGAY CON ESPERANZA", "SE": 0, "CME": 1, "VAD": 0, "AB": 0, "SC": 1, "DF": 1, "PME": 0, "EPME": 0, "MC": 1, "CV": 0, "AOD": 1, "CS": 0, "CA": 0, "VA": 0, "PUNTO": 3, "SECTOR": "SECTOR 1", "EJ1": 5 }, "geometry": { "type": "Point", "coordinates": [ -70.676965, -33.429219 ] } },
{ "type": "Feature", "properties": { "BARRIO": "YUNGAY", "UBICACIÓN": "LIBERTAD CON SANTO DOMINGO", "SE": 0, "CME": 1, "VAD": 1, "AB": 1, "SC": 0, "DF": 1, "PME": 0, "EPME": 1, "MC": 1, "CV": 0, "AOD": 1, "CS": 1, "CA": 0, "VA": 0, "PUNTO": 4, "SECTOR": "SECTOR 1", "EJ1": 8 }, "geometry": { "type": "Point", "coordinates": [ -70.674436, -33.438073 ] } },
{ "type": "Feature", "properties": { "BARRIO": "YUNGAY", "UBICACIÓN": "RAFAEL SOTOMAYOR CON HUERFANOS", "SE": 0, "CME": 1, "VAD": 0, "AB": 1, "SC": 0, "DF": 0, "PME": 0, "EPME": 0, "MC": 1, "CV": 1, "AOD": 0, "CS": 0, "CA": 0, "VA": 0, "PUNTO": 5, "SECTOR": "SECTOR 1", "EJ1": 4 }, "geometry": { "type": "Point", "coordinates": [ -70.673178, -33.442067 ] } },
{ "type": "Feature", "properties": { "BARRIO": "YUNGAY", "UBICACIÓN": "CHACABUCO CON CATEDRAL", "SE": 0, "CME": 1, "VAD": 0, "AB": 1, "SC": 0, "DF": 1, "PME": 0, "EPME": 0, "MC": 0, "CV": 1, "AOD": 0, "CS": 0, "CA": 0, "VA": 0, "PUNTO": 6, "SECTOR": "SECTOR 1", "EJ1": 4 }, "geometry": { "type": "Point", "coordinates": [ -70.678747, -33.440207 ] } },
{ "type": "Feature", "properties": { "BARRIO": "YUNGAY", "UBICACIÓN": "MATUCANA CON PORTALES", "SE": 0, "CME": 1, "VAD": 0, "AB": 0, "SC": 1, "DF": 1, "PME": 0, "EPME": 1, "MC": 0, "CV": 1, "AOD": 1, "CS": 0, "CA": 1, "VA": 0, "PUNTO": 7, "SECTOR": "SECTOR 1", "EJ1": 7 }, "geometry": null },
{ "type": "Feature", "properties": { "BARRIO": "YUNGAY", "UBICACIÓN": "MATUCANA CON CATEDRAL", "SE": 0, "CME": 1, "VAD": 0, "AB": 0, "SC": 0, "DF": 0, "PME": 0, "EPME": 1, "MC": 0, "CV": 1, "AOD": 0, "CS": 0, "CA": 1, "VA": 0, "PUNTO": 8, "SECTOR": "SECTOR 1", "EJ1": 4 }, "geometry": { "type": "Point", "coordinates": [ -70.679901, -33.440389 ] } },
{ "type": "Feature", "properties": { "BARRIO": "YUNGAY", "UBICACIÓN": "SAN PABLO CON MAIPÚ", "SE": 0, "CME": 1, "VAD": 1, "AB": 1, "SC": 1, "DF": 1, "PME": 0, "EPME": 0, "MC": 1, "CV": 1, "AOD": 1, "CS": 0, "CA": 1, "VA": 0, "PUNTO": 9, "SECTOR": "SECTOR 1", "EJ1": 9 }, "geometry": { "type": "Point", "coordinates": [ -70.677042, -33.43545 ] } },
{ "type": "Feature", "properties": { "BARRIO": "YUNGAY", "UBICACIÓN": "MATUCANA CON ANDES", "SE": 0, "CME": 1, "VAD": 0, "AB": 0, "SC": 0, "DF": 1, "PME": 1, "EPME": 0, "MC": 0, "CV": 1, "AOD": 0, "CS": 0, "CA": 0, "VA": 0, "PUNTO": 10, "SECTOR": "SECTOR 1", "EJ1": 4 }, "geometry": null },
{ "type": "Feature", "properties": { "BARRIO": "YUNGAY", "UBICACIÓN": "MARTINEZ DE ROZAS CON GENERAL BULNES", "SE": 0, "CME": 1, "VAD": 1, "AB": 0, "SC": 0, "DF": 1, "PME": 0, "EPME": 0, "MC": 1, "CV": 0, "AOD": 1, "CS": 1, "CA": 0, "VA": 1, "PUNTO": 11, "SECTOR": "SECTOR 1", "EJ1": 7 }, "geometry": { "type": "Point", "coordinates": [ -70.671098, -33.433979 ] } },
{ "type": "Feature", "properties": { "BARRIO": "YUNGAY", "UBICACIÓN": "MAPOCHO CON LIBERTAD", "SE": 0, "CME": 1, "VAD": 0, "AB": 0, "SC": 0, "DF": 1, "PME": 0, "EPME": 0, "MC": 0, "CV": 1, "AOD": 0, "CS": 0, "CA": 0, "VA": 0, "PUNTO": 12, "SECTOR": "SECTOR 1", "EJ1": 3 }, "geometry": { "type": "Point", "coordinates": [ -70.674921, -33.432548 ] } },
{ "type": "Feature", "properties": { "BARRIO": "YUNGAY", "UBICACIÓN": "MONEDA CON GENERAL REYES", "SE": 0, "CME": 1, "VAD": 0, "AB": 0, "SC": 0, "DF": 1, "PME": 0, "EPME": 1, "MC": 0, "CV": 1, "AOD": 0, "CS": 0, "CA": 0, "VA": 0, "PUNTO": 13, "SECTOR": "SECTOR 1", "EJ1": 4 }, "geometry": { "type": "Point", "coordinates": [ -70.671147, -33.444376 ] } },
{ "type": "Feature", "properties": { "BARRIO": "SANTA ANA", "UBICACIÓN": "AV. ALAMEDA LIBERTADOR BERNARDO O'HIGGINS CON MANUEL RODRIGUEZ", "SE": 0, "CME": 0, "VAD": 0, "AB": 0, "SC": 0, "DF": 0, "PME": 0, "EPME": 1, "MC": 0, "CV": 1, "AOD": 0, "CS": 0, "CA": 1, "VA": 0, "PUNTO": 1, "SECTOR": "SECTOR 2", "EJ1": 3 }, "geometry": { "type": "Point", "coordinates": [ -70.666862, -33.44025 ] } },
{ "type": "Feature", "properties": { "BARRIO": "BRASIL", "UBICACIÓN": "AGUSTINAS CON AV. BRASIL", "SE": 0, "CME": 0, "VAD": 0, "AB": 0, "SC": 0, "DF": 0, "PME": 1, "EPME": 0, "MC": 0, "CV": 0, "AOD": 0, "CS": 0, "CA": 0, "VA": 0, "PUNTO": 2, "SECTOR": "SECTOR 2", "EJ1": 1 }, "geometry": { "type": "Point", "coordinates": [ -70.665158, -33.442275 ] } },
{ "type": "Feature", "properties": { "BARRIO": "BRASIL", "UBICACIÓN": "COMPANIA DE JESUS CON MATURANA", "SE": 0, "CME": 0, "VAD": 0, "AB": 0, "SC": 1, "DF": 0, "PME": 0, "EPME": 0, "MC": 0, "CV": 0, "AOD": 1, "CS": 0, "CA": 0, "VA": 0, "PUNTO": 3, "SECTOR": "SECTOR 2", "EJ1": 2 }, "geometry": { "type": "Point", "coordinates": [ -70.668498, -33.439182 ] } },
{ "type": "Feature", "properties": { "BARRIO": "BRASIL", "UBICACIÓN": "CATEDRAL CON AV. RICARDO CUMMING", "SE": 0, "CME": 1, "VAD": 0, "AB": 1, "SC": 0, "DF": 1, "PME": 0, "EPME": 0, "MC": 0, "CV": 1, "AOD": 0, "CS": 0, "CA": 1, "VA": 0, "PUNTO": 4, "SECTOR": "SECTOR 2", "EJ1": 5 }, "geometry": { "type": "Point", "coordinates": [ -70.669371, -33.429746 ] } },
{ "type": "Feature", "properties": { "BARRIO": "PANAMÁ", "UBICACIÓN": "MARTINEZ DE ROZAS CON GENERAL BAQUEDANO", "SE": 0, "CME": 1, "VAD": 1, "AB": 1, "SC": 1, "DF": 0, "PME": 0, "EPME": 0, "MC": 1, "CV": 0, "AOD": 1, "CS": 0, "CA": 0, "VA": 1, "PUNTO": 5, "SECTOR": "SECTOR 2", "EJ1": 7 }, "geometry": { "type": "Point", "coordinates": [ -70.66657, -33.430604 ] } },
{ "type": "Feature", "properties": { "BARRIO": "PANAMÁ", "UBICACIÓN": "MAPOCHO CON AV. RICARDO CUMMING", "SE": 0, "CME": 0, "VAD": 0, "AB": 1, "SC": 1, "DF": 0, "PME": 0, "EPME": 0, "MC": 0, "CV": 0, "AOD": 0, "CS": 0, "CA": 0, "VA": 0, "PUNTO": 6, "SECTOR": "SECTOR 2", "EJ1": 2 }, "geometry": { "type": "Point", "coordinates": [ -70.666338, -33.433691 ] } },
{ "type": "Feature", "properties": { "BARRIO": "PANAMÁ", "UBICACIÓN": "YUNGAY CON AV. RICARDO CUMMING", "SE": 0, "CME": 1, "VAD": 1, "AB": 0, "SC": 0, "DF": 0, "PME": 0, "EPME": 0, "MC": 0, "CV": 0, "AOD": 0, "CS": 0, "CA": 0, "VA": 0, "PUNTO": 7, "SECTOR": "SECTOR 2", "EJ1": 2 }, "geometry": { "type": "Point", "coordinates": [ -70.658762, -33.434614 ] } },
{ "type": "Feature", "properties": { "BARRIO": "PANAMÁ", "UBICACIÓN": "CASTILLO CON GENERAL BAQUEDANO", "SE": 0, "CME": 1, "VAD": 1, "AB": 0, "SC": 0, "DF": 1, "PME": 0, "EPME": 0, "MC": 0, "CV": 1, "AOD": 0, "CS": 0, "CA": 0, "VA": 1, "PUNTO": 8, "SECTOR": "SECTOR 2", "EJ1": 5 }, "geometry": { "type": "Point", "coordinates": [ -70.669126, -33.432103 ] } },
{ "type": "Feature", "properties": { "BARRIO": "SANTA ANA", "UBICACIÓN": "MAPOCHO CON SAN MARTIN", "SE": 0, "CME": 0, "VAD": 0, "AB": 1, "SC": 1, "DF": 1, "PME": 0, "EPME": 0, "MC": 0, "CV": 0, "AOD": 1, "CS": 0, "CA": 0, "VA": 0, "PUNTO": 9, "SECTOR": "SECTOR 2", "EJ1": 4 }, "geometry": { "type": "Point", "coordinates": [ -70.659002, -33.431986 ] } },
{ "type": "Feature", "properties": { "BARRIO": "PANAMÁ", "UBICACIÓN": "SAN PABLO CON SAN MARTIN", "SE": 0, "CME": 1, "VAD": 1, "AB": 0, "SC": 0, "DF": 0, "PME": 0, "EPME": 1, "MC": 1, "CV": 0, "AOD": 0, "CS": 0, "CA": 0, "VA": 0, "PUNTO": 10, "SECTOR": "SECTOR 2", "EJ1": 4 }, "geometry": { "type": "Point", "coordinates": [ -70.658269, -33.438119 ] } },
{ "type": "Feature", "properties": { "BARRIO": "SANTA ANA", "UBICACIÓN": "SAN MARTIN CON SANTO DOMINGO", "SE": 0, "CME": 0, "VAD": 1, "AB": 0, "SC": 1, "DF": 0, "PME": 0, "EPME": 0, "MC": 1, "CV": 1, "AOD": 0, "CS": 0, "CA": 1, "VA": 0, "PUNTO": 11, "SECTOR": "SECTOR 2", "EJ1": 5 }, "geometry": { "type": "Point", "coordinates": [ -70.658409, -33.436972 ] } },
{ "type": "Feature", "properties": { "BARRIO": "SANTA ANA", "UBICACIÓN": "CATEDRAL CON SAN MARTIN", "SE": 0, "CME": 0, "VAD": 0, "AB": 1, "SC": 1, "DF": 0, "PME": 0, "EPME": 0, "MC": 1, "CV": 1, "AOD": 1, "CS": 0, "CA": 1, "VA": 0, "PUNTO": 12, "SECTOR": "SECTOR 2", "EJ1": 6 }, "geometry": { "type": "Point", "coordinates": [ -70.660776, -33.446022 ] } },
{ "type": "Feature", "properties": { "BARRIO": "EJERCITO", "UBICACIÓN": "TOESCA CON SANTA ISABEL", "SE": 1, "CME": 0, "VAD": 0, "AB": 0, "SC": 0, "DF": 1, "PME": 1, "EPME": 0, "MC": 1, "CV": 0, "AOD": 0, "CS": 0, "CA": 1, "VA": 0, "PUNTO": 1, "SECTOR": "SECTOR 4", "EJ1": 5 }, "geometry": { "type": "Point", "coordinates": [ -70.659388, -33.452639 ] } },
{ "type": "Feature", "properties": { "BARRIO": "EJERCITO", "UBICACIÓN": "GORBEA CON VERGARA", "SE": 0, "CME": 0, "VAD": 0, "AB": 0, "SC": 0, "DF": 1, "PME": 0, "EPME": 0, "MC": 0, "CV": 0, "AOD": 0, "CS": 0, "CA": 0, "VA": 0, "PUNTO": 2, "SECTOR": "SECTOR 4", "EJ1": 1 }, "geometry": { "type": "Point", "coordinates": [ -70.661695, -33.452188 ] } },
{ "type": "Feature", "properties": { "BARRIO": "EJERCITO", "UBICACIÓN": "AV. EJERCITO LIBERTADOR CON SAZIE", "SE": 0, "CME": 1, "VAD": 0, "AB": 0, "SC": 1, "DF": 0, "PME": 0, "EPME": 0, "MC": 0, "CV": 0, "AOD": 0, "CS": 0, "CA": 1, "VA": 0, "PUNTO": 3, "SECTOR": "SECTOR 4", "EJ1": 3 }, "geometry": { "type": "Point", "coordinates": [ -70.660983, -33.449541 ] } },
{ "type": "Feature", "properties": { "BARRIO": "REPUBLICA", "UBICACIÓN": "AV. LIBERTADOR BERNARDO OHIGGINS CON AV. EJERCITO LIBERTADOR", "SE": 1, "CME": 0, "VAD": 0, "AB": 0, "SC": 1, "DF": 0, "PME": 0, "EPME": 0, "MC": 1, "CV": 0, "AOD": 1, "CS": 0, "CA": 1, "VA": 0, "PUNTO": 4, "SECTOR": "SECTOR 4", "EJ1": 5 }, "geometry": { "type": "Point", "coordinates": [ -70.661606, -33.446729 ] } },
{ "type": "Feature", "properties": { "BARRIO": "REPUBLICA", "UBICACIÓN": "AV.LIBERTADOR BERNARDO OHIGGINS ENTRE REPUBLICA Y ECHAURREN", "SE": 1, "CME": 0, "VAD": 0, "AB": 0, "SC": 0, "DF": 0, "PME": 0, "EPME": 0, "MC": 1, "CV": 0, "AOD": 0, "CS": 0, "CA": 1, "VA": 0, "PUNTO": 5, "SECTOR": "SECTOR 4", "EJ1": 3 }, "geometry": { "type": "Point", "coordinates": [ -70.667482, -33.447956 ] } },
{ "type": "Feature", "properties": { "BARRIO": "REPUBLICA", "UBICACIÓN": "REPUBLICA CON SALVADOR SANFUENTES", "SE": 0, "CME": 0, "VAD": 0, "AB": 0, "SC": 0, "DF": 0, "PME": 0, "EPME": 0, "MC": 1, "CV": 0, "AOD": 0, "CS": 0, "CA": 1, "VA": 0, "PUNTO": 6, "SECTOR": "SECTOR 4", "EJ1": 2 }, "geometry": { "type": "Point", "coordinates": [ -70.667987, -33.449951 ] } },
{ "type": "Feature", "properties": { "BARRIO": "REPUBLICA", "UBICACIÓN": "SAZIE CON ECHAURREN", "SE": 0, "CME": 0, "VAD": 0, "AB": 0, "SC": 0, "DF": 0, "PME": 0, "EPME": 0, "MC": 0, "CV": 0, "AOD": 0, "CS": 0, "CA": 0, "VA": 0, "PUNTO": 7, "SECTOR": "SECTOR 4", "EJ1": 0 }, "geometry": { "type": "Point", "coordinates": [ -70.66639, -33.45075 ] } },
{ "type": "Feature", "properties": { "BARRIO": "REPUBLICA", "UBICACIÓN": "GRAJALES CON ALMIRANTE LATORRE", "SE": 0, "CME": 0, "VAD": 0, "AB": 0, "SC": 0, "DF": 0, "PME": 0, "EPME": 0, "MC": 0, "CV": 0, "AOD": 0, "CS": 0, "CA": 1, "VA": 0, "PUNTO": 8, "SECTOR": "SECTOR 4", "EJ1": 1 }, "geometry": { "type": "Point", "coordinates": [ -70.664578, -33.451531 ] } },
{ "type": "Feature", "properties": { "BARRIO": "REPUBLICA", "UBICACIÓN": "AV. ESPANA CON GRAJALES", "SE": 0, "CME": 1, "VAD": 0, "AB": 0, "SC": 0, "DF": 1, "PME": 0, "EPME": 0, "MC": 0, "CV": 0, "AOD": 0, "CS": 0, "CA": 1, "VA": 0, "PUNTO": 9, "SECTOR": "SECTOR 4", "EJ1": 3 }, "geometry": { "type": "Point", "coordinates": [ -70.669541, -33.452652 ] } },
{ "type": "Feature", "properties": { "BARRIO": "REPUBLICA", "UBICACIÓN": "AV.ESPANA CON TOESCA", "SE": 0, "CME": 1, "VAD": 0, "AB": 0, "SC": 0, "DF": 1, "PME": 0, "EPME": 0, "MC": 0, "CV": 0, "AOD": 0, "CS": 0, "CA": 0, "VA": 0, "PUNTO": 10, "SECTOR": "SECTOR 4", "EJ1": 2 }, "geometry": { "type": "Point", "coordinates": [ -70.66902, -33.454883 ] } },
{ "type": "Feature", "properties": { "BARRIO": "REPUBLICA", "UBICACIÓN": "AV.BLANCO ENCALADA CON AV. ESPANA", "SE": 0, "CME": 1, "VAD": 0, "AB": 0, "SC": 1, "DF": 0, "PME": 0, "EPME": 0, "MC": 0, "CV": 0, "AOD": 0, "CS": 0, "CA": 0, "VA": 0, "PUNTO": 11, "SECTOR": "SECTOR 4", "EJ1": 2 }, "geometry": { "type": "Point", "coordinates": [ -70.66828, -33.457809 ] } },
{ "type": "Feature", "properties": { "BARRIO": "REPUBLICA", "UBICACIÓN": "DOMEYKO CON CLIB HIPICO", "SE": 0, "CME": 0, "VAD": 0, "AB": 0, "SC": 0, "DF": 1, "PME": 0, "EPME": 1, "MC": 0, "CV": 0, "AOD": 0, "CS": 0, "CA": 0, "VA": 0, "PUNTO": 12, "SECTOR": "SECTOR 4", "EJ1": 2 }, "geometry": { "type": "Point", "coordinates": [ -70.664999, -33.45642 ] } },
{ "type": "Feature", "properties": { "BARRIO": "REPUBLICA", "UBICACIÓN": "AV. REPUBLICA CON GORBEA", "SE": 0, "CME": 1, "VAD": 1, "AB": 0, "SC": 0, "DF": 0, "PME": 0, "EPME": 0, "MC": 0, "CV": 0, "AOD": 0, "CS": 0, "CA": 0, "VA": 0, "PUNTO": 13, "SECTOR": "SECTOR 4", "EJ1": 2 }, "geometry": { "type": "Point", "coordinates": [ -70.667313, -33.453363 ] } },
{ "type": "Feature", "properties": { "BARRIO": "REPUBLICA", "UBICACIÓN": "AV. REPUBLICA CON TOESCA", "SE": 0, "CME": 0, "VAD": 1, "AB": 0, "SC": 0, "DF": 0, "PME": 0, "EPME": 0, "MC": 0, "CV": 0, "AOD": 0, "CS": 0, "CA": 0, "VA": 0, "PUNTO": 14, "SECTOR": "SECTOR 4", "EJ1": 1 }, "geometry": { "type": "Point", "coordinates": [ -70.667074, -33.454498 ] } },
{ "type": "Feature", "properties": { "BARRIO": "JUDICIAL", "UBICACIÓN": "GENERAL RONDIZZONI CON ALAMOS", "SE": 0, "CME": 0, "VAD": 0, "AB": 0, "SC": 0, "DF": 0, "PME": 0, "EPME": 0, "MC": 0, "CV": 0, "AOD": 0, "CS": 0, "CA": 1, "VA": 0, "PUNTO": 1, "SECTOR": "SECTOR 5", "EJ1": 1 }, "geometry": { "type": "Point", "coordinates": [ -70.658428, -33.470204 ] } },
{ "type": "Feature", "properties": { "BARRIO": "JUDICIAL", "UBICACIÓN": "AV. PEDRO MONTT CON AV. VIEL", "SE": 0, "CME": 1, "VAD": 0, "AB": 1, "SC": 1, "DF": 0, "PME": 0, "EPME": 1, "MC": 0, "CV": 1, "AOD": 0, "CS": 0, "CA": 1, "VA": 0, "PUNTO": 2, "SECTOR": "SECTOR 5", "EJ1": 6 }, "geometry": { "type": "Point", "coordinates": [ -70.655451, -33.473202 ] } },
{ "type": "Feature", "properties": { "BARRIO": "JUDICIAL", "UBICACIÓN": "GENERAL GANA CON ALAMOS", "SE": 0, "CME": 1, "VAD": 0, "AB": 1, "SC": 1, "DF": 0, "PME": 0, "EPME": 1, "MC": 0, "CV": 0, "AOD": 0, "CS": 0, "CA": 0, "VA": 0, "PUNTO": 3, "SECTOR": "SECTOR 5", "EJ1": 4 }, "geometry": { "type": "Point", "coordinates": [ -70.658295, -33.471676 ] } },
{ "type": "Feature", "properties": { "BARRIO": "PARQUE O'HIGGINS", "UBICACIÓN": "TUPPER CON PLAZA ERCILLA", "SE": 0, "CME": 1, "VAD": 0, "AB": 0, "SC": 1, "DF": 0, "PME": 0, "EPME": 0, "MC": 0, "CV": 1, "AOD": 0, "CS": 0, "CA": 0, "VA": 0, "PUNTO": 4, "SECTOR": "SECTOR 5", "EJ1": 3 }, "geometry": { "type": "Point", "coordinates": [ -70.660409, -33.458391 ] } },
{ "type": "Feature", "properties": { "BARRIO": "PARQUE O'HIGGINS", "UBICACIÓN": "EL PARQUE CON AV. VIEL", "SE": 0, "CME": 1, "VAD": 0, "AB": 0, "SC": 0, "DF": 0, "PME": 0, "EPME": 0, "MC": 0, "CV": 0, "AOD": 0, "CS": 0, "CA": 0, "VA": 1, "PUNTO": 5, "SECTOR": "SECTOR 5", "EJ1": 2 }, "geometry": { "type": "Point", "coordinates": [ -70.668177, -33.473545 ] } },
{ "type": "Feature", "properties": { "BARRIO": "SAN EUGENIO", "UBICACIÓN": "SIRIA CON PEDRO MONTT", "SE": 0, "CME": 1, "VAD": 0, "AB": 1, "SC": 0, "DF": 0, "PME": 0, "EPME": 0, "MC": 0, "CV": 0, "AOD": 0, "CS": 0, "CA": 0, "VA": 0, "PUNTO": 6, "SECTOR": "SECTOR 5", "EJ1": 2 }, "geometry": { "type": "Point", "coordinates": [ -70.672302, -33.474878 ] } },
{ "type": "Feature", "properties": { "BARRIO": "SAN EUGENIO", "UBICACIÓN": "ARZOBISPO VALENZUELA CON JUAN NEPOMUCENO ESPEJO", "SE": 0, "CME": 0, "VAD": 0, "AB": 0, "SC": 0, "DF": 0, "PME": 0, "EPME": 1, "MC": 0, "CV": 1, "AOD": 0, "CS": 0, "CA": 0, "VA": 0, "PUNTO": 7, "SECTOR": "SECTOR 5", "EJ1": 2 }, "geometry": { "type": "Point", "coordinates": [ -70.672991, -33.466464 ] } },
{ "type": "Feature", "properties": { "BARRIO": "SAN EUGENIO", "UBICACIÓN": "SAN ALFONSO CON ANTOFAGASTA", "SE": 0, "CME": 1, "VAD": 0, "AB": 1, "SC": 0, "DF": 0, "PME": 0, "EPME": 0, "MC": 0, "CV": 1, "AOD": 0, "CS": 0, "CA": 0, "VA": 1, "PUNTO": 8, "SECTOR": "SECTOR 5", "EJ1": 4 }, "geometry": { "type": "Point", "coordinates": [ -70.673856, -33.462782 ] } },
{ "type": "Feature", "properties": { "BARRIO": "SAN VICENTE", "UBICACIÓN": "SAN ALFONSO CON FRAY LUIS DE LA PEÑA", "SE": 0, "CME": 1, "VAD": 0, "AB": 0, "SC": 0, "DF": 0, "PME": 0, "EPME": 0, "MC": 0, "CV": 0, "AOD": 0, "CS": 0, "CA": 0, "VA": 0, "PUNTO": 9, "SECTOR": "SECTOR 5", "EJ1": 1 }, "geometry": { "type": "Point", "coordinates": [ -70.674581, -33.465234 ] } },
{ "type": "Feature", "properties": { "BARRIO": "SAN VICENTE", "UBICACIÓN": "CONFERENCIA CON ESPIÑEIRA", "SE": 0, "CME": 1, "VAD": 0, "AB": 1, "SC": 0, "DF": 0, "PME": 0, "EPME": 1, "MC": 0, "CV": 1, "AOD": 0, "CS": 0, "CA": 0, "VA": 0, "PUNTO": 10, "SECTOR": "SECTOR 5", "EJ1": 4 }, "geometry": { "type": "Point", "coordinates": [ -70.675346, -33.461923 ] } },
{ "type": "Feature", "properties": { "BARRIO": "SAN VICENTE", "UBICACIÓN": "CONFERENCIA CON TUCAPEL", "SE": 0, "CME": 1, "VAD": 0, "AB": 0, "SC": 0, "DF": 0, "PME": 0, "EPME": 1, "MC": 0, "CV": 0, "AOD": 0, "CS": 0, "CA": 0, "VA": 0, "PUNTO": 11, "SECTOR": "SECTOR 5", "EJ1": 2 }, "geometry": { "type": "Point", "coordinates": [ -70.671671, -33.468322 ] } },
{ "type": "Feature", "properties": { "BARRIO": "SAN VICENTE", "UBICACIÓN": "BASCUÑÁN GUERRERO CON MANUEL AMAT", "SE": 0, "CME": 1, "VAD": 0, "AB": 1, "SC": 0, "DF": 0, "PME": 0, "EPME": 0, "MC": 0, "CV": 1, "AOD": 0, "CS": 0, "CA": 1, "VA": 0, "PUNTO": 12, "SECTOR": "SECTOR 5", "EJ1": 4 }, "geometry": { "type": "Point", "coordinates": [ -70.670319, -33.471911 ] } },
{ "type": "Feature", "properties": { "BARRIO": "SAN VICENTE", "UBICACIÓN": "SAN DIONISO CON FRANCISCO PIZARRO", "SE": 0, "CME": 1, "VAD": 0, "AB": 0, "SC": 1, "DF": 0, "PME": 0, "EPME": 1, "MC": 0, "CV": 0, "AOD": 0, "CS": 0, "CA": 1, "VA": 0, "PUNTO": 13, "SECTOR": "SECTOR 5", "EJ1": 4 }, "geometry": { "type": "Point", "coordinates": [ -70.664852, -33.473536 ] } },
{ "type": "Feature", "properties": { "BARRIO": "SAN VICENTE", "UBICACIÓN": "CLUB HÍPICO CON MIRADOR", "SE": 0, "CME": 1, "VAD": 0, "AB": 1, "SC": 1, "DF": 0, "PME": 0, "EPME": 1, "MC": 0, "CV": 0, "AOD": 0, "CS": 0, "CA": 0, "VA": 0, "PUNTO": 14, "SECTOR": "SECTOR 5", "EJ1": 4 }, "geometry": { "type": "Point", "coordinates": [ -70.664841, -33.475782 ] } },
{ "type": "Feature", "properties": { "BARRIO": "SAN VICENTE", "UBICACIÓN": "CLUB HÍPICO CON CENTENARIO", "SE": 1, "CME": 0, "VAD": 0, "AB": 1, "SC": 0, "DF": 0, "PME": 0, "EPME": 1, "MC": 0, "CV": 0, "AOD": 0, "CS": 0, "CA": 0, "VA": 0, "PUNTO": 15, "SECTOR": "SECTOR 5", "EJ1": 3 }, "geometry": { "type": "Point", "coordinates": [ -70.670298, -33.475834 ] } },
{ "type": "Feature", "properties": { "BARRIO": "SAN VICENTE", "UBICACIÓN": "FRANCISCO PIZARRO CON CENTENARIO", "SE": 0, "CME": 1, "VAD": 0, "AB": 0, "SC": 0, "DF": 0, "PME": 0, "EPME": 1, "MC": 0, "CV": 0, "AOD": 0, "CS": 0, "CA": 0, "VA": 0, "PUNTO": 16, "SECTOR": "SECTOR 5", "EJ1": 2 }, "geometry": { "type": "Point", "coordinates": [ -70.675087, -33.463 ] } },
{ "type": "Feature", "properties": { "BARRIO": "SAN VICENTE", "UBICACIÓN": "FRAY LUIS DE LA PEÑA CON TUCAPEL", "SE": 0, "CME": 1, "VAD": 0, "AB": 0, "SC": 0, "DF": 0, "PME": 0, "EPME": 1, "MC": 0, "CV": 0, "AOD": 0, "CS": 0, "CA": 0, "VA": 0, "PUNTO": 17, "SECTOR": "SECTOR 5", "EJ1": 2 }, "geometry": null },
{ "type": "Feature", "properties": { "BARRIO": "MATTA NORTE", "UBICACIÓN": "AV. SANTA ISABEL CON SAN DIEGO", "SE": 0, "CME": 1, "VAD": 0, "AB": 1, "SC": 1, "DF": 0, "PME": 0, "EPME": 1, "MC": 1, "CV": 0, "AOD": 1, "CS": 0, "CA": 1, "VA": 0, "PUNTO": 1, "SECTOR": "SECTOR 6", "EJ1": 7 }, "geometry": null },
{ "type": "Feature", "properties": { "BARRIO": "MATTA NORTE", "UBICACIÓN": "AV. SANTA ISABEL CON SANTA ROSA", "SE": 0, "CME": 1, "VAD": 0, "AB": 0, "SC": 0, "DF": 1, "PME": 0, "EPME": 1, "MC": 0, "CV": 0, "AOD": 0, "CS": 0, "CA": 1, "VA": 0, "PUNTO": 2, "SECTOR": "SECTOR 6", "EJ1": 4 }, "geometry": { "type": "Point", "coordinates": [ -70.642093, -33.458208 ] } },
{ "type": "Feature", "properties": { "BARRIO": "MATTA NORTE", "UBICACIÓN": "EYZAGUIRRE CON SAN FRANCISCO", "SE": 0, "CME": 0, "VAD": 1, "AB": 0, "SC": 0, "DF": 0, "PME": 0, "EPME": 1, "MC": 1, "CV": 1, "AOD": 0, "CS": 0, "CA": 0, "VA": 0, "PUNTO": 3, "SECTOR": "SECTOR 6", "EJ1": 4 }, "geometry": { "type": "Point", "coordinates": [ -70.63356, -33.455165 ] } },
{ "type": "Feature", "properties": { "BARRIO": "MATTA NORTE", "UBICACIÓN": "AV. SANTA ISABEL CON SAN IGNACIO DE LOYOLA", "SE": 0, "CME": 0, "VAD": 0, "AB": 0, "SC": 0, "DF": 1, "PME": 0, "EPME": 0, "MC": 1, "CV": 1, "AOD": 0, "CS": 0, "CA": 0, "VA": 0, "PUNTO": 4, "SECTOR": "SECTOR 6", "EJ1": 3 }, "geometry": { "type": "Point", "coordinates": [ -70.639594, -33.457449 ] } },
{ "type": "Feature", "properties": { "BARRIO": "MATTA NORTE", "UBICACIÓN": "AV. DIEZ DE JULIO CON LORD COCHRANE", "SE": 0, "CME": 1, "VAD": 0, "AB": 1, "SC": 1, "DF": 1, "PME": 0, "EPME": 0, "MC": 1, "CV": 1, "AOD": 0, "CS": 0, "CA": 0, "VA": 0, "PUNTO": 5, "SECTOR": "SECTOR 6", "EJ1": 6 }, "geometry": { "type": "Point", "coordinates": [ -70.643256, -33.458429 ] } },
{ "type": "Feature", "properties": { "BARRIO": "MATTA NORTE", "UBICACIÓN": "LORD COCHRANE CON COQUIMBO", "SE": 0, "CME": 1, "VAD": 0, "AB": 1, "SC": 0, "DF": 1, "PME": 0, "EPME": 0, "MC": 1, "CV": 1, "AOD": 1, "CS": 0, "CA": 1, "VA": 0, "PUNTO": 6, "SECTOR": "SECTOR 6", "EJ1": 7 }, "geometry": { "type": "Point", "coordinates": [ -70.632482, -33.451653 ] } },
{ "type": "Feature", "properties": { "BARRIO": "MATTA NORTE", "UBICACIÓN": "COQUIMBO CON SAN DIEGO", "SE": 0, "CME": 0, "VAD": 1, "AB": 1, "SC": 0, "DF": 1, "PME": 0, "EPME": 0, "MC": 1, "CV": 1, "AOD": 0, "CS": 0, "CA": 0, "VA": 0, "PUNTO": 7, "SECTOR": "SECTOR 6", "EJ1": 5 }, "geometry": { "type": "Point", "coordinates": [ -70.63446, -33.451673 ] } },
{ "type": "Feature", "properties": { "BARRIO": "MATTA NORTE", "UBICACIÓN": "PORVENIR CON SANTA ROSA", "SE": 0, "CME": 1, "VAD": 1, "AB": 0, "SC": 0, "DF": 1, "PME": 0, "EPME": 0, "MC": 1, "CV": 1, "AOD": 0, "CS": 0, "CA": 0, "VA": 0, "PUNTO": 8, "SECTOR": "SECTOR 6", "EJ1": 5 }, "geometry": { "type": "Point", "coordinates": [ -70.650394, -33.451882 ] } },
{ "type": "Feature", "properties": { "BARRIO": "DIEZ DE JULIO", "UBICACIÓN": "AV. MANUEL ANTONIO MATTA CON AV. SANTA ROSA", "SE": 0, "CME": 0, "VAD": 0, "AB": 0, "SC": 0, "DF": 0, "PME": 0, "EPME": 1, "MC": 0, "CV": 0, "AOD": 0, "CS": 0, "CA": 1, "VA": 0, "PUNTO": 9, "SECTOR": "SECTOR 6", "EJ1": 2 }, "geometry": { "type": "Point", "coordinates": [ -70.649575, -33.456902 ] } },
{ "type": "Feature", "properties": { "BARRIO": "DIEZ DE JULIO", "UBICACIÓN": "AV. MANUEL ANTONIO MATTA CON VICTOR MANUEL", "SE": 0, "CME": 0, "VAD": 0, "AB": 0, "SC": 1, "DF": 0, "PME": 0, "EPME": 0, "MC": 0, "CV": 0, "AOD": 1, "CS": 0, "CA": 0, "VA": 0, "PUNTO": 10, "SECTOR": "SECTOR 7", "EJ1": 2 }, "geometry": { "type": "Point", "coordinates": [ -70.64343, -33.45702 ] } },
{ "type": "Feature", "properties": { "BARRIO": "DIEZ DE JULIO", "UBICACIÓN": "AV. MANUEL ANTONIO MATTA CON CARMEN", "SE": 0, "CME": 0, "VAD": 1, "AB": 0, "SC": 0, "DF": 0, "PME": 1, "EPME": 0, "MC": 0, "CV": 0, "AOD": 0, "CS": 0, "CA": 1, "VA": 0, "PUNTO": 11, "SECTOR": "SECTOR 6", "EJ1": 3 }, "geometry": { "type": "Point", "coordinates": [ -70.646715, -33.452034 ] } },
{ "type": "Feature", "properties": { "BARRIO": "DIEZ DE JULIO", "UBICACIÓN": "AV. PORTUGAL CON PORVENIR", "SE": 0, "CME": 1, "VAD": 1, "AB": 0, "SC": 0, "DF": 0, "PME": 0, "EPME": 0, "MC": 1, "CV": 0, "AOD": 0, "CS": 0, "CA": 0, "VA": 0, "PUNTO": 12, "SECTOR": "SECTOR 6", "EJ1": 3 }, "geometry": { "type": "Point", "coordinates": [ -70.653703, -33.457615 ] } },
{ "type": "Feature", "properties": { "BARRIO": "DIEZ DE JULIO", "UBICACIÓN": "AV. DIEZ DE JULIO CON PORTUGAL", "SE": 0, "CME": 0, "VAD": 1, "AB": 0, "SC": 0, "DF": 0, "PME": 0, "EPME": 1, "MC": 0, "CV": 0, "AOD": 1, "CS": 1, "CA": 1, "VA": 0, "PUNTO": 13, "SECTOR": "SECTOR 6", "EJ1": 5 }, "geometry": { "type": "Point", "coordinates": [ -70.655912, -33.453084 ] } },
{ "type": "Feature", "properties": { "BARRIO": "DIEZ DE JULIO", "UBICACIÓN": "AV. DIEZ DE JULIO CON SANTA ELENA", "SE": 0, "CME": 1, "VAD": 1, "AB": 0, "SC": 0, "DF": 0, "PME": 1, "EPME": 1, "MC": 0, "CV": 1, "AOD": 0, "CS": 0, "CA": 0, "VA": 0, "PUNTO": 14, "SECTOR": "SECTOR 6", "EJ1": 5 }, "geometry": { "type": "Point", "coordinates": [ -70.644427, -33.450499 ] } },
{ "type": "Feature", "properties": { "BARRIO": "DIEZ DE JULIO", "UBICACIÓN": "AV. VICUÑA MACKENNA CON COQUIMBO", "SE": 0, "CME": 1, "VAD": 1, "AB": 0, "SC": 0, "DF": 0, "PME": 1, "EPME": 0, "MC": 0, "CV": 1, "AOD": 0, "CS": 0, "CA": 1, "VA": 0, "PUNTO": 15, "SECTOR": "SECTOR 6", "EJ1": 5 }, "geometry": { "type": "Point", "coordinates": [ -70.654127, -33.45441 ] } },
{ "type": "Feature", "properties": { "BARRIO": "SANTA ISABEL", "UBICACIÓN": "CARMEN CON AV. SANTA ISABEL", "SE": 0, "CME": 0, "VAD": 0, "AB": 0, "SC": 0, "DF": 0, "PME": 0, "EPME": 0, "MC": 0, "CV": 1, "AOD": 0, "CS": 0, "CA": 0, "VA": 0, "PUNTO": 0, "SECTOR": "SECTOR 7", "EJ1": 1 }, "geometry": { "type": "Point", "coordinates": [ -70.641523, -33.449996 ] } },
{ "type": "Feature", "properties": { "BARRIO": "SANTA ISABEL", "UBICACIÓN": "AV. PORTUGAL CON AV. SANTA ISABEL", "SE": 0, "CME": 0, "VAD": 0, "AB": 1, "SC": 0, "DF": 0, "PME": 0, "EPME": 0, "MC": 0, "CV": 1, "AOD": 0, "CS": 0, "CA": 0, "VA": 0, "PUNTO": 0, "SECTOR": "SECTOR 7", "EJ1": 2 }, "geometry": { "type": "Point", "coordinates": [ -70.63529, -33.448236 ] } },
{ "type": "Feature", "properties": { "BARRIO": "SAN BORJA", "UBICACIÓN": "LIRA CON CURICO", "SE": 0, "CME": 1, "VAD": 0, "AB": 0, "SC": 1, "DF": 0, "PME": 0, "EPME": 0, "MC": 0, "CV": 0, "AOD": 0, "CS": 0, "CA": 1, "VA": 0, "PUNTO": 0, "SECTOR": "SECTOR 7", "EJ1": 3 }, "geometry": { "type": "Point", "coordinates": [ -70.640368, -33.445291 ] } },
{ "type": "Feature", "properties": { "BARRIO": "SAN BORJA", "UBICACIÓN": "LIRA CON DIAGONAL PARAGUAY", "SE": 0, "CME": 1, "VAD": 0, "AB": 0, "SC": 1, "DF": 0, "PME": 1, "EPME": 1, "MC": 0, "CV": 1, "AOD": 0, "CS": 0, "CA": 1, "VA": 0, "PUNTO": 0, "SECTOR": "SECTOR 7", "EJ1": 6 }, "geometry": { "type": "Point", "coordinates": [ -70.641206, -33.442994 ] } },
{ "type": "Feature", "properties": { "BARRIO": "SANTA ISABEL", "UBICACIÓN": "AV. PORTUGAL CON DIAGONAL PARAGUAY", "SE": 0, "CME": 0, "VAD": 0, "AB": 0, "SC": 1, "DF": 0, "PME": 0, "EPME": 0, "MC": 0, "CV": 1, "AOD": 0, "CS": 0, "CA": 1, "VA": 0, "PUNTO": 0, "SECTOR": "SECTOR 7", "EJ1": 3 }, "geometry": { "type": "Point", "coordinates": [ -70.637859, -33.443014 ] } },
{ "type": "Feature", "properties": { "BARRIO": "SANTA ISABEL", "UBICACIÓN": "SAN ISIDRO CON AV. SANTA ISABEL", "SE": 0, "CME": 0, "VAD": 0, "AB": 1, "SC": 1, "DF": 0, "PME": 0, "EPME": 0, "MC": 0, "CV": 0, "AOD": 0, "CS": 0, "CA": 1, "VA": 0, "PUNTO": 0, "SECTOR": "SECTOR 7", "EJ1": 3 }, "geometry": { "type": "Point", "coordinates": [ -70.643007, -33.450317 ] } },
{ "type": "Feature", "properties": { "BARRIO": "SAN BORJA", "UBICACIÓN": "SAN ISIDRO CON CURICO", "SE": 0, "CME": 0, "VAD": 0, "AB": 1, "SC": 0, "DF": 0, "PME": 0, "EPME": 0, "MC": 0, "CV": 1, "AOD": 0, "CS": 0, "CA": 1, "VA": 0, "PUNTO": 0, "SECTOR": "SECTOR 7", "EJ1": 3 }, "geometry": { "type": "Point", "coordinates": [ -70.644021, -33.446276 ] } },
{ "type": "Feature", "properties": { "BARRIO": "SAN BORJA", "UBICACIÓN": "AV. LIBERTADOR BERNARDO O'HIGGINS CON SAN ISIDRO", "SE": 0, "CME": 0, "VAD": 0, "AB": 0, "SC": 0, "DF": 0, "PME": 1, "EPME": 0, "MC": 0, "CV": 1, "AOD": 0, "CS": 0, "CA": 1, "VA": 0, "PUNTO": 0, "SECTOR": "SECTOR 7", "EJ1": 3 }, "geometry": { "type": "Point", "coordinates": [ -70.644877, -33.442652 ] } },
{ "type": "Feature", "properties": { "BARRIO": "SAN BORJA", "UBICACIÓN": "AV. LIBERTADOR BERNARDO O'HIGGINS CON AV. PORTUGAL", "SE": 0, "CME": 0, "VAD": 0, "AB": 0, "SC": 0, "DF": 0, "PME": 0, "EPME": 0, "MC": 0, "CV": 1, "AOD": 0, "CS": 0, "CA": 1, "VA": 0, "PUNTO": 0, "SECTOR": "SECTOR 7", "EJ1": 2 }, "geometry": { "type": "Point", "coordinates": [ -70.640383, -33.440249 ] } },
{ "type": "Feature", "properties": { "BARRIO": "SAN BORJA", "UBICACIÓN": "AV. LIBERTADOR BERNARDO O'HIGGINS CON RAMON CORVALAN", "SE": 0, "CME": 0, "VAD": 0, "AB": 0, "SC": 0, "DF": 0, "PME": 1, "EPME": 0, "MC": 0, "CV": 0, "AOD": 0, "CS": 0, "CA": 1, "VA": 0, "PUNTO": 0, "SECTOR": "SECTOR 7", "EJ1": 2 }, "geometry": { "type": "Point", "coordinates": [ -70.636475, -33.437668 ] } },
{ "type": "Feature", "properties": { "BARRIO": "SAN BORJA", "UBICACIÓN": "AV. LIBERTADOR BERNARDO O'HIGGINS CON AV. VICUNA MACKENNA", "SE": 0, "CME": 0, "VAD": 0, "AB": 1, "SC": 0, "DF": 0, "PME": 1, "EPME": 1, "MC": 0, "CV": 1, "AOD": 0, "CS": 0, "CA": 1, "VA": 0, "PUNTO": 0, "SECTOR": "SECTOR 7", "EJ1": 5 }, "geometry": null },
{ "type": "Feature", "properties": { "BARRIO": "SANTA ISABEL", "UBICACIÓN": "CARMEN CON ARGOMEDO", "SE": 0, "CME": 1, "VAD": 0, "AB": 0, "SC": 0, "DF": 0, "PME": 0, "EPME": 0, "MC": 0, "CV": 0, "AOD": 0, "CS": 0, "CA": 0, "VA": 0, "PUNTO": 0, "SECTOR": "SECTOR 7", "EJ1": 1 }, "geometry": { "type": "Point", "coordinates": [ -70.641211, -33.450885 ] } },
{ "type": "Feature", "properties": { "BARRIO": "SANTA ISABEL", "UBICACIÓN": "CARMEN CON ELEUTERIO RAMIREZ", "SE": 0, "CME": 0, "VAD": 0, "AB": 0, "SC": 0, "DF": 0, "PME": 0, "EPME": 0, "MC": 0, "CV": 0, "AOD": 0, "CS": 0, "CA": 0, "VA": 0, "PUNTO": 0, "SECTOR": "SECTOR 7", "EJ1": 0 }, "geometry": { "type": "Point", "coordinates": [ -70.642263, -33.447564 ] } },
{ "type": "Feature", "properties": { "BARRIO": "PARQUE ALMAGRO", "UBICACIÓN": "SAN DIEGO CON ELEUTERIO RAMIREZ", "SE": 0, "CME": 0, "VAD": 0, "AB": 1, "SC": 0, "DF": 0, "PME": 0, "EPME": 1, "MC": 0, "CV": 0, "AOD": 0, "CS": 0, "CA": 1, "VA": 0, "PUNTO": 0, "SECTOR": "SECTOR 7", "EJ1": 3 }, "geometry": { "type": "Point", "coordinates": [ -70.65078, -33.449343 ] } },
{ "type": "Feature", "properties": { "BARRIO": "PARQUE ALMAGRO", "UBICACIÓN": "SAN FRANCISCO CON TARAPACÁ", "SE": 0, "CME": 1, "VAD": 0, "AB": 0, "SC": 0, "DF": 0, "PME": 0, "EPME": 0, "MC": 0, "CV": 1, "AOD": 0, "CS": 0, "CA": 0, "VA": 0, "PUNTO": 0, "SECTOR": "SECTOR 7", "EJ1": 2 }, "geometry": { "type": "Point", "coordinates": [ -70.647072, -33.446711 ] } },
{ "type": "Feature", "properties": { "BARRIO": "PARQUE ALMAGRO", "UBICACIÓN": "MENCÍA DE LOS NIDOS CON PASEO BULNES", "SE": 0, "CME": 1, "VAD": 0, "AB": 1, "SC": 0, "DF": 0, "PME": 0, "EPME": 1, "MC": 0, "CV": 1, "AOD": 0, "CS": 0, "CA": 0, "VA": 0, "PUNTO": 0, "SECTOR": "SECTOR 7", "EJ1": 4 }, "geometry": { "type": "Point", "coordinates": [ -70.652232, -33.451356 ] } },
{ "type": "Feature", "properties": { "BARRIO": "PARQUE ALMAGRO", "UBICACIÓN": "AV. SANTA ISABEL CON LORD COCHRANE", "SE": 0, "CME": 1, "VAD": 0, "AB": 1, "SC": 1, "DF": 0, "PME": 1, "EPME": 1, "MC": 0, "CV": 0, "AOD": 1, "CS": 0, "CA": 0, "VA": 0, "PUNTO": 0, "SECTOR": "SECTOR 7", "EJ1": 6 }, "geometry": { "type": "Point", "coordinates": [ -70.654271, -33.452848 ] } },
{ "type": "Feature", "properties": { "BARRIO": "PARQUE ALMAGRO", "UBICACIÓN": "LORD COCHRANE CON PADRE MIGUEL DE OLIVARES", "SE": 0, "CME": 1, "VAD": 0, "AB": 0, "SC": 0, "DF": 0, "PME": 0, "EPME": 1, "MC": 0, "CV": 0, "AOD": 0, "CS": 0, "CA": 0, "VA": 0, "PUNTO": 0, "SECTOR": "SECTOR 7", "EJ1": 2 }, "geometry": { "type": "Point", "coordinates": [ -70.654814, -33.448966 ] } },
{ "type": "Feature", "properties": { "BARRIO": "PARQUE ALMAGRO", "UBICACIÓN": "TARAPACÁ CON NATANIEL COX", "SE": 0, "CME": 1, "VAD": 0, "AB": 0, "SC": 0, "DF": 0, "PME": 1, "EPME": 1, "MC": 0, "CV": 0, "AOD": 0, "CS": 0, "CA": 0, "VA": 0, "PUNTO": 0, "SECTOR": "SECTOR 7", "EJ1": 3 }, "geometry": { "type": "Point", "coordinates": [ -70.653552, -33.447795 ] } },
{ "type": "Feature", "properties": { "BARRIO": "PARQUE ALMAGRO", "UBICACIÓN": "TARAPACÁ CON LORD COCHRANE", "SE": 0, "CME": 0, "VAD": 0, "AB": 0, "SC": 0, "DF": 0, "PME": 0, "EPME": 1, "MC": 0, "CV": 1, "AOD": 0, "CS": 0, "CA": 1, "VA": 0, "PUNTO": 0, "SECTOR": "SECTOR 7", "EJ1": 3 }, "geometry": { "type": "Point", "coordinates": [ -70.654975, -33.447951 ] } },
{ "type": "Feature", "properties": { "BARRIO": "PARQUE ALMAGRO", "UBICACIÓN": "SAN FRANCISCO CON ELEUTERIO RAMIREZ", "SE": 0, "CME": 1, "VAD": 0, "AB": 0, "SC": 1, "DF": 0, "PME": 0, "EPME": 1, "MC": 0, "CV": 1, "AOD": 0, "CS": 0, "CA": 1, "VA": 0, "PUNTO": 0, "SECTOR": "SECTOR 7", "EJ1": 5 }, "geometry": { "type": "Point", "coordinates": [ -70.647046, -33.448521 ] } },
{ "type": "Feature", "properties": { "BARRIO": "FRANKLIN", "UBICACIÓN": "GENERAL GANA CON SAN DIEGO", "SE": 0, "CME": 0, "VAD": 0, "AB": 0, "SC": 0, "DF": 0, "PME": 0, "EPME": 0, "MC": 0, "CV": 0, "AOD": 0, "CS": 0, "CA": 0, "VA": 0, "PUNTO": 2, "SECTOR": "SECTOR 9", "EJ1": 0 }, "geometry": { "type": "Point", "coordinates": [ -70.648481, -33.471067 ] } },
{ "type": "Feature", "properties": { "BARRIO": "FRANKLIN", "UBICACIÓN": "SAN DIEGO CON FRANKLIN", "SE": 0, "CME": 0, "VAD": 0, "AB": 0, "SC": 0, "DF": 0, "PME": 0, "EPME": 0, "MC": 0, "CV": 0, "AOD": 0, "CS": 0, "CA": 1, "VA": 0, "PUNTO": 3, "SECTOR": "SECTOR 9", "EJ1": 1 }, "geometry": { "type": "Point", "coordinates": [ -70.648351, -33.473306 ] } },
{ "type": "Feature", "properties": { "BARRIO": "FRANKLIN", "UBICACIÓN": "SAN DIEGO CON PLACER", "SE": 0, "CME": 0, "VAD": 0, "AB": 0, "SC": 0, "DF": 0, "PME": 0, "EPME": 0, "MC": 0, "CV": 0, "AOD": 0, "CS": 0, "CA": 1, "VA": 0, "PUNTO": 4, "SECTOR": "SECTOR 9", "EJ1": 1 }, "geometry": { "type": "Point", "coordinates": [ -70.64831, -33.475678 ] } },
{ "type": "Feature", "properties": { "BARRIO": "FRANKLIN", "UBICACIÓN": "SAN FRANCISCO CON FRANKLIN", "SE": 0, "CME": 0, "VAD": 0, "AB": 0, "SC": 0, "DF": 0, "PME": 0, "EPME": 0, "MC": 1, "CV": 0, "AOD": 0, "CS": 0, "CA": 1, "VA": 0, "PUNTO": 5, "SECTOR": "SECTOR 9", "EJ1": 2 }, "geometry": { "type": "Point", "coordinates": [ -70.643857, -33.472977 ] } },
{ "type": "Feature", "properties": { "BARRIO": "FRANKLIN", "UBICACIÓN": "SAN FRANCISCO CON BÍO BÍO", "SE": 0, "CME": 0, "VAD": 0, "AB": 0, "SC": 0, "DF": 0, "PME": 0, "EPME": 0, "MC": 1, "CV": 0, "AOD": 0, "CS": 0, "CA": 1, "VA": 0, "PUNTO": 6, "SECTOR": "SECTOR 9", "EJ1": 2 }, "geometry": { "type": "Point", "coordinates": [ -70.643737, -33.474575 ] } },
{ "type": "Feature", "properties": { "BARRIO": "FRANKLIN", "UBICACIÓN": "SAN FRANCISCO CON PLACER", "SE": 0, "CME": 0, "VAD": 0, "AB": 0, "SC": 0, "DF": 0, "PME": 0, "EPME": 0, "MC": 0, "CV": 0, "AOD": 0, "CS": 0, "CA": 1, "VA": 0, "PUNTO": 7, "SECTOR": "SECTOR 9", "EJ1": 1 }, "geometry": { "type": "Point", "coordinates": [ -70.643666, -33.47537 ] } },
{ "type": "Feature", "properties": { "BARRIO": "FRANKLIN", "UBICACIÓN": "PLACER CON SANTA ROSA", "SE": 0, "CME": 0, "VAD": 0, "AB": 0, "SC": 0, "DF": 0, "PME": 0, "EPME": 0, "MC": 0, "CV": 0, "AOD": 0, "CS": 0, "CA": 0, "VA": 0, "PUNTO": 8, "SECTOR": "SECTOR 9", "EJ1": 0 }, "geometry": { "type": "Point", "coordinates": [ -70.642062, -33.475328 ] } },
{ "type": "Feature", "properties": { "BARRIO": "FRANKLIN", "UBICACIÓN": "FRANKLIN CON SANTA ROSA", "SE": 0, "CME": 0, "VAD": 0, "AB": 0, "SC": 0, "DF": 0, "PME": 0, "EPME": 0, "MC": 0, "CV": 0, "AOD": 0, "CS": 0, "CA": 1, "VA": 0, "PUNTO": 9, "SECTOR": "SECTOR 9", "EJ1": 1 }, "geometry": { "type": "Point", "coordinates": [ -70.64206, -33.472947 ] } },
{ "type": "Feature", "properties": { "BARRIO": "FRANKLIN", "UBICACIÓN": "BIO BIO CON SAN DIEGO", "SE": 0, "CME": 1, "VAD": 0, "AB": 0, "SC": 0, "DF": 0, "PME": 0, "EPME": 0, "MC": 0, "CV": 0, "AOD": 0, "CS": 0, "CA": 1, "VA": 0, "PUNTO": 10, "SECTOR": "SECTOR 9", "EJ1": 2 }, "geometry": { "type": "Point", "coordinates": [ -70.648341, -33.474469 ] } },
{ "type": "Feature", "properties": { "BARRIO": "HUEMUL", "UBICACIÓN": "NATANIEL COX CON PLACER", "SE": 0, "CME": 0, "VAD": 0, "AB": 0, "SC": 0, "DF": 0, "PME": 0, "EPME": 0, "MC": 0, "CV": 0, "AOD": 0, "CS": 0, "CA": 1, "VA": 0, "PUNTO": 11, "SECTOR": "SECTOR 9", "EJ1": 1 }, "geometry": { "type": "Point", "coordinates": [ -70.649279, -33.47571 ] } },
{ "type": "Feature", "properties": { "BARRIO": "HUEMUL", "UBICACIÓN": "ÑUBLE CON SAN IGNACIO", "SE": 0, "CME": 1, "VAD": 0, "AB": 0, "SC": 0, "DF": 0, "PME": 0, "EPME": 0, "MC": 1, "CV": 0, "AOD": 0, "CS": 0, "CA": 0, "VA": 0, "PUNTO": 12, "SECTOR": "SECTOR 9", "EJ1": 2 }, "geometry": { "type": "Point", "coordinates": [ -70.654603, -33.470481 ] } },
{ "type": "Feature", "properties": { "BARRIO": "HUEMUL", "UBICACIÓN": "NATANIEL COX CON FRANKLIN", "SE": 0, "CME": 0, "VAD": 0, "AB": 0, "SC": 0, "DF": 0, "PME": 0, "EPME": 0, "MC": 0, "CV": 0, "AOD": 0, "CS": 0, "CA": 0, "VA": 0, "PUNTO": 13, "SECTOR": "SECTOR 9", "EJ1": 0 }, "geometry": { "type": "Point", "coordinates": [ -70.64959, -33.473379 ] } },
{ "type": "Feature", "properties": { "BARRIO": "HUEMUL", "UBICACIÓN": "BIO BIO CON WALDO SILVA", "SE": 0, "CME": 0, "VAD": 0, "AB": 0, "SC": 0, "DF": 0, "PME": 0, "EPME": 0, "MC": 0, "CV": 0, "AOD": 0, "CS": 0, "CA": 0, "VA": 0, "PUNTO": 14, "SECTOR": "SECTOR 9", "EJ1": 0 }, "geometry": { "type": "Point", "coordinates": [ -70.651615, -33.474633 ] } },
{ "type": "Feature", "properties": { "BARRIO": "SIERRA BELLA", "UBICACIÓN": "PASAJE CATALAN CON CARMEN", "SE": 0, "CME": 0, "VAD": 0, "AB": 0, "SC": 0, "DF": 0, "PME": 0, "EPME": 0, "MC": 0, "CV": 0, "AOD": 0, "CS": 0, "CA": 0, "VA": 0, "PUNTO": 15, "SECTOR": "SECTOR 9", "EJ1": 0 }, "geometry": { "type": "Point", "coordinates": [ -70.635214, -33.473985 ] } },
{ "type": "Feature", "properties": { "BARRIO": "SIERRA BELLA", "UBICACIÓN": "DIAGONAL VICUÑA MACKENNA CON AV. VICUÑA MACKENNA", "SE": 0, "CME": 0, "VAD": 0, "AB": 0, "SC": 0, "DF": 0, "PME": 0, "EPME": 0, "MC": 0, "CV": 0, "AOD": 0, "CS": 0, "CA": 0, "VA": 0, "PUNTO": 16, "SECTOR": "SECTOR 9", "EJ1": 0 }, "geometry": { "type": "Point", "coordinates": [ -70.625754, -33.469347 ] } },
{ "type": "Feature", "properties": { "BARRIO": "SIERRA BELLA", "UBICACIÓN": "ARAUCO CON GERMAN RIESCO", "SE": 0, "CME": 0, "VAD": 0, "AB": 1, "SC": 0, "DF": 0, "PME": 0, "EPME": 0, "MC": 0, "CV": 0, "AOD": 0, "CS": 0, "CA": 1, "VA": 0, "PUNTO": 17, "SECTOR": "SECTOR 9", "EJ1": 2 }, "geometry": { "type": "Point", "coordinates": [ -70.641379, -33.471639 ] } },
{ "type": "Feature", "properties": { "BARRIO": "SIERRA BELLA", "UBICACIÓN": "PASAJE CATALAN CON SANTIAGO CONCHA", "SE": 0, "CME": 0, "VAD": 0, "AB": 0, "SC": 0, "DF": 1, "PME": 0, "EPME": 0, "MC": 0, "CV": 0, "AOD": 0, "CS": 0, "CA": 0, "VA": 0, "PUNTO": 18, "SECTOR": "SECTOR 9", "EJ1": 1 }, "geometry": { "type": "Point", "coordinates": [ -70.63627, -33.474061 ] } },
{ "type": "Feature", "properties": { "BARRIO": "SIERRA BELLA", "UBICACIÓN": "PORTUGAL CON GENERAL GANA", "SE": 0, "CME": 0, "VAD": 0, "AB": 0, "SC": 0, "DF": 0, "PME": 0, "EPME": 0, "MC": 0, "CV": 0, "AOD": 0, "CS": 0, "CA": 0, "VA": 0, "PUNTO": 19, "SECTOR": "SECTOR 9", "EJ1": 0 }, "geometry": { "type": "Point", "coordinates": [ -70.629891, -33.469041 ] } },
{ "type": "Feature", "properties": { "BARRIO": "VIEL", "UBICACIÓN": "SARGENTO ALDEA CON SAN DIEGO", "SE": 0, "CME": 0, "VAD": 0, "AB": 0, "SC": 0, "DF": 0, "PME": 0, "EPME": 0, "MC": 0, "CV": 0, "AOD": 0, "CS": 0, "CA": 1, "VA": 0, "PUNTO": 20, "SECTOR": "SECTOR 9", "EJ1": 1 }, "geometry": { "type": "Point", "coordinates": [ -70.648628, -33.468648 ] } },
{ "type": "Feature", "properties": { "BARRIO": "VIEL", "UBICACIÓN": "ZENTENO CON PEDRO LAGOS", "SE": 0, "CME": 0, "VAD": 0, "AB": 0, "SC": 0, "DF": 0, "PME": 0, "EPME": 0, "MC": 0, "CV": 0, "AOD": 0, "CS": 0, "CA": 0, "VA": 0, "PUNTO": 21, "SECTOR": "SECTOR 9", "EJ1": 0 }, "geometry": { "type": "Point", "coordinates": [ -70.649928, -33.466223 ] } },
{ "type": "Feature", "properties": { "BARRIO": "VIEL", "UBICACIÓN": "SANTIAGO CON NATANIEL COX", "SE": 0, "CME": 0, "VAD": 0, "AB": 0, "SC": 0, "DF": 0, "PME": 0, "EPME": 0, "MC": 1, "CV": 0, "AOD": 0, "CS": 0, "CA": 0, "VA": 0, "PUNTO": 22, "SECTOR": "SECTOR 9", "EJ1": 1 }, "geometry": { "type": "Point", "coordinates": [ -70.651246, -33.462535 ] } },
{ "type": "Feature", "properties": { "BARRIO": "VIEL", "UBICACIÓN": "PEDRO LAGOS CON SAN IGNACIO", "SE": 0, "CME": 0, "VAD": 0, "AB": 0, "SC": 0, "DF": 0, "PME": 0, "EPME": 0, "MC": 0, "CV": 0, "AOD": 0, "CS": 0, "CA": 0, "VA": 0, "PUNTO": 23, "SECTOR": "SECTOR 9", "EJ1": 0 }, "geometry": { "type": "Point", "coordinates": [ -70.654887, -33.466734 ] } },
{ "type": "Feature", "properties": { "BARRIO": "VIEL", "UBICACIÓN": "VICTORIA CON SAN IGNACIO", "SE": 0, "CME": 0, "VAD": 0, "AB": 0, "SC": 0, "DF": 0, "PME": 0, "EPME": 0, "MC": 0, "CV": 0, "AOD": 0, "CS": 0, "CA": 0, "VA": 0, "PUNTO": 25, "SECTOR": "SECTOR 9", "EJ1": 0 }, "geometry": { "type": "Point", "coordinates": [ -70.655091, -33.464468 ] } },
{ "type": "Feature", "properties": { "BARRIO": "BOGOTA", "UBICACIÓN": "Sta. Elvira & Sta. Elena,", "SE": 0, "CME": 0, "VAD": 1, "AB": 0, "SC": 1, "DF": 0, "PME": 0, "EPME": 0, "MC": 1, "CV": 0, "AOD": 1, "CS": 1, "CA": 0, "VA": 0, "PUNTO": 1, "SECTOR": "SECTOR 8", "EJ1": 5 }, "geometry": { "type": "Point", "coordinates": [ -70.630647, -33.458077 ] } },
{ "type": "Feature", "properties": { "BARRIO": "BOGOTA", "UBICACIÓN": "Ñuble & Avenida Vicuña Mackenna", "SE": 1, "CME": 0, "VAD": 1, "AB": 0, "SC": 0, "DF": 0, "PME": 0, "EPME": 0, "MC": 1, "CV": 1, "AOD": 1, "CS": 0, "CA": 1, "VA": 0, "PUNTO": 2, "SECTOR": "SECTOR 8", "EJ1": 6 }, "geometry": { "type": "Point", "coordinates": [ -70.626494, -33.467437 ] } },
{ "type": "Feature", "properties": { "BARRIO": "BOGOTA", "UBICACIÓN": "Santa Elena & Ñuble", "SE": 0, "CME": 1, "VAD": 1, "AB": 0, "SC": 0, "DF": 1, "PME": 0, "EPME": 0, "MC": 1, "CV": 0, "AOD": 1, "CS": 0, "CA": 0, "VA": 0, "PUNTO": 3, "SECTOR": "SECTOR 8", "EJ1": 5 }, "geometry": { "type": "Point", "coordinates": [ -70.627886, -33.467528 ] } },
{ "type": "Feature", "properties": { "BARRIO": "BOGOTA", "UBICACIÓN": "Miguel León Prado & Rogelio Ugarte", "SE": 0, "CME": 1, "VAD": 1, "AB": 1, "SC": 1, "DF": 1, "PME": 0, "EPME": 0, "MC": 1, "CV": 1, "AOD": 1, "CS": 0, "CA": 1, "VA": 0, "PUNTO": 4, "SECTOR": "SECTOR 8", "EJ1": 9 }, "geometry": { "type": "Point", "coordinates": [ -70.633433, -33.462947 ] } },
{ "type": "Feature", "properties": { "BARRIO": "BOGOTA", "UBICACIÓN": "Pedro Lagos & Santiago Concha", "SE": 0, "CME": 1, "VAD": 1, "AB": 0, "SC": 0, "DF": 1, "PME": 0, "EPME": 1, "MC": 1, "CV": 0, "AOD": 1, "CS": 0, "CA": 0, "VA": 0, "PUNTO": 5, "SECTOR": "SECTOR 8", "EJ1": 6 }, "geometry": { "type": "Point", "coordinates": [ -70.638692, -33.464758 ] } },
{ "type": "Feature", "properties": { "BARRIO": "BOGOTA", "UBICACIÓN": "Ñuble & Avenida Santa Rosa", "SE": 0, "CME": 0, "VAD": 1, "AB": 0, "SC": 0, "DF": 1, "PME": 0, "EPME": 0, "MC": 1, "CV": 0, "AOD": 1, "CS": 0, "CA": 1, "VA": 0, "PUNTO": 6, "SECTOR": "SECTOR 8", "EJ1": 5 }, "geometry": { "type": "Point", "coordinates": [ -70.642289, -33.46912 ] } },
{ "type": "Feature", "properties": { "BARRIO": "BOGOTA", "UBICACIÓN": "Maule & Avenida Santa Rosa", "SE": 0, "CME": 0, "VAD": 1, "AB": 0, "SC": 0, "DF": 1, "PME": 0, "EPME": 0, "MC": 1, "CV": 0, "AOD": 1, "CS": 0, "CA": 1, "VA": 0, "PUNTO": 7, "SECTOR": "SECTOR 8", "EJ1": 5 }, "geometry": { "type": "Point", "coordinates": [ -70.642406, -33.466656 ] } },
{ "type": "Feature", "properties": { "BARRIO": "MATTA SUR", "UBICACIÓN": "Juan Vicuña & Victoria", "SE": 0, "CME": 0, "VAD": 1, "AB": 0, "SC": 0, "DF": 1, "PME": 0, "EPME": 0, "MC": 1, "CV": 0, "AOD": 1, "CS": 0, "CA": 0, "VA": 0, "PUNTO": 8, "SECTOR": "SECTOR 8", "EJ1": 4 }, "geometry": { "type": "Point", "coordinates": [ -70.643753, -33.463194 ] } },
{ "type": "Feature", "properties": { "BARRIO": "MATTA SUR", "UBICACIÓN": "San Francisco & Victoria,", "SE": 0, "CME": 0, "VAD": 1, "AB": 0, "SC": 0, "DF": 1, "PME": 0, "EPME": 0, "MC": 1, "CV": 1, "AOD": 1, "CS": 0, "CA": 0, "VA": 0, "PUNTO": 9, "SECTOR": "SECTOR 8", "EJ1": 5 }, "geometry": { "type": "Point", "coordinates": [ -70.644698, -33.463316 ] } },
{ "type": "Feature", "properties": { "BARRIO": "MATTA SUR", "UBICACIÓN": "Santiaguillo & Arturo Prat", "SE": 0, "CME": 1, "VAD": 1, "AB": 0, "SC": 1, "DF": 1, "PME": 0, "EPME": 0, "MC": 1, "CV": 0, "AOD": 1, "CS": 0, "CA": 0, "VA": 0, "PUNTO": 10, "SECTOR": "SECTOR 8", "EJ1": 6 }, "geometry": { "type": "Point", "coordinates": [ -70.647169, -33.461032 ] } },
{ "type": "Feature", "properties": { "BARRIO": "MATTA SUR", "UBICACIÓN": "Víctor Manuel & Galvarino,", "SE": 0, "CME": 1, "VAD": 1, "AB": 1, "SC": 1, "DF": 1, "PME": 0, "EPME": 1, "MC": 1, "CV": 0, "AOD": 1, "CS": 1, "CA": 0, "VA": 1, "PUNTO": 11, "SECTOR": "SECTOR 8", "EJ1": 10 }, "geometry": { "type": "Point", "coordinates": [ -70.641856, -33.459248 ] } },
{ "type": "Feature", "properties": { "BARRIO": "MATTA SUR", "UBICACIÓN": "Santiago Concha & Galvarino", "SE": 0, "CME": 1, "VAD": 0, "AB": 1, "SC": 1, "DF": 1, "PME": 0, "EPME": 0, "MC": 1, "CV": 0, "AOD": 1, "CS": 1, "CA": 0, "VA": 0, "PUNTO": 12, "SECTOR": "SECTOR 8", "EJ1": 7 }, "geometry": { "type": "Point", "coordinates": [ -70.640208, -33.4589 ] } },
{ "type": "Feature", "properties": { "BARRIO": "MATTA SUR", "UBICACIÓN": "Ventura Lavalle & Carmen", "SE": 0, "CME": 0, "VAD": 1, "AB": 0, "SC": 1, "DF": 1, "PME": 0, "EPME": 1, "MC": 1, "CV": 0, "AOD": 1, "CS": 1, "CA": 0, "VA": 0, "PUNTO": 13, "SECTOR": "SECTOR 8", "EJ1": 7 }, "geometry": { "type": "Point", "coordinates": [ -70.639138, -33.459099 ] } },
{ "type": "Feature", "properties": { "BARRIO": "SANTA ELENA", "UBICACIÓN": "Santa Elvira & Carmen", "SE": 0, "CME": 0, "VAD": 1, "AB": 0, "SC": 0, "DF": 1, "PME": 0, "EPME": 0, "MC": 1, "CV": 1, "AOD": 1, "CS": 0, "CA": 1, "VA": 0, "PUNTO": 14, "SECTOR": "SECTOR 8", "EJ1": 6 }, "geometry": { "type": "Point", "coordinates": [ -70.638741, -33.460658 ] } },
{ "type": "Feature", "properties": { "BARRIO": "SANTA ELENA", "UBICACIÓN": "Avenida Manuel Antonio Matta & Rogelio Ugarte,", "SE": 1, "CME": 1, "VAD": 0, "AB": 1, "SC": 1, "DF": 1, "PME": 0, "EPME": 0, "MC": 1, "CV": 0, "AOD": 1, "CS": 1, "CA": 0, "VA": 1, "PUNTO": 15, "SECTOR": "SECTOR 8", "EJ1": 9 }, "geometry": { "type": "Point", "coordinates": [ -70.635207, -33.456716 ] } }
]
}
