{"type":"FeatureCollection","name":"SOC_PTO_MUSEOS_2024","features":[{"type":"Feature","properties":{"Join_Count":1,"TARGET_FID":1,"Id":1,"Nombre":"Museo de química y farmacia Profesor César Leyto","Dirección":"Merced 50","OBJECTID_1":1,"UNIDAD":1.0,"BARRIO":"SANTA LUCIA FORESTAL","AGRP":"AV1","SUP_KM":0.737406,"Shape_Leng":3888.47853075,"Shape_Area":737401.562473,"RSH_Total":6542.0},"geometry":{"type":"Point","coordinates":[-70.636064,-33.436993]}},{"type":"Feature","properties":{"Join_Count":1,"TARGET_FID":2,"Id":2,"Nombre":"Museo Violeta Parra","Dirección":"Vicuña Mackenna 37","OBJECTID_1":2,"UNIDAD":8.0,"BARRIO":"SAN BORJA","AGRP":"AV7","SUP_KM":0.658834,"Shape_Leng":3937.52690617,"Shape_Area":658829.68135,"RSH_Total":13319.0},"geometry":{"type":"Point","coordinates":[-70.635143,-33.438607]}},{"type":"Feature","properties":{"Join_Count":0,"TARGET_FID":3,"Id":3,"Nombre":"Museo Benjamin Vicuña Mackenna","Dirección":"Vicuña Mackenna 94","OBJECTID_1":3,"UNIDAD":0.0,"BARRIO":"SAN BORJA","AGRP":null,"SUP_KM":0.0,"Shape_Leng":0.0,"Shape_Area":0.0,"RSH_Total":0.0},"geometry":{"type":"Point","coordinates":[-70.634378,-33.44133]}},{"type":"Feature","properties":{"Join_Count":1,"TARGET_FID":4,"Id":4,"Nombre":"Museo Arte Popular Americano (GAM)","Dirección":"Alameda 227","OBJECTID_1":4,"UNIDAD":1.0,"BARRIO":"SANTA LUCIA FORESTAL","AGRP":"AV1","SUP_KM":0.737406,"Shape_Leng":3888.47853075,"Shape_Area":737401.562473,"RSH_Total":6542.0},"geometry":{"type":"Point","coordinates":[-70.639584,-33.439077]}},{"type":"Feature","properties":{"Join_Count":1,"TARGET_FID":5,"Id":5,"Nombre":"Museo Artes Visuales","Dirección":"José Victorino Lastarria","OBJECTID_1":5,"UNIDAD":1.0,"BARRIO":"SANTA LUCIA FORESTAL","AGRP":"AV1","SUP_KM":0.737406,"Shape_Leng":3888.47853075,"Shape_Area":737401.562473,"RSH_Total":6542.0},"geometry":{"type":"Point","coordinates":[-70.640893,-33.437389]}},{"type":"Feature","properties":{"Join_Count":1,"TARGET_FID":6,"Id":6,"Nombre":"Museo Nacional de Bellas Artes","Dirección":"Jose Miguel de La barra 650","OBJECTID_1":6,"UNIDAD":1.0,"BARRIO":"SANTA LUCIA FORESTAL","AGRP":"AV1","SUP_KM":0.737406,"Shape_Leng":3888.47853075,"Shape_Area":737401.562473,"RSH_Total":6542.0},"geometry":{"type":"Point","coordinates":[-70.643586,-33.43535]}},{"type":"Feature","properties":{"Join_Count":1,"TARGET_FID":7,"Id":7,"Nombre":"Museo de Arte Contemporaneo-Parque Forestal","Dirección":"Ismael Valdés Vergara 506","OBJECTID_1":7,"UNIDAD":1.0,"BARRIO":"SANTA LUCIA FORESTAL","AGRP":"AV1","SUP_KM":0.737406,"Shape_Leng":3888.47853075,"Shape_Area":737401.562473,"RSH_Total":6542.0},"geometry":{"type":"Point","coordinates":[-70.644249,-33.435194]}},{"type":"Feature","properties":{"Join_Count":1,"TARGET_FID":8,"Id":8,"Nombre":"Museo de Bomberos Santiago","Dirección":"Santo Domingo 978","OBJECTID_1":8,"UNIDAD":2.0,"BARRIO":"CENTRO HISTORICO","AGRP":"AV1","SUP_KM":1.204548,"Shape_Leng":4579.43132775,"Shape_Area":1204540.55342,"RSH_Total":18044.0},"geometry":{"type":"Point","coordinates":[-70.651157,-33.436263]}},{"type":"Feature","properties":{"Join_Count":1,"TARGET_FID":9,"Id":9,"Nombre":"Museo La Merced","Dirección":"Enrique Mac Iver 341","OBJECTID_1":9,"UNIDAD":1.0,"BARRIO":"SANTA LUCIA FORESTAL","AGRP":"AV1","SUP_KM":0.737406,"Shape_Leng":3888.47853075,"Shape_Area":737401.562473,"RSH_Total":6542.0},"geometry":{"type":"Point","coordinates":[-70.646887,-33.438456]}},{"type":"Feature","properties":{"Join_Count":1,"TARGET_FID":10,"Id":10,"Nombre":"Museo de Peluquería","Dirección":"Huerfanos 786 of 115","OBJECTID_1":10,"UNIDAD":2.0,"BARRIO":"CENTRO HISTORICO","AGRP":"AV1","SUP_KM":1.204548,"Shape_Leng":4579.43132775,"Shape_Area":1204540.55342,"RSH_Total":18044.0},"geometry":{"type":"Point","coordinates":[-70.647828,-33.43946]}},{"type":"Feature","properties":{"Join_Count":1,"TARGET_FID":11,"Id":11,"Nombre":"Museo de Santiago Casa Colorada","Dirección":"Merced 860","OBJECTID_1":11,"UNIDAD":2.0,"BARRIO":"CENTRO HISTORICO","AGRP":"AV1","SUP_KM":1.204548,"Shape_Leng":4579.43132775,"Shape_Area":1204540.55342,"RSH_Total":18044.0},"geometry":{"type":"Point","coordinates":[-70.649449,-33.438493]}},{"type":"Feature","properties":{"Join_Count":1,"TARGET_FID":12,"Id":12,"Nombre":"Museo Histórico Nacional","Dirección":"Plaa de armas 951","OBJECTID_1":12,"UNIDAD":2.0,"BARRIO":"CENTRO HISTORICO","AGRP":"AV1","SUP_KM":1.204548,"Shape_Leng":4579.43132775,"Shape_Area":1204540.55342,"RSH_Total":18044.0},"geometry":{"type":"Point","coordinates":[-70.650687,-33.437178]}},{"type":"Feature","properties":{"Join_Count":1,"TARGET_FID":13,"Id":13,"Nombre":"Museo chileno de Arte Precolombino","Dirección":"Bandera 361","OBJECTID_1":13,"UNIDAD":2.0,"BARRIO":"CENTRO HISTORICO","AGRP":"AV1","SUP_KM":1.204548,"Shape_Leng":4579.43132775,"Shape_Area":1204540.55342,"RSH_Total":18044.0},"geometry":{"type":"Point","coordinates":[-70.652247,-33.439007]}},{"type":"Feature","properties":{"Join_Count":1,"TARGET_FID":14,"Id":14,"Nombre":"Museo del Circo Nacional","Dirección":"Presidente Balmaceda 1301","OBJECTID_1":14,"UNIDAD":2.0,"BARRIO":"CENTRO HISTORICO","AGRP":"AV1","SUP_KM":1.204548,"Shape_Leng":4579.43132775,"Shape_Area":1204540.55342,"RSH_Total":18044.0},"geometry":{"type":"Point","coordinates":[-70.656168,-33.432036]}},{"type":"Feature","properties":{"Join_Count":1,"TARGET_FID":15,"Id":15,"Nombre":"Museo del Ahorro banco Estado","Dirección":"Morande 25","OBJECTID_1":15,"UNIDAD":2.0,"BARRIO":"CENTRO HISTORICO","AGRP":"AV1","SUP_KM":1.204548,"Shape_Leng":4579.43132775,"Shape_Area":1204540.55342,"RSH_Total":18044.0},"geometry":{"type":"Point","coordinates":[-70.652981,-33.443286]}},{"type":"Feature","properties":{"Join_Count":1,"TARGET_FID":16,"Id":16,"Nombre":"Galeria Gabrela Mistral","Dirección":"Alameda 1381","OBJECTID_1":16,"UNIDAD":2.0,"BARRIO":"CENTRO HISTORICO","AGRP":"AV1","SUP_KM":1.204548,"Shape_Leng":4579.43132775,"Shape_Area":1204540.55342,"RSH_Total":18044.0},"geometry":{"type":"Point","coordinates":[-70.655429,-33.444357]}},{"type":"Feature","properties":{"Join_Count":1,"TARGET_FID":17,"Id":17,"Nombre":"Museo Fundación Guerra del Pacifico","Dirección":"Cienfuegos 50","OBJECTID_1":17,"UNIDAD":5.0,"BARRIO":"BRASIL","AGRP":"AV2","SUP_KM":0.748504,"Shape_Leng":3546.51000657,"Shape_Area":748499.151709,"RSH_Total":11083.0},"geometry":{"type":"Point","coordinates":[-70.663053,-33.44495]}},{"type":"Feature","properties":{"Join_Count":1,"TARGET_FID":18,"Id":18,"Nombre":"Museo Marista de Chile","Dirección":"General Baquedano 674","OBJECTID_1":18,"UNIDAD":4.0,"BARRIO":"PANAMA","AGRP":"AV2","SUP_KM":0.798583,"Shape_Leng":3683.83224645,"Shape_Area":798577.546151,"RSH_Total":12573.0},"geometry":{"type":"Point","coordinates":[-70.666271,-33.43694]}},{"type":"Feature","properties":{"Join_Count":1,"TARGET_FID":19,"Id":19,"Nombre":"Museo de la Memoria y los Derechos Humanos","Dirección":"Matucana 501","OBJECTID_1":19,"UNIDAD":7.0,"BARRIO":"YUNGAY","AGRP":"AV3","SUP_KM":2.727776,"Shape_Leng":8932.41139927,"Shape_Area":2727758.46614,"RSH_Total":32141.0},"geometry":{"type":"Point","coordinates":[-70.679392,-33.439839]}},{"type":"Feature","properties":{"Join_Count":1,"TARGET_FID":20,"Id":20,"Nombre":"Museo de la Educación Gabriela Mistral","Dirección":"Chacabuco 365","OBJECTID_1":20,"UNIDAD":7.0,"BARRIO":"YUNGAY","AGRP":"AV3","SUP_KM":2.727776,"Shape_Leng":8932.41139927,"Shape_Area":2727758.46614,"RSH_Total":32141.0},"geometry":{"type":"Point","coordinates":[-70.678491,-33.441546]}},{"type":"Feature","properties":{"Join_Count":1,"TARGET_FID":21,"Id":21,"Nombre":"MAC Quinta Normal","Dirección":"Matucana 464","OBJECTID_1":21,"UNIDAD":7.0,"BARRIO":"YUNGAY","AGRP":"AV3","SUP_KM":2.727776,"Shape_Leng":8932.41139927,"Shape_Area":2727758.46614,"RSH_Total":32141.0},"geometry":{"type":"Point","coordinates":[-70.679377,-33.44202]}},{"type":"Feature","properties":{"Join_Count":1,"TARGET_FID":22,"Id":22,"Nombre":"Museo Nacional de Historia Natural","Dirección":"Interior Parque QN","OBJECTID_1":22,"UNIDAD":7.0,"BARRIO":"YUNGAY","AGRP":"AV3","SUP_KM":2.727776,"Shape_Leng":8932.41139927,"Shape_Area":2727758.46614,"RSH_Total":32141.0},"geometry":{"type":"Point","coordinates":[-70.681699,-33.441998]}},{"type":"Feature","properties":{"Join_Count":0,"TARGET_FID":23,"Id":23,"Nombre":"Museo Artequin","Dirección":"Avda. Portales 3530 (Est-Central)","OBJECTID_1":23,"UNIDAD":0.0,"BARRIO":"YUNGAY","AGRP":null,"SUP_KM":0.0,"Shape_Leng":0.0,"Shape_Area":0.0,"RSH_Total":0.0},"geometry":{"type":"Point","coordinates":[-70.684087,-33.444066]}},{"type":"Feature","properties":{"Join_Count":1,"TARGET_FID":24,"Id":24,"Nombre":"Parque Museo Ferroviario","Dirección":"Interior Parque QN","OBJECTID_1":24,"UNIDAD":7.0,"BARRIO":"YUNGAY","AGRP":"AV3","SUP_KM":2.727776,"Shape_Leng":8932.41139927,"Shape_Area":2727758.46614,"RSH_Total":32141.0},"geometry":{"type":"Point","coordinates":[-70.685339,-33.443635]}},{"type":"Feature","properties":{"Join_Count":1,"TARGET_FID":25,"Id":25,"Nombre":"Museo del Sonido","Dirección":"Huerfanos 2919","OBJECTID_1":25,"UNIDAD":7.0,"BARRIO":"YUNGAY","AGRP":"AV3","SUP_KM":2.727776,"Shape_Leng":8932.41139927,"Shape_Area":2727758.46614,"RSH_Total":32141.0},"geometry":{"type":"Point","coordinates":[-70.675631,-33.441885]}},{"type":"Feature","properties":{"Join_Count":1,"TARGET_FID":26,"Id":26,"Nombre":"Museo Taller","Dirección":"Compañia de Jesús 2784","OBJECTID_1":26,"UNIDAD":7.0,"BARRIO":"YUNGAY","AGRP":"AV3","SUP_KM":2.727776,"Shape_Leng":8932.41139927,"Shape_Area":2727758.46614,"RSH_Total":32141.0},"geometry":{"type":"Point","coordinates":[-70.674009,-33.440484]}},{"type":"Feature","properties":{"Join_Count":1,"TARGET_FID":27,"Id":27,"Nombre":"Museo de la Solidaridad Salvador Allende","Dirección":"República 475","OBJECTID_1":27,"UNIDAD":14.0,"BARRIO":"REPUBLICA","AGRP":"AV9","SUP_KM":0.820113,"Shape_Leng":4065.25595256,"Shape_Area":820107.528073,"RSH_Total":11576.0},"geometry":{"type":"Point","coordinates":[-70.667397,-33.454195]}},{"type":"Feature","properties":{"Join_Count":1,"TARGET_FID":28,"Id":28,"Nombre":"Fundación Salvador Allende","Dirección":"República 475","OBJECTID_1":28,"UNIDAD":14.0,"BARRIO":"REPUBLICA","AGRP":"AV9","SUP_KM":0.820113,"Shape_Leng":4065.25595256,"Shape_Area":820107.528073,"RSH_Total":11576.0},"geometry":{"type":"Point","coordinates":[-70.667712,-33.454117]}},{"type":"Feature","properties":{"Join_Count":1,"TARGET_FID":29,"Id":29,"Nombre":"Museo de la Música Chilena Sinamuarchi","Dirección":"Jose Miguel Carrera 311","OBJECTID_1":29,"UNIDAD":13.0,"BARRIO":"EJERCITO","AGRP":"AV8","SUP_KM":0.707824,"Shape_Leng":3770.08981249,"Shape_Area":707819.010554,"RSH_Total":10861.0},"geometry":{"type":"Point","coordinates":[-70.663363,-33.451108]}},{"type":"Feature","properties":{"Join_Count":1,"TARGET_FID":30,"Id":30,"Nombre":"Museo de la Publicidad y la Propaganda","Dirección":"Vergara 240","OBJECTID_1":30,"UNIDAD":13.0,"BARRIO":"EJERCITO","AGRP":"AV8","SUP_KM":0.707824,"Shape_Leng":3770.08981249,"Shape_Area":707819.010554,"RSH_Total":10861.0},"geometry":{"type":"Point","coordinates":[-70.661815,-33.450215]}},{"type":"Feature","properties":{"Join_Count":1,"TARGET_FID":31,"Id":31,"Nombre":"Sala Museo Centro Nacional de la Fotografía","Dirección":"Vergara 324","OBJECTID_1":31,"UNIDAD":13.0,"BARRIO":"EJERCITO","AGRP":"AV8","SUP_KM":0.707824,"Shape_Leng":3770.08981249,"Shape_Area":707819.010554,"RSH_Total":10861.0},"geometry":{"type":"Point","coordinates":[-70.660711,-33.449967]}},{"type":"Feature","properties":{"Join_Count":1,"TARGET_FID":32,"Id":32,"Nombre":"Palacio Cousiño","Dirección":"Dieciocho 438","OBJECTID_1":32,"UNIDAD":11.0,"BARRIO":"PARQUE ALMAGRO","AGRP":"AV8","SUP_KM":1.284634,"Shape_Leng":4871.32698351,"Shape_Area":1284625.25653,"RSH_Total":34913.0},"geometry":{"type":"Point","coordinates":[-70.656733,-33.452236]}},{"type":"Feature","properties":{"Join_Count":1,"TARGET_FID":33,"Id":33,"Nombre":"Museo Histórico y Militar de Chile","Dirección":"Av. Almirante Blanco Encalada 1550","OBJECTID_1":33,"UNIDAD":12.0,"BARRIO":"MATTA NORTE","AGRP":"AV8","SUP_KM":1.00065,"Shape_Leng":4717.45683619,"Shape_Area":1000643.8321,"RSH_Total":22894.0},"geometry":{"type":"Point","coordinates":[-70.656236,-33.456631]}},{"type":"Feature","properties":{"Join_Count":1,"TARGET_FID":34,"Id":34,"Nombre":"Museo Patrimonial de Salud del Hospital San Borja","Dirección":"Santa Elvira 637","OBJECTID_1":34,"UNIDAD":21.0,"BARRIO":"MATTA SUR","AGRP":"AV10","SUP_KM":0.834843,"Shape_Leng":4164.22221642,"Shape_Area":834837.713754,"RSH_Total":11940.0},"geometry":{"type":"Point","coordinates":[-70.64115,-33.461669]}},{"type":"Feature","properties":{"Join_Count":1,"TARGET_FID":35,"Id":35,"Nombre":"Museo comunitario del Barrio Matta Sur","Dirección":"Madrid 1648","OBJECTID_1":35,"UNIDAD":22.0,"BARRIO":"BOGOTA","AGRP":"AV10","SUP_KM":1.129736,"Shape_Leng":4717.30974561,"Shape_Area":1129728.38651,"RSH_Total":12997.0},"geometry":{"type":"Point","coordinates":[-70.633808,-33.466745]}},{"type":"Feature","properties":{"Join_Count":1,"TARGET_FID":36,"Id":36,"Nombre":"Museo Masónico","Dirección":"Marcoleta 659","OBJECTID_1":36,"UNIDAD":8.0,"BARRIO":"SAN BORJA","AGRP":"AV7","SUP_KM":0.658834,"Shape_Leng":3937.52690617,"Shape_Area":658829.68135,"RSH_Total":13319.0},"geometry":{"type":"Point","coordinates":[-70.645351,-33.44376]}},{"type":"Feature","properties":{"Join_Count":1,"TARGET_FID":37,"Id":37,"Nombre":"Longres 38 Espacio de Memorias","Dirección":"Londres 40ex 38","OBJECTID_1":37,"UNIDAD":11.0,"BARRIO":"PARQUE ALMAGRO","AGRP":"AV8","SUP_KM":1.284634,"Shape_Leng":4871.32698351,"Shape_Area":1284625.25653,"RSH_Total":34913.0},"geometry":{"type":"Point","coordinates":[-70.648021,-33.444234]}},{"type":"Feature","properties":{"Join_Count":1,"TARGET_FID":38,"Id":38,"Nombre":"Museo de Arte colonial San Francisco","Dirección":"Alameda Lib. Bernardo Ohiggins 834","OBJECTID_1":38,"UNIDAD":11.0,"BARRIO":"PARQUE ALMAGRO","AGRP":"AV8","SUP_KM":1.284634,"Shape_Leng":4871.32698351,"Shape_Area":1284625.25653,"RSH_Total":34913.0},"geometry":{"type":"Point","coordinates":[-70.647872,-33.443591]}},{"type":"Feature","properties":{"Join_Count":1,"TARGET_FID":39,"Id":39,"Nombre":"Sala Museo Gabriela Mistral","Dirección":"Av. lib. Bernardo Ohiggins 1058","OBJECTID_1":39,"UNIDAD":11.0,"BARRIO":"PARQUE ALMAGRO","AGRP":"AV8","SUP_KM":1.284634,"Shape_Leng":4871.32698351,"Shape_Area":1284625.25653,"RSH_Total":34913.0},"geometry":{"type":"Point","coordinates":[-70.650787,-33.44434]}},{"type":"Feature","properties":{"Join_Count":1,"TARGET_FID":40,"Id":40,"Nombre":"Museo de Ciencia y Tecnología","Dirección":"Interior Parque QN","OBJECTID_1":40,"UNIDAD":7.0,"BARRIO":"YUNGAY","AGRP":"AV3","SUP_KM":2.727776,"Shape_Leng":8932.41139927,"Shape_Area":2727758.46614,"RSH_Total":32141.0},"geometry":{"type":"Point","coordinates":[-70.683611,-33.439985]}}]}