{
"type": "FeatureCollection",
"name": "SOC_PTO_CINE_TEATRO_2024",
"features": [
{ "type": "Feature", "properties": { "Join_Count": 1, "TARGET_FID": 1, "nombre": "Cine El Biógrafo", "Comentario": "Mincap-OPC", "Tipo": "Cine", "Jerarquía": 1, "Propiedad": null, "OBJECTID_1": 1, "UNIDAD": 1.0, "BARRIO": "SANTA LUCIA FORESTAL", "AGRP": "AV1", "SUP_KM": 0.737406, "Shape_Leng": 3888.4785307500001, "Shape_Area": 737401.56247300003, "RSH_Total": 6542.0 }, "geometry": { "type": "Point", "coordinates": [ -70.640918, -33.438393, 0.0 ] } },
{ "type": "Feature", "properties": { "Join_Count": 1, "TARGET_FID": 2, "nombre": "Cine Hoyts San Agustín", "Comentario": "Mincap-OPC", "Tipo": "Cine", "Jerarquía": 1, "Propiedad": null, "OBJECTID_1": 2, "UNIDAD": 2.0, "BARRIO": "CENTRO HISTORICO", "AGRP": "AV1", "SUP_KM": 1.204548, "Shape_Leng": 4579.4313277499996, "Shape_Area": 1204540.55342, "RSH_Total": 18044.0 }, "geometry": { "type": "Point", "coordinates": [ -70.6485, -33.4413, 0.0 ] } },
{ "type": "Feature", "properties": { "Join_Count": 1, "TARGET_FID": 3, "nombre": "Cine y teatro Normandie", "Comentario": "Mincap-OPC", "Tipo": "Cine", "Jerarquía": 1, "Propiedad": null, "OBJECTID_1": 3, "UNIDAD": 11.0, "BARRIO": "PARQUE ALMAGRO", "AGRP": "AV8", "SUP_KM": 1.284634, "Shape_Leng": 4871.32698351, "Shape_Area": 1284625.2565299999, "RSH_Total": 34913.0 }, "geometry": { "type": "Point", "coordinates": [ -70.651914, -33.447488, 0.0 ] } },
{ "type": "Feature", "properties": { "Join_Count": 1, "TARGET_FID": 4, "nombre": "Teatro Camilo Henríquez", "Comentario": "Mincap-OPC", "Tipo": "Teatro", "Jerarquía": 1, "Propiedad": null, "OBJECTID_1": 4, "UNIDAD": 2.0, "BARRIO": "CENTRO HISTORICO", "AGRP": "AV1", "SUP_KM": 1.204548, "Shape_Leng": 4579.4313277499996, "Shape_Area": 1204540.55342, "RSH_Total": 18044.0 }, "geometry": { "type": "Point", "coordinates": [ -70.655636, -33.443949, 0.0 ] } },
{ "type": "Feature", "properties": { "Join_Count": 1, "TARGET_FID": 5, "nombre": "Teatro Cariola", "Comentario": "Mincap-OPC", "Tipo": "Museo", "Jerarquía": 0, "Propiedad": null, "OBJECTID_1": 5, "UNIDAD": 11.0, "BARRIO": "PARQUE ALMAGRO", "AGRP": "AV8", "SUP_KM": 1.284634, "Shape_Leng": 4871.32698351, "Shape_Area": 1284625.2565299999, "RSH_Total": 34913.0 }, "geometry": { "type": "Point", "coordinates": [ -70.650818, -33.448262, 0.0 ] } },
{ "type": "Feature", "properties": { "Join_Count": 1, "TARGET_FID": 6, "nombre": "Teatro Caupolicán", "Comentario": "Mincap-OPC", "Tipo": "Museo", "Jerarquía": 0, "Propiedad": null, "OBJECTID_1": 6, "UNIDAD": 12.0, "BARRIO": "MATTA NORTE", "AGRP": "AV8", "SUP_KM": 1.00065, "Shape_Leng": 4717.4568361900001, "Shape_Area": 1000643.8321, "RSH_Total": 22894.0 }, "geometry": { "type": "Point", "coordinates": [ -70.649572, -33.456299, 0.0 ] } },
{ "type": "Feature", "properties": { "Join_Count": 1, "TARGET_FID": 7, "nombre": "Teatro de bolsillo", "Comentario": "Mincap-OPC", "Tipo": "Museo", "Jerarquía": 2, "Propiedad": null, "OBJECTID_1": 7, "UNIDAD": 5.0, "BARRIO": "BRASIL", "AGRP": "AV2", "SUP_KM": 0.748504, "Shape_Leng": 3546.5100065699999, "Shape_Area": 748499.151709, "RSH_Total": 11083.0 }, "geometry": { "type": "Point", "coordinates": [ -70.665943, -33.444835, 0.0 ] } },
{ "type": "Feature", "properties": { "Join_Count": 1, "TARGET_FID": 8, "nombre": "Teatro del Puente", "Comentario": "reubicados NM", "Tipo": "Museo", "Jerarquía": 2, "Propiedad": null, "OBJECTID_1": 8, "UNIDAD": 1.0, "BARRIO": "SANTA LUCIA FORESTAL", "AGRP": "AV1", "SUP_KM": 0.737406, "Shape_Leng": 3888.4785307500001, "Shape_Area": 737401.56247300003, "RSH_Total": 6542.0 }, "geometry": { "type": "Point", "coordinates": [ -70.6368, -33.435651, 0.0 ] } },
{ "type": "Feature", "properties": { "Join_Count": 1, "TARGET_FID": 9, "nombre": "Teatro Duoc UC", "Comentario": "Mincap-OPC", "Tipo": "Museo", "Jerarquía": 2, "Propiedad": null, "OBJECTID_1": 9, "UNIDAD": 1.0, "BARRIO": "SANTA LUCIA FORESTAL", "AGRP": "AV1", "SUP_KM": 0.737406, "Shape_Leng": 3888.4785307500001, "Shape_Area": 737401.56247300003, "RSH_Total": 6542.0 }, "geometry": { "type": "Point", "coordinates": [ -70.64136, -33.439265, 0.0 ] } },
{ "type": "Feature", "properties": { "Join_Count": 1, "TARGET_FID": 10, "nombre": "Teatro Huemul", "Comentario": "Mincap-OPC", "Tipo": "Museo", "Jerarquía": 2, "Propiedad": null, "OBJECTID_1": 10, "UNIDAD": 25.0, "BARRIO": "HUEMUL", "AGRP": "AV10", "SUP_KM": 0.453905, "Shape_Leng": 2885.31698719, "Shape_Area": 453902.12160399999, "RSH_Total": 4686.0 }, "geometry": { "type": "Point", "coordinates": [ -70.650744, -33.474084, 0.0 ] } },
{ "type": "Feature", "properties": { "Join_Count": 1, "TARGET_FID": 11, "nombre": "Teatro La Cúpula", "Comentario": "reubicados NM", "Tipo": "Museo", "Jerarquía": 1, "Propiedad": "Municipio", "OBJECTID_1": 11, "UNIDAD": 0.0, "BARRIO": "PARQUE O´HIGGINS", "AGRP": "AV10", "SUP_KM": 0.860184, "Shape_Leng": 3974.9904558100002, "Shape_Area": 860178.23209900002, "RSH_Total": 0.0 }, "geometry": { "type": "Point", "coordinates": [ -70.658513, -33.466334, 0.0 ] } },
{ "type": "Feature", "properties": { "Join_Count": 1, "TARGET_FID": 12, "nombre": "Teatro Municipal de Santiago", "Comentario": "Mincap-OPC", "Tipo": "Museo", "Jerarquía": 0, "Propiedad": "Municipio", "OBJECTID_1": 12, "UNIDAD": 2.0, "BARRIO": "CENTRO HISTORICO", "AGRP": "AV1", "SUP_KM": 1.204548, "Shape_Leng": 4579.4313277499996, "Shape_Area": 1204540.55342, "RSH_Total": 18044.0 }, "geometry": { "type": "Point", "coordinates": [ -70.647485, -33.441068, 0.0 ] } },
{ "type": "Feature", "properties": { "Join_Count": 1, "TARGET_FID": 13, "nombre": "Teatro Popular Ictus", "Comentario": "Mincap-OPC", "Tipo": "Museo", "Jerarquía": 2, "Propiedad": null, "OBJECTID_1": 13, "UNIDAD": 1.0, "BARRIO": "SANTA LUCIA FORESTAL", "AGRP": "AV1", "SUP_KM": 0.737406, "Shape_Leng": 3888.4785307500001, "Shape_Area": 737401.56247300003, "RSH_Total": 6542.0 }, "geometry": { "type": "Point", "coordinates": [ -70.642243, -33.437259, 0.0 ] } },
{ "type": "Feature", "properties": { "Join_Count": 1, "TARGET_FID": 14, "nombre": "Teatro Teletón", "Comentario": "reubicados NM", "Tipo": "Museo", "Jerarquía": 1, "Propiedad": null, "OBJECTID_1": 14, "UNIDAD": 3.0, "BARRIO": "SANTA ANA", "AGRP": "AV2", "SUP_KM": 0.555207, "Shape_Leng": 4226.8466856599998, "Shape_Area": 555202.96694800002, "RSH_Total": 19055.0 }, "geometry": { "type": "Point", "coordinates": [ -70.659019, -33.435726, 0.0 ] } },
{ "type": "Feature", "properties": { "Join_Count": 1, "TARGET_FID": 15, "nombre": "Teatro Coliseo", "Comentario": "Mincap-OPC", "Tipo": "Museo", "Jerarquía": 0, "Propiedad": null, "OBJECTID_1": 15, "UNIDAD": 11.0, "BARRIO": "PARQUE ALMAGRO", "AGRP": "AV8", "SUP_KM": 1.284634, "Shape_Leng": 4871.32698351, "Shape_Area": 1284625.2565299999, "RSH_Total": 34913.0 }, "geometry": { "type": "Point", "coordinates": [ -70.654066, -33.445845, 0.0 ] } },
{ "type": "Feature", "properties": { "Join_Count": 1, "TARGET_FID": 16, "nombre": "Anfiteatro", "Comentario": "Mincap-OPC", "Tipo": "Teatro", "Jerarquía": 2, "Propiedad": null, "OBJECTID_1": 16, "UNIDAD": 1.0, "BARRIO": "SANTA LUCIA FORESTAL", "AGRP": "AV1", "SUP_KM": 0.737406, "Shape_Leng": 3888.4785307500001, "Shape_Area": 737401.56247300003, "RSH_Total": 6542.0 }, "geometry": { "type": "Point", "coordinates": [ -70.643802, -33.435093, 0.0 ] } }
]
}
