{
"type": "FeatureCollection",
"name": "SOC_POL_RSH_40_2024",
"features": [
{ "type": "Feature", "properties": { "UNIDAD": 7.0, "BARRIO": "YUNGAY", "AGRP": "AV3", "UNIDAD_1": 7.0, "PERSONAS": 40837.0, "HOMBRES": 0.0, "MUJERES": 0.0, "DE_0_A_5_A": 2242.0, "DE_6_A_14_": 3375.0, "DE_15_A_64": 31679.0, "DE_65_MAS_": 3541.0, "INMIGRANTE": 11817.0, "PUEBLOS_OR": 3295.0, "RSH_Total": 32141.0, "Factor": 12.27, "RSH40_": 16267.0, "RSH_50_": 2879, "D_HAB_MT": 14.9708040543, "SUP_MTS2": 2727.776, "RSH_TOTA_1": 32036.0, "RSH40AGO24": 16496, "RSH50AGO24": 2731.0, "MigraRSHag": 12920.0, "Migrantes": 7371.0 }, "geometry": { "type": "Polygon", "coordinates": [ [ [ -70.668639, -33.437951 ], [ -70.668674, -33.437579 ], [ -70.668765, -33.436619 ], [ -70.668938, -33.434803 ], [ -70.66904, -33.433738 ], [ -70.669154, -33.432551 ], [ -70.669202, -33.43205 ], [ -70.670243, -33.432099 ], [ -70.674929, -33.432429 ], [ -70.675191, -33.432448 ], [ -70.676366, -33.432541 ], [ -70.676367, -33.432541 ], [ -70.678287, -33.432723 ], [ -70.680518, -33.432959 ], [ -70.6805, -33.433443 ], [ -70.680283, -33.435894 ], [ -70.680083, -33.438373 ], [ -70.681735, -33.438488 ], [ -70.681783, -33.437877 ], [ -70.681884, -33.437883 ], [ -70.681921, -33.437387 ], [ -70.68143, -33.437356 ], [ -70.681426, -33.437402 ], [ -70.681324, -33.437396 ], [ -70.681334, -33.437265 ], [ -70.680799, -33.437223 ], [ -70.680911, -33.435952 ], [ -70.68192, -33.436092 ], [ -70.683479, -33.436392 ], [ -70.683256, -33.438582 ], [ -70.691457, -33.439196 ], [ -70.691819, -33.439252 ], [ -70.69175, -33.439413 ], [ -70.691735, -33.440229 ], [ -70.69175, -33.440752 ], [ -70.691793, -33.441319 ], [ -70.692031, -33.444494 ], [ -70.689175, -33.444312 ], [ -70.680281, -33.443882 ], [ -70.679579, -33.44381 ], [ -70.679543, -33.444452 ], [ -70.679501, -33.444966 ], [ -70.679234, -33.448269 ], [ -70.678997, -33.450782 ], [ -70.67791, -33.450542 ], [ -70.677875, -33.450365 ], [ -70.676987, -33.450125 ], [ -70.673852, -33.449271 ], [ -70.672967, -33.449036 ], [ -70.67255, -33.448926 ], [ -70.670506, -33.448384 ], [ -70.668361, -33.447836 ], [ -70.668163, -33.447786 ], [ -70.667465, -33.4476 ], [ -70.667512, -33.447504 ], [ -70.667589, -33.447256 ], [ -70.667677, -33.446253 ], [ -70.667834, -33.444235 ], [ -70.667869, -33.443704 ], [ -70.667948, -33.442498 ], [ -70.667951, -33.442487 ], [ -70.668165, -33.441444 ], [ -70.668505, -33.440192 ], [ -70.668492, -33.43951 ], [ -70.668531, -33.43909 ], [ -70.668549, -33.4389 ], [ -70.668639, -33.437951 ] ] ] } },
{ "type": "Feature", "properties": { "UNIDAD": 8.0, "BARRIO": "SAN BORJA", "AGRP": "AV7", "UNIDAD_1": 8.0, "PERSONAS": 34108.0, "HOMBRES": 0.0, "MUJERES": 0.0, "DE_0_A_5_A": 1131.0, "DE_6_A_14_": 1223.0, "DE_15_A_64": 28954.0, "DE_65_MAS_": 2794.0, "INMIGRANTE": 5190.0, "PUEBLOS_OR": 1499.0, "RSH_Total": 13319.0, "Factor": 19.69, "RSH40_": 3870.0, "RSH_50_": 1017, "D_HAB_MT": 51.770248651400003, "SUP_MTS2": 658.834, "RSH_TOTA_1": 13267.0, "RSH40AGO24": 4058, "RSH50AGO24": 913.0, "MigraRSHag": 4859.0, "Migrantes": 1657.0 }, "geometry": { "type": "Polygon", "coordinates": [ [ [ -70.63391, -33.441799 ], [ -70.634092, -33.441201 ], [ -70.635212, -33.437061 ], [ -70.63546, -33.437117 ], [ -70.635922, -33.437228 ], [ -70.63647, -33.437383 ], [ -70.636574, -33.437426 ], [ -70.63669, -33.43748 ], [ -70.636894, -33.437576 ], [ -70.637523, -33.437902 ], [ -70.638061, -33.438282 ], [ -70.638158, -33.438337 ], [ -70.638208, -33.438379 ], [ -70.639244, -33.439141 ], [ -70.639602, -33.439398 ], [ -70.640514, -33.439999 ], [ -70.640538, -33.440016 ], [ -70.640722, -33.440144 ], [ -70.640813, -33.440212 ], [ -70.641726, -33.440831 ], [ -70.641868, -33.440931 ], [ -70.642454, -33.441344 ], [ -70.642775, -33.441557 ], [ -70.642951, -33.441649 ], [ -70.643127, -33.441741 ], [ -70.643324, -33.441824 ], [ -70.64352, -33.441907 ], [ -70.643703, -33.441978 ], [ -70.644061, -33.442115 ], [ -70.644102, -33.442127 ], [ -70.644102, -33.442127 ], [ -70.644308, -33.442186 ], [ -70.644833, -33.442337 ], [ -70.644908, -33.442364 ], [ -70.645302, -33.442457 ], [ -70.646161, -33.442648 ], [ -70.646248, -33.442669 ], [ -70.646096, -33.443399 ], [ -70.645963, -33.443907 ], [ -70.645563, -33.445252 ], [ -70.64486, -33.447894 ], [ -70.644845, -33.447983 ], [ -70.64369, -33.447732 ], [ -70.643793, -33.447291 ], [ -70.642419, -33.446883 ], [ -70.64251, -33.446431 ], [ -70.640065, -33.445868 ], [ -70.636514, -33.445102 ], [ -70.637221, -33.443903 ], [ -70.637816, -33.442966 ], [ -70.637822, -33.44296 ], [ -70.63391, -33.441799 ] ] ] } },
{ "type": "Feature", "properties": { "UNIDAD": 9.0, "BARRIO": "SANTA ISABEL", "AGRP": "AV7", "UNIDAD_1": 9.0, "PERSONAS": 72879.0, "HOMBRES": 0.0, "MUJERES": 0.0, "DE_0_A_5_A": 2981.0, "DE_6_A_14_": 3333.0, "DE_15_A_64": 63026.0, "DE_65_MAS_": 3539.0, "INMIGRANTE": 10945.0, "PUEBLOS_OR": 3142.0, "RSH_Total": 36490.0, "Factor": 19.69, "RSH40_": 9892.0, "RSH_50_": 2736, "D_HAB_MT": 77.121859077099998, "SUP_MTS2": 944.985, "RSH_TOTA_1": 36490.0, "RSH40AGO24": 10502, "RSH50AGO24": 2553.0, "MigraRSHag": 15489.0, "Migrantes": 5011.0 }, "geometry": { "type": "Polygon", "coordinates": [ [ [ -70.63092, -33.451871 ], [ -70.631512, -33.449882 ], [ -70.631665, -33.449356 ], [ -70.632368, -33.446943 ], [ -70.633214, -33.444086 ], [ -70.63391, -33.441799 ], [ -70.637822, -33.44296 ], [ -70.637816, -33.442966 ], [ -70.637221, -33.443903 ], [ -70.636514, -33.445102 ], [ -70.640065, -33.445868 ], [ -70.64251, -33.446431 ], [ -70.642419, -33.446883 ], [ -70.643793, -33.447291 ], [ -70.64369, -33.447732 ], [ -70.644845, -33.447983 ], [ -70.644574, -33.449556 ], [ -70.644213, -33.451689 ], [ -70.644216, -33.451834 ], [ -70.644024, -33.453257 ], [ -70.642303, -33.452924 ], [ -70.640684, -33.452641 ], [ -70.637999, -33.452104 ], [ -70.637736, -33.452034 ], [ -70.635519, -33.451674 ], [ -70.635418, -33.451675 ], [ -70.634464, -33.451507 ], [ -70.634455, -33.451505 ], [ -70.634282, -33.45158 ], [ -70.632436, -33.451605 ], [ -70.63092, -33.451871 ] ] ] } },
{ "type": "Feature", "properties": { "UNIDAD": 10.0, "BARRIO": "DIEZ DE JULIO", "AGRP": "AV7", "UNIDAD_1": 10.0, "PERSONAS": 18086.0, "HOMBRES": 0.0, "MUJERES": 0.0, "DE_0_A_5_A": 708.0, "DE_6_A_14_": 1155.0, "DE_15_A_64": 14888.0, "DE_65_MAS_": 1335.0, "INMIGRANTE": 3173.0, "PUEBLOS_OR": 885.0, "RSH_Total": 11662.0, "Factor": 19.69, "RSH40_": 4368.0, "RSH_50_": 940, "D_HAB_MT": 27.352014651499999, "SUP_MTS2": 661.231, "RSH_TOTA_1": 11693.0, "RSH40AGO24": 4565, "RSH50AGO24": 925.0, "MigraRSHag": 5550.0, "Migrantes": 2179.0 }, "geometry": { "type": "Polygon", "coordinates": [ [ [ -70.63092, -33.451871 ], [ -70.632436, -33.451605 ], [ -70.634282, -33.45158 ], [ -70.634455, -33.451505 ], [ -70.634464, -33.451507 ], [ -70.635418, -33.451675 ], [ -70.635519, -33.451674 ], [ -70.637736, -33.452034 ], [ -70.637999, -33.452104 ], [ -70.640684, -33.452641 ], [ -70.642303, -33.452924 ], [ -70.644024, -33.453257 ], [ -70.64382, -33.454766 ], [ -70.643416, -33.45732 ], [ -70.643287, -33.458281 ], [ -70.641661, -33.457928 ], [ -70.639562, -33.457457 ], [ -70.635876, -33.456749 ], [ -70.633272, -33.456173 ], [ -70.629847, -33.455421 ], [ -70.630645, -33.452794 ], [ -70.63092, -33.451871 ] ] ] } },
{ "type": "Feature", "properties": { "UNIDAD": 17.0, "BARRIO": "MEIGGS", "AGRP": "AV9", "UNIDAD_1": 17.0, "PERSONAS": 3297.0, "HOMBRES": 0.0, "MUJERES": 0.0, "DE_0_A_5_A": 137.0, "DE_6_A_14_": 191.0, "DE_15_A_64": 2778.0, "DE_65_MAS_": 190.0, "INMIGRANTE": 1478.0, "PUEBLOS_OR": 329.0, "RSH_Total": 1882.0, "Factor": 0.0, "RSH40_": 1016.0, "RSH_50_": 197, "D_HAB_MT": 6.4492277357900001, "SUP_MTS2": 511.224, "RSH_TOTA_1": 1835.0, "RSH40AGO24": 1047, "RSH50AGO24": 147.0, "MigraRSHag": 332.0, "Migrantes": 387.0 }, "geometry": { "type": "Polygon", "coordinates": [ [ [ -70.672137, -33.458288 ], [ -70.672172, -33.457826 ], [ -70.67226, -33.456638 ], [ -70.672341, -33.455498 ], [ -70.672412, -33.454367 ], [ -70.672437, -33.453838 ], [ -70.672464, -33.453271 ], [ -70.672498, -33.452153 ], [ -70.672532, -33.451025 ], [ -70.67258, -33.449338 ], [ -70.67255, -33.448926 ], [ -70.672967, -33.449036 ], [ -70.673852, -33.449271 ], [ -70.676987, -33.450125 ], [ -70.677875, -33.450365 ], [ -70.67791, -33.450542 ], [ -70.677888, -33.450935 ], [ -70.677886, -33.451341 ], [ -70.678029, -33.453426 ], [ -70.678258, -33.456649 ], [ -70.678367, -33.458074 ], [ -70.676177, -33.458505 ], [ -70.675399, -33.458483 ], [ -70.672137, -33.458288 ], [ -70.672137, -33.458288 ] ] ] } },
{ "type": "Feature", "properties": { "UNIDAD": 15.0, "BARRIO": "CLUB HIPICO", "AGRP": "AV9", "UNIDAD_1": 15.0, "PERSONAS": 2623.0, "HOMBRES": 0.0, "MUJERES": 0.0, "DE_0_A_5_A": 106.0, "DE_6_A_14_": 241.0, "DE_15_A_64": 2034.0, "DE_65_MAS_": 241.0, "INMIGRANTE": 205.0, "PUEBLOS_OR": 165.0, "RSH_Total": 0.0, "Factor": 0.0, "RSH40_": 0.0, "RSH_50_": 0, "D_HAB_MT": 2.7212846372400001, "SUP_MTS2": 963.883, "RSH_TOTA_1": 0.0, "RSH40AGO24": 0, "RSH50AGO24": 0.0, "MigraRSHag": 0.0, "Migrantes": 0.0 }, "geometry": { "type": "Polygon", "coordinates": [ [ [ -70.663892, -33.458485 ], [ -70.663946, -33.458481 ], [ -70.66497, -33.458566 ], [ -70.664969, -33.457054 ], [ -70.666517, -33.457332 ], [ -70.669213, -33.457816 ], [ -70.672127, -33.458288 ], [ -70.672137, -33.458288 ], [ -70.672137, -33.458288 ], [ -70.672099, -33.458781 ], [ -70.671934, -33.459948 ], [ -70.671776, -33.461216 ], [ -70.671618, -33.462475 ], [ -70.671541, -33.463482 ], [ -70.671547, -33.46383 ], [ -70.671553, -33.464624 ], [ -70.671594, -33.466275 ], [ -70.671616, -33.466359 ], [ -70.667705, -33.470494 ], [ -70.664886, -33.47044 ], [ -70.664873, -33.47044 ], [ -70.664873, -33.470439 ], [ -70.663426, -33.470375 ], [ -70.663426, -33.470366 ], [ -70.663497, -33.468797 ], [ -70.663679, -33.464574 ], [ -70.663726, -33.463435 ], [ -70.663808, -33.461485 ], [ -70.663943, -33.458584 ], [ -70.663892, -33.458485 ] ] ] } },
{ "type": "Feature", "properties": { "UNIDAD": 18.0, "BARRIO": "SAN VICENTE", "AGRP": "AV9", "UNIDAD_1": 18.0, "PERSONAS": 5212.0, "HOMBRES": 0.0, "MUJERES": 0.0, "DE_0_A_5_A": 247.0, "DE_6_A_14_": 523.0, "DE_15_A_64": 3771.0, "DE_65_MAS_": 670.0, "INMIGRANTE": 1553.0, "PUEBLOS_OR": 498.0, "RSH_Total": 4582.0, "Factor": 0.0, "RSH40_": 2739.0, "RSH_50_": 459, "D_HAB_MT": 8.9467179346299996, "SUP_MTS2": 582.56, "RSH_TOTA_1": 4560.0, "RSH40AGO24": 2778, "RSH50AGO24": 456.0, "MigraRSHag": 750.0, "Migrantes": 922.0 }, "geometry": { "type": "Polygon", "coordinates": [ [ [ -70.672137, -33.458288 ], [ -70.675399, -33.458483 ], [ -70.676177, -33.458505 ], [ -70.678367, -33.458074 ], [ -70.678453, -33.459194 ], [ -70.678704, -33.46247 ], [ -70.678994, -33.466594 ], [ -70.674978, -33.466461 ], [ -70.673031, -33.466416 ], [ -70.673012, -33.466416 ], [ -70.672866, -33.466387 ], [ -70.671616, -33.466359 ], [ -70.671594, -33.466275 ], [ -70.671553, -33.464624 ], [ -70.671547, -33.46383 ], [ -70.671541, -33.463482 ], [ -70.671618, -33.462475 ], [ -70.671776, -33.461216 ], [ -70.671934, -33.459948 ], [ -70.672099, -33.458781 ], [ -70.672137, -33.458288 ] ] ] } },
{ "type": "Feature", "properties": { "UNIDAD": 16.0, "BARRIO": "SAN EUGENIO", "AGRP": "AV9", "UNIDAD_1": 16.0, "PERSONAS": 9246.0, "HOMBRES": 0.0, "MUJERES": 0.0, "DE_0_A_5_A": 436.0, "DE_6_A_14_": 766.0, "DE_15_A_64": 6497.0, "DE_65_MAS_": 1548.0, "INMIGRANTE": 1111.0, "PUEBLOS_OR": 766.0, "RSH_Total": 9547.0, "Factor": 0.0, "RSH40_": 4559.0, "RSH_50_": 1008, "D_HAB_MT": 8.4334074578100005, "SUP_MTS2": 1096.354, "RSH_TOTA_1": 9461.0, "RSH40AGO24": 4633, "RSH50AGO24": 916.0, "MigraRSHag": 771.0, "Migrantes": 935.0 }, "geometry": { "type": "Polygon", "coordinates": [ [ [ -70.663426, -33.470375 ], [ -70.664873, -33.470439 ], [ -70.664873, -33.47044 ], [ -70.664886, -33.47044 ], [ -70.667705, -33.470494 ], [ -70.671616, -33.466359 ], [ -70.672866, -33.466387 ], [ -70.673012, -33.466416 ], [ -70.673031, -33.466416 ], [ -70.674978, -33.466461 ], [ -70.678994, -33.466594 ], [ -70.678994, -33.466604 ], [ -70.679114, -33.46916 ], [ -70.679968, -33.470431 ], [ -70.679958, -33.470449 ], [ -70.67998, -33.470485 ], [ -70.67997, -33.47053 ], [ -70.67996, -33.470567 ], [ -70.67994, -33.470612 ], [ -70.679875, -33.47064 ], [ -70.672958, -33.470571 ], [ -70.672945, -33.471884 ], [ -70.672916, -33.474827 ], [ -70.672885, -33.474924 ], [ -70.672627, -33.475436 ], [ -70.672328, -33.475748 ], [ -70.671671, -33.475731 ], [ -70.671676, -33.476118 ], [ -70.671898, -33.47616 ], [ -70.672069, -33.476242 ], [ -70.672202, -33.476308 ], [ -70.672328, -33.476385 ], [ -70.67241, -33.476421 ], [ -70.673023, -33.476376 ], [ -70.673618, -33.476357 ], [ -70.674383, -33.476426 ], [ -70.675024, -33.476538 ], [ -70.675791, -33.476595 ], [ -70.67648, -33.476541 ], [ -70.676663, -33.476538 ], [ -70.67788, -33.476486 ], [ -70.678698, -33.476393 ], [ -70.679334, -33.476376 ], [ -70.680013, -33.476394 ], [ -70.680736, -33.476402 ], [ -70.680865, -33.478361 ], [ -70.679556, -33.478369 ], [ -70.671574, -33.478468 ], [ -70.671599, -33.476724 ], [ -70.67159, -33.476067 ], [ -70.668178, -33.475993 ], [ -70.66619, -33.475946 ], [ -70.664824, -33.475894 ], [ -70.664802, -33.475894 ], [ -70.664848, -33.473564 ], [ -70.663287, -33.473477 ], [ -70.663426, -33.470375 ] ] ] } },
{ "type": "Feature", "properties": { "UNIDAD": 19.0, "BARRIO": "SANTA ELENA", "AGRP": "AV10", "UNIDAD_1": 19.0, "PERSONAS": 18178.0, "HOMBRES": 0.0, "MUJERES": 0.0, "DE_0_A_5_A": 767.0, "DE_6_A_14_": 1004.0, "DE_15_A_64": 15668.0, "DE_65_MAS_": 739.0, "INMIGRANTE": 3996.0, "PUEBLOS_OR": 721.0, "RSH_Total": 11080.0, "Factor": 0.0, "RSH40_": 3787.0, "RSH_50_": 961, "D_HAB_MT": 39.206636097400001, "SUP_MTS2": 463.646, "RSH_TOTA_1": 11086.0, "RSH40AGO24": 3975, "RSH50AGO24": 909.0, "MigraRSHag": 2990.0, "Migrantes": 2369.0 }, "geometry": { "type": "Polygon", "coordinates": [ [ [ -70.626435, -33.467325 ], [ -70.627181, -33.464666 ], [ -70.628014, -33.461665 ], [ -70.628891, -33.458699 ], [ -70.629746, -33.455751 ], [ -70.629847, -33.455421 ], [ -70.633272, -33.456173 ], [ -70.633319, -33.4563 ], [ -70.632672, -33.458686 ], [ -70.632084, -33.46094 ], [ -70.631986, -33.461297 ], [ -70.631453, -33.463223 ], [ -70.630888, -33.465345 ], [ -70.630249, -33.467728 ], [ -70.627908, -33.467463 ], [ -70.626435, -33.467325 ] ] ] } },
{ "type": "Feature", "properties": { "UNIDAD": 21.0, "BARRIO": "MATTA SUR", "AGRP": "AV10", "UNIDAD_1": 21.0, "PERSONAS": 15163.0, "HOMBRES": 0.0, "MUJERES": 0.0, "DE_0_A_5_A": 744.0, "DE_6_A_14_": 886.0, "DE_15_A_64": 12115.0, "DE_65_MAS_": 1418.0, "INMIGRANTE": 3473.0, "PUEBLOS_OR": 758.0, "RSH_Total": 11940.0, "Factor": 0.0, "RSH40_": 5719.0, "RSH_50_": 1075, "D_HAB_MT": 18.162696459100001, "SUP_MTS2": 834.843, "RSH_TOTA_1": 11894.0, "RSH40AGO24": 5859, "RSH50AGO24": 994.0, "MigraRSHag": 3141.0, "Migrantes": 3082.0 }, "geometry": { "type": "Polygon", "coordinates": [ [ [ -70.631986, -33.461297 ], [ -70.632084, -33.46094 ], [ -70.632672, -33.458686 ], [ -70.633319, -33.4563 ], [ -70.633272, -33.456173 ], [ -70.635876, -33.456749 ], [ -70.639562, -33.457457 ], [ -70.641661, -33.457928 ], [ -70.643287, -33.458281 ], [ -70.643859, -33.458405 ], [ -70.645303, -33.458683 ], [ -70.645303, -33.458683 ], [ -70.645903, -33.45882 ], [ -70.649144, -33.45951 ], [ -70.649146, -33.459497 ], [ -70.649108, -33.460027 ], [ -70.649045, -33.461148 ], [ -70.648971, -33.462152 ], [ -70.648898, -33.463665 ], [ -70.647046, -33.463478 ], [ -70.644682, -33.463242 ], [ -70.642684, -33.463029 ], [ -70.639332, -33.462673 ], [ -70.639181, -33.462623 ], [ -70.638219, -33.46244 ], [ -70.637913, -33.462381 ], [ -70.635727, -33.461981 ], [ -70.631986, -33.461297 ] ] ] } },
{ "type": "Feature", "properties": { "UNIDAD": 22.0, "BARRIO": "BOGOTA", "AGRP": "AV10", "UNIDAD_1": 22.0, "PERSONAS": 21059.0, "HOMBRES": 0.0, "MUJERES": 0.0, "DE_0_A_5_A": 1101.0, "DE_6_A_14_": 1910.0, "DE_15_A_64": 15450.0, "DE_65_MAS_": 2597.0, "INMIGRANTE": 3245.0, "PUEBLOS_OR": 1172.0, "RSH_Total": 12997.0, "Factor": 0.0, "RSH40_": 7287.0, "RSH_50_": 1169, "D_HAB_MT": 18.640638166799999, "SUP_MTS2": 1129.736, "RSH_TOTA_1": 12861.0, "RSH40AGO24": 7203, "RSH50AGO24": 1214.0, "MigraRSHag": 2107.0, "Migrantes": 2592.0 }, "geometry": { "type": "Polygon", "coordinates": [ [ [ -70.630249, -33.467728 ], [ -70.630888, -33.465345 ], [ -70.631453, -33.463223 ], [ -70.631986, -33.461297 ], [ -70.635727, -33.461981 ], [ -70.637913, -33.462381 ], [ -70.638219, -33.46244 ], [ -70.639181, -33.462623 ], [ -70.639332, -33.462673 ], [ -70.642684, -33.463029 ], [ -70.644682, -33.463242 ], [ -70.647046, -33.463478 ], [ -70.648898, -33.463665 ], [ -70.648888, -33.463872 ], [ -70.648783, -33.465543 ], [ -70.648699, -33.467258 ], [ -70.648588, -33.468994 ], [ -70.648548, -33.469741 ], [ -70.646793, -33.469539 ], [ -70.642277, -33.469056 ], [ -70.63662, -33.468439 ], [ -70.636468, -33.468423 ], [ -70.634048, -33.468158 ], [ -70.633228, -33.468069 ], [ -70.630826, -33.467782 ], [ -70.630249, -33.467728 ] ] ] } },
{ "type": "Feature", "properties": { "UNIDAD": 23.0, "BARRIO": "FRANKLIN", "AGRP": "AV10", "UNIDAD_1": 23.0, "PERSONAS": 3588.0, "HOMBRES": 0.0, "MUJERES": 0.0, "DE_0_A_5_A": 217.0, "DE_6_A_14_": 338.0, "DE_15_A_64": 2730.0, "DE_65_MAS_": 303.0, "INMIGRANTE": 842.0, "PUEBLOS_OR": 137.0, "RSH_Total": 3795.0, "Factor": 0.0, "RSH40_": 2179.0, "RSH_50_": 325, "D_HAB_MT": 7.7333086189299998, "SUP_MTS2": 463.967, "RSH_TOTA_1": 3812.0, "RSH40AGO24": 2245, "RSH50AGO24": 296.0, "MigraRSHag": 967.0, "Migrantes": 1081.0 }, "geometry": { "type": "Polygon", "coordinates": [ [ [ -70.641986, -33.476429 ], [ -70.641991, -33.476225 ], [ -70.642032, -33.474597 ], [ -70.642092, -33.472868 ], [ -70.642092, -33.472863 ], [ -70.642138, -33.471806 ], [ -70.642198, -33.470343 ], [ -70.642277, -33.469056 ], [ -70.646793, -33.469539 ], [ -70.648548, -33.469741 ], [ -70.648497, -33.470703 ], [ -70.648393, -33.472413 ], [ -70.648275, -33.474117 ], [ -70.64825, -33.475896 ], [ -70.648223, -33.476712 ], [ -70.64822, -33.476712 ], [ -70.641986, -33.476429 ] ] ] } },
{ "type": "Feature", "properties": { "UNIDAD": 25.0, "BARRIO": "HUEMUL", "AGRP": "AV10", "UNIDAD_1": 25.0, "PERSONAS": 8690.0, "HOMBRES": 0.0, "MUJERES": 0.0, "DE_0_A_5_A": 382.0, "DE_6_A_14_": 791.0, "DE_15_A_64": 6582.0, "DE_65_MAS_": 935.0, "INMIGRANTE": 1045.0, "PUEBLOS_OR": 453.0, "RSH_Total": 4686.0, "Factor": 0.0, "RSH40_": 2258.0, "RSH_50_": 393, "D_HAB_MT": 19.1449752702, "SUP_MTS2": 453.905, "RSH_TOTA_1": 4687.0, "RSH40AGO24": 2374, "RSH50AGO24": 384.0, "MigraRSHag": 669.0, "Migrantes": 760.0 }, "geometry": { "type": "Polygon", "coordinates": [ [ [ -70.648223, -33.476712 ], [ -70.64825, -33.475896 ], [ -70.648275, -33.474117 ], [ -70.648393, -33.472413 ], [ -70.648497, -33.470703 ], [ -70.648548, -33.469741 ], [ -70.650103, -33.469895 ], [ -70.652134, -33.470115 ], [ -70.654415, -33.470358 ], [ -70.654572, -33.470359 ], [ -70.65485, -33.470365 ], [ -70.65506, -33.470353 ], [ -70.655215, -33.470276 ], [ -70.655655, -33.470103 ], [ -70.65599, -33.469975 ], [ -70.656008, -33.469968 ], [ -70.656192, -33.469976 ], [ -70.656174, -33.470236 ], [ -70.656151, -33.470654 ], [ -70.656134, -33.470913 ], [ -70.656067, -33.471221 ], [ -70.655933, -33.47152 ], [ -70.655679, -33.471912 ], [ -70.65541, -33.472285 ], [ -70.655088, -33.472754 ], [ -70.654767, -33.473222 ], [ -70.654583, -33.473577 ], [ -70.654445, -33.473993 ], [ -70.654387, -33.474337 ], [ -70.654371, -33.474711 ], [ -70.654408, -33.47522 ], [ -70.654509, -33.4756 ], [ -70.65466, -33.475963 ], [ -70.654866, -33.476417 ], [ -70.654897, -33.476475 ], [ -70.654324, -33.476522 ], [ -70.654037, -33.476531 ], [ -70.654032, -33.476531 ], [ -70.648223, -33.476712 ] ] ] } },
{ "type": "Feature", "properties": { "UNIDAD": 26.0, "BARRIO": "BARRIO JUDICIAL", "AGRP": "AV10", "UNIDAD_1": 26.0, "PERSONAS": 11388.0, "HOMBRES": 0.0, "MUJERES": 0.0, "DE_0_A_5_A": 50.0, "DE_6_A_14_": 116.0, "DE_15_A_64": 10894.0, "DE_65_MAS_": 329.0, "INMIGRANTE": 702.0, "PUEBLOS_OR": 1494.0, "RSH_Total": 2151.0, "Factor": 0.0, "RSH40_": 844.0, "RSH_50_": 132, "D_HAB_MT": 21.042167483699998, "SUP_MTS2": 541.199, "RSH_TOTA_1": 2158.0, "RSH40AGO24": 869, "RSH50AGO24": 129.0, "MigraRSHag": 145.0, "Migrantes": 147.0 }, "geometry": { "type": "Polygon", "coordinates": [ [ [ -70.654897, -33.476475 ], [ -70.654866, -33.476417 ], [ -70.65466, -33.475963 ], [ -70.654509, -33.4756 ], [ -70.654408, -33.47522 ], [ -70.654371, -33.474711 ], [ -70.654387, -33.474337 ], [ -70.654445, -33.473993 ], [ -70.654583, -33.473577 ], [ -70.654767, -33.473222 ], [ -70.655088, -33.472754 ], [ -70.65541, -33.472285 ], [ -70.655679, -33.471912 ], [ -70.655933, -33.47152 ], [ -70.656067, -33.471221 ], [ -70.656134, -33.470913 ], [ -70.656151, -33.470654 ], [ -70.656174, -33.470236 ], [ -70.656192, -33.469976 ], [ -70.656349, -33.469983 ], [ -70.656964, -33.470011 ], [ -70.657309, -33.470006 ], [ -70.663426, -33.470366 ], [ -70.663426, -33.470375 ], [ -70.663287, -33.473477 ], [ -70.664848, -33.473564 ], [ -70.664802, -33.475894 ], [ -70.663281, -33.475869 ], [ -70.662289, -33.475847 ], [ -70.661793, -33.475853 ], [ -70.661287, -33.475887 ], [ -70.660878, -33.475911 ], [ -70.655115, -33.476458 ], [ -70.655017, -33.476466 ], [ -70.654897, -33.476475 ] ] ] } },
{ "type": "Feature", "properties": { "UNIDAD": 20.0, "BARRIO": "SIERRA BELLA", "AGRP": "AV10", "UNIDAD_1": 20.0, "PERSONAS": 12574.0, "HOMBRES": 0.0, "MUJERES": 0.0, "DE_0_A_5_A": 499.0, "DE_6_A_14_": 831.0, "DE_15_A_64": 9590.0, "DE_65_MAS_": 1654.0, "INMIGRANTE": 2072.0, "PUEBLOS_OR": 603.0, "RSH_Total": 8740.0, "Factor": 0.0, "RSH40_": 4583.0, "RSH_50_": 790, "D_HAB_MT": 12.5060421669, "SUP_MTS2": 1005.434, "RSH_TOTA_1": 8688.0, "RSH40AGO24": 4640, "RSH50AGO24": 754.0, "MigraRSHag": 1488.0, "Migrantes": 1588.0 }, "geometry": { "type": "Polygon", "coordinates": [ [ [ -70.641986, -33.476429 ], [ -70.641902, -33.476426 ], [ -70.640498, -33.476327 ], [ -70.640347, -33.476302 ], [ -70.639968, -33.476234 ], [ -70.639643, -33.476166 ], [ -70.639275, -33.476072 ], [ -70.638993, -33.475976 ], [ -70.638565, -33.475846 ], [ -70.635001, -33.474572 ], [ -70.630751, -33.473052 ], [ -70.629914, -33.472753 ], [ -70.627363, -33.471847 ], [ -70.62724, -33.471789 ], [ -70.627081, -33.471715 ], [ -70.626721, -33.471521 ], [ -70.626681, -33.471491 ], [ -70.626349, -33.471237 ], [ -70.62602, -33.470925 ], [ -70.625833, -33.470701 ], [ -70.625623, -33.470433 ], [ -70.625434, -33.470155 ], [ -70.625088, -33.469509 ], [ -70.625125, -33.469491 ], [ -70.62569, -33.469149 ], [ -70.625871, -33.468993 ], [ -70.626006, -33.468747 ], [ -70.626397, -33.467459 ], [ -70.626435, -33.467325 ], [ -70.627908, -33.467463 ], [ -70.630249, -33.467728 ], [ -70.630826, -33.467782 ], [ -70.633228, -33.468069 ], [ -70.634048, -33.468158 ], [ -70.636468, -33.468423 ], [ -70.63662, -33.468439 ], [ -70.642277, -33.469056 ], [ -70.642198, -33.470343 ], [ -70.642138, -33.471806 ], [ -70.642092, -33.472863 ], [ -70.642092, -33.472868 ], [ -70.642032, -33.474597 ], [ -70.641991, -33.476225 ], [ -70.641986, -33.476429 ] ] ] } },
{ "type": "Feature", "properties": { "UNIDAD": 6.0, "BARRIO": "BALMACEDA", "AGRP": "AV3", "UNIDAD_1": 6.0, "PERSONAS": 15697.0, "HOMBRES": 0.0, "MUJERES": 0.0, "DE_0_A_5_A": 894.0, "DE_6_A_14_": 1667.0, "DE_15_A_64": 11893.0, "DE_65_MAS_": 1243.0, "INMIGRANTE": 3477.0, "PUEBLOS_OR": 1119.0, "RSH_Total": 13606.0, "Factor": 12.27, "RSH40_": 6388.0, "RSH_50_": 1167, "D_HAB_MT": 24.411371341500001, "SUP_MTS2": 643.02, "RSH_TOTA_1": 13557.0, "RSH40AGO24": 6451, "RSH50AGO24": 1166.0, "MigraRSHag": 4633.0, "Migrantes": 2428.0 }, "geometry": { "type": "Polygon", "coordinates": [ [ [ -70.667841, -33.427299 ], [ -70.669912, -33.426577 ], [ -70.670327, -33.426417 ], [ -70.670723, -33.426217 ], [ -70.671061, -33.426019 ], [ -70.671228, -33.425913 ], [ -70.671341, -33.425837 ], [ -70.671463, -33.425745 ], [ -70.67159, -33.425634 ], [ -70.671619, -33.425869 ], [ -70.671633, -33.425987 ], [ -70.67176, -33.427057 ], [ -70.671746, -33.427124 ], [ -70.671841, -33.428219 ], [ -70.675211, -33.427121 ], [ -70.675481, -33.427027 ], [ -70.675524, -33.427012 ], [ -70.675809, -33.42694 ], [ -70.676072, -33.426869 ], [ -70.676393, -33.426791 ], [ -70.676749, -33.426755 ], [ -70.676914, -33.426757 ], [ -70.677049, -33.426757 ], [ -70.677549, -33.426788 ], [ -70.677799, -33.426821 ], [ -70.678227, -33.426914 ], [ -70.679107, -33.427277 ], [ -70.679381, -33.427397 ], [ -70.679664, -33.427621 ], [ -70.679956, -33.427887 ], [ -70.680326, -33.42834 ], [ -70.680499, -33.428627 ], [ -70.680623, -33.428924 ], [ -70.680727, -33.42932 ], [ -70.680758, -33.429789 ], [ -70.680725, -33.430287 ], [ -70.680521, -33.432883 ], [ -70.680518, -33.432959 ], [ -70.678287, -33.432723 ], [ -70.676367, -33.432541 ], [ -70.676366, -33.432541 ], [ -70.675191, -33.432448 ], [ -70.674929, -33.432429 ], [ -70.670243, -33.432099 ], [ -70.669202, -33.43205 ], [ -70.669485, -33.429036 ], [ -70.669484, -33.429036 ], [ -70.669409, -33.42888 ], [ -70.668708, -33.429104 ], [ -70.668404, -33.428503 ], [ -70.667841, -33.427299 ] ] ] } },
{ "type": "Feature", "properties": { "UNIDAD": 4.0, "BARRIO": "PANAMA", "AGRP": "AV2", "UNIDAD_1": 4.0, "PERSONAS": 14695.0, "HOMBRES": 0.0, "MUJERES": 0.0, "DE_0_A_5_A": 737.0, "DE_6_A_14_": 1338.0, "DE_15_A_64": 11260.0, "DE_65_MAS_": 1359.0, "INMIGRANTE": 3423.0, "PUEBLOS_OR": 1096.0, "RSH_Total": 12573.0, "Factor": 12.42, "RSH40_": 6052.0, "RSH_50_": 1079, "D_HAB_MT": 18.401343379499998, "SUP_MTS2": 798.583, "RSH_TOTA_1": 12431.0, "RSH40AGO24": 6081, "RSH50AGO24": 1039.0, "MigraRSHag": 4379.0, "Migrantes": 2310.0 }, "geometry": { "type": "Polygon", "coordinates": [ [ [ -70.660519, -33.429483 ], [ -70.66071, -33.429385 ], [ -70.66085, -33.429315 ], [ -70.660993, -33.429245 ], [ -70.661127, -33.429182 ], [ -70.661242, -33.429144 ], [ -70.661398, -33.429121 ], [ -70.66173, -33.429106 ], [ -70.662104, -33.429085 ], [ -70.662565, -33.429034 ], [ -70.663118, -33.428916 ], [ -70.663769, -33.428701 ], [ -70.664387, -33.428487 ], [ -70.664445, -33.428467 ], [ -70.667841, -33.427299 ], [ -70.668404, -33.428503 ], [ -70.668708, -33.429104 ], [ -70.669409, -33.42888 ], [ -70.669484, -33.429036 ], [ -70.669485, -33.429036 ], [ -70.669202, -33.43205 ], [ -70.669154, -33.432551 ], [ -70.66904, -33.433738 ], [ -70.668938, -33.434803 ], [ -70.668765, -33.436619 ], [ -70.668674, -33.437579 ], [ -70.668639, -33.437951 ], [ -70.664605, -33.437562 ], [ -70.660054, -33.437087 ], [ -70.660327, -33.435188 ], [ -70.660544, -33.433667 ], [ -70.66063, -33.433217 ], [ -70.660649, -33.433117 ], [ -70.660769, -33.432481 ], [ -70.660944, -33.431542 ], [ -70.660964, -33.43134 ], [ -70.660976, -33.43119 ], [ -70.660978, -33.430753 ], [ -70.660519, -33.429483 ] ] ] } },
{ "type": "Feature", "properties": { "UNIDAD": 3.0, "BARRIO": "SANTA ANA", "AGRP": "AV2", "UNIDAD_1": 3.0, "PERSONAS": 36479.0, "HOMBRES": 0.0, "MUJERES": 0.0, "DE_0_A_5_A": 1447.0, "DE_6_A_14_": 1678.0, "DE_15_A_64": 31634.0, "DE_65_MAS_": 1720.0, "INMIGRANTE": 7824.0, "PUEBLOS_OR": 1560.0, "RSH_Total": 19055.0, "Factor": 12.42, "RSH40_": 5991.0, "RSH_50_": 1551, "D_HAB_MT": 65.703422327200002, "SUP_MTS2": 555.207, "RSH_TOTA_1": 19023.0, "RSH40AGO24": 6377, "RSH50AGO24": 1354.0, "MigraRSHag": 9460.0, "Migrantes": 3518.0 }, "geometry": { "type": "Polygon", "coordinates": [ [ [ -70.657493, -33.430488 ], [ -70.659415, -33.43003 ], [ -70.659678, -33.429947 ], [ -70.659945, -33.429818 ], [ -70.660203, -33.429673 ], [ -70.660317, -33.429603 ], [ -70.660496, -33.429495 ], [ -70.660519, -33.429483 ], [ -70.660978, -33.430753 ], [ -70.660976, -33.43119 ], [ -70.660964, -33.43134 ], [ -70.660944, -33.431542 ], [ -70.660769, -33.432481 ], [ -70.660649, -33.433117 ], [ -70.66063, -33.433217 ], [ -70.660544, -33.433667 ], [ -70.660327, -33.435188 ], [ -70.660054, -33.437087 ], [ -70.660017, -33.437348 ], [ -70.659945, -33.437965 ], [ -70.660043, -33.438037 ], [ -70.660031, -33.438347 ], [ -70.65991, -33.438407 ], [ -70.659804, -33.439079 ], [ -70.65974, -33.439532 ], [ -70.65972, -33.440001 ], [ -70.659754, -33.440259 ], [ -70.660058, -33.44163 ], [ -70.660066, -33.441667 ], [ -70.660601, -33.443875 ], [ -70.66065, -33.444185 ], [ -70.660649, -33.444521 ], [ -70.6606, -33.445868 ], [ -70.660452, -33.445822 ], [ -70.660082, -33.445747 ], [ -70.659289, -33.445557 ], [ -70.658638, -33.445413 ], [ -70.658635, -33.445413 ], [ -70.65739, -33.445123 ], [ -70.655739, -33.444731 ], [ -70.655608, -33.444712 ], [ -70.655665, -33.444551 ], [ -70.655869, -33.443511 ], [ -70.65611, -33.442398 ], [ -70.656234, -33.441799 ], [ -70.656362, -33.44125 ], [ -70.656574, -33.440201 ], [ -70.656592, -33.440137 ], [ -70.656751, -33.439008 ], [ -70.656885, -33.437897 ], [ -70.657021, -33.436768 ], [ -70.657021, -33.436768 ], [ -70.657169, -33.435645 ], [ -70.657329, -33.434536 ], [ -70.657335, -33.43441 ], [ -70.657358, -33.434166 ], [ -70.657422, -33.433489 ], [ -70.657459, -33.433227 ], [ -70.657452, -33.433092 ], [ -70.657481, -33.432496 ], [ -70.657493, -33.430488 ] ] ] } },
{ "type": "Feature", "properties": { "UNIDAD": 5.0, "BARRIO": "BRASIL", "AGRP": "AV2", "UNIDAD_1": 5.0, "PERSONAS": 15695.0, "HOMBRES": 0.0, "MUJERES": 0.0, "DE_0_A_5_A": 575.0, "DE_6_A_14_": 1012.0, "DE_15_A_64": 12372.0, "DE_65_MAS_": 1737.0, "INMIGRANTE": 2583.0, "PUEBLOS_OR": 1163.0, "RSH_Total": 11083.0, "Factor": 12.42, "RSH40_": 4030.0, "RSH_50_": 899, "D_HAB_MT": 20.968491818299999, "SUP_MTS2": 748.504, "RSH_TOTA_1": 11058.0, "RSH40AGO24": 4101, "RSH50AGO24": 878.0, "MigraRSHag": 3203.0, "Migrantes": 1498.0 }, "geometry": { "type": "Polygon", "coordinates": [ [ [ -70.6606, -33.445868 ], [ -70.660649, -33.444521 ], [ -70.66065, -33.444185 ], [ -70.660601, -33.443875 ], [ -70.660066, -33.441667 ], [ -70.660058, -33.44163 ], [ -70.659754, -33.440259 ], [ -70.65972, -33.440001 ], [ -70.65974, -33.439532 ], [ -70.659804, -33.439079 ], [ -70.65991, -33.438407 ], [ -70.660031, -33.438347 ], [ -70.660043, -33.438037 ], [ -70.659945, -33.437965 ], [ -70.660017, -33.437348 ], [ -70.660054, -33.437087 ], [ -70.664605, -33.437562 ], [ -70.668639, -33.437951 ], [ -70.668549, -33.4389 ], [ -70.668531, -33.43909 ], [ -70.668492, -33.43951 ], [ -70.668505, -33.440192 ], [ -70.668165, -33.441444 ], [ -70.667951, -33.442487 ], [ -70.667948, -33.442498 ], [ -70.667869, -33.443704 ], [ -70.667834, -33.444235 ], [ -70.667677, -33.446253 ], [ -70.667589, -33.447256 ], [ -70.667512, -33.447504 ], [ -70.667465, -33.4476 ], [ -70.667465, -33.4476 ], [ -70.665935, -33.447155 ], [ -70.664734, -33.446828 ], [ -70.664624, -33.446802 ], [ -70.663748, -33.446594 ], [ -70.662601, -33.446315 ], [ -70.662596, -33.446338 ], [ -70.6606, -33.445868 ] ] ] } },
{ "type": "Feature", "properties": { "UNIDAD": 11.0, "BARRIO": "PARQUE ALMAGRO", "AGRP": "AV8", "UNIDAD_1": 11.0, "PERSONAS": 73308.0, "HOMBRES": 0.0, "MUJERES": 0.0, "DE_0_A_5_A": 2647.0, "DE_6_A_14_": 3086.0, "DE_15_A_64": 64401.0, "DE_65_MAS_": 3175.0, "INMIGRANTE": 14827.0, "PUEBLOS_OR": 3165.0, "RSH_Total": 34913.0, "Factor": 8.13, "RSH40_": 10594.0, "RSH_50_": 2701, "D_HAB_MT": 57.065280850400001, "SUP_MTS2": 1284.634, "RSH_TOTA_1": 34963.0, "RSH40AGO24": 11082, "RSH50AGO24": 2671.0, "MigraRSHag": 17425.0, "Migrantes": 6007.0 }, "geometry": { "type": "Polygon", "coordinates": [ [ [ -70.644845, -33.447983 ], [ -70.64486, -33.447894 ], [ -70.645563, -33.445252 ], [ -70.645963, -33.443907 ], [ -70.646096, -33.443399 ], [ -70.646248, -33.442669 ], [ -70.646368, -33.442692 ], [ -70.6468, -33.442779 ], [ -70.64711, -33.442848 ], [ -70.647678, -33.442975 ], [ -70.648976, -33.443272 ], [ -70.650399, -33.443595 ], [ -70.651032, -33.443753 ], [ -70.651119, -33.443774 ], [ -70.651637, -33.44385 ], [ -70.65192, -33.443868 ], [ -70.652867, -33.444091 ], [ -70.653008, -33.444126 ], [ -70.653095, -33.444145 ], [ -70.653329, -33.444186 ], [ -70.654047, -33.444335 ], [ -70.65431, -33.444408 ], [ -70.654854, -33.444539 ], [ -70.655462, -33.444688 ], [ -70.655608, -33.444712 ], [ -70.655739, -33.444731 ], [ -70.65739, -33.445123 ], [ -70.658635, -33.445413 ], [ -70.658638, -33.445413 ], [ -70.659289, -33.445557 ], [ -70.660082, -33.445747 ], [ -70.660452, -33.445822 ], [ -70.6606, -33.445868 ], [ -70.660319, -33.447094 ], [ -70.660031, -33.448108 ], [ -70.659681, -33.449175 ], [ -70.65899, -33.452154 ], [ -70.658845, -33.452599 ], [ -70.658252, -33.454084 ], [ -70.65814, -33.454387 ], [ -70.658073, -33.454533 ], [ -70.65777, -33.454506 ], [ -70.656576, -33.454445 ], [ -70.655581, -33.454419 ], [ -70.654071, -33.45438 ], [ -70.653933, -33.454376 ], [ -70.651476, -33.454314 ], [ -70.650042, -33.454061 ], [ -70.650172, -33.453192 ], [ -70.650382, -33.451818 ], [ -70.65056, -33.450514 ], [ -70.650569, -33.450461 ], [ -70.650508, -33.450453 ], [ -70.649073, -33.450152 ], [ -70.648063, -33.450052 ], [ -70.644574, -33.449556 ], [ -70.644845, -33.447983 ] ] ] } },
{ "type": "Feature", "properties": { "UNIDAD": 13.0, "BARRIO": "EJERCITO", "AGRP": "AV8", "UNIDAD_1": 13.0, "PERSONAS": 17827.0, "HOMBRES": 0.0, "MUJERES": 0.0, "DE_0_A_5_A": 759.0, "DE_6_A_14_": 1107.0, "DE_15_A_64": 14656.0, "DE_65_MAS_": 1305.0, "INMIGRANTE": 2443.0, "PUEBLOS_OR": 1187.0, "RSH_Total": 10861.0, "Factor": 8.13, "RSH40_": 3157.0, "RSH_50_": 750, "D_HAB_MT": 25.185639368, "SUP_MTS2": 707.824, "RSH_TOTA_1": 10936.0, "RSH40AGO24": 3336, "RSH50AGO24": 764.0, "MigraRSHag": 2988.0, "Migrantes": 1174.0 }, "geometry": { "type": "Polygon", "coordinates": [ [ [ -70.658073, -33.454533 ], [ -70.65814, -33.454387 ], [ -70.658252, -33.454084 ], [ -70.658845, -33.452599 ], [ -70.65899, -33.452154 ], [ -70.659681, -33.449175 ], [ -70.660031, -33.448108 ], [ -70.660319, -33.447094 ], [ -70.6606, -33.445868 ], [ -70.662596, -33.446338 ], [ -70.662601, -33.446315 ], [ -70.663748, -33.446594 ], [ -70.664624, -33.446802 ], [ -70.664805, -33.447441 ], [ -70.664724, -33.449338 ], [ -70.66468, -33.450248 ], [ -70.66455, -33.451581 ], [ -70.664434, -33.452712 ], [ -70.664218, -33.455039 ], [ -70.664108, -33.456185 ], [ -70.664033, -33.456961 ], [ -70.663934, -33.4571 ], [ -70.663912, -33.457441 ], [ -70.663862, -33.458428 ], [ -70.663892, -33.458485 ], [ -70.659324, -33.458193 ], [ -70.656744, -33.458045 ], [ -70.656728, -33.457713 ], [ -70.656819, -33.457026 ], [ -70.656902, -33.45638 ], [ -70.657035, -33.456034 ], [ -70.657284, -33.455655 ], [ -70.657742, -33.455065 ], [ -70.657989, -33.454715 ], [ -70.658073, -33.454533 ] ] ] } },
{ "type": "Feature", "properties": { "UNIDAD": 14.0, "BARRIO": "BARRIO UNIVERSITARIO", "AGRP": "AV9", "UNIDAD_1": 14.0, "PERSONAS": 17184.0, "HOMBRES": 0.0, "MUJERES": 0.0, "DE_0_A_5_A": 763.0, "DE_6_A_14_": 1207.0, "DE_15_A_64": 13822.0, "DE_65_MAS_": 1392.0, "INMIGRANTE": 3451.0, "PUEBLOS_OR": 1421.0, "RSH_Total": 11576.0, "Factor": 0.0, "RSH40_": 4699.0, "RSH_50_": 933, "D_HAB_MT": 20.9532101064, "SUP_MTS2": 820.113, "RSH_TOTA_1": 11539.0, "RSH40AGO24": 4769, "RSH50AGO24": 906.0, "MigraRSHag": 3528.0, "Migrantes": 1765.0 }, "geometry": { "type": "Polygon", "coordinates": [ [ [ -70.663892, -33.458485 ], [ -70.663862, -33.458428 ], [ -70.663912, -33.457441 ], [ -70.663934, -33.4571 ], [ -70.664033, -33.456961 ], [ -70.664108, -33.456185 ], [ -70.664218, -33.455039 ], [ -70.664434, -33.452712 ], [ -70.66455, -33.451581 ], [ -70.66468, -33.450248 ], [ -70.664724, -33.449338 ], [ -70.664805, -33.447441 ], [ -70.664624, -33.446802 ], [ -70.664734, -33.446828 ], [ -70.665935, -33.447155 ], [ -70.667465, -33.4476 ], [ -70.667465, -33.4476 ], [ -70.668163, -33.447786 ], [ -70.668361, -33.447836 ], [ -70.670506, -33.448384 ], [ -70.67255, -33.448926 ], [ -70.67258, -33.449338 ], [ -70.672532, -33.451025 ], [ -70.672498, -33.452153 ], [ -70.672464, -33.453271 ], [ -70.672437, -33.453838 ], [ -70.672412, -33.454367 ], [ -70.672341, -33.455498 ], [ -70.67226, -33.456638 ], [ -70.672172, -33.457826 ], [ -70.672137, -33.458288 ], [ -70.672127, -33.458288 ], [ -70.669213, -33.457816 ], [ -70.666517, -33.457332 ], [ -70.664969, -33.457054 ], [ -70.66497, -33.458566 ], [ -70.663946, -33.458481 ], [ -70.663892, -33.458485 ] ] ] } },
{ "type": "Feature", "properties": { "UNIDAD": 12.0, "BARRIO": "MATTA NORTE", "AGRP": "AV8", "UNIDAD_1": 12.0, "PERSONAS": 34087.0, "HOMBRES": 0.0, "MUJERES": 0.0, "DE_0_A_5_A": 1665.0, "DE_6_A_14_": 2357.0, "DE_15_A_64": 27827.0, "DE_65_MAS_": 2238.0, "INMIGRANTE": 6751.0, "PUEBLOS_OR": 1790.0, "RSH_Total": 22894.0, "Factor": 8.13, "RSH40_": 9053.0, "RSH_50_": 1856, "D_HAB_MT": 34.064857842400002, "SUP_MTS2": 1000.65, "RSH_TOTA_1": 22928.0, "RSH40AGO24": 9169, "RSH50AGO24": 1890.0, "MigraRSHag": 11261.0, "Migrantes": 4441.0 }, "geometry": { "type": "Polygon", "coordinates": [ [ [ -70.644024, -33.453257 ], [ -70.644216, -33.451834 ], [ -70.644213, -33.451689 ], [ -70.644574, -33.449556 ], [ -70.648063, -33.450052 ], [ -70.649073, -33.450152 ], [ -70.650508, -33.450453 ], [ -70.650569, -33.450461 ], [ -70.65056, -33.450514 ], [ -70.650382, -33.451818 ], [ -70.650172, -33.453192 ], [ -70.650042, -33.454061 ], [ -70.651476, -33.454314 ], [ -70.653933, -33.454376 ], [ -70.654071, -33.45438 ], [ -70.655581, -33.454419 ], [ -70.656576, -33.454445 ], [ -70.65777, -33.454506 ], [ -70.658073, -33.454533 ], [ -70.657989, -33.454715 ], [ -70.657742, -33.455065 ], [ -70.657284, -33.455655 ], [ -70.657035, -33.456034 ], [ -70.656902, -33.45638 ], [ -70.656819, -33.457026 ], [ -70.656728, -33.457713 ], [ -70.656744, -33.458045 ], [ -70.656912, -33.459017 ], [ -70.657126, -33.460197 ], [ -70.657114, -33.460619 ], [ -70.656657, -33.460567 ], [ -70.656063, -33.460339 ], [ -70.653404, -33.459986 ], [ -70.64975, -33.459591 ], [ -70.649146, -33.459497 ], [ -70.649144, -33.45951 ], [ -70.645903, -33.45882 ], [ -70.645303, -33.458683 ], [ -70.645303, -33.458683 ], [ -70.643859, -33.458405 ], [ -70.643287, -33.458281 ], [ -70.643416, -33.45732 ], [ -70.64382, -33.454766 ], [ -70.644024, -33.453257 ] ] ] } },
{ "type": "Feature", "properties": { "UNIDAD": 0.0, "BARRIO": "PARQUE OÂ´HIGGINS", "AGRP": "AV10", "UNIDAD_1": 0.0, "PERSONAS": 0.0, "HOMBRES": 0.0, "MUJERES": 0.0, "DE_0_A_5_A": 0.0, "DE_6_A_14_": 0.0, "DE_15_A_64": 0.0, "DE_65_MAS_": 0.0, "INMIGRANTE": 0.0, "PUEBLOS_OR": 0.0, "RSH_Total": 0.0, "Factor": 0.0, "RSH40_": 0.0, "RSH_50_": 0, "D_HAB_MT": 0.0, "SUP_MTS2": 860.184, "RSH_TOTA_1": 0.0, "RSH40AGO24": 0, "RSH50AGO24": 0.0, "MigraRSHag": 0.0, "Migrantes": 0.0 }, "geometry": { "type": "Polygon", "coordinates": [ [ [ -70.657114, -33.460619 ], [ -70.657126, -33.460197 ], [ -70.656912, -33.459017 ], [ -70.656744, -33.458045 ], [ -70.659324, -33.458193 ], [ -70.663892, -33.458485 ], [ -70.663943, -33.458584 ], [ -70.663808, -33.461485 ], [ -70.663726, -33.463435 ], [ -70.663679, -33.464574 ], [ -70.663497, -33.468797 ], [ -70.663426, -33.470366 ], [ -70.657309, -33.470006 ], [ -70.656964, -33.470011 ], [ -70.656349, -33.469983 ], [ -70.656371, -33.469182 ], [ -70.656475, -33.466531 ], [ -70.65659, -33.464556 ], [ -70.656622, -33.463999 ], [ -70.657114, -33.460619 ] ] ] } },
{ "type": "Feature", "properties": { "UNIDAD": 24.0, "BARRIO": "VIEL", "AGRP": "AV10", "UNIDAD_1": 24.0, "PERSONAS": 24785.0, "HOMBRES": 0.0, "MUJERES": 0.0, "DE_0_A_5_A": 1262.0, "DE_6_A_14_": 1996.0, "DE_15_A_64": 19577.0, "DE_65_MAS_": 1951.0, "INMIGRANTE": 5020.0, "PUEBLOS_OR": 1100.0, "RSH_Total": 15288.0, "Factor": 0.0, "RSH40_": 6954.0, "RSH_50_": 1421, "D_HAB_MT": 30.455137499700001, "SUP_MTS2": 813.82, "RSH_TOTA_1": 15168.0, "RSH40AGO24": 7113, "RSH50AGO24": 1335.0, "MigraRSHag": 3246.0, "Migrantes": 3220.0 }, "geometry": { "type": "Polygon", "coordinates": [ [ [ -70.648898, -33.463665 ], [ -70.648971, -33.462152 ], [ -70.649045, -33.461148 ], [ -70.649108, -33.460027 ], [ -70.649146, -33.459497 ], [ -70.64975, -33.459591 ], [ -70.653404, -33.459986 ], [ -70.656063, -33.460339 ], [ -70.656657, -33.460567 ], [ -70.657114, -33.460619 ], [ -70.656622, -33.463999 ], [ -70.65659, -33.464556 ], [ -70.656475, -33.466531 ], [ -70.656371, -33.469182 ], [ -70.656349, -33.469983 ], [ -70.656192, -33.469976 ], [ -70.656008, -33.469968 ], [ -70.65599, -33.469975 ], [ -70.655655, -33.470103 ], [ -70.655215, -33.470276 ], [ -70.65506, -33.470353 ], [ -70.65485, -33.470365 ], [ -70.654572, -33.470359 ], [ -70.654415, -33.470358 ], [ -70.652134, -33.470115 ], [ -70.650103, -33.469895 ], [ -70.648548, -33.469741 ], [ -70.648588, -33.468994 ], [ -70.648699, -33.467258 ], [ -70.648783, -33.465543 ], [ -70.648888, -33.463872 ], [ -70.648898, -33.463665 ] ] ] } },
{ "type": "Feature", "properties": { "UNIDAD": 2.0, "BARRIO": "CENTRO HISTORICO", "AGRP": "AV1", "UNIDAD_1": 2.0, "PERSONAS": 32914.0, "HOMBRES": 0.0, "MUJERES": 0.0, "DE_0_A_5_A": 1307.0, "DE_6_A_14_": 1543.0, "DE_15_A_64": 28082.0, "DE_65_MAS_": 1982.0, "INMIGRANTE": 7824.0, "PUEBLOS_OR": 1476.0, "RSH_Total": 18044.0, "Factor": 7.74, "RSH40_": 7164.0, "RSH_50_": 1480, "D_HAB_MT": 27.324772445800001, "SUP_MTS2": 1204.548, "RSH_TOTA_1": 18093.0, "RSH40AGO24": 7358, "RSH50AGO24": 1561.0, "MigraRSHag": 8959.0, "Migrantes": 3886.0 }, "geometry": { "type": "Polygon", "coordinates": [ [ [ -70.648617, -33.432537 ], [ -70.650673, -33.432079 ], [ -70.651746, -33.43184 ], [ -70.652845, -33.431596 ], [ -70.65299, -33.431563 ], [ -70.655952, -33.430856 ], [ -70.657493, -33.430488 ], [ -70.657481, -33.432496 ], [ -70.657452, -33.433092 ], [ -70.657459, -33.433227 ], [ -70.657422, -33.433489 ], [ -70.657358, -33.434166 ], [ -70.657335, -33.43441 ], [ -70.657329, -33.434536 ], [ -70.657169, -33.435645 ], [ -70.657021, -33.436768 ], [ -70.657021, -33.436768 ], [ -70.656885, -33.437897 ], [ -70.656751, -33.439008 ], [ -70.656592, -33.440137 ], [ -70.656574, -33.440201 ], [ -70.656362, -33.44125 ], [ -70.656234, -33.441799 ], [ -70.65611, -33.442398 ], [ -70.655869, -33.443511 ], [ -70.655665, -33.444551 ], [ -70.655608, -33.444712 ], [ -70.655462, -33.444688 ], [ -70.654854, -33.444539 ], [ -70.65431, -33.444408 ], [ -70.654047, -33.444335 ], [ -70.653329, -33.444186 ], [ -70.653095, -33.444145 ], [ -70.653008, -33.444126 ], [ -70.652867, -33.444091 ], [ -70.65192, -33.443868 ], [ -70.651637, -33.44385 ], [ -70.651119, -33.443774 ], [ -70.651032, -33.443753 ], [ -70.650399, -33.443595 ], [ -70.648976, -33.443272 ], [ -70.647678, -33.442975 ], [ -70.64711, -33.442848 ], [ -70.6468, -33.442779 ], [ -70.646368, -33.442692 ], [ -70.646248, -33.442669 ], [ -70.646477, -33.441502 ], [ -70.646658, -33.440355 ], [ -70.646857, -33.439169 ], [ -70.646995, -33.438326 ], [ -70.647026, -33.4381 ], [ -70.647031, -33.438019 ], [ -70.64702, -33.43792 ], [ -70.647181, -33.436845 ], [ -70.647188, -33.436745 ], [ -70.64736, -33.435718 ], [ -70.647517, -33.434622 ], [ -70.647523, -33.434577 ], [ -70.647577, -33.434251 ], [ -70.64761, -33.434161 ], [ -70.647656, -33.434098 ], [ -70.647661, -33.434091 ], [ -70.648998, -33.433781 ], [ -70.648913, -33.433438 ], [ -70.648842, -33.433201 ], [ -70.648617, -33.432537 ] ] ] } },
{ "type": "Feature", "properties": { "UNIDAD": 1.0, "BARRIO": "SANTA LUCIA FORESTAL", "AGRP": "AV1", "UNIDAD_1": 1.0, "PERSONAS": 15947.0, "HOMBRES": 0.0, "MUJERES": 0.0, "DE_0_A_5_A": 376.0, "DE_6_A_14_": 425.0, "DE_15_A_64": 13646.0, "DE_65_MAS_": 1499.0, "INMIGRANTE": 1919.0, "PUEBLOS_OR": 859.0, "RSH_Total": 6542.0, "Factor": 7.74, "RSH40_": 2144.0, "RSH_50_": 480, "D_HAB_MT": 21.625807221500001, "SUP_MTS2": 737.406, "RSH_TOTA_1": 6501.0, "RSH40AGO24": 2191, "RSH50AGO24": 407.0, "MigraRSHag": 1605.0, "Migrantes": 601.0 }, "geometry": { "type": "Polygon", "coordinates": [ [ [ -70.635212, -33.437061 ], [ -70.635377, -33.43645 ], [ -70.635395, -33.436224 ], [ -70.635354, -33.435763 ], [ -70.635405, -33.435627 ], [ -70.636193, -33.435436 ], [ -70.641992, -33.434076 ], [ -70.642582, -33.433938 ], [ -70.647512, -33.432783 ], [ -70.647841, -33.43271 ], [ -70.648617, -33.432537 ], [ -70.648842, -33.433201 ], [ -70.648913, -33.433438 ], [ -70.648998, -33.433781 ], [ -70.647661, -33.434091 ], [ -70.647656, -33.434098 ], [ -70.64761, -33.434161 ], [ -70.647577, -33.434251 ], [ -70.647523, -33.434577 ], [ -70.647517, -33.434622 ], [ -70.64736, -33.435718 ], [ -70.647188, -33.436745 ], [ -70.647181, -33.436845 ], [ -70.64702, -33.43792 ], [ -70.647031, -33.438019 ], [ -70.647026, -33.4381 ], [ -70.646995, -33.438326 ], [ -70.646857, -33.439169 ], [ -70.646658, -33.440355 ], [ -70.646477, -33.441502 ], [ -70.646248, -33.442669 ], [ -70.646161, -33.442648 ], [ -70.645302, -33.442457 ], [ -70.644908, -33.442364 ], [ -70.644833, -33.442337 ], [ -70.644308, -33.442186 ], [ -70.644102, -33.442127 ], [ -70.644102, -33.442127 ], [ -70.644061, -33.442115 ], [ -70.643703, -33.441978 ], [ -70.64352, -33.441907 ], [ -70.643324, -33.441824 ], [ -70.643127, -33.441741 ], [ -70.642951, -33.441649 ], [ -70.642775, -33.441557 ], [ -70.642454, -33.441344 ], [ -70.641868, -33.440931 ], [ -70.641726, -33.440831 ], [ -70.640813, -33.440212 ], [ -70.640722, -33.440144 ], [ -70.640538, -33.440016 ], [ -70.640514, -33.439999 ], [ -70.639602, -33.439398 ], [ -70.639244, -33.439141 ], [ -70.638208, -33.438379 ], [ -70.638158, -33.438337 ], [ -70.638061, -33.438282 ], [ -70.637523, -33.437902 ], [ -70.636894, -33.437576 ], [ -70.63669, -33.43748 ], [ -70.636574, -33.437426 ], [ -70.63647, -33.437383 ], [ -70.635922, -33.437228 ], [ -70.63546, -33.437117 ], [ -70.635212, -33.437061 ] ] ] } },
{ "type": "Feature", "properties": { "UNIDAD": 0.0, "BARRIO": "SIN SECTORIZAR", "AGRP": null, "UNIDAD_1": 0.0, "PERSONAS": 0.0, "HOMBRES": 0.0, "MUJERES": 0.0, "DE_0_A_5_A": 0.0, "DE_6_A_14_": 0.0, "DE_15_A_64": 0.0, "DE_65_MAS_": 0.0, "INMIGRANTE": 0.0, "PUEBLOS_OR": 0.0, "RSH_Total": 2857.0, "Factor": 0.0, "RSH40_": 1024.0, "RSH_50_": 224, "D_HAB_MT": 0.0, "SUP_MTS2": 0.0, "RSH_TOTA_1": 2807.0, "RSH40AGO24": 1072, "RSH50AGO24": 211.0, "MigraRSHag": 1497.0, "Migrantes": 649.0 }, "geometry": null }
]
}
