{
"type": "FeatureCollection",
"name": "SOC_PTO_BIBLIOTECAS_VF_2025",
"features": [
{ "type": "Feature", "properties": { "id_bib": "BIB_001", "nombre": "Biblioteca Biomdica PUC", "direccion": null, "barrio": "SAN BORJA", "tipo": "Biblioteca", "fuente": "MINCAP-OPC", "anio": 2025, "x": 347482.0, "y": 6298660.0, "geom_valida": true, "geom_vacia": false }, "geometry": { "type": "Point", "coordinates": [ -70.640794, -33.440624 ] } },
{ "type": "Feature", "properties": { "id_bib": "BIB_002", "nombre": "Biblioteca Caja Los Andes", "direccion": null, "barrio": "PARQUE ALMAGRO", "tipo": "Biblioteca", "fuente": "MINCAP-OPC", "anio": 2025, "x": 345998.0, "y": 6297950.0, "geom_valida": true, "geom_vacia": false }, "geometry": { "type": "Point", "coordinates": [ -70.656875, -33.446814 ] } },
{ "type": "Feature", "properties": { "id_bib": "BIB_003", "nombre": "Biblioteca Campus Centro Facultad de Medicina Universidad de Chile", "direccion": null, "barrio": "MATTA SUR", "tipo": "Biblioteca", "fuente": "MINCAP-OPC", "anio": 2025, "x": 347566.0, "y": 6296380.0, "geom_valida": true, "geom_vacia": false }, "geometry": { "type": "Point", "coordinates": [ -70.640278, -33.461193 ] } },
{ "type": "Feature", "properties": { "id_bib": "BIB_004", "nombre": "Biblioteca de la Contraloría General de la República de Chile", "direccion": null, "barrio": "CENTRO HISTORICO", "tipo": "Biblioteca", "fuente": "MINCAP-OPC", "anio": 2025, "x": 346205.0, "y": 6298360.0, "geom_valida": true, "geom_vacia": false }, "geometry": { "type": "Point", "coordinates": [ -70.654579, -33.443147 ] } },
{ "type": "Feature", "properties": { "id_bib": "BIB_005", "nombre": "Biblioteca de la Coporración Nacional Forestal Conaf", "direccion": null, "barrio": "PARQUE ALMAGRO", "tipo": "Biblioteca", "fuente": "MINCAP-OPC", "anio": 2025, "x": 346382.0, "y": 6297670.0, "geom_valida": true, "geom_vacia": false }, "geometry": { "type": "Point", "coordinates": [ -70.652793, -33.449393 ] } },
{ "type": "Feature", "properties": { "id_bib": "BIB_006", "nombre": "Biblioteca de la Sociedad Nacional de Agricultura", "direccion": null, "barrio": "CENTRO HISTORICO", "tipo": "Biblioteca", "fuente": "MINCAP-OPC", "anio": 2025, "x": 346895.0, "y": 6298670.0, "geom_valida": true, "geom_vacia": false }, "geometry": { "type": "Point", "coordinates": [ -70.647105, -33.440451 ] } },
{ "type": "Feature", "properties": { "id_bib": "BIB_007", "nombre": "Biblioteca de Salud Dr. Bogoslav Juricic Turina", "direccion": null, "barrio": "SANTA LUCIA FORESTAL", "tipo": "Biblioteca", "fuente": "MINCAP-OPC", "anio": 2025, "x": 346886.0, "y": 6299100.0, "geom_valida": true, "geom_vacia": false }, "geometry": { "type": "Point", "coordinates": [ -70.647129, -33.436572 ] } },
{ "type": "Feature", "properties": { "id_bib": "BIB_008", "nombre": "Biblioteca del Congreso Nacional de Chile", "direccion": null, "barrio": "CENTRO HISTORICO", "tipo": "Biblioteca", "fuente": "MINCAP-OPC", "anio": 2025, "x": 346307.0, "y": 6298870.0, "geom_valida": true, "geom_vacia": false }, "geometry": { "type": "Point", "coordinates": [ -70.653394, -33.438563 ] } },
{ "type": "Feature", "properties": { "id_bib": "BIB_009", "nombre": "Biblioteca del Servicio de Impuestos Internos SII", "direccion": null, "barrio": "CENTRO HISTORICO", "tipo": "Biblioteca", "fuente": "MINCAP-OPC", "anio": 2025, "x": 346145.0, "y": 6298490.0, "geom_valida": true, "geom_vacia": false }, "geometry": { "type": "Point", "coordinates": [ -70.655202, -33.441966 ] } },
{ "type": "Feature", "properties": { "id_bib": "BIB_010", "nombre": "Biblioteca Derecho y Comunicaciones, PUC", "direccion": null, "barrio": "SAN BORJA", "tipo": "Biblioteca", "fuente": "MINCAP-OPC", "anio": 2025, "x": 347482.0, "y": 6298660.0, "geom_valida": true, "geom_vacia": false }, "geometry": { "type": "Point", "coordinates": [ -70.640794, -33.440624 ] } },
{ "type": "Feature", "properties": { "id_bib": "BIB_011", "nombre": "Biblioteca Isabel Allende Unidad Especial de Alta Seguridad CAS", "direccion": null, "barrio": "RONDIZZONI", "tipo": "Biblioteca", "fuente": "MINCAP-OPC", "anio": 2025, "x": 345815.0, "y": 6294980.0, "geom_valida": true, "geom_vacia": false }, "geometry": { "type": "Point", "coordinates": [ -70.659353, -33.473564 ] } },
{ "type": "Feature", "properties": { "id_bib": "BIB_012", "nombre": "Biblioteca Participación ciudadana y no discriminación", "direccion": null, "barrio": "SANTA LUCIA FORESTAL", "tipo": "Biblioteca", "fuente": "MINCAP-OPC", "anio": 2025, "x": 347560.0, "y": 6298950.0, "geom_valida": true, "geom_vacia": false }, "geometry": { "type": "Point", "coordinates": [ -70.639906, -33.438021 ] } },
{ "type": "Feature", "properties": { "id_bib": "BIB_013", "nombre": "Centro Colaborativo CORFO", "direccion": null, "barrio": "CENTRO HISTORICO", "tipo": "Biblioteca", "fuente": "MINCAP-OPC", "anio": 2025, "x": 346674.0, "y": 6298550.0, "geom_valida": true, "geom_vacia": false }, "geometry": { "type": "Point", "coordinates": [ -70.649502, -33.441501 ] } },
{ "type": "Feature", "properties": { "id_bib": "BIB_014", "nombre": "Mediateca Carlos Botto Vallarino", "direccion": null, "barrio": "CENTRO HISTORICO", "tipo": "Biblioteca", "fuente": "MINCAP-OPC", "anio": 2025, "x": 346184.0, "y": 6298830.0, "geom_valida": true, "geom_vacia": false }, "geometry": { "type": "Point", "coordinates": [ -70.654724, -33.438906 ] } },
{ "type": "Feature", "properties": { "id_bib": "BIB_015", "nombre": "Biblioteca Nacional de Chile", "direccion": "Av. Lib. Bernardo Ohiggins 651", "barrio": "SANTA LUCIA FORESTAL", "tipo": "Biblioteca", "fuente": "IMS", "anio": 2025, "x": 347040.6, "y": 6298481.5, "geom_valida": true, "geom_vacia": false }, "geometry": { "type": "Point", "coordinates": [ -70.645571, -33.442171 ] } },
{ "type": "Feature", "properties": { "id_bib": "BIB_016", "nombre": "Biblioteca Fundación Palabra", "direccion": "Ventura Lavalle 470", "barrio": "MATTA SUR", "tipo": "Biblioteca", "fuente": "IMS", "anio": 2025, "x": 347750.78, "y": 6296633.59, "geom_valida": true, "geom_vacia": false }, "geometry": { "type": "Point", "coordinates": [ -70.638247, -33.458933 ] } },
{ "type": "Feature", "properties": { "id_bib": "BIB_017", "nombre": "Biblioteca Pública Temática", "direccion": "Morande 226", "barrio": "CENTRO HISTORICO", "tipo": "Biblioteca", "fuente": "IMS", "anio": 2025, "x": 346282.41, "y": 6298633.31, "geom_valida": true, "geom_vacia": false }, "geometry": { "type": "Point", "coordinates": [ -70.653699, -33.440694 ] } },
{ "type": "Feature", "properties": { "id_bib": "BIB_018", "nombre": "Biblioteca de las Mujeres", "direccion": "Agustinas 1389", "barrio": "CENTRO HISTORICO", "tipo": "Biblioteca", "fuente": "IMS", "anio": 2025, "x": 346048.84, "y": 6298580.91, "geom_valida": true, "geom_vacia": false }, "geometry": { "type": "Point", "coordinates": [ -70.65622, -33.441133 ] } },
{ "type": "Feature", "properties": { "id_bib": "BIB_019", "nombre": "Biblioteca Pública", "direccion": "Huerfanos 1805", "barrio": "BRASIL", "tipo": "Biblioteca", "fuente": "IMS", "anio": 2025, "x": 345485.61, "y": 6298627.48, "geom_valida": true, "geom_vacia": false }, "geometry": { "type": "Point", "coordinates": [ -70.662269, -33.440632 ] } },
{ "type": "Feature", "properties": { "id_bib": "BIB_020", "nombre": "Biblioteca Filial", "direccion": "Santo Domingo 2398", "barrio": "YUNGAY", "tipo": "Biblioteca", "fuente": "IMS", "anio": 2025, "x": 344718.48, "y": 6298927.37, "geom_valida": true, "geom_vacia": false }, "geometry": { "type": "Point", "coordinates": [ -70.670467, -33.437817 ] } },
{ "type": "Feature", "properties": { "id_bib": "BIB_021", "nombre": "Biblioteca Regional", "direccion": "Matucana 151", "barrio": "YUNGAY", "tipo": "Biblioteca", "fuente": "IMS", "anio": 2025, "x": 343937.77, "y": 6298183.1, "geom_valida": true, "geom_vacia": false }, "geometry": { "type": "Point", "coordinates": [ -70.678992, -33.444414 ] } }
]
}
