{
"type": "FeatureCollection",
"name": "SOC_PTO_COMERCIO_SEXUAL",
"features": [
{ "type": "Feature", "properties": { "Id": 0, "Barrio": "SANTA ANA" }, "geometry": { "type": "Point", "coordinates": [ -70.658581, -33.436384 ] } },
{ "type": "Feature", "properties": { "Id": 0, "Barrio": "SANTA ANA" }, "geometry": { "type": "Point", "coordinates": [ -70.657135, -33.437429 ] } },
{ "type": "Feature", "properties": { "Id": 0, "Barrio": "CASCO HISTORICO" }, "geometry": { "type": "Point", "coordinates": [ -70.655402, -33.437706 ] } },
{ "type": "Feature", "properties": { "Id": 0, "Barrio": "CASCO HISTORICO" }, "geometry": { "type": "Point", "coordinates": [ -70.6554, -33.437957 ] } },
{ "type": "Feature", "properties": { "Id": 0, "Barrio": "CASCO HISTORICO" }, "geometry": { "type": "Point", "coordinates": [ -70.654539, -33.437786 ] } },
{ "type": "Feature", "properties": { "Id": 0, "Barrio": "CASCO HISTORICO" }, "geometry": { "type": "Point", "coordinates": [ -70.654101, -33.436424 ] } },
{ "type": "Feature", "properties": { "Id": 0, "Barrio": "CASCO HISTORICO" }, "geometry": { "type": "Point", "coordinates": [ -70.656552, -33.439513 ] } },
{ "type": "Feature", "properties": { "Id": 0, "Barrio": "CASCO HISTORICO" }, "geometry": { "type": "Point", "coordinates": [ -70.65643, -33.440288 ] } },
{ "type": "Feature", "properties": { "Id": 0, "Barrio": "SANTA ANA" }, "geometry": { "type": "Point", "coordinates": [ -70.656704, -33.440322 ] } },
{ "type": "Feature", "properties": { "Id": 0, "Barrio": "CASCO HISTORICO" }, "geometry": { "type": "Point", "coordinates": [ -70.652721, -33.43744 ] } },
{ "type": "Feature", "properties": { "Id": 0, "Barrio": "CASCO HISTORICO" }, "geometry": { "type": "Point", "coordinates": [ -70.650763, -33.437629 ] } },
{ "type": "Feature", "properties": { "Id": 0, "Barrio": "CASCO HISTORICO" }, "geometry": { "type": "Point", "coordinates": [ -70.649743, -33.437724 ] } },
{ "type": "Feature", "properties": { "Id": 0, "Barrio": "CASCO HISTORICO" }, "geometry": { "type": "Point", "coordinates": [ -70.649738, -33.437044 ] } },
{ "type": "Feature", "properties": { "Id": 0, "Barrio": "CASCO HISTORICO" }, "geometry": { "type": "Point", "coordinates": [ -70.650178, -33.434984 ] } },
{ "type": "Feature", "properties": { "Id": 0, "Barrio": "CASCO HISTORICO" }, "geometry": { "type": "Point", "coordinates": [ -70.651082, -33.438825 ] } },
{ "type": "Feature", "properties": { "Id": 0, "Barrio": "SANTA LUCIA FORESTAL" }, "geometry": { "type": "Point", "coordinates": [ -70.646961, -33.438109 ] } },
{ "type": "Feature", "properties": { "Id": 0, "Barrio": "SANTA LUCIA FORESTAL" }, "geometry": { "type": "Point", "coordinates": [ -70.647057, -33.437545 ] } },
{ "type": "Feature", "properties": { "Id": 0, "Barrio": "SANTA LUCIA FORESTAL" }, "geometry": { "type": "Point", "coordinates": [ -70.643538, -33.437645 ] } },
{ "type": "Feature", "properties": { "Id": 0, "Barrio": "SANTA LUCIA FORESTAL" }, "geometry": { "type": "Point", "coordinates": [ -70.644279, -33.437489 ] } },
{ "type": "Feature", "properties": { "Id": 0, "Barrio": "SANTA LUCIA FORESTAL" }, "geometry": { "type": "Point", "coordinates": [ -70.636235, -33.437278 ] } },
{ "type": "Feature", "properties": { "Id": 0, "Barrio": "SAN BORJA" }, "geometry": { "type": "Point", "coordinates": [ -70.636231, -33.437679 ] } },
{ "type": "Feature", "properties": { "Id": 0, "Barrio": "SAN BORJA" }, "geometry": { "type": "Point", "coordinates": [ -70.635659, -33.437534 ] } },
{ "type": "Feature", "properties": { "Id": 0, "Barrio": "SAN BORJA" }, "geometry": { "type": "Point", "coordinates": [ -70.641918, -33.442642 ] } },
{ "type": "Feature", "properties": { "Id": 0, "Barrio": "SAN BORJA" }, "geometry": { "type": "Point", "coordinates": [ -70.636075, -33.442378 ] } },
{ "type": "Feature", "properties": { "Id": 0, "Barrio": "PARQUE ALMAGRO" }, "geometry": { "type": "Point", "coordinates": [ -70.649184, -33.445229 ] } },
{ "type": "Feature", "properties": { "Id": 0, "Barrio": "SAN BORJA" }, "geometry": { "type": "Point", "coordinates": [ -70.638197, -33.443009 ] } },
{ "type": "Feature", "properties": { "Id": 0, "Barrio": "SANTA ISABEL" }, "geometry": { "type": "Point", "coordinates": [ -70.636196, -33.445048 ] } },
{ "type": "Feature", "properties": { "Id": 0, "Barrio": "SANTA ISABEL" }, "geometry": { "type": "Point", "coordinates": [ -70.635503, -33.44481 ] } },
{ "type": "Feature", "properties": { "Id": 0, "Barrio": "SANTA ISABEL" }, "geometry": { "type": "Point", "coordinates": [ -70.635296, -33.445303 ] } },
{ "type": "Feature", "properties": { "Id": 0, "Barrio": "SANTA ISABEL" }, "geometry": { "type": "Point", "coordinates": [ -70.633474, -33.445504 ] } },
{ "type": "Feature", "properties": { "Id": 0, "Barrio": "SANTA ISABEL" }, "geometry": { "type": "Point", "coordinates": [ -70.636926, -33.446439 ] } },
{ "type": "Feature", "properties": { "Id": 0, "Barrio": "SAN BORJA" }, "geometry": { "type": "Point", "coordinates": [ -70.64416, -33.446122 ] } },
{ "type": "Feature", "properties": { "Id": 0, "Barrio": "PARQUE ALMAGRO" }, "geometry": { "type": "Point", "coordinates": [ -70.645116, -33.447159 ] } },
{ "type": "Feature", "properties": { "Id": 0, "Barrio": "SANTA ISABEL" }, "geometry": { "type": "Point", "coordinates": [ -70.636718, -33.4485 ] } },
{ "type": "Feature", "properties": { "Id": 0, "Barrio": "SANTA ISABEL" }, "geometry": { "type": "Point", "coordinates": [ -70.633121, -33.449128 ] } },
{ "type": "Feature", "properties": { "Id": 0, "Barrio": "SANTA ISABEL" }, "geometry": { "type": "Point", "coordinates": [ -70.636151, -33.450571 ] } },
{ "type": "Feature", "properties": { "Id": 0, "Barrio": "DIEZ DE JULIO" }, "geometry": { "type": "Point", "coordinates": [ -70.631114, -33.452082 ] } },
{ "type": "Feature", "properties": { "Id": 0, "Barrio": "DIEZ DE JULIO" }, "geometry": { "type": "Point", "coordinates": [ -70.631221, -33.45199 ] } },
{ "type": "Feature", "properties": { "Id": 0, "Barrio": "DIEZ DE JULIO" }, "geometry": { "type": "Point", "coordinates": [ -70.631497, -33.451924 ] } },
{ "type": "Feature", "properties": { "Id": 0, "Barrio": "DIEZ DE JULIO" }, "geometry": { "type": "Point", "coordinates": [ -70.631972, -33.451828 ] } },
{ "type": "Feature", "properties": { "Id": 0, "Barrio": "DIEZ DE JULIO" }, "geometry": { "type": "Point", "coordinates": [ -70.632337, -33.451776 ] } },
{ "type": "Feature", "properties": { "Id": 0, "Barrio": "DIEZ DE JULIO" }, "geometry": { "type": "Point", "coordinates": [ -70.631557, -33.452303 ] } },
{ "type": "Feature", "properties": { "Id": 0, "Barrio": "DIEZ DE JULIO" }, "geometry": { "type": "Point", "coordinates": [ -70.631504, -33.452582 ] } },
{ "type": "Feature", "properties": { "Id": 0, "Barrio": "SANTA ISABEL" }, "geometry": { "type": "Point", "coordinates": [ -70.635394, -33.451583 ] } },
{ "type": "Feature", "properties": { "Id": 0, "Barrio": "DIEZ DE JULIO" }, "geometry": { "type": "Point", "coordinates": [ -70.63526, -33.452238 ] } },
{ "type": "Feature", "properties": { "Id": 0, "Barrio": "DIEZ DE JULIO" }, "geometry": { "type": "Point", "coordinates": [ -70.636697, -33.453126 ] } },
{ "type": "Feature", "properties": { "Id": 0, "Barrio": "DIEZ DE JULIO" }, "geometry": { "type": "Point", "coordinates": [ -70.636999, -33.452045 ] } },
{ "type": "Feature", "properties": { "Id": 0, "Barrio": "DIEZ DE JULIO" }, "geometry": { "type": "Point", "coordinates": [ -70.638945, -33.453563 ] } },
{ "type": "Feature", "properties": { "Id": 0, "Barrio": "DIEZ DE JULIO" }, "geometry": { "type": "Point", "coordinates": [ -70.64063, -33.452982 ] } },
{ "type": "Feature", "properties": { "Id": 0, "Barrio": "DIEZ DE JULIO" }, "geometry": { "type": "Point", "coordinates": [ -70.633799, -33.454173 ] } },
{ "type": "Feature", "properties": { "Id": 0, "Barrio": "DIEZ DE JULIO" }, "geometry": { "type": "Point", "coordinates": [ -70.633664, -33.454711 ] } },
{ "type": "Feature", "properties": { "Id": 0, "Barrio": "DIEZ DE JULIO" }, "geometry": { "type": "Point", "coordinates": [ -70.634584, -33.455123 ] } },
{ "type": "Feature", "properties": { "Id": 0, "Barrio": "DIEZ DE JULIO" }, "geometry": { "type": "Point", "coordinates": [ -70.634871, -33.454382 ] } },
{ "type": "Feature", "properties": { "Id": 0, "Barrio": "DIEZ DE JULIO" }, "geometry": { "type": "Point", "coordinates": [ -70.63503, -33.454027 ] } },
{ "type": "Feature", "properties": { "Id": 0, "Barrio": "DIEZ DE JULIO" }, "geometry": { "type": "Point", "coordinates": [ -70.634182, -33.452692 ] } },
{ "type": "Feature", "properties": { "Id": 0, "Barrio": "DIEZ DE JULIO" }, "geometry": { "type": "Point", "coordinates": [ -70.63621, -33.455691 ] } },
{ "type": "Feature", "properties": { "Id": 0, "Barrio": "MATTA NORTE" }, "geometry": { "type": "Point", "coordinates": [ -70.646069, -33.457455 ] } },
{ "type": "Feature", "properties": { "Id": 0, "Barrio": "MATTA NORTE" }, "geometry": { "type": "Point", "coordinates": [ -70.646735, -33.451962 ] } },
{ "type": "Feature", "properties": { "Id": 0, "Barrio": "MATTA NORTE" }, "geometry": { "type": "Point", "coordinates": [ -70.644219, -33.45165 ] } },
{ "type": "Feature", "properties": { "Id": 0, "Barrio": "PARQUE ALMAGRO" }, "geometry": { "type": "Point", "coordinates": [ -70.652951, -33.448319 ] } },
{ "type": "Feature", "properties": { "Id": 0, "Barrio": "PARQUE ALMAGRO" }, "geometry": { "type": "Point", "coordinates": [ -70.652988, -33.448728 ] } },
{ "type": "Feature", "properties": { "Id": 0, "Barrio": "PARQUE ALMAGRO" }, "geometry": { "type": "Point", "coordinates": [ -70.655051, -33.446823 ] } }
]
}
