{
"type": "FeatureCollection",
"name": "SOC_PTO_ESPACIOS_CULTURALES_2024",
"features": [
{ "type": "Feature", "properties": { "Join_Count": 1, "TARGET_FID": 1, "nombre": "Archivo Central Andrés Bello - Vicerrectoría de Extensión de la Universidad de Chile", "Comentario": "Mincap-OPC", "Tipo": "Archivo", "Jerarquía": 0, "Propiedad": null, "X": 346602.0, "Y": 6298240.0, "Coordenada": 0.0, "OBJECTID_1": 1, "UNIDAD": 11.0, "BARRIO": "PARQUE ALMAGRO", "AGRP": "AV8", "SUP_KM": 1.284634, "Shape_Leng": 4871.32698351, "Shape_Area": 1284625.2565299999, "RSH_Total": 34913.0 }, "geometry": { "type": "Point", "coordinates": [ -70.65033, -33.444312, 0.0 ] } },
{ "type": "Feature", "properties": { "Join_Count": 1, "TARGET_FID": 2, "nombre": "Archivo General Histórico del Ministerio de Relaciones Exteriores", "Comentario": "Mincap-OPC", "Tipo": "Archivo", "Jerarquía": 0, "Propiedad": null, "X": 346155.0, "Y": 6298540.0, "Coordenada": 0.0, "OBJECTID_1": 2, "UNIDAD": 2.0, "BARRIO": "CENTRO HISTORICO", "AGRP": "AV1", "SUP_KM": 1.204548, "Shape_Leng": 4579.4313277499996, "Shape_Area": 1204540.55342, "RSH_Total": 18044.0 }, "geometry": { "type": "Point", "coordinates": [ -70.655086, -33.441497, 0.0 ] } },
{ "type": "Feature", "properties": { "Join_Count": 1, "TARGET_FID": 3, "nombre": "Archivo Nacional de la Administración", "Comentario": "Mincap-OPC", "Tipo": "Archivo", "Jerarquía": 0, "Propiedad": null, "X": 343926.0, "Y": 6298160.0, "Coordenada": 0.0, "OBJECTID_1": 3, "UNIDAD": 7.0, "BARRIO": "YUNGAY", "AGRP": "AV3", "SUP_KM": 2.727776, "Shape_Leng": 8932.4113992700004, "Shape_Area": 2727758.4661400001, "RSH_Total": 32141.0 }, "geometry": { "type": "Point", "coordinates": [ -70.679117, -33.444579, 0.0 ] } },
{ "type": "Feature", "properties": { "Join_Count": 1, "TARGET_FID": 4, "nombre": "Archivo Nacional Histórico", "Comentario": "Mincap-OPC", "Tipo": "Archivo", "Jerarquía": 0, "Propiedad": null, "X": 347114.0, "Y": 6298500.0, "Coordenada": 0.0, "OBJECTID_1": 4, "UNIDAD": 1.0, "BARRIO": "SANTA LUCIA FORESTAL", "AGRP": "AV1", "SUP_KM": 0.737406, "Shape_Leng": 3888.4785307500001, "Shape_Area": 737401.56247300003, "RSH_Total": 6542.0 }, "geometry": { "type": "Point", "coordinates": [ -70.644776, -33.442029, 0.0 ] } },
{ "type": "Feature", "properties": { "Join_Count": 1, "TARGET_FID": 5, "nombre": "Biblioteca Biomédica PUC", "Comentario": "Mincap-OPC", "Tipo": "Biblioteca", "Jerarquía": 0, "Propiedad": null, "X": 347481.0, "Y": 6298650.0, "Coordenada": 0.0, "OBJECTID_1": 5, "UNIDAD": 8.0, "BARRIO": "SAN BORJA", "AGRP": "AV7", "SUP_KM": 0.658834, "Shape_Leng": 3937.5269061700001, "Shape_Area": 658829.68134999997, "RSH_Total": 13319.0 }, "geometry": { "type": "Point", "coordinates": [ -70.640803, -33.440726, 0.0 ] } },
{ "type": "Feature", "properties": { "Join_Count": 1, "TARGET_FID": 6, "nombre": "Biblioteca Caja Los Andes", "Comentario": "Mincap-OPC", "Tipo": "Biblioteca", "Jerarquía": 0, "Propiedad": null, "X": 345997.0, "Y": 6297940.0, "Coordenada": 0.0, "OBJECTID_1": 6, "UNIDAD": 11.0, "BARRIO": "PARQUE ALMAGRO", "AGRP": "AV8", "SUP_KM": 1.284634, "Shape_Leng": 4871.32698351, "Shape_Area": 1284625.2565299999, "RSH_Total": 34913.0 }, "geometry": { "type": "Point", "coordinates": [ -70.656893, -33.446927, 0.0 ] } },
{ "type": "Feature", "properties": { "Join_Count": 1, "TARGET_FID": 7, "nombre": "Biblioteca Campus Centro Facultad de Medicina Universidad de Chile", "Comentario": "Mincap-OPC", "Tipo": "Biblioteca", "Jerarquía": 0, "Propiedad": null, "X": 347565.0, "Y": 6296370.0, "Coordenada": 0.0, "OBJECTID_1": 7, "UNIDAD": 21.0, "BARRIO": "MATTA SUR", "AGRP": "AV10", "SUP_KM": 0.834843, "Shape_Leng": 4164.2222164200002, "Shape_Area": 834837.71375400003, "RSH_Total": 11940.0 }, "geometry": { "type": "Point", "coordinates": [ -70.640292, -33.461295, 0.0 ] } },
{ "type": "Feature", "properties": { "Join_Count": 1, "TARGET_FID": 8, "nombre": "Biblioteca de la Contraloría General de la República de Chile", "Comentario": "Mincap-OPC", "Tipo": "Biblioteca", "Jerarquía": 0, "Propiedad": null, "X": 346204.0, "Y": 6298360.0, "Coordenada": 0.0, "OBJECTID_1": 8, "UNIDAD": 2.0, "BARRIO": "CENTRO HISTORICO", "AGRP": "AV1", "SUP_KM": 1.204548, "Shape_Leng": 4579.4313277499996, "Shape_Area": 1204540.55342, "RSH_Total": 18044.0 }, "geometry": { "type": "Point", "coordinates": [ -70.654588, -33.443176, 0.0 ] } },
{ "type": "Feature", "properties": { "Join_Count": 1, "TARGET_FID": 9, "nombre": "Biblioteca de la Coporración Nacional Forestal Conaf", "Comentario": "Mincap-OPC", "Tipo": "Biblioteca", "Jerarquía": 0, "Propiedad": null, "X": 346381.0, "Y": 6297660.0, "Coordenada": 0.0, "OBJECTID_1": 9, "UNIDAD": 11.0, "BARRIO": "PARQUE ALMAGRO", "AGRP": "AV8", "SUP_KM": 1.284634, "Shape_Leng": 4871.32698351, "Shape_Area": 1284625.2565299999, "RSH_Total": 34913.0 }, "geometry": { "type": "Point", "coordinates": [ -70.652802, -33.44945, 0.0 ] } },
{ "type": "Feature", "properties": { "Join_Count": 1, "TARGET_FID": 10, "nombre": "Biblioteca de la Sociedad Nacional de Agricultura", "Comentario": "Mincap-OPC", "Tipo": "Biblioteca", "Jerarquía": 0, "Propiedad": null, "X": 346894.0, "Y": 6298660.0, "Coordenada": 0.0, "OBJECTID_1": 10, "UNIDAD": 2.0, "BARRIO": "CENTRO HISTORICO", "AGRP": "AV1", "SUP_KM": 1.204548, "Shape_Leng": 4579.4313277499996, "Shape_Area": 1204540.55342, "RSH_Total": 18044.0 }, "geometry": { "type": "Point", "coordinates": [ -70.647115, -33.440564, 0.0 ] } },
{ "type": "Feature", "properties": { "Join_Count": 1, "TARGET_FID": 11, "nombre": "Biblioteca de Salud Dr. Bogoslav Juricic Turina", "Comentario": "Mincap-OPC", "Tipo": "Biblioteca", "Jerarquía": 0, "Propiedad": null, "X": 346885.0, "Y": 6299090.0, "Coordenada": 0.0, "OBJECTID_1": 11, "UNIDAD": 1.0, "BARRIO": "SANTA LUCIA FORESTAL", "AGRP": "AV1", "SUP_KM": 0.737406, "Shape_Leng": 3888.4785307500001, "Shape_Area": 737401.56247300003, "RSH_Total": 6542.0 }, "geometry": { "type": "Point", "coordinates": [ -70.647139, -33.436638, 0.0 ] } },
{ "type": "Feature", "properties": { "Join_Count": 1, "TARGET_FID": 12, "nombre": "Biblioteca del Congreso Nacional de Chile", "Comentario": "Mincap-OPC", "Tipo": "Biblioteca", "Jerarquía": 0, "Propiedad": null, "X": 346306.0, "Y": 6298860.0, "Coordenada": 0.0, "OBJECTID_1": 12, "UNIDAD": 2.0, "BARRIO": "CENTRO HISTORICO", "AGRP": "AV1", "SUP_KM": 1.204548, "Shape_Leng": 4579.4313277499996, "Shape_Area": 1204540.55342, "RSH_Total": 18044.0 }, "geometry": { "type": "Point", "coordinates": [ -70.653408, -33.438632, 0.0 ] } },
{ "type": "Feature", "properties": { "Join_Count": 1, "TARGET_FID": 13, "nombre": "Biblioteca del Servicio de Impuestos Internos SII", "Comentario": "Mincap-OPC", "Tipo": "Biblioteca", "Jerarquía": 0, "Propiedad": null, "X": 346144.0, "Y": 6298480.0, "Coordenada": 0.0, "OBJECTID_1": 13, "UNIDAD": 2.0, "BARRIO": "CENTRO HISTORICO", "AGRP": "AV1", "SUP_KM": 1.204548, "Shape_Leng": 4579.4313277499996, "Shape_Area": 1204540.55342, "RSH_Total": 18044.0 }, "geometry": { "type": "Point", "coordinates": [ -70.655215, -33.442033, 0.0 ] } },
{ "type": "Feature", "properties": { "Join_Count": 1, "TARGET_FID": 14, "nombre": "Biblioteca Derecho y Comunicaciones, PUC", "Comentario": "Mincap-OPC", "Tipo": "Biblioteca", "Jerarquía": 0, "Propiedad": null, "X": 347481.0, "Y": 6298650.0, "Coordenada": 0.0, "OBJECTID_1": 14, "UNIDAD": 8.0, "BARRIO": "SAN BORJA", "AGRP": "AV7", "SUP_KM": 0.658834, "Shape_Leng": 3937.5269061700001, "Shape_Area": 658829.68134999997, "RSH_Total": 13319.0 }, "geometry": { "type": "Point", "coordinates": [ -70.640803, -33.440726, 0.0 ] } },
{ "type": "Feature", "properties": { "Join_Count": 1, "TARGET_FID": 15, "nombre": "Biblioteca Isabel Allende Unidad Especial de Alta Seguridad CAS", "Comentario": "Mincap-OPC", "Tipo": "Biblioteca", "Jerarquía": 0, "Propiedad": null, "X": 345814.0, "Y": 6294970.0, "Coordenada": 0.0, "OBJECTID_1": 15, "UNIDAD": 26.0, "BARRIO": "RONDIZZONI", "AGRP": "AV10", "SUP_KM": 0.541199, "Shape_Leng": 3113.4014882299998, "Shape_Area": 541195.27381499996, "RSH_Total": 2151.0 }, "geometry": { "type": "Point", "coordinates": [ -70.659368, -33.473623, 0.0 ] } },
{ "type": "Feature", "properties": { "Join_Count": 1, "TARGET_FID": 16, "nombre": "Biblioteca Nacional", "Comentario": "reubicados NM", "Tipo": "Biblioteca", "Jerarquía": 0, "Propiedad": null, "X": 347019.0, "Y": 6298460.0, "Coordenada": 0.0, "OBJECTID_1": 16, "UNIDAD": 1.0, "BARRIO": "SANTA LUCIA FORESTAL", "AGRP": "AV1", "SUP_KM": 0.737406, "Shape_Leng": 3888.4785307500001, "Shape_Area": 737401.56247300003, "RSH_Total": 6542.0 }, "geometry": { "type": "Point", "coordinates": [ -70.64581, -33.442343, 0.0 ] } },
{ "type": "Feature", "properties": { "Join_Count": 1, "TARGET_FID": 17, "nombre": "Biblioteca Participación ciudadana y no discriminación", "Comentario": "Mincap-OPC", "Tipo": "Biblioteca", "Jerarquía": 2, "Propiedad": null, "X": 347559.0, "Y": 6298950.0, "Coordenada": 0.0, "OBJECTID_1": 17, "UNIDAD": 1.0, "BARRIO": "SANTA LUCIA FORESTAL", "AGRP": "AV1", "SUP_KM": 0.737406, "Shape_Leng": 3888.4785307500001, "Shape_Area": 737401.56247300003, "RSH_Total": 6542.0 }, "geometry": { "type": "Point", "coordinates": [ -70.63992, -33.438063, 0.0 ] } },
{ "type": "Feature", "properties": { "Join_Count": 1, "TARGET_FID": 18, "nombre": "Centro Colaborativo CORFO", "Comentario": "Mincap-OPC", "Tipo": "Biblioteca", "Jerarquía": 0, "Propiedad": null, "X": 346673.0, "Y": 6298540.0, "Coordenada": 0.0, "OBJECTID_1": 18, "UNIDAD": 2.0, "BARRIO": "CENTRO HISTORICO", "AGRP": "AV1", "SUP_KM": 1.204548, "Shape_Leng": 4579.4313277499996, "Shape_Area": 1204540.55342, "RSH_Total": 18044.0 }, "geometry": { "type": "Point", "coordinates": [ -70.649516, -33.441615, 0.0 ] } },
{ "type": "Feature", "properties": { "Join_Count": 1, "TARGET_FID": 19, "nombre": "Centro cultural Arte y Compás", "Comentario": "Mincap-OPC", "Tipo": "Centro Cultural", "Jerarquía": 2, "Propiedad": null, "X": 348214.0, "Y": 6297970.0, "Coordenada": 0.0, "OBJECTID_1": 19, "UNIDAD": 9.0, "BARRIO": "SANTA ISABEL", "AGRP": "AV7", "SUP_KM": 0.944985, "Shape_Leng": 4562.5583616900003, "Shape_Area": 944978.87471400003, "RSH_Total": 36490.0 }, "geometry": { "type": "Point", "coordinates": [ -70.633042, -33.446937, 0.0 ] } },
{ "type": "Feature", "properties": { "Join_Count": 1, "TARGET_FID": 20, "nombre": "Centro cultural Espacio Infinito", "Comentario": "Mincap-OPC", "Tipo": "Centro Cultural", "Jerarquía": 2, "Propiedad": null, "X": 344224.0, "Y": 6298740.0, "Coordenada": 0.0, "OBJECTID_1": 20, "UNIDAD": 7.0, "BARRIO": "YUNGAY", "AGRP": "AV3", "SUP_KM": 2.727776, "Shape_Leng": 8932.4113992700004, "Shape_Area": 2727758.4661400001, "RSH_Total": 32141.0 }, "geometry": { "type": "Point", "coordinates": [ -70.675818, -33.439454, 0.0 ] } },
{ "type": "Feature", "properties": { "Join_Count": 1, "TARGET_FID": 21, "nombre": "Centro cultural Estación Mapocho", "Comentario": "Mincap-OPC", "Tipo": "Centro Cultural", "Jerarquía": 0, "Propiedad": null, "X": 345067.0, "Y": 6299790.0, "Coordenada": 0.0, "OBJECTID_1": 21, "UNIDAD": 4.0, "BARRIO": "PANAMA", "AGRP": "AV2", "SUP_KM": 0.798583, "Shape_Leng": 3683.8322464500002, "Shape_Area": 798577.54615099996, "RSH_Total": 12573.0 }, "geometry": { "type": "Point", "coordinates": [ -70.666574, -33.430057, 0.0 ] } },
{ "type": "Feature", "properties": { "Join_Count": 1, "TARGET_FID": 22, "nombre": "Centro cultural Gabriela Mistral GAM", "Comentario": "reubicados NM", "Tipo": "Centro Cultural", "Jerarquía": 0, "Propiedad": null, "X": 347557.0, "Y": 6298790.0, "Coordenada": 0.0, "OBJECTID_1": 22, "UNIDAD": 1.0, "BARRIO": "SANTA LUCIA FORESTAL", "AGRP": "AV1", "SUP_KM": 0.737406, "Shape_Leng": 3888.4785307500001, "Shape_Area": 737401.56247300003, "RSH_Total": 6542.0 }, "geometry": { "type": "Point", "coordinates": [ -70.639966, -33.439501, 0.0 ] } },
{ "type": "Feature", "properties": { "Join_Count": 1, "TARGET_FID": 23, "nombre": "Centro cultural Gran Circo Teatro", "Comentario": "Mincap-OPC", "Tipo": "Centro Cultural", "Jerarquía": 2, "Propiedad": null, "X": 344999.0, "Y": 6297290.0, "Coordenada": 0.0, "OBJECTID_1": 23, "UNIDAD": 14.0, "BARRIO": "REPUBLICA", "AGRP": "AV9", "SUP_KM": 0.820113, "Shape_Leng": 4065.25595256, "Shape_Area": 820107.52807300002, "RSH_Total": 11576.0 }, "geometry": { "type": "Point", "coordinates": [ -70.667732, -33.452645, 0.0 ] } },
{ "type": "Feature", "properties": { "Join_Count": 1, "TARGET_FID": 24, "nombre": "Centro cultural La Moneda", "Comentario": "Mincap-OPC", "Tipo": "Centro Cultural", "Jerarquía": 0, "Propiedad": null, "X": 346294.0, "Y": 6298260.0, "Coordenada": 0.0, "OBJECTID_1": 24, "UNIDAD": 2.0, "BARRIO": "CENTRO HISTORICO", "AGRP": "AV1", "SUP_KM": 1.204548, "Shape_Leng": 4579.4313277499996, "Shape_Area": 1204540.55342, "RSH_Total": 18044.0 }, "geometry": { "type": "Point", "coordinates": [ -70.653637, -33.44403, 0.0 ] } },
{ "type": "Feature", "properties": { "Join_Count": 1, "TARGET_FID": 25, "nombre": "Centro Cultural Manuel Rojas", "Comentario": "Mincap-OPC", "Tipo": "Centro Cultural", "Jerarquía": 2, "Propiedad": null, "X": 344660.0, "Y": 6298410.0, "Coordenada": 0.0, "OBJECTID_1": 25, "UNIDAD": 7.0, "BARRIO": "YUNGAY", "AGRP": "AV3", "SUP_KM": 2.727776, "Shape_Leng": 8932.4113992700004, "Shape_Area": 2727758.4661400001, "RSH_Total": 32141.0 }, "geometry": { "type": "Point", "coordinates": [ -70.671182, -33.442468, 0.0 ] } },
{ "type": "Feature", "properties": { "Join_Count": 1, "TARGET_FID": 26, "nombre": "Centro cultural Teatro Azul Violeta", "Comentario": "Mincap-OPC", "Tipo": "Centro Cultural", "Jerarquía": 2, "Propiedad": null, "X": 344424.0, "Y": 6298230.0, "Coordenada": 0.0, "OBJECTID_1": 26, "UNIDAD": 7.0, "BARRIO": "YUNGAY", "AGRP": "AV3", "SUP_KM": 2.727776, "Shape_Leng": 8932.4113992700004, "Shape_Area": 2727758.4661400001, "RSH_Total": 32141.0 }, "geometry": { "type": "Point", "coordinates": [ -70.67375, -33.44403, 0.0 ] } },
{ "type": "Feature", "properties": { "Join_Count": 1, "TARGET_FID": 27, "nombre": "Centro de documentación de Artes Escénicas del Teatro Municipal de Santiago", "Comentario": "Mincap-OPC", "Tipo": "Centro de Documentación", "Jerarquía": 0, "Propiedad": null, "X": 346871.0, "Y": 6298570.0, "Coordenada": 0.0, "OBJECTID_1": 27, "UNIDAD": 2.0, "BARRIO": "CENTRO HISTORICO", "AGRP": "AV1", "SUP_KM": 1.204548, "Shape_Leng": 4579.4313277499996, "Shape_Area": 1204540.55342, "RSH_Total": 18044.0 }, "geometry": { "type": "Point", "coordinates": [ -70.647378, -33.441354, 0.0 ] } },
{ "type": "Feature", "properties": { "Join_Count": 1, "TARGET_FID": 28, "nombre": "Centro de documentación de la Dirección de Obras Portuarias", "Comentario": "Mincap-OPC", "Tipo": "Centro de Documentación", "Jerarquía": 0, "Propiedad": null, "X": 346358.0, "Y": 6298380.0, "Coordenada": 0.0, "OBJECTID_1": 28, "UNIDAD": 2.0, "BARRIO": "CENTRO HISTORICO", "AGRP": "AV1", "SUP_KM": 1.204548, "Shape_Leng": 4579.4313277499996, "Shape_Area": 1204540.55342, "RSH_Total": 18044.0 }, "geometry": { "type": "Point", "coordinates": [ -70.652931, -33.442996, 0.0 ] } },
{ "type": "Feature", "properties": { "Join_Count": 1, "TARGET_FID": 29, "nombre": "Centro de documentación del Instituto de la Vivienda INVI", "Comentario": "Mincap-OPC", "Tipo": "Centro de Documentación", "Jerarquía": 0, "Propiedad": null, "X": 344850.0, "Y": 6297700.0, "Coordenada": 0.0, "OBJECTID_1": 29, "UNIDAD": 14.0, "BARRIO": "REPUBLICA", "AGRP": "AV9", "SUP_KM": 0.820113, "Shape_Leng": 4065.25595256, "Shape_Area": 820107.52807300002, "RSH_Total": 11576.0 }, "geometry": { "type": "Point", "coordinates": [ -70.669266, -33.44889, 0.0 ] } },
{ "type": "Feature", "properties": { "Join_Count": 1, "TARGET_FID": 30, "nombre": "Centro de documentación del Instituto Nacional de Estadísticas INE", "Comentario": "Mincap-OPC", "Tipo": "Centro de Documentación", "Jerarquía": 0, "Propiedad": null, "X": 346458.0, "Y": 6297500.0, "Coordenada": 0.0, "OBJECTID_1": 30, "UNIDAD": 11.0, "BARRIO": "PARQUE ALMAGRO", "AGRP": "AV8", "SUP_KM": 1.284634, "Shape_Leng": 4871.32698351, "Shape_Area": 1284625.2565299999, "RSH_Total": 34913.0 }, "geometry": { "type": "Point", "coordinates": [ -70.652002, -33.45097, 0.0 ] } },
{ "type": "Feature", "properties": { "Join_Count": 1, "TARGET_FID": 31, "nombre": "Centro de documentación del Ministerio de Vivienda y Urbanismos de Chile Minvu", "Comentario": "Mincap-OPC", "Tipo": "Centro de Documentación", "Jerarquía": 0, "Propiedad": null, "X": 346659.0, "Y": 6298260.0, "Coordenada": 0.0, "OBJECTID_1": 31, "UNIDAD": 11.0, "BARRIO": "PARQUE ALMAGRO", "AGRP": "AV8", "SUP_KM": 1.284634, "Shape_Leng": 4871.32698351, "Shape_Area": 1284625.2565299999, "RSH_Total": 34913.0 }, "geometry": { "type": "Point", "coordinates": [ -70.649718, -33.444092, 0.0 ] } },
{ "type": "Feature", "properties": { "Join_Count": 1, "TARGET_FID": 32, "nombre": "Centro de documentación del Ministerio del Medio Ambiente", "Comentario": "Mincap-OPC", "Tipo": "Centro de Documentación", "Jerarquía": 0, "Propiedad": null, "X": 345967.0, "Y": 6298350.0, "Coordenada": 0.0, "OBJECTID_1": 32, "UNIDAD": 3.0, "BARRIO": "SANTA ANA", "AGRP": "AV2", "SUP_KM": 0.555207, "Shape_Leng": 4226.8466856599998, "Shape_Area": 555202.96694800002, "RSH_Total": 19055.0 }, "geometry": { "type": "Point", "coordinates": [ -70.657137, -33.443182, 0.0 ] } },
{ "type": "Feature", "properties": { "Join_Count": 1, "TARGET_FID": 33, "nombre": "Centro de documentación Fasic", "Comentario": "Mincap-OPC", "Tipo": "Centro de Documentación", "Jerarquía": 0, "Propiedad": null, "X": 345690.0, "Y": 6298170.0, "Coordenada": 0.0, "OBJECTID_1": 33, "UNIDAD": 3.0, "BARRIO": "SANTA ANA", "AGRP": "AV2", "SUP_KM": 0.555207, "Shape_Leng": 4226.8466856599998, "Shape_Area": 555202.96694800002, "RSH_Total": 19055.0 }, "geometry": { "type": "Point", "coordinates": [ -70.660149, -33.444755, 0.0 ] } },
{ "type": "Feature", "properties": { "Join_Count": 1, "TARGET_FID": 34, "nombre": "Centro de extensión Universidad Católica", "Comentario": "reubicados NM", "Tipo": "Centro Cultural", "Jerarquía": 1, "Propiedad": null, "X": 347498.0, "Y": 6298590.0, "Coordenada": 0.0, "OBJECTID_1": 34, "UNIDAD": 8.0, "BARRIO": "SAN BORJA", "AGRP": "AV7", "SUP_KM": 0.658834, "Shape_Leng": 3937.5269061700001, "Shape_Area": 658829.68134999997, "RSH_Total": 13319.0 }, "geometry": { "type": "Point", "coordinates": [ -70.640636, -33.441257, 0.0 ] } },
{ "type": "Feature", "properties": { "Join_Count": 1, "TARGET_FID": 35, "nombre": "Centro documentación ONEMI", "Comentario": "Mincap-OPC", "Tipo": "Centro de Documentación", "Jerarquía": 0, "Propiedad": null, "X": 345401.0, "Y": 6295470.0, "Coordenada": 0.0, "OBJECTID_1": 35, "UNIDAD": 15.0, "BARRIO": "CLUB HIPICO", "AGRP": "AV9", "SUP_KM": 0.963883, "Shape_Leng": 4150.5201029700002, "Shape_Area": 963877.01509700005, "RSH_Total": 0.0 }, "geometry": { "type": "Point", "coordinates": [ -70.663724, -33.469114, 0.0 ] } },
{ "type": "Feature", "properties": { "Join_Count": 1, "TARGET_FID": 36, "nombre": "Cine El Biógrafo", "Comentario": "Mincap-OPC", "Tipo": "Cine", "Jerarquía": 1, "Propiedad": null, "X": 347467.0, "Y": 6298910.0, "Coordenada": 0.0, "OBJECTID_1": 36, "UNIDAD": 1.0, "BARRIO": "SANTA LUCIA FORESTAL", "AGRP": "AV1", "SUP_KM": 0.737406, "Shape_Leng": 3888.4785307500001, "Shape_Area": 737401.56247300003, "RSH_Total": 6542.0 }, "geometry": { "type": "Point", "coordinates": [ -70.640918, -33.438393, 0.0 ] } },
{ "type": "Feature", "properties": { "Join_Count": 1, "TARGET_FID": 37, "nombre": "Cine Hoyts San Agustín", "Comentario": "Mincap-OPC", "Tipo": "Cine", "Jerarquía": 1, "Propiedad": null, "X": 346767.0, "Y": 6298570.0, "Coordenada": 0.0, "OBJECTID_1": 37, "UNIDAD": 2.0, "BARRIO": "CENTRO HISTORICO", "AGRP": "AV1", "SUP_KM": 1.204548, "Shape_Leng": 4579.4313277499996, "Shape_Area": 1204540.55342, "RSH_Total": 18044.0 }, "geometry": { "type": "Point", "coordinates": [ -70.6485, -33.4413, 0.0 ] } },
{ "type": "Feature", "properties": { "Join_Count": 1, "TARGET_FID": 38, "nombre": "Cine y teatro Normandie", "Comentario": "Mincap-OPC", "Tipo": "Cine", "Jerarquía": 1, "Propiedad": null, "X": 346460.0, "Y": 6297880.0, "Coordenada": 0.0, "OBJECTID_1": 38, "UNIDAD": 11.0, "BARRIO": "PARQUE ALMAGRO", "AGRP": "AV8", "SUP_KM": 1.284634, "Shape_Leng": 4871.32698351, "Shape_Area": 1284625.2565299999, "RSH_Total": 34913.0 }, "geometry": { "type": "Point", "coordinates": [ -70.651914, -33.447488, 0.0 ] } },
{ "type": "Feature", "properties": { "Join_Count": 1, "TARGET_FID": 39, "nombre": "Comunidad Calle N° 5 C.D.P. Santiago Sur", "Comentario": "Mincap-OPC", "Tipo": "Centro Cultural Comunitario", "Jerarquía": 2, "Propiedad": null, "X": 345814.0, "Y": 6294970.0, "Coordenada": 0.0, "OBJECTID_1": 39, "UNIDAD": 26.0, "BARRIO": "RONDIZZONI", "AGRP": "AV10", "SUP_KM": 0.541199, "Shape_Leng": 3113.4014882299998, "Shape_Area": 541195.27381499996, "RSH_Total": 2151.0 }, "geometry": { "type": "Point", "coordinates": [ -70.659368, -33.473623, 0.0 ] } },
{ "type": "Feature", "properties": { "Join_Count": 1, "TARGET_FID": 40, "nombre": "Comunidad calle N° 7 C.D.P. Santiago Sur", "Comentario": "Mincap-OPC", "Tipo": "Centro Cultural Comunitario", "Jerarquía": 2, "Propiedad": null, "X": 345814.0, "Y": 6294970.0, "Coordenada": 0.0, "OBJECTID_1": 40, "UNIDAD": 26.0, "BARRIO": "RONDIZZONI", "AGRP": "AV10", "SUP_KM": 0.541199, "Shape_Leng": 3113.4014882299998, "Shape_Area": 541195.27381499996, "RSH_Total": 2151.0 }, "geometry": { "type": "Point", "coordinates": [ -70.659368, -33.473623, 0.0 ] } },
{ "type": "Feature", "properties": { "Join_Count": 1, "TARGET_FID": 41, "nombre": "Corporación Cultural Balmaceda Arte Joven", "Comentario": "Mincap-OPC", "Tipo": "Centro Cultural", "Jerarquía": 1, "Propiedad": null, "X": 346143.0, "Y": 6299590.0, "Coordenada": 0.0, "OBJECTID_1": 41, "UNIDAD": 2.0, "BARRIO": "CENTRO HISTORICO", "AGRP": "AV1", "SUP_KM": 1.204548, "Shape_Leng": 4579.4313277499996, "Shape_Area": 1204540.55342, "RSH_Total": 18044.0 }, "geometry": { "type": "Point", "coordinates": [ -70.655041, -33.432089, 0.0 ] } },
{ "type": "Feature", "properties": { "Join_Count": 1, "TARGET_FID": 42, "nombre": "Escuela de teatro La Olla", "Comentario": "Mincap-OPC", "Tipo": "Teatro", "Jerarquía": 2, "Propiedad": null, "X": 346953.0, "Y": 6299230.0, "Coordenada": 0.0, "OBJECTID_1": 42, "UNIDAD": 1.0, "BARRIO": "SANTA LUCIA FORESTAL", "AGRP": "AV1", "SUP_KM": 0.737406, "Shape_Leng": 3888.4785307500001, "Shape_Area": 737401.56247300003, "RSH_Total": 6542.0 }, "geometry": { "type": "Point", "coordinates": [ -70.646389, -33.435395, 0.0 ] } },
{ "type": "Feature", "properties": { "Join_Count": 1, "TARGET_FID": 43, "nombre": "Factoría Santa Rosa", "Comentario": "Mincap-OPC", "Tipo": "Museo", "Jerarquía": 2, "Propiedad": null, "X": 347455.0, "Y": 6294880.0, "Coordenada": 0.0, "OBJECTID_1": 43, "UNIDAD": 20.0, "BARRIO": "SIERRA BELLA", "AGRP": "AV10", "SUP_KM": 1.005434, "Shape_Leng": 4389.5263727600004, "Shape_Area": 1005427.77709, "RSH_Total": 8740.0 }, "geometry": { "type": "Point", "coordinates": [ -70.641724, -33.474656, 0.0 ] } },
{ "type": "Feature", "properties": { "Join_Count": 1, "TARGET_FID": 44, "nombre": "Fotogalería ARCOS", "Comentario": "Mincap-OPC", "Tipo": "Galeria de Arte", "Jerarquía": 2, "Propiedad": null, "X": 346743.0, "Y": 6299230.0, "Coordenada": 0.0, "OBJECTID_1": 44, "UNIDAD": 2.0, "BARRIO": "CENTRO HISTORICO", "AGRP": "AV1", "SUP_KM": 1.204548, "Shape_Leng": 4579.4313277499996, "Shape_Area": 1204540.55342, "RSH_Total": 18044.0 }, "geometry": { "type": "Point", "coordinates": [ -70.648644, -33.435406, 0.0 ] } },
{ "type": "Feature", "properties": { "Join_Count": 1, "TARGET_FID": 45, "nombre": "Galería Bech", "Comentario": "Mincap-OPC", "Tipo": "Galeria de Arte", "Jerarquía": 2, "Propiedad": null, "X": 347806.0, "Y": 6299010.0, "Coordenada": 0.0, "OBJECTID_1": 45, "UNIDAD": 1.0, "BARRIO": "SANTA LUCIA FORESTAL", "AGRP": "AV1", "SUP_KM": 0.737406, "Shape_Leng": 3888.4785307500001, "Shape_Area": 737401.56247300003, "RSH_Total": 6542.0 }, "geometry": { "type": "Point", "coordinates": [ -70.63725, -33.43753, 0.0 ] } },
{ "type": "Feature", "properties": { "Join_Count": 1, "TARGET_FID": 46, "nombre": "Galería Bellas Artes", "Comentario": "Mincap-OPC", "Tipo": "Galeria de Arte", "Jerarquía": 1, "Propiedad": null, "X": 347156.0, "Y": 6299120.0, "Coordenada": 0.0, "OBJECTID_1": 46, "UNIDAD": 1.0, "BARRIO": "SANTA LUCIA FORESTAL", "AGRP": "AV1", "SUP_KM": 0.737406, "Shape_Leng": 3888.4785307500001, "Shape_Area": 737401.56247300003, "RSH_Total": 6542.0 }, "geometry": { "type": "Point", "coordinates": [ -70.644221, -33.436451, 0.0 ] } },
{ "type": "Feature", "properties": { "Join_Count": 1, "TARGET_FID": 47, "nombre": "Galería Cal y Canto", "Comentario": "Mincap-OPC", "Tipo": "Galeria de Arte", "Jerarquía": 2, "Propiedad": null, "X": 346391.0, "Y": 6299520.0, "Coordenada": 0.0, "OBJECTID_1": 47, "UNIDAD": 2.0, "BARRIO": "CENTRO HISTORICO", "AGRP": "AV1", "SUP_KM": 1.204548, "Shape_Leng": 4579.4313277499996, "Shape_Area": 1204540.55342, "RSH_Total": 18044.0 }, "geometry": { "type": "Point", "coordinates": [ -70.652383, -33.432734, 0.0 ] } },
{ "type": "Feature", "properties": { "Join_Count": 1, "TARGET_FID": 48, "nombre": "Galería cultural Codelco", "Comentario": "Mincap-OPC", "Tipo": "Galeria de Arte", "Jerarquía": 2, "Propiedad": null, "X": 346204.0, "Y": 6298670.0, "Coordenada": 0.0, "OBJECTID_1": 48, "UNIDAD": 2.0, "BARRIO": "CENTRO HISTORICO", "AGRP": "AV1", "SUP_KM": 1.204548, "Shape_Leng": 4579.4313277499996, "Shape_Area": 1204540.55342, "RSH_Total": 18044.0 }, "geometry": { "type": "Point", "coordinates": [ -70.654535, -33.440318, 0.0 ] } },
{ "type": "Feature", "properties": { "Join_Count": 1, "TARGET_FID": 49, "nombre": "Galería de Arte del Centro de extensión UC", "Comentario": "reubicados NM", "Tipo": "Galeria de Arte", "Jerarquía": 2, "Propiedad": null, "X": 347498.0, "Y": 6298590.0, "Coordenada": 0.0, "OBJECTID_1": 49, "UNIDAD": 8.0, "BARRIO": "SAN BORJA", "AGRP": "AV7", "SUP_KM": 0.658834, "Shape_Leng": 3937.5269061700001, "Shape_Area": 658829.68134999997, "RSH_Total": 13319.0 }, "geometry": { "type": "Point", "coordinates": [ -70.640636, -33.441257, 0.0 ] } },
{ "type": "Feature", "properties": { "Join_Count": 1, "TARGET_FID": 50, "nombre": "Galería de Arte Metales Pesados Visual", "Comentario": "Mincap-OPC", "Tipo": "Galeria de Arte", "Jerarquía": 2, "Propiedad": null, "X": 347447.0, "Y": 6299040.0, "Coordenada": 0.0, "OBJECTID_1": 50, "UNIDAD": 1.0, "BARRIO": "SANTA LUCIA FORESTAL", "AGRP": "AV1", "SUP_KM": 0.737406, "Shape_Leng": 3888.4785307500001, "Shape_Area": 737401.56247300003, "RSH_Total": 6542.0 }, "geometry": { "type": "Point", "coordinates": [ -70.641104, -33.43723, 0.0 ] } },
{ "type": "Feature", "properties": { "Join_Count": 1, "TARGET_FID": 51, "nombre": "Galería Ekho", "Comentario": "Mincap-OPC", "Tipo": "Galeria de Arte", "Jerarquía": 2, "Propiedad": null, "X": 347352.0, "Y": 6299000.0, "Coordenada": 0.0, "OBJECTID_1": 51, "UNIDAD": 1.0, "BARRIO": "SANTA LUCIA FORESTAL", "AGRP": "AV1", "SUP_KM": 0.737406, "Shape_Leng": 3888.4785307500001, "Shape_Area": 737401.56247300003, "RSH_Total": 6542.0 }, "geometry": { "type": "Point", "coordinates": [ -70.642133, -33.437537, 0.0 ] } },
{ "type": "Feature", "properties": { "Join_Count": 1, "TARGET_FID": 52, "nombre": "Galería Gabriela Mistral", "Comentario": "reubicados NM", "Tipo": "Galeria de Arte", "Jerarquía": 2, "Propiedad": null, "X": 346133.0, "Y": 6298210.0, "Coordenada": 0.0, "OBJECTID_1": 52, "UNIDAD": 2.0, "BARRIO": "CENTRO HISTORICO", "AGRP": "AV1", "SUP_KM": 1.204548, "Shape_Leng": 4579.4313277499996, "Shape_Area": 1204540.55342, "RSH_Total": 18044.0 }, "geometry": { "type": "Point", "coordinates": [ -70.655382, -33.444523, 0.0 ] } },
{ "type": "Feature", "properties": { "Join_Count": 1, "TARGET_FID": 53, "nombre": "Galería Lira", "Comentario": "Mincap-OPC", "Tipo": "Galeria de Arte", "Jerarquía": 2, "Propiedad": null, "X": 345140.0, "Y": 6298700.0, "Coordenada": 0.0, "OBJECTID_1": 53, "UNIDAD": 5.0, "BARRIO": "BRASIL", "AGRP": "AV2", "SUP_KM": 0.748504, "Shape_Leng": 3546.5100065699999, "Shape_Area": 748499.151709, "RSH_Total": 11083.0 }, "geometry": { "type": "Point", "coordinates": [ -70.665977, -33.43989, 0.0 ] } },
{ "type": "Feature", "properties": { "Join_Count": 1, "TARGET_FID": 54, "nombre": "Galería patrimonial Plaza de Armas", "Comentario": "Mincap-OPC", "Tipo": "Galeria de Arte", "Jerarquía": 2, "Propiedad": null, "X": 346554.0, "Y": 6298950.0, "Coordenada": 0.0, "OBJECTID_1": 54, "UNIDAD": 2.0, "BARRIO": "CENTRO HISTORICO", "AGRP": "AV1", "SUP_KM": 1.204548, "Shape_Leng": 4579.4313277499996, "Shape_Area": 1204540.55342, "RSH_Total": 18044.0 }, "geometry": { "type": "Point", "coordinates": [ -70.650725, -33.437851, 0.0 ] } },
{ "type": "Feature", "properties": { "Join_Count": 1, "TARGET_FID": 55, "nombre": "Galería Quinta Normal", "Comentario": "Mincap-OPC", "Tipo": "Galeria de Arte", "Jerarquía": 2, "Propiedad": null, "X": 343830.0, "Y": 6298620.0, "Coordenada": 0.0, "OBJECTID_1": 55, "UNIDAD": 7.0, "BARRIO": "YUNGAY", "AGRP": "AV3", "SUP_KM": 2.727776, "Shape_Leng": 8932.4113992700004, "Shape_Area": 2727758.4661400001, "RSH_Total": 32141.0 }, "geometry": { "type": "Point", "coordinates": [ -70.680073, -33.440505, 0.0 ] } },
{ "type": "Feature", "properties": { "Join_Count": 1, "TARGET_FID": 56, "nombre": "Liceo de adultos Herbert Vargas Waleis", "Comentario": "Mincap-OPC", "Tipo": "Centro Educacional", "Jerarquía": 0, "Propiedad": null, "X": 345814.0, "Y": 6294970.0, "Coordenada": 0.0, "OBJECTID_1": 56, "UNIDAD": 26.0, "BARRIO": "RONDIZZONI", "AGRP": "AV10", "SUP_KM": 0.541199, "Shape_Leng": 3113.4014882299998, "Shape_Area": 541195.27381499996, "RSH_Total": 2151.0 }, "geometry": { "type": "Point", "coordinates": [ -70.659368, -33.473623, 0.0 ] } },
{ "type": "Feature", "properties": { "Join_Count": 1, "TARGET_FID": 57, "nombre": "Mediateca Carlos Botto Vallarino", "Comentario": "Mincap-OPC", "Tipo": "Biblioteca", "Jerarquía": 0, "Propiedad": null, "X": 346183.0, "Y": 6298820.0, "Coordenada": 0.0, "OBJECTID_1": 57, "UNIDAD": 2.0, "BARRIO": "CENTRO HISTORICO", "AGRP": "AV1", "SUP_KM": 1.204548, "Shape_Leng": 4579.4313277499996, "Shape_Area": 1204540.55342, "RSH_Total": 18044.0 }, "geometry": { "type": "Point", "coordinates": [ -70.65474, -33.438996, 0.0 ] } },
{ "type": "Feature", "properties": { "Join_Count": 1, "TARGET_FID": 58, "nombre": "Museo Arqueológico de Santiago", "Comentario": "Mincap-OPC", "Tipo": "Museo", "Jerarquía": 1, "Propiedad": null, "X": 347437.0, "Y": 6299040.0, "Coordenada": 0.0, "OBJECTID_1": 58, "UNIDAD": 1.0, "BARRIO": "SANTA LUCIA FORESTAL", "AGRP": "AV1", "SUP_KM": 0.737406, "Shape_Leng": 3888.4785307500001, "Shape_Area": 737401.56247300003, "RSH_Total": 6542.0 }, "geometry": { "type": "Point", "coordinates": [ -70.641211, -33.437158, 0.0 ] } },
{ "type": "Feature", "properties": { "Join_Count": 1, "TARGET_FID": 59, "nombre": "Museo chileno de Arte Precolombino", "Comentario": "Mincap-OPC", "Tipo": "Museo", "Jerarquía": 1, "Propiedad": null, "X": 346413.0, "Y": 6298840.0, "Coordenada": 0.0, "OBJECTID_1": 59, "UNIDAD": 2.0, "BARRIO": "CENTRO HISTORICO", "AGRP": "AV1", "SUP_KM": 1.204548, "Shape_Leng": 4579.4313277499996, "Shape_Area": 1204540.55342, "RSH_Total": 18044.0 }, "geometry": { "type": "Point", "coordinates": [ -70.652258, -33.438813, 0.0 ] } },
{ "type": "Feature", "properties": { "Join_Count": 1, "TARGET_FID": 60, "nombre": "Museo de Arte Colonial de San Francisco", "Comentario": "reubicados NM", "Tipo": "Museo", "Jerarquía": 1, "Propiedad": null, "X": 346824.0, "Y": 6298320.0, "Coordenada": 0.0, "OBJECTID_1": 60, "UNIDAD": 11.0, "BARRIO": "PARQUE ALMAGRO", "AGRP": "AV8", "SUP_KM": 1.284634, "Shape_Leng": 4871.32698351, "Shape_Area": 1284625.2565299999, "RSH_Total": 34913.0 }, "geometry": { "type": "Point", "coordinates": [ -70.647929, -33.443638, 0.0 ] } },
{ "type": "Feature", "properties": { "Join_Count": 1, "TARGET_FID": 61, "nombre": "Museo de Arte Contemporáneo Sede Parque Forestal", "Comentario": "reubicados NM", "Tipo": "Museo", "Jerarquía": 1, "Propiedad": null, "X": 347217.0, "Y": 6299240.0, "Coordenada": 0.0, "OBJECTID_1": 61, "UNIDAD": 1.0, "BARRIO": "SANTA LUCIA FORESTAL", "AGRP": "AV1", "SUP_KM": 0.737406, "Shape_Leng": 3888.4785307500001, "Shape_Area": 737401.56247300003, "RSH_Total": 6542.0 }, "geometry": { "type": "Point", "coordinates": [ -70.64354, -33.435322, 0.0 ] } },
{ "type": "Feature", "properties": { "Join_Count": 1, "TARGET_FID": 62, "nombre": "Museo de Arte Contemporáneo Sede Quinta Normal", "Comentario": "Mincap-OPC", "Tipo": "Museo", "Jerarquía": 1, "Propiedad": null, "X": 343792.0, "Y": 6298450.0, "Coordenada": 0.0, "OBJECTID_1": 62, "UNIDAD": 7.0, "BARRIO": "YUNGAY", "AGRP": "AV3", "SUP_KM": 2.727776, "Shape_Leng": 8932.4113992700004, "Shape_Area": 2727758.4661400001, "RSH_Total": 32141.0 }, "geometry": { "type": "Point", "coordinates": [ -70.680511, -33.442023, 0.0 ] } },
{ "type": "Feature", "properties": { "Join_Count": 1, "TARGET_FID": 63, "nombre": "Museo de Arte Popular Tomás Lagos", "Comentario": "Mincap-OPC", "Tipo": "Museo", "Jerarquía": 1, "Propiedad": null, "X": 347572.0, "Y": 6298820.0, "Coordenada": 0.0, "OBJECTID_1": 63, "UNIDAD": 1.0, "BARRIO": "SANTA LUCIA FORESTAL", "AGRP": "AV1", "SUP_KM": 0.737406, "Shape_Leng": 3888.4785307500001, "Shape_Area": 737401.56247300003, "RSH_Total": 6542.0 }, "geometry": { "type": "Point", "coordinates": [ -70.639804, -33.439161, 0.0 ] } },
{ "type": "Feature", "properties": { "Join_Count": 1, "TARGET_FID": 64, "nombre": "Museo de Artes Visuales MAVI", "Comentario": "reubicados NM", "Tipo": "Museo", "Jerarquía": 1, "Propiedad": null, "X": 347496.0, "Y": 6298990.0, "Coordenada": 0.0, "OBJECTID_1": 64, "UNIDAD": 1.0, "BARRIO": "SANTA LUCIA FORESTAL", "AGRP": "AV1", "SUP_KM": 0.737406, "Shape_Leng": 3888.4785307500001, "Shape_Area": 737401.56247300003, "RSH_Total": 6542.0 }, "geometry": { "type": "Point", "coordinates": [ -70.640591, -33.437663, 0.0 ] } },
{ "type": "Feature", "properties": { "Join_Count": 1, "TARGET_FID": 65, "nombre": "Museo de Ciencia y Tecnología Mucytec", "Comentario": "reubicados NM", "Tipo": "Museo", "Jerarquía": 1, "Propiedad": null, "X": 343493.0, "Y": 6298660.0, "Coordenada": 0.0, "OBJECTID_1": 65, "UNIDAD": 7.0, "BARRIO": "YUNGAY", "AGRP": "AV3", "SUP_KM": 2.727776, "Shape_Leng": 8932.4113992700004, "Shape_Area": 2727758.4661400001, "RSH_Total": 32141.0 }, "geometry": { "type": "Point", "coordinates": [ -70.683693, -33.440036, 0.0 ] } },
{ "type": "Feature", "properties": { "Join_Count": 1, "TARGET_FID": 66, "nombre": "Museo de la Educación Gabriela Mistral", "Comentario": "Mincap-OPC", "Tipo": "Museo", "Jerarquía": 1, "Propiedad": null, "X": 343980.0, "Y": 6298470.0, "Coordenada": 0.0, "OBJECTID_1": 66, "UNIDAD": 7.0, "BARRIO": "YUNGAY", "AGRP": "AV3", "SUP_KM": 2.727776, "Shape_Leng": 8932.4113992700004, "Shape_Area": 2727758.4661400001, "RSH_Total": 32141.0 }, "geometry": { "type": "Point", "coordinates": [ -70.678489, -33.441844, 0.0 ] } },
{ "type": "Feature", "properties": { "Join_Count": 1, "TARGET_FID": 67, "nombre": "Museo de la Farmacia de Profesor César Leyton G.", "Comentario": "Mincap-OPC", "Tipo": "Museo", "Jerarquía": 1, "Propiedad": null, "X": 347916.0, "Y": 6299060.0, "Coordenada": 0.0, "OBJECTID_1": 67, "UNIDAD": 1.0, "BARRIO": "SANTA LUCIA FORESTAL", "AGRP": "AV1", "SUP_KM": 0.737406, "Shape_Leng": 3888.4785307500001, "Shape_Area": 737401.56247300003, "RSH_Total": 6542.0 }, "geometry": { "type": "Point", "coordinates": [ -70.636063, -33.437103, 0.0 ] } },
{ "type": "Feature", "properties": { "Join_Count": 1, "TARGET_FID": 68, "nombre": "Museo de la Memoria y los Derechos Humanos", "Comentario": "Mincap-OPC", "Tipo": "Museo", "Jerarquía": 1, "Propiedad": null, "X": 343803.0, "Y": 6298640.0, "Coordenada": 0.0, "OBJECTID_1": 68, "UNIDAD": 7.0, "BARRIO": "YUNGAY", "AGRP": "AV3", "SUP_KM": 2.727776, "Shape_Leng": 8932.4113992700004, "Shape_Area": 2727758.4661400001, "RSH_Total": 32141.0 }, "geometry": { "type": "Point", "coordinates": [ -70.680357, -33.440282, 0.0 ] } },
{ "type": "Feature", "properties": { "Join_Count": 1, "TARGET_FID": 69, "nombre": "Museo de la solidaridad Salvador Allende", "Comentario": "Mincap-OPC", "Tipo": "Museo", "Jerarquía": 1, "Propiedad": null, "X": 345010.0, "Y": 6297120.0, "Coordenada": 0.0, "OBJECTID_1": 69, "UNIDAD": 14.0, "BARRIO": "REPUBLICA", "AGRP": "AV9", "SUP_KM": 0.820113, "Shape_Leng": 4065.25595256, "Shape_Area": 820107.52807300002, "RSH_Total": 11576.0 }, "geometry": { "type": "Point", "coordinates": [ -70.667639, -33.454147, 0.0 ] } },
{ "type": "Feature", "properties": { "Join_Count": 1, "TARGET_FID": 70, "nombre": "Museo de Santiago Casa Colorada", "Comentario": "Mincap-OPC", "Tipo": "Museo", "Jerarquía": 1, "Propiedad": "Municipio", "X": 346693.0, "Y": 6298900.0, "Coordenada": 0.0, "OBJECTID_1": 70, "UNIDAD": 2.0, "BARRIO": "CENTRO HISTORICO", "AGRP": "AV1", "SUP_KM": 1.204548, "Shape_Leng": 4579.4313277499996, "Shape_Area": 1204540.55342, "RSH_Total": 18044.0 }, "geometry": { "type": "Point", "coordinates": [ -70.649237, -33.43839, 0.0 ] } },
{ "type": "Feature", "properties": { "Join_Count": 1, "TARGET_FID": 71, "nombre": "Museo Ferroviario", "Comentario": "reubicados NM", "Tipo": "Museo", "Jerarquía": 1, "Propiedad": null, "X": 343684.0, "Y": 6298450.0, "Coordenada": 0.0, "OBJECTID_1": 71, "UNIDAD": 7.0, "BARRIO": "YUNGAY", "AGRP": "AV3", "SUP_KM": 2.727776, "Shape_Leng": 8932.4113992700004, "Shape_Area": 2727758.4661400001, "RSH_Total": 32141.0 }, "geometry": { "type": "Point", "coordinates": [ -70.681676, -33.441947, 0.0 ] } },
{ "type": "Feature", "properties": { "Join_Count": 1, "TARGET_FID": 72, "nombre": "Museo Histórico Nacional", "Comentario": "Mincap-OPC", "Tipo": "Museo", "Jerarquía": 1, "Propiedad": null, "X": 346570.0, "Y": 6299020.0, "Coordenada": 0.0, "OBJECTID_1": 72, "UNIDAD": 2.0, "BARRIO": "CENTRO HISTORICO", "AGRP": "AV1", "SUP_KM": 1.204548, "Shape_Leng": 4579.4313277499996, "Shape_Area": 1204540.55342, "RSH_Total": 18044.0 }, "geometry": { "type": "Point", "coordinates": [ -70.65054, -33.437261, 0.0 ] } },
{ "type": "Feature", "properties": { "Join_Count": 1, "TARGET_FID": 73, "nombre": "Museo Histórico y militar de Chile", "Comentario": "Mincap-OPC", "Tipo": "Museo", "Jerarquía": 1, "Propiedad": null, "X": 346076.0, "Y": 6296870.0, "Coordenada": 0.0, "OBJECTID_1": 73, "UNIDAD": 12.0, "BARRIO": "MATTA NORTE", "AGRP": "AV8", "SUP_KM": 1.00065, "Shape_Leng": 4717.4568361900001, "Shape_Area": 1000643.8321, "RSH_Total": 22894.0 }, "geometry": { "type": "Point", "coordinates": [ -70.656219, -33.456527, 0.0 ] } },
{ "type": "Feature", "properties": { "Join_Count": 1, "TARGET_FID": 74, "nombre": "Museo La Merced", "Comentario": "Mincap-OPC", "Tipo": "Museo", "Jerarquía": 1, "Propiedad": null, "X": 346916.0, "Y": 6298890.0, "Coordenada": 0.0, "OBJECTID_1": 74, "UNIDAD": 1.0, "BARRIO": "SANTA LUCIA FORESTAL", "AGRP": "AV1", "SUP_KM": 0.737406, "Shape_Leng": 3888.4785307500001, "Shape_Area": 737401.56247300003, "RSH_Total": 6542.0 }, "geometry": { "type": "Point", "coordinates": [ -70.646841, -33.438462, 0.0 ] } },
{ "type": "Feature", "properties": { "Join_Count": 1, "TARGET_FID": 75, "nombre": "Museo Masónico", "Comentario": "Mincap-OPC", "Tipo": "Museo", "Jerarquía": 1, "Propiedad": null, "X": 347050.0, "Y": 6298310.0, "Coordenada": 0.0, "OBJECTID_1": 75, "UNIDAD": 8.0, "BARRIO": "SAN BORJA", "AGRP": "AV7", "SUP_KM": 0.658834, "Shape_Leng": 3937.5269061700001, "Shape_Area": 658829.68134999997, "RSH_Total": 13319.0 }, "geometry": { "type": "Point", "coordinates": [ -70.645496, -33.443725, 0.0 ] } },
{ "type": "Feature", "properties": { "Join_Count": 1, "TARGET_FID": 76, "nombre": "Museo Nacional de Bellas Artes MNBA", "Comentario": "reubicados NM", "Tipo": "Museo", "Jerarquía": 0, "Propiedad": null, "X": 347217.0, "Y": 6299240.0, "Coordenada": 0.0, "OBJECTID_1": 76, "UNIDAD": 1.0, "BARRIO": "SANTA LUCIA FORESTAL", "AGRP": "AV1", "SUP_KM": 0.737406, "Shape_Leng": 3888.4785307500001, "Shape_Area": 737401.56247300003, "RSH_Total": 6542.0 }, "geometry": { "type": "Point", "coordinates": [ -70.64354, -33.435322, 0.0 ] } },
{ "type": "Feature", "properties": { "Join_Count": 1, "TARGET_FID": 77, "nombre": "Museo Nacional de Historia Natural", "Comentario": "reubicados NM", "Tipo": "Museo", "Jerarquía": 1, "Propiedad": null, "X": 343684.0, "Y": 6298450.0, "Coordenada": 0.0, "OBJECTID_1": 77, "UNIDAD": 7.0, "BARRIO": "YUNGAY", "AGRP": "AV3", "SUP_KM": 2.727776, "Shape_Leng": 8932.4113992700004, "Shape_Area": 2727758.4661400001, "RSH_Total": 32141.0 }, "geometry": { "type": "Point", "coordinates": [ -70.681676, -33.441947, 0.0 ] } },
{ "type": "Feature", "properties": { "Join_Count": 1, "TARGET_FID": 78, "nombre": "Palacio Cousiño", "Comentario": "Mincap-OPC", "Tipo": "Centro Cultural", "Jerarquía": 1, "Propiedad": "Municipio", "X": 346013.0, "Y": 6297360.0, "Coordenada": 0.0, "OBJECTID_1": 78, "UNIDAD": 11.0, "BARRIO": "PARQUE ALMAGRO", "AGRP": "AV8", "SUP_KM": 1.284634, "Shape_Leng": 4871.32698351, "Shape_Area": 1284625.2565299999, "RSH_Total": 34913.0 }, "geometry": { "type": "Point", "coordinates": [ -70.656812, -33.452104, 0.0 ] } },
{ "type": "Feature", "properties": { "Join_Count": 1, "TARGET_FID": 79, "nombre": "Palacio la Alhambra", "Comentario": "Mincap-OPC", "Tipo": "Centro Cultural", "Jerarquía": 1, "Propiedad": null, "X": 346071.0, "Y": 6298780.0, "Coordenada": 0.0, "OBJECTID_1": 79, "UNIDAD": 2.0, "BARRIO": "CENTRO HISTORICO", "AGRP": "AV1", "SUP_KM": 1.204548, "Shape_Leng": 4579.4313277499996, "Shape_Area": 1204540.55342, "RSH_Total": 18044.0 }, "geometry": { "type": "Point", "coordinates": [ -70.655952, -33.439304, 0.0 ] } },
{ "type": "Feature", "properties": { "Join_Count": 1, "TARGET_FID": 80, "nombre": "Sala Agustín de Siré", "Comentario": "Mincap-OPC", "Tipo": "Teatro", "Jerarquía": 2, "Propiedad": null, "X": 346162.0, "Y": 6299260.0, "Coordenada": 0.0, "OBJECTID_1": 80, "UNIDAD": 2.0, "BARRIO": "CENTRO HISTORICO", "AGRP": "AV1", "SUP_KM": 1.204548, "Shape_Leng": 4579.4313277499996, "Shape_Area": 1204540.55342, "RSH_Total": 18044.0 }, "geometry": { "type": "Point", "coordinates": [ -70.654889, -33.435048, 0.0 ] } },
{ "type": "Feature", "properties": { "Join_Count": 1, "TARGET_FID": 81, "nombre": "Sala Antonio Varas", "Comentario": "Mincap-OPC", "Tipo": "Teatro", "Jerarquía": 2, "Propiedad": null, "X": 346382.0, "Y": 6298310.0, "Coordenada": 0.0, "OBJECTID_1": 81, "UNIDAD": 2.0, "BARRIO": "CENTRO HISTORICO", "AGRP": "AV1", "SUP_KM": 1.204548, "Shape_Leng": 4579.4313277499996, "Shape_Area": 1204540.55342, "RSH_Total": 18044.0 }, "geometry": { "type": "Point", "coordinates": [ -70.652679, -33.443663, 0.0 ] } },
{ "type": "Feature", "properties": { "Join_Count": 1, "TARGET_FID": 82, "nombre": "Sala Colección Joaquín Gandarillas Infante", "Comentario": "reubicados NM", "Tipo": "Sala de Exposición", "Jerarquía": 2, "Propiedad": null, "X": 347498.0, "Y": 6298590.0, "Coordenada": 0.0, "OBJECTID_1": 82, "UNIDAD": 8.0, "BARRIO": "SAN BORJA", "AGRP": "AV7", "SUP_KM": 0.658834, "Shape_Leng": 3937.5269061700001, "Shape_Area": 658829.68134999997, "RSH_Total": 13319.0 }, "geometry": { "type": "Point", "coordinates": [ -70.640636, -33.441257, 0.0 ] } },
{ "type": "Feature", "properties": { "Join_Count": 1, "TARGET_FID": 83, "nombre": "Sala de Cine Universidad Católica UC", "Comentario": "reubicados NM", "Tipo": "Cine", "Jerarquía": 2, "Propiedad": null, "X": 347498.0, "Y": 6298590.0, "Coordenada": 0.0, "OBJECTID_1": 83, "UNIDAD": 8.0, "BARRIO": "SAN BORJA", "AGRP": "AV7", "SUP_KM": 0.658834, "Shape_Leng": 3937.5269061700001, "Shape_Area": 658829.68134999997, "RSH_Total": 13319.0 }, "geometry": { "type": "Point", "coordinates": [ -70.640636, -33.441257, 0.0 ] } },
{ "type": "Feature", "properties": { "Join_Count": 1, "TARGET_FID": 84, "nombre": "Sala de Teatro de la Universidad Mayor", "Comentario": "Mincap-OPC", "Tipo": "Teatro", "Jerarquía": 2, "Propiedad": null, "X": 346833.0, "Y": 6299230.0, "Coordenada": 0.0, "OBJECTID_1": 84, "UNIDAD": 2.0, "BARRIO": "CENTRO HISTORICO", "AGRP": "AV1", "SUP_KM": 1.204548, "Shape_Leng": 4579.4313277499996, "Shape_Area": 1204540.55342, "RSH_Total": 18044.0 }, "geometry": { "type": "Point", "coordinates": [ -70.64768, -33.435356, 0.0 ] } },
{ "type": "Feature", "properties": { "Join_Count": 1, "TARGET_FID": 85, "nombre": "Sala Gasco de Arte Contemporáneo", "Comentario": "Mincap-OPC", "Tipo": "Sala de Exposición", "Jerarquía": 2, "Propiedad": null, "X": 346396.0, "Y": 6299160.0, "Coordenada": 0.0, "OBJECTID_1": 85, "UNIDAD": 2.0, "BARRIO": "CENTRO HISTORICO", "AGRP": "AV1", "SUP_KM": 1.204548, "Shape_Leng": 4579.4313277499996, "Shape_Area": 1204540.55342, "RSH_Total": 18044.0 }, "geometry": { "type": "Point", "coordinates": [ -70.652392, -33.435919, 0.0 ] } },
{ "type": "Feature", "properties": { "Join_Count": 1, "TARGET_FID": 86, "nombre": "Sala la Comedia", "Comentario": "Mincap-OPC", "Tipo": "Teatro", "Jerarquía": 2, "Propiedad": null, "X": 347341.0, "Y": 6299030.0, "Coordenada": 0.0, "OBJECTID_1": 86, "UNIDAD": 1.0, "BARRIO": "SANTA LUCIA FORESTAL", "AGRP": "AV1", "SUP_KM": 0.737406, "Shape_Leng": 3888.4785307500001, "Shape_Area": 737401.56247300003, "RSH_Total": 6542.0 }, "geometry": { "type": "Point", "coordinates": [ -70.642243, -33.437259, 0.0 ] } },
{ "type": "Feature", "properties": { "Join_Count": 1, "TARGET_FID": 87, "nombre": "Sala Sergio Aguirre", "Comentario": "Mincap-OPC", "Tipo": "Teatro", "Jerarquía": 2, "Propiedad": null, "X": 346162.0, "Y": 6299260.0, "Coordenada": 0.0, "OBJECTID_1": 87, "UNIDAD": 2.0, "BARRIO": "CENTRO HISTORICO", "AGRP": "AV1", "SUP_KM": 1.204548, "Shape_Leng": 4579.4313277499996, "Shape_Area": 1204540.55342, "RSH_Total": 18044.0 }, "geometry": { "type": "Point", "coordinates": [ -70.654889, -33.435048, 0.0 ] } },
{ "type": "Feature", "properties": { "Join_Count": 1, "TARGET_FID": 88, "nombre": "Salón de Teatro Fresno del Centro de extensión UC", "Comentario": "reubicados NM", "Tipo": "Teatro", "Jerarquía": 2, "Propiedad": null, "X": 347498.0, "Y": 6298590.0, "Coordenada": 0.0, "OBJECTID_1": 88, "UNIDAD": 8.0, "BARRIO": "SAN BORJA", "AGRP": "AV7", "SUP_KM": 0.658834, "Shape_Leng": 3937.5269061700001, "Shape_Area": 658829.68134999997, "RSH_Total": 13319.0 }, "geometry": { "type": "Point", "coordinates": [ -70.640636, -33.441257, 0.0 ] } },
{ "type": "Feature", "properties": { "Join_Count": 1, "TARGET_FID": 89, "nombre": "Taller Sol", "Comentario": "Mincap-OPC", "Tipo": "Centro Cultural Comunitario", "Jerarquía": 2, "Propiedad": null, "X": 344546.0, "Y": 6298380.0, "Coordenada": 0.0, "OBJECTID_1": 89, "UNIDAD": 7.0, "BARRIO": "YUNGAY", "AGRP": "AV3", "SUP_KM": 2.727776, "Shape_Leng": 8932.4113992700004, "Shape_Area": 2727758.4661400001, "RSH_Total": 32141.0 }, "geometry": { "type": "Point", "coordinates": [ -70.672414, -33.44276, 0.0 ] } },
{ "type": "Feature", "properties": { "Join_Count": 1, "TARGET_FID": 90, "nombre": "Teatro Camilo Henríquez", "Comentario": "Mincap-OPC", "Tipo": "Teatro", "Jerarquía": 1, "Propiedad": null, "X": 346108.0, "Y": 6298270.0, "Coordenada": 0.0, "OBJECTID_1": 90, "UNIDAD": 2.0, "BARRIO": "CENTRO HISTORICO", "AGRP": "AV1", "SUP_KM": 1.204548, "Shape_Leng": 4579.4313277499996, "Shape_Area": 1204540.55342, "RSH_Total": 18044.0 }, "geometry": { "type": "Point", "coordinates": [ -70.655636, -33.443949, 0.0 ] } },
{ "type": "Feature", "properties": { "Join_Count": 1, "TARGET_FID": 91, "nombre": "Teatro Cariola", "Comentario": "Mincap-OPC", "Tipo": "Museo", "Jerarquía": 0, "Propiedad": null, "X": 346564.0, "Y": 6297800.0, "Coordenada": 0.0, "OBJECTID_1": 91, "UNIDAD": 11.0, "BARRIO": "PARQUE ALMAGRO", "AGRP": "AV8", "SUP_KM": 1.284634, "Shape_Leng": 4871.32698351, "Shape_Area": 1284625.2565299999, "RSH_Total": 34913.0 }, "geometry": { "type": "Point", "coordinates": [ -70.650818, -33.448262, 0.0 ] } },
{ "type": "Feature", "properties": { "Join_Count": 1, "TARGET_FID": 92, "nombre": "Teatro Caupolicán", "Comentario": "Mincap-OPC", "Tipo": "Museo", "Jerarquía": 0, "Propiedad": null, "X": 346694.0, "Y": 6296910.0, "Coordenada": 0.0, "OBJECTID_1": 92, "UNIDAD": 12.0, "BARRIO": "MATTA NORTE", "AGRP": "AV8", "SUP_KM": 1.00065, "Shape_Leng": 4717.4568361900001, "Shape_Area": 1000643.8321, "RSH_Total": 22894.0 }, "geometry": { "type": "Point", "coordinates": [ -70.649572, -33.456299, 0.0 ] } },
{ "type": "Feature", "properties": { "Join_Count": 1, "TARGET_FID": 93, "nombre": "Teatro de bolsillo", "Comentario": "Mincap-OPC", "Tipo": "Museo", "Jerarquía": 2, "Propiedad": null, "X": 345152.0, "Y": 6298160.0, "Coordenada": 0.0, "OBJECTID_1": 93, "UNIDAD": 5.0, "BARRIO": "BRASIL", "AGRP": "AV2", "SUP_KM": 0.748504, "Shape_Leng": 3546.5100065699999, "Shape_Area": 748499.151709, "RSH_Total": 11083.0 }, "geometry": { "type": "Point", "coordinates": [ -70.665943, -33.444835, 0.0 ] } },
{ "type": "Feature", "properties": { "Join_Count": 1, "TARGET_FID": 94, "nombre": "Teatro del Puente", "Comentario": "reubicados NM", "Tipo": "Museo", "Jerarquía": 2, "Propiedad": null, "X": 347845.0, "Y": 6299220.0, "Coordenada": 0.0, "OBJECTID_1": 94, "UNIDAD": 1.0, "BARRIO": "SANTA LUCIA FORESTAL", "AGRP": "AV1", "SUP_KM": 0.737406, "Shape_Leng": 3888.4785307500001, "Shape_Area": 737401.56247300003, "RSH_Total": 6542.0 }, "geometry": { "type": "Point", "coordinates": [ -70.6368, -33.435651, 0.0 ] } },
{ "type": "Feature", "properties": { "Join_Count": 1, "TARGET_FID": 95, "nombre": "Teatro Duoc UC", "Comentario": "Mincap-OPC", "Tipo": "Museo", "Jerarquía": 2, "Propiedad": null, "X": 347427.0, "Y": 6298810.0, "Coordenada": 0.0, "OBJECTID_1": 95, "UNIDAD": 1.0, "BARRIO": "SANTA LUCIA FORESTAL", "AGRP": "AV1", "SUP_KM": 0.737406, "Shape_Leng": 3888.4785307500001, "Shape_Area": 737401.56247300003, "RSH_Total": 6542.0 }, "geometry": { "type": "Point", "coordinates": [ -70.64136, -33.439265, 0.0 ] } },
{ "type": "Feature", "properties": { "Join_Count": 1, "TARGET_FID": 96, "nombre": "Teatro Huemul", "Comentario": "Mincap-OPC", "Tipo": "Museo", "Jerarquía": 2, "Propiedad": null, "X": 346616.0, "Y": 6294940.0, "Coordenada": 0.0, "OBJECTID_1": 96, "UNIDAD": 25.0, "BARRIO": "HUEMUL", "AGRP": "AV10", "SUP_KM": 0.453905, "Shape_Leng": 2885.31698719, "Shape_Area": 453902.12160399999, "RSH_Total": 4686.0 }, "geometry": { "type": "Point", "coordinates": [ -70.650744, -33.474084, 0.0 ] } },
{ "type": "Feature", "properties": { "Join_Count": 1, "TARGET_FID": 97, "nombre": "Teatro La Cúpula", "Comentario": "reubicados NM", "Tipo": "Museo", "Jerarquía": 1, "Propiedad": "Municipio", "X": 345880.0, "Y": 6295780.0, "Coordenada": 0.0, "OBJECTID_1": 97, "UNIDAD": 0.0, "BARRIO": "PARQUE O´HIGGINS", "AGRP": "AV10", "SUP_KM": 0.860184, "Shape_Leng": 3974.9904558100002, "Shape_Area": 860178.23209900002, "RSH_Total": 0.0 }, "geometry": { "type": "Point", "coordinates": [ -70.658513, -33.466334, 0.0 ] } },
{ "type": "Feature", "properties": { "Join_Count": 1, "TARGET_FID": 98, "nombre": "Teatro Municipal de Santiago", "Comentario": "Mincap-OPC", "Tipo": "Museo", "Jerarquía": 0, "Propiedad": "Municipio", "X": 346861.0, "Y": 6298600.0, "Coordenada": 0.0, "OBJECTID_1": 98, "UNIDAD": 2.0, "BARRIO": "CENTRO HISTORICO", "AGRP": "AV1", "SUP_KM": 1.204548, "Shape_Leng": 4579.4313277499996, "Shape_Area": 1204540.55342, "RSH_Total": 18044.0 }, "geometry": { "type": "Point", "coordinates": [ -70.647485, -33.441068, 0.0 ] } },
{ "type": "Feature", "properties": { "Join_Count": 1, "TARGET_FID": 99, "nombre": "Teatro Popular Ictus", "Comentario": "Mincap-OPC", "Tipo": "Museo", "Jerarquía": 2, "Propiedad": null, "X": 347341.0, "Y": 6299030.0, "Coordenada": 0.0, "OBJECTID_1": 99, "UNIDAD": 1.0, "BARRIO": "SANTA LUCIA FORESTAL", "AGRP": "AV1", "SUP_KM": 0.737406, "Shape_Leng": 3888.4785307500001, "Shape_Area": 737401.56247300003, "RSH_Total": 6542.0 }, "geometry": { "type": "Point", "coordinates": [ -70.642243, -33.437259, 0.0 ] } },
{ "type": "Feature", "properties": { "Join_Count": 1, "TARGET_FID": 100, "nombre": "Teatro Teletón", "Comentario": "reubicados NM", "Tipo": "Museo", "Jerarquía": 1, "Propiedad": null, "X": 345779.0, "Y": 6299180.0, "Coordenada": 0.0, "OBJECTID_1": 100, "UNIDAD": 3.0, "BARRIO": "SANTA ANA", "AGRP": "AV2", "SUP_KM": 0.555207, "Shape_Leng": 4226.8466856599998, "Shape_Area": 555202.96694800002, "RSH_Total": 19055.0 }, "geometry": { "type": "Point", "coordinates": [ -70.659019, -33.435726, 0.0 ] } },
{ "type": "Feature", "properties": { "Join_Count": 1, "TARGET_FID": 101, "nombre": "Unidad de Gestión Documental Subsecretaría de Transporte", "Comentario": "Mincap-OPC", "Tipo": "Centro de Documentación", "Jerarquía": 0, "Propiedad": null, "X": 346063.0, "Y": 6298480.0, "Coordenada": 0.0, "OBJECTID_1": 101, "UNIDAD": 2.0, "BARRIO": "CENTRO HISTORICO", "AGRP": "AV1", "SUP_KM": 1.204548, "Shape_Leng": 4579.4313277499996, "Shape_Area": 1204540.55342, "RSH_Total": 18044.0 }, "geometry": { "type": "Point", "coordinates": [ -70.656086, -33.442031, 0.0 ] } },
{ "type": "Feature", "properties": { "Join_Count": 1, "TARGET_FID": 102, "nombre": "Centro Cultural Estación Mapocho", "Comentario": "Mincap-OPC", "Tipo": "Centro Cultural", "Jerarquía": 0, "Propiedad": null, "X": 346230.0, "Y": 6299570.0, "Coordenada": 0.0, "OBJECTID_1": 102, "UNIDAD": 2.0, "BARRIO": "CENTRO HISTORICO", "AGRP": "AV1", "SUP_KM": 1.204548, "Shape_Leng": 4579.4313277499996, "Shape_Area": 1204540.55342, "RSH_Total": 18044.0 }, "geometry": { "type": "Point", "coordinates": [ -70.654101, -33.432264, 0.0 ] } },
{ "type": "Feature", "properties": { "Join_Count": 1, "TARGET_FID": 103, "nombre": "Teatro Novedades", "Comentario": "agragado NM", "Tipo": "Museo", "Jerarquía": 2, "Propiedad": "Municipio", "X": 344574.0, "Y": 6298410.0, "Coordenada": 0.0, "OBJECTID_1": 103, "UNIDAD": 7.0, "BARRIO": "YUNGAY", "AGRP": "AV3", "SUP_KM": 2.727776, "Shape_Leng": 8932.4113992700004, "Shape_Area": 2727758.4661400001, "RSH_Total": 32141.0 }, "geometry": { "type": "Point", "coordinates": [ -70.67211, -33.442466, 0.0 ] } },
{ "type": "Feature", "properties": { "Join_Count": 0, "TARGET_FID": 104, "nombre": "Matucana 100", "Comentario": "agragado NM", "Tipo": "Centro Cultural", "Jerarquía": 0, "Propiedad": null, "X": 343846.0, "Y": 6298140.0, "Coordenada": 0.0, "OBJECTID_1": 104, "UNIDAD": 0.0, "BARRIO": null, "AGRP": null, "SUP_KM": 0.0, "Shape_Leng": 0.0, "Shape_Area": 0.0, "RSH_Total": 0.0 }, "geometry": { "type": "Point", "coordinates": [ -70.679985, -33.44475, 0.0 ] } },
{ "type": "Feature", "properties": { "Join_Count": 1, "TARGET_FID": 105, "nombre": "Centro Cultural Matta Sur", "Comentario": "GT", "Tipo": "Centro Cultural", "Jerarquía": 2, "Propiedad": null, "X": 347070.0, "Y": 6295480.0, "Coordenada": 0.0, "OBJECTID_1": 105, "UNIDAD": 22.0, "BARRIO": "BOGOTA", "AGRP": "AV10", "SUP_KM": 1.129736, "Shape_Leng": 4717.3097456100004, "Shape_Area": 1129728.3865100001, "RSH_Total": 12997.0 }, "geometry": { "type": "Point", "coordinates": [ -70.645764, -33.469236, 0.0 ] } },
{ "type": "Feature", "properties": { "Join_Count": 1, "TARGET_FID": 106, "nombre": "Teatro Cousiño", "Comentario": "GT", "Tipo": "Museo", "Jerarquía": 2, "Propiedad": null, "X": 346150.0, "Y": 6296260.0, "Coordenada": 0.0, "OBJECTID_1": 106, "UNIDAD": 24.0, "BARRIO": "VIEL", "AGRP": "AV10", "SUP_KM": 0.81382, "Shape_Leng": 3671.9349568399998, "Shape_Area": 813814.63020200003, "RSH_Total": 15288.0 }, "geometry": { "type": "Point", "coordinates": [ -70.655525, -33.462026, 0.0 ] } },
{ "type": "Feature", "properties": { "Join_Count": 1, "TARGET_FID": 107, "nombre": "Movistar Arena", "Comentario": "GT", "Tipo": "Espacio Multiuso", "Jerarquía": 0, "Propiedad": null, "X": 345574.0, "Y": 6296180.0, "Coordenada": 0.0, "OBJECTID_1": 107, "UNIDAD": 0.0, "BARRIO": "PARQUE O´HIGGINS", "AGRP": "AV10", "SUP_KM": 0.860184, "Shape_Leng": 3974.9904558100002, "Shape_Area": 860178.23209900002, "RSH_Total": 0.0 }, "geometry": { "type": "Point", "coordinates": [ -70.66174, -33.462744, 0.0 ] } },
{ "type": "Feature", "properties": { "Join_Count": 1, "TARGET_FID": 108, "nombre": "Centro Cultural Argot", "Comentario": "GT", "Tipo": "Centro Cultural", "Jerarquía": 2, "Propiedad": null, "X": 348238.0, "Y": 6296840.0, "Coordenada": 0.0, "OBJECTID_1": 108, "UNIDAD": 19.0, "BARRIO": "SANTA ELENA", "AGRP": "AV10", "SUP_KM": 0.463646, "Shape_Leng": 3358.04988069, "Shape_Area": 463643.27241600002, "RSH_Total": 11080.0 }, "geometry": { "type": "Point", "coordinates": [ -70.63297, -33.457179, 0.0 ] } },
{ "type": "Feature", "properties": { "Join_Count": 1, "TARGET_FID": 109, "nombre": "Espacio Ailanto", "Comentario": "NM", "Tipo": "Centro Cultural Comunitario", "Jerarquía": 2, "Propiedad": null, "X": 344055.0, "Y": 6298390.0, "Coordenada": 0.0, "OBJECTID_1": 109, "UNIDAD": 7.0, "BARRIO": "YUNGAY", "AGRP": "AV3", "SUP_KM": 2.727776, "Shape_Leng": 8932.4113992700004, "Shape_Area": 2727758.4661400001, "RSH_Total": 32141.0 }, "geometry": { "type": "Point", "coordinates": [ -70.677691, -33.442525, 0.0 ] } },
{ "type": "Feature", "properties": { "Join_Count": 1, "TARGET_FID": 110, "nombre": "Teatro Carrera", "Comentario": "en desuso?", "Tipo": "Museo", "Jerarquía": 2, "Propiedad": null, "X": 345164.0, "Y": 6297910.0, "Coordenada": 0.0, "OBJECTID_1": 110, "UNIDAD": 5.0, "BARRIO": "BRASIL", "AGRP": "AV2", "SUP_KM": 0.748504, "Shape_Leng": 3546.5100065699999, "Shape_Area": 748499.151709, "RSH_Total": 11083.0 }, "geometry": { "type": "Point", "coordinates": [ -70.665851, -33.447012, 0.0 ] } },
{ "type": "Feature", "properties": { "Join_Count": 1, "TARGET_FID": 111, "nombre": "Palacio Alamos", "Comentario": "Mincap-OPC", "Tipo": "Centro Cultural", "Jerarquía": 1, "Propiedad": "Municipio", "X": 344719.0, "Y": 6298920.0, "Coordenada": 0.0, "OBJECTID_1": 111, "UNIDAD": 7.0, "BARRIO": "YUNGAY", "AGRP": "AV3", "SUP_KM": 2.727776, "Shape_Leng": 8932.4113992700004, "Shape_Area": 2727758.4661400001, "RSH_Total": 32141.0 }, "geometry": { "type": "Point", "coordinates": [ -70.670461, -33.437864, 0.0 ] } },
{ "type": "Feature", "properties": { "Join_Count": 1, "TARGET_FID": 112, "nombre": "Casa del Maestro", "Comentario": "Mincap-OPC", "Tipo": "Espacio Patrimonial", "Jerarquía": 2, "Propiedad": null, "X": 344748.0, "Y": 6298770.0, "Coordenada": 0.0, "OBJECTID_1": 112, "UNIDAD": 7.0, "BARRIO": "YUNGAY", "AGRP": "AV3", "SUP_KM": 2.727776, "Shape_Leng": 8932.4113992700004, "Shape_Area": 2727758.4661400001, "RSH_Total": 32141.0 }, "geometry": { "type": "Point", "coordinates": [ -70.670177, -33.4392, 0.0 ] } },
{ "type": "Feature", "properties": { "Join_Count": 1, "TARGET_FID": 113, "nombre": "Feria de emprendedores", "Comentario": "activicación cultural para copamiento comunitario y desplazr narco py porblemas de seguridad", "Tipo": "Feria", "Jerarquía": 2, "Propiedad": null, "X": 345401.0, "Y": 6299300.0, "Coordenada": 0.0, "OBJECTID_1": 113, "UNIDAD": 4.0, "BARRIO": "PANAMA", "AGRP": "AV2", "SUP_KM": 0.798583, "Shape_Leng": 3683.8322464500002, "Shape_Area": 798577.54615099996, "RSH_Total": 12573.0 }, "geometry": { "type": "Point", "coordinates": [ -70.663068, -33.434571, 0.0 ] } },
{ "type": "Feature", "properties": { "Join_Count": 1, "TARGET_FID": 114, "nombre": "Centro Cultural Areté", "Comentario": "precisar ubicación", "Tipo": "Centro Cultural", "Jerarquía": 2, "Propiedad": null, "X": 345461.0, "Y": 6297060.0, "Coordenada": 0.0, "OBJECTID_1": 114, "UNIDAD": 13.0, "BARRIO": "EJERCITO", "AGRP": "AV8", "SUP_KM": 0.707824, "Shape_Leng": 3770.08981249, "Shape_Area": 707819.01055400004, "RSH_Total": 10861.0 }, "geometry": { "type": "Point", "coordinates": [ -70.662802, -33.454805, 0.0 ] } },
{ "type": "Feature", "properties": { "Join_Count": 1, "TARGET_FID": 115, "nombre": "La Casa de la Cueca", "Comentario": "Mincap-OPC", "Tipo": "Centro Cultural Comunitario", "Jerarquía": 2, "Propiedad": null, "X": 347683.0, "Y": 6296820.0, "Coordenada": 0.0, "OBJECTID_1": 115, "UNIDAD": 10.0, "BARRIO": "DIEZ DE JULIO", "AGRP": "AV7", "SUP_KM": 0.661231, "Shape_Leng": 3501.41722695, "Shape_Area": 661227.22473200003, "RSH_Total": 11662.0 }, "geometry": { "type": "Point", "coordinates": [ -70.638946, -33.45722, 0.0 ] } },
{ "type": "Feature", "properties": { "Join_Count": 1, "TARGET_FID": 116, "nombre": "Casa Bufo", "Comentario": "Mincap-OPC", "Tipo": "Circo", "Jerarquía": 2, "Propiedad": null, "X": 348035.0, "Y": 6296910.0, "Coordenada": 0.0, "OBJECTID_1": 116, "UNIDAD": 10.0, "BARRIO": "DIEZ DE JULIO", "AGRP": "AV7", "SUP_KM": 0.661231, "Shape_Leng": 3501.41722695, "Shape_Area": 661227.22473200003, "RSH_Total": 11662.0 }, "geometry": { "type": "Point", "coordinates": [ -70.635142, -33.456445, 0.0 ] } },
{ "type": "Feature", "properties": { "Join_Count": 1, "TARGET_FID": 117, "nombre": "Casa Payaso", "Comentario": "Mincap-OPC", "Tipo": "Circo", "Jerarquía": 2, "Propiedad": null, "X": 348062.0, "Y": 6296920.0, "Coordenada": 0.0, "OBJECTID_1": 117, "UNIDAD": 10.0, "BARRIO": "DIEZ DE JULIO", "AGRP": "AV7", "SUP_KM": 0.661231, "Shape_Leng": 3501.41722695, "Shape_Area": 661227.22473200003, "RSH_Total": 11662.0 }, "geometry": { "type": "Point", "coordinates": [ -70.634851, -33.456388, 0.0 ] } },
{ "type": "Feature", "properties": { "Join_Count": 1, "TARGET_FID": 118, "nombre": "Circulo de Amigos del Tango Argentino", "Comentario": "Mincap-OPC", "Tipo": "Centro Cultural Comunitario", "Jerarquía": 2, "Propiedad": null, "X": 347861.0, "Y": 6297340.0, "Coordenada": 0.0, "OBJECTID_1": 118, "UNIDAD": 10.0, "BARRIO": "DIEZ DE JULIO", "AGRP": "AV7", "SUP_KM": 0.661231, "Shape_Leng": 3501.41722695, "Shape_Area": 661227.22473200003, "RSH_Total": 11662.0 }, "geometry": { "type": "Point", "coordinates": [ -70.63694, -33.452581, 0.0 ] } },
{ "type": "Feature", "properties": { "Join_Count": 1, "TARGET_FID": 119, "nombre": "Jungla Lat", "Comentario": "Fundación, espacio cowork", "Tipo": "Centro Cultural Comunitario", "Jerarquía": 2, "Propiedad": null, "X": 347872.0, "Y": 6297320.0, "Coordenada": 0.0, "OBJECTID_1": 119, "UNIDAD": 10.0, "BARRIO": "DIEZ DE JULIO", "AGRP": "AV7", "SUP_KM": 0.661231, "Shape_Leng": 3501.41722695, "Shape_Area": 661227.22473200003, "RSH_Total": 11662.0 }, "geometry": { "type": "Point", "coordinates": [ -70.636828, -33.4528, 0.0 ] } },
{ "type": "Feature", "properties": { "Join_Count": 1, "TARGET_FID": 120, "nombre": "CCC", "Comentario": "Mincap-OPC", "Tipo": "Centro Cultural", "Jerarquía": 2, "Propiedad": null, "X": 347896.0, "Y": 6297700.0, "Coordenada": 0.0, "OBJECTID_1": 120, "UNIDAD": 9.0, "BARRIO": "SANTA ISABEL", "AGRP": "AV7", "SUP_KM": 0.944985, "Shape_Leng": 4562.5583616900003, "Shape_Area": 944978.87471400003, "RSH_Total": 36490.0 }, "geometry": { "type": "Point", "coordinates": [ -70.636506, -33.449296, 0.0 ] } },
{ "type": "Feature", "properties": { "Join_Count": 1, "TARGET_FID": 121, "nombre": "Club Social Juan Ramsay", "Comentario": "Mincap-OPC", "Tipo": "Centro Cultural Comunitario", "Jerarquía": 2, "Propiedad": null, "X": 348041.0, "Y": 6298040.0, "Coordenada": 0.0, "OBJECTID_1": 121, "UNIDAD": 9.0, "BARRIO": "SANTA ISABEL", "AGRP": "AV7", "SUP_KM": 0.944985, "Shape_Leng": 4562.5583616900003, "Shape_Area": 944978.87471400003, "RSH_Total": 36490.0 }, "geometry": { "type": "Point", "coordinates": [ -70.634885, -33.446285, 0.0 ] } },
{ "type": "Feature", "properties": { "Join_Count": 1, "TARGET_FID": 122, "nombre": "Museo Violeta Parra", "Comentario": "(cerrado)", "Tipo": "Museo", "Jerarquía": 1, "Propiedad": null, "X": 347972.0, "Y": 6298880.0, "Coordenada": 0.0, "OBJECTID_1": 122, "UNIDAD": 8.0, "BARRIO": "SAN BORJA", "AGRP": "AV7", "SUP_KM": 0.658834, "Shape_Leng": 3937.5269061700001, "Shape_Area": 658829.68134999997, "RSH_Total": 13319.0 }, "geometry": { "type": "Point", "coordinates": [ -70.635489, -33.438714, 0.0 ] } },
{ "type": "Feature", "properties": { "Join_Count": 1, "TARGET_FID": 123, "nombre": "Teatro Coliseo", "Comentario": "Mincap-OPC", "Tipo": "Museo", "Jerarquía": 0, "Propiedad": null, "X": 346257.0, "Y": 6298060.0, "Coordenada": 0.0, "OBJECTID_1": 123, "UNIDAD": 11.0, "BARRIO": "PARQUE ALMAGRO", "AGRP": "AV8", "SUP_KM": 1.284634, "Shape_Leng": 4871.32698351, "Shape_Area": 1284625.2565299999, "RSH_Total": 34913.0 }, "geometry": { "type": "Point", "coordinates": [ -70.654066, -33.445845, 0.0 ] } },
{ "type": "Feature", "properties": { "Join_Count": 1, "TARGET_FID": 124, "nombre": "Ceina", "Comentario": "Mincap-OPC", "Tipo": "Centro Cultural", "Jerarquía": 0, "Propiedad": null, "X": 346618.0, "Y": 6298130.0, "Coordenada": 0.0, "OBJECTID_1": 124, "UNIDAD": 11.0, "BARRIO": "PARQUE ALMAGRO", "AGRP": "AV8", "SUP_KM": 1.284634, "Shape_Leng": 4871.32698351, "Shape_Area": 1284625.2565299999, "RSH_Total": 34913.0 }, "geometry": { "type": "Point", "coordinates": [ -70.65018, -33.445241, 0.0 ] } },
{ "type": "Feature", "properties": { "Join_Count": 1, "TARGET_FID": 125, "nombre": "Galería de Arte Posada del Corregidor", "Comentario": "Mincap-OPC", "Tipo": "Galeria de Arte", "Jerarquía": 2, "Propiedad": "Municipio", "X": 346789.0, "Y": 6299320.0, "Coordenada": 0.0, "OBJECTID_1": 125, "UNIDAD": 2.0, "BARRIO": "CENTRO HISTORICO", "AGRP": "AV1", "SUP_KM": 1.204548, "Shape_Leng": 4579.4313277499996, "Shape_Area": 1204540.55342, "RSH_Total": 18044.0 }, "geometry": { "type": "Point", "coordinates": [ -70.648133, -33.434558, 0.0 ] } },
{ "type": "Feature", "properties": { "Join_Count": 1, "TARGET_FID": 126, "nombre": "Anfiteatro", "Comentario": "Mincap-OPC", "Tipo": "Teatro", "Jerarquía": 2, "Propiedad": null, "X": 347193.0, "Y": 6299270.0, "Coordenada": 0.0, "OBJECTID_1": 126, "UNIDAD": 1.0, "BARRIO": "SANTA LUCIA FORESTAL", "AGRP": "AV1", "SUP_KM": 0.737406, "Shape_Leng": 3888.4785307500001, "Shape_Area": 737401.56247300003, "RSH_Total": 6542.0 }, "geometry": { "type": "Point", "coordinates": [ -70.643802, -33.435093, 0.0 ] } },
{ "type": "Feature", "properties": { "Join_Count": 1, "TARGET_FID": 127, "nombre": "Museo de Arte Contemporáneo (MAC)", "Comentario": "Mincap-OPC", "Tipo": "Museo", "Jerarquía": 0, "Propiedad": null, "X": 347145.0, "Y": 6299260.0, "Coordenada": 0.0, "OBJECTID_1": 127, "UNIDAD": 1.0, "BARRIO": "SANTA LUCIA FORESTAL", "AGRP": "AV1", "SUP_KM": 0.737406, "Shape_Leng": 3888.4785307500001, "Shape_Area": 737401.56247300003, "RSH_Total": 6542.0 }, "geometry": { "type": "Point", "coordinates": [ -70.644313, -33.435177, 0.0 ] } },
{ "type": "Feature", "properties": { "Join_Count": 1, "TARGET_FID": 128, "nombre": "Galería Montegrande", "Comentario": "Mincap-OPC", "Tipo": "Galeria de Arte", "Jerarquía": 2, "Propiedad": null, "X": 347323.0, "Y": 6298900.0, "Coordenada": 0.0, "OBJECTID_1": 128, "UNIDAD": 1.0, "BARRIO": "SANTA LUCIA FORESTAL", "AGRP": "AV1", "SUP_KM": 0.737406, "Shape_Leng": 3888.4785307500001, "Shape_Area": 737401.56247300003, "RSH_Total": 6542.0 }, "geometry": { "type": "Point", "coordinates": [ -70.642459, -33.438447, 0.0 ] } },
{ "type": "Feature", "properties": { "Join_Count": 1, "TARGET_FID": 129, "nombre": "Museo de Farmacia", "Comentario": "Profesor Cesar Leytón Garabagno", "Tipo": "Museo", "Jerarquía": 2, "Propiedad": null, "X": 347918.0, "Y": 6299070.0, "Coordenada": 0.0, "OBJECTID_1": 129, "UNIDAD": 1.0, "BARRIO": "SANTA LUCIA FORESTAL", "AGRP": "AV1", "SUP_KM": 0.737406, "Shape_Leng": 3888.4785307500001, "Shape_Area": 737401.56247300003, "RSH_Total": 6542.0 }, "geometry": { "type": "Point", "coordinates": [ -70.636038, -33.436973, 0.0 ] } }
]
}
