{"type":"FeatureCollection","name":"SOC_PTO_USO_PARQUES_2024","features":[{"type":"Feature","properties":{"Nombre":"Parque Forestal","Frecuencia":"8","Fren-2":8},"geometry":{"type":"Point","coordinates":[-70.641539,-33.435547]}},{"type":"Feature","properties":{"Nombre":"Plaza Brasil","Frecuencia":"7","Fren-2":7},"geometry":{"type":"Point","coordinates":[-70.665741,-33.440546]}},{"type":"Feature","properties":{"Nombre":"Parque Almagro","Frecuencia":"5","Fren-2":5},"geometry":{"type":"Point","coordinates":[-70.652226,-33.451712]}},{"type":"Feature","properties":{"Nombre":"Parque de los Reyes","Frecuencia":"4","Fren-2":4},"geometry":{"type":"Point","coordinates":[-70.666567,-33.429375]}},{"type":"Feature","properties":{"Nombre":"Plaza Yungay","Frecuencia":"6","Fren-2":6},"geometry":{"type":"Point","coordinates":[-70.674003,-33.437558]}},{"type":"Feature","properties":{"Nombre":"Parque San Borja","Frecuencia":"3","Fren-2":3},"geometry":{"type":"Point","coordinates":[-70.63756,-33.440573]}},{"type":"Feature","properties":{"Nombre":"Paseo Bulnes","Frecuencia":"3","Fren-2":3},"geometry":{"type":"Point","coordinates":[-70.652404,-33.45014]}},{"type":"Feature","properties":{"Nombre":"Plaza Bogotá","Frecuencia":"3","Fren-2":3},"geometry":{"type":"Point","coordinates":[-70.633699,-33.467563]}},{"type":"Feature","properties":{"Nombre":"Plaza de Armas","Frecuencia":"3","Fren-2":3},"geometry":{"type":"Point","coordinates":[-70.650402,-33.437787]}},{"type":"Feature","properties":{"Nombre":"GAM","Frecuencia":"2","Fren-2":2},"geometry":{"type":"Point","coordinates":[-70.639714,-33.438975]}},{"type":"Feature","properties":{"Nombre":"Cerro Santa Lucía","Frecuencia":"2","Fren-2":2},"geometry":{"type":"Point","coordinates":[-70.643379,-33.440321]}},{"type":"Feature","properties":{"Nombre":"Frontis Museo Bellas Artes","Frecuencia":"2","Fren-2":2},"geometry":{"type":"Point","coordinates":[-70.643183,-33.435442]}},{"type":"Feature","properties":{"Nombre":"Parque O'Higgins","Frecuencia":"2","Fren-2":2},"geometry":{"type":"Point","coordinates":[-70.65991,-33.461984]}},{"type":"Feature","properties":{"Nombre":"Anfiteatro Parque Centenario","Frecuencia":"1","Fren-2":1},"geometry":{"type":"Point","coordinates":[-70.650894,-33.476778]}},{"type":"Feature","properties":{"Nombre":"Barrio República","Frecuencia":"1","Fren-2":1},"geometry":{"type":"Point","coordinates":[-70.667955,-33.449605]}},{"type":"Feature","properties":{"Nombre":"Barrio Lastarria","Frecuencia":"1","Fren-2":1},"geometry":{"type":"Point","coordinates":[-70.641079,-33.438836]}},{"type":"Feature","properties":{"Nombre":"Parque Bustamante","Frecuencia":"1","Fren-2":1},"geometry":{"type":"Point","coordinates":[-70.632336,-33.439247]}}]}