{
"type": "FeatureCollection",
"name": "SOC_PTO_PUNTOS_ESPACIOS_2024",
"features": [
{ "type": "Feature", "properties": { "Nombre": "Barrio Ferroviario Deportivo", "Tipo": "Otro", "Observaci": null, "GT": "Victoria Lizana y pablo Alvarez", "Jerarquia": null }, "geometry": { "type": "Point", "coordinates": [ -70.67544, -33.470433 ] } },
{ "type": "Feature", "properties": { "Nombre": "Concha Jorge Montt", "Tipo": "Espacio cultural callejero", "Observaci": null, "GT": "Victoria Lizana y pablo Alvarez", "Jerarquia": 3.0 }, "geometry": { "type": "Point", "coordinates": [ -70.673622, -33.467769 ] } },
{ "type": "Feature", "properties": { "Nombre": "Plaza Jorge Montt", "Tipo": "Área verde", "Observaci": "Actuación personas mayores", "GT": "Victoria Lizana y pablo Alvarez", "Jerarquia": 3.0 }, "geometry": { "type": "Point", "coordinates": [ -70.672293, -33.475322 ] } },
{ "type": "Feature", "properties": { "Nombre": "Parque Centenario", "Tipo": "Seguridad", "Observaci": "Cancha y anfiteatro Espacio sentido, oscuridad, falta seguridad", "GT": "Victoria Lizana y pablo Alvarez", "Jerarquia": null }, "geometry": { "type": "Point", "coordinates": [ -70.669154, -33.476185 ] } },
{ "type": "Feature", "properties": { "Nombre": "Plaza Yarur", "Tipo": "Área verde", "Observaci": "actividades culturales", "GT": "Victoria Lizana y pablo Alvarez", "Jerarquia": 3.0 }, "geometry": { "type": "Point", "coordinates": [ -70.6678, -33.473655 ] } },
{ "type": "Feature", "properties": { "Nombre": "Fundación Ruque", "Tipo": "?", "Observaci": "Vecina cuequera que ensaya en Brasil", "GT": "Victoria Lizana y pablo Alvarez", "Jerarquia": null }, "geometry": { "type": "Point", "coordinates": [ -70.672243, -33.471565 ] } },
{ "type": "Feature", "properties": { "Nombre": "Quiero Mi Barrio", "Tipo": "QMB", "Observaci": null, "GT": "Victoria Lizana y pablo Alvarez", "Jerarquia": null }, "geometry": { "type": "Point", "coordinates": [ -70.672262, -33.470613 ] } },
{ "type": "Feature", "properties": { "Nombre": "Hermanos Carrera", "Tipo": "?", "Observaci": "no hay mas info, pedir a GT", "GT": "Victoria Lizana y pablo Alvarez", "Jerarquia": null }, "geometry": { "type": "Point", "coordinates": [ -70.672038, -33.470626 ] } },
{ "type": "Feature", "properties": { "Nombre": "Cine Años Dorados", "Tipo": "?", "Observaci": "precisar ubicación", "GT": "Victoria Lizana y Pablo Alvarez", "Jerarquia": 3.0 }, "geometry": { "type": "Point", "coordinates": [ -70.67147, -33.470493 ] } },
{ "type": "Feature", "properties": { "Nombre": "Plaza Arauco", "Tipo": "Deporte", "Observaci": "deporte, fútbol, basquet, voleibol", "GT": "Victoria Lizana y pablo Alvarez", "Jerarquia": 3.0 }, "geometry": { "type": "Point", "coordinates": [ -70.669876, -33.469085 ] } },
{ "type": "Feature", "properties": { "Nombre": "Iglesia Perpetuo Socorro", "Tipo": "Centro de culto", "Observaci": "es la misma que Iglesia San Gerardo?", "GT": "Victoria Lizana y pablo Alvarez", "Jerarquia": 3.0 }, "geometry": { "type": "Point", "coordinates": [ -70.670768, -33.470354 ] } },
{ "type": "Feature", "properties": { "Nombre": "Escuela Provincia de Chiloé", "Tipo": "Escuela abierta", "Observaci": null, "GT": "Victoria Lizana y pablo Alvarez", "Jerarquia": 3.0 }, "geometry": { "type": "Point", "coordinates": [ -70.670648, -33.470748 ] } },
{ "type": "Feature", "properties": { "Nombre": "Microtráfico en Bascuñan Guerrero", "Tipo": "Seguridad", "Observaci": "Microtráfico en Bascuñan Guerrero", "GT": "Victoria Lizana y pablo Alvarez", "Jerarquia": null }, "geometry": { "type": "Point", "coordinates": [ -70.671522, -33.466732 ] } },
{ "type": "Feature", "properties": { "Nombre": "Mote con Huesillo", "Tipo": "?", "Observaci": "por que esta? hay un dibujo de raton, significa algo? GT", "GT": "Victoria Lizana y pablo Alvarez", "Jerarquia": 3.0 }, "geometry": { "type": "Point", "coordinates": [ -70.671574, -33.466319 ] } },
{ "type": "Feature", "properties": { "Nombre": "Centro Cultural El Sotano", "Tipo": "Espacio cultural", "Observaci": null, "GT": "Victoria Lizana y pablo Alvarez", "Jerarquia": 2.0 }, "geometry": { "type": "Point", "coordinates": [ -70.671177, -33.467071 ] } },
{ "type": "Feature", "properties": { "Nombre": "Club Hípico", "Tipo": "Centro de eventos", "Observaci": "los vecinos no lo consideran lugar propio", "GT": "Victoria Lizana y pablo Alvarez", "Jerarquia": 0.0 }, "geometry": { "type": "Point", "coordinates": [ -70.668279, -33.462499 ] } },
{ "type": "Feature", "properties": { "Nombre": "Fiesta Independencia Perú en Club Hípico", "Tipo": "Espacio cultural callejero", "Observaci": "Fiesta Independencia Perú", "GT": "Victoria Lizana y pablo Alvarez", "Jerarquia": 3.0 }, "geometry": { "type": "Point", "coordinates": [ -70.668893, -33.461288 ] } },
{ "type": "Feature", "properties": { "Nombre": null, "Tipo": "Carencia", "Observaci": "sin sede ni espacios culturales", "GT": "Victoria Lizana y pablo Alvarez", "Jerarquia": null }, "geometry": { "type": "Point", "coordinates": [ -70.664463, -33.468654 ] } },
{ "type": "Feature", "properties": { "Nombre": null, "Tipo": "Otro", "Observaci": "Muchas personas mayores", "GT": "Victoria Lizana y pablo Alvarez", "Jerarquia": null }, "geometry": { "type": "Point", "coordinates": [ -70.664445, -33.464912 ] } },
{ "type": "Feature", "properties": { "Nombre": "Librería", "Tipo": "Librería", "Observaci": "precisar ubicación", "GT": "Victoria Lizana y pablo Alvarez", "Jerarquia": 3.0 }, "geometry": { "type": "Point", "coordinates": [ -70.656565, -33.471678 ] } },
{ "type": "Feature", "properties": { "Nombre": "Vega Poniente", "Tipo": "Comercio", "Observaci": "Espacio disponible", "GT": "Victoria Lizana y pablo Alvarez", "Jerarquia": null }, "geometry": { "type": "Point", "coordinates": [ -70.676986, -33.461465 ] } },
{ "type": "Feature", "properties": { "Nombre": "Bodegas", "Tipo": "Otro", "Observaci": null, "GT": "Victoria Lizana y pablo Alvarez", "Jerarquia": null }, "geometry": { "type": "Point", "coordinates": [ -70.675561, -33.459683 ] } },
{ "type": "Feature", "properties": { "Nombre": "Plaza Melipilla", "Tipo": "Área verde", "Observaci": "ocupado por artesanos", "GT": "Victoria Lizana y pablo Alvarez", "Jerarquia": 3.0 }, "geometry": { "type": "Point", "coordinates": [ -70.677774, -33.458547 ] } },
{ "type": "Feature", "properties": { "Nombre": "Plaza Los Olivos", "Tipo": "Área verde", "Observaci": null, "GT": "Victoria Lizana y pablo Alvarez", "Jerarquia": 3.0 }, "geometry": { "type": "Point", "coordinates": [ -70.677337, -33.450856 ] } },
{ "type": "Feature", "properties": { "Nombre": "DUOC", "Tipo": "Centro educacional", "Observaci": "Centro de difusión de obras", "GT": "Victoria Lizana y pablo Alvarez", "Jerarquia": null }, "geometry": { "type": "Point", "coordinates": [ -70.669908, -33.448837 ] } },
{ "type": "Feature", "properties": { "Nombre": "Parroquía San Lazaro", "Tipo": "Centro de culto", "Observaci": null, "GT": "Victoria Lizana y pablo Alvarez", "Jerarquia": 3.0 }, "geometry": { "type": "Point", "coordinates": [ -70.660576, -33.452291 ] } },
{ "type": "Feature", "properties": { "Nombre": "Fem Fest", "Tipo": "Espacio cultural callejero", "Observaci": "precisar ubicación", "GT": "Victoria Lizana y pablo Alvarez", "Jerarquia": 3.0 }, "geometry": { "type": "Point", "coordinates": [ -70.660116, -33.454793 ] } },
{ "type": "Feature", "properties": { "Nombre": "Centro Cultural La Comparsa", "Tipo": "Espacio cultural", "Observaci": null, "GT": "Victoria Lizana y pablo Alvarez", "Jerarquia": 2.0 }, "geometry": { "type": "Point", "coordinates": [ -70.659465, -33.455223 ] } },
{ "type": "Feature", "properties": { "Nombre": "Liceo Darío Salas", "Tipo": "Escuela abierta", "Observaci": null, "GT": "Victoria Lizana y pablo Alvarez", "Jerarquia": 3.0 }, "geometry": { "type": "Point", "coordinates": [ -70.668964, -33.455474 ] } },
{ "type": "Feature", "properties": { "Nombre": "Escuela Arturo Prat", "Tipo": "Escuela abierta", "Observaci": "Escuela abierta", "GT": "Victoria Lizana y pablo Alvarez", "Jerarquia": 3.0 }, "geometry": { "type": "Point", "coordinates": [ -70.656703, -33.448644 ] } },
{ "type": "Feature", "properties": { "Nombre": "Bailes", "Tipo": "Espacio cultural callejero", "Observaci": "Cueca, Bachata y Batucadas", "GT": "Victoria Lizana y pablo Alvarez", "Jerarquia": 3.0 }, "geometry": { "type": "Point", "coordinates": [ -70.652261, -33.451299 ] } },
{ "type": "Feature", "properties": { "Nombre": "Librería", "Tipo": "Librería", "Observaci": "precisar ubicación", "GT": "Victoria Lizana y pablo Alvarez", "Jerarquia": 3.0 }, "geometry": { "type": "Point", "coordinates": [ -70.652367, -33.453239 ] } },
{ "type": "Feature", "properties": { "Nombre": "Libreros", "Tipo": "Librería", "Observaci": null, "GT": "Victoria Lizana y pablo Alvarez", "Jerarquia": 3.0 }, "geometry": { "type": "Point", "coordinates": [ -70.650114, -33.451538 ] } },
{ "type": "Feature", "properties": { "Nombre": null, "Tipo": "Escuela abierta", "Observaci": null, "GT": "Victoria Lizana y pablo Alvarez", "Jerarquia": 3.0 }, "geometry": { "type": "Point", "coordinates": [ -70.653628, -33.456763 ] } },
{ "type": "Feature", "properties": { "Nombre": "Comité Defensa Parque O'Higgins", "Tipo": "OOSS", "Observaci": null, "GT": null, "Jerarquia": null }, "geometry": { "type": "Point", "coordinates": [ -70.658973, -33.471685 ] } },
{ "type": "Feature", "properties": { "Nombre": "Radio Voz de Huemul", "Tipo": "Radio", "Observaci": null, "GT": null, "Jerarquia": 3.0 }, "geometry": { "type": "Point", "coordinates": [ -70.653836, -33.474641 ] } },
{ "type": "Feature", "properties": { "Nombre": "Fundación La Gota de Leche", "Tipo": "?", "Observaci": "esta en estación central???", "GT": null, "Jerarquia": 3.0 }, "geometry": { "type": "Point", "coordinates": [ -70.650884, -33.475868 ] } },
{ "type": "Feature", "properties": { "Nombre": "Caja de Ahorro", "Tipo": "Otro", "Observaci": null, "GT": null, "Jerarquia": null }, "geometry": { "type": "Point", "coordinates": [ -70.650656, -33.474697 ] } },
{ "type": "Feature", "properties": { "Nombre": "Casa Gabriela Mistral", "Tipo": "Espacio cultural", "Observaci": null, "GT": null, "Jerarquia": 3.0 }, "geometry": { "type": "Point", "coordinates": [ -70.651023, -33.474471 ] } },
{ "type": "Feature", "properties": { "Nombre": "Casa H Artistas y Músicos", "Tipo": "Espacio cultural", "Observaci": null, "GT": null, "Jerarquia": 3.0 }, "geometry": { "type": "Point", "coordinates": [ -70.650379, -33.473554 ] } },
{ "type": "Feature", "properties": { "Nombre": "Quiero Mi Barrio Huemul Norte", "Tipo": "QMB", "Observaci": null, "GT": null, "Jerarquia": null }, "geometry": { "type": "Point", "coordinates": [ -70.649161, -33.471484 ] } },
{ "type": "Feature", "properties": { "Nombre": "Escuela Abierta", "Tipo": "Escuela abierta", "Observaci": null, "GT": null, "Jerarquia": 3.0 }, "geometry": { "type": "Point", "coordinates": [ -70.651356, -33.47035 ] } },
{ "type": "Feature", "properties": { "Nombre": "Centro Cultural El Manduca", "Tipo": "Espacio cultural", "Observaci": null, "GT": "precisar ubic", "Jerarquia": 2.0 }, "geometry": { "type": "Point", "coordinates": [ -70.651164, -33.471513 ] } },
{ "type": "Feature", "properties": { "Nombre": "Clase Radio Comunitaria", "Tipo": "?", "Observaci": null, "GT": null, "Jerarquia": 3.0 }, "geometry": { "type": "Point", "coordinates": [ -70.650622, -33.467251 ] } },
{ "type": "Feature", "properties": { "Nombre": "Escuela abierta", "Tipo": "Escuela abierta", "Observaci": null, "GT": null, "Jerarquia": 3.0 }, "geometry": { "type": "Point", "coordinates": [ -70.648968, -33.466956 ] } },
{ "type": "Feature", "properties": { "Nombre": "Casa Suyai", "Tipo": "Espacio cultural", "Observaci": null, "GT": null, "Jerarquia": 3.0 }, "geometry": { "type": "Point", "coordinates": [ -70.647651, -33.466172 ] } },
{ "type": "Feature", "properties": { "Nombre": "Conjunto habitacional Matta Viel", "Tipo": "Barrio", "Observaci": null, "GT": null, "Jerarquia": null }, "geometry": { "type": "Point", "coordinates": [ -70.655905, -33.460999 ] } },
{ "type": "Feature", "properties": { "Nombre": "Cite Matta 780", "Tipo": "Cite", "Observaci": "Patrimonial", "GT": null, "Jerarquia": null }, "geometry": { "type": "Point", "coordinates": [ -70.645518, -33.460833 ] } },
{ "type": "Feature", "properties": { "Nombre": "Cité Productora Down Town", "Tipo": "Cité", "Observaci": null, "GT": null, "Jerarquia": null }, "geometry": { "type": "Point", "coordinates": [ -70.647615, -33.462532 ] } },
{ "type": "Feature", "properties": { "Nombre": "Parroquia Capilla San Felipe de Jesus", "Tipo": "Centro de culto", "Observaci": null, "GT": null, "Jerarquia": 3.0 }, "geometry": { "type": "Point", "coordinates": [ -70.645589, -33.46399 ] } },
{ "type": "Feature", "properties": { "Nombre": "Magaldi Tango Club", "Tipo": "Espacio cultural", "Observaci": null, "GT": null, "Jerarquia": 3.0 }, "geometry": { "type": "Point", "coordinates": [ -70.642842, -33.462686 ] } },
{ "type": "Feature", "properties": { "Nombre": "Espacio Cinza", "Tipo": "Espacio cultural", "Observaci": null, "GT": null, "Jerarquia": 3.0 }, "geometry": { "type": "Point", "coordinates": [ -70.643048, -33.45915 ] } },
{ "type": "Feature", "properties": { "Nombre": "Rustik Lab", "Tipo": "Espacio cultural", "Observaci": null, "GT": null, "Jerarquia": 3.0 }, "geometry": { "type": "Point", "coordinates": [ -70.641215, -33.459503 ] } },
{ "type": "Feature", "properties": { "Nombre": "Portal Eliseo del Campo", "Tipo": "Seguridad", "Observaci": "Drogas, oscuro, PSC, delitos", "GT": null, "Jerarquia": null }, "geometry": { "type": "Point", "coordinates": [ -70.633584, -33.456465 ] } },
{ "type": "Feature", "properties": { "Nombre": "Fundación Kintruy", "Tipo": "Espacio cultural", "Observaci": "PU", "GT": null, "Jerarquia": 3.0 }, "geometry": { "type": "Point", "coordinates": [ -70.635084, -33.461368 ] } },
{ "type": "Feature", "properties": { "Nombre": "Art Dealers", "Tipo": "Espacio cultural", "Observaci": null, "GT": null, "Jerarquia": 3.0 }, "geometry": { "type": "Point", "coordinates": [ -70.637037, -33.461823 ] } },
{ "type": "Feature", "properties": { "Nombre": "Liceo de Adultos", "Tipo": "Centro educacional", "Observaci": null, "GT": null, "Jerarquia": null }, "geometry": { "type": "Point", "coordinates": [ -70.636982, -33.462885 ] } },
{ "type": "Feature", "properties": { "Nombre": "Comite de Defensa Matta Sur", "Tipo": "OOSS", "Observaci": null, "GT": null, "Jerarquia": null }, "geometry": { "type": "Point", "coordinates": [ -70.633803, -33.461597 ] } },
{ "type": "Feature", "properties": { "Nombre": "Parroquia San Antonio de Padua", "Tipo": "Centro de culto", "Observaci": "Carnaval", "GT": null, "Jerarquia": 3.0 }, "geometry": { "type": "Point", "coordinates": [ -70.637592, -33.465484 ] } },
{ "type": "Feature", "properties": { "Nombre": "Biblioteca Comunitaria Municipal", "Tipo": "Espacio cultural", "Observaci": null, "GT": null, "Jerarquia": 3.0 }, "geometry": { "type": "Point", "coordinates": [ -70.636114, -33.465135 ] } },
{ "type": "Feature", "properties": { "Nombre": "Casa Danza", "Tipo": "Espacio cultural", "Observaci": null, "GT": null, "Jerarquia": 3.0 }, "geometry": { "type": "Point", "coordinates": [ -70.632854, -33.465499 ] } },
{ "type": "Feature", "properties": { "Nombre": "Complejo Deportivo Juan Lopez", "Tipo": "Deporte", "Observaci": null, "GT": null, "Jerarquia": 3.0 }, "geometry": { "type": "Point", "coordinates": [ -70.628479, -33.466011 ] } },
{ "type": "Feature", "properties": { "Nombre": "Importadora de Café del Bueno", "Tipo": "Otro", "Observaci": null, "GT": null, "Jerarquia": null }, "geometry": { "type": "Point", "coordinates": [ -70.627753, -33.470219 ] } },
{ "type": "Feature", "properties": { "Nombre": "la Cueva del Hiphop", "Tipo": "Espacio cultural", "Observaci": null, "GT": null, "Jerarquia": 3.0 }, "geometry": { "type": "Point", "coordinates": [ -70.63112, -33.47255 ] } },
{ "type": "Feature", "properties": { "Nombre": "Ex Teatro América", "Tipo": "Otro", "Observaci": "hoy privado (bodegaje), monumento histórico sin uso, gran oportunidad de inversión", "GT": null, "Jerarquia": null }, "geometry": { "type": "Point", "coordinates": [ -70.633739, -33.468332 ] } },
{ "type": "Feature", "properties": { "Nombre": "Escuela Pública Comunitaria", "Tipo": "Escuela", "Observaci": null, "GT": "atención de 14 niñes desescolarizados, talleres, huerto comunitario", "Jerarquia": 3.0 }, "geometry": { "type": "Point", "coordinates": [ -70.636589, -33.475205 ] } },
{ "type": "Feature", "properties": { "Nombre": "Teatro olvidado en San Isidro", "Tipo": "Otro", "Observaci": null, "GT": "Precisar ubicación", "Jerarquia": null }, "geometry": { "type": "Point", "coordinates": [ -70.638987, -33.475806 ] } },
{ "type": "Feature", "properties": { "Nombre": "Mall Chino", "Tipo": "Comercio", "Observaci": "arriba quieren hacer cowork y centro de negocio y cultural", "GT": null, "Jerarquia": null }, "geometry": { "type": "Point", "coordinates": [ -70.642319, -33.475134 ] } },
{ "type": "Feature", "properties": { "Nombre": "Factoría Franklín", "Tipo": "Espacio cultural", "Observaci": null, "GT": null, "Jerarquia": 3.0 }, "geometry": { "type": "Point", "coordinates": [ -70.642911, -33.472857 ] } },
{ "type": "Feature", "properties": { "Nombre": "Centro Adulto Mayor", "Tipo": "Otro", "Observaci": null, "GT": null, "Jerarquia": null }, "geometry": { "type": "Point", "coordinates": [ -70.640853, -33.46964 ] } },
{ "type": "Feature", "properties": { "Nombre": "Comercio Anaqueles", "Tipo": "Otro", "Observaci": null, "GT": "PU", "Jerarquia": null }, "geometry": { "type": "Point", "coordinates": [ -70.645909, -33.473023 ] } },
{ "type": "Feature", "properties": { "Nombre": "Galeria Franklin-Huemul", "Tipo": "Espacio cultural", "Observaci": null, "GT": null, "Jerarquia": 3.0 }, "geometry": { "type": "Point", "coordinates": [ -70.64617, -33.47326 ] } },
{ "type": "Feature", "properties": { "Nombre": "Ex Galpón Matadero", "Tipo": "Espacio cultural", "Observaci": "Fiestas, actividad cultural", "GT": null, "Jerarquia": 3.0 }, "geometry": { "type": "Point", "coordinates": [ -70.646091, -33.47505 ] } },
{ "type": "Feature", "properties": { "Nombre": "Presentación organizaciones", "Tipo": "Espacio cultural callejero", "Observaci": null, "GT": "Romina Canales y Francisca Amigza", "Jerarquia": 3.0 }, "geometry": { "type": "Point", "coordinates": [ -70.679731, -33.443308 ] } },
{ "type": "Feature", "properties": { "Nombre": "Grupos bailes", "Tipo": "Espacio cultural callejero", "Observaci": null, "GT": null, "Jerarquia": 3.0 }, "geometry": { "type": "Point", "coordinates": [ -70.679794, -33.440141 ] } },
{ "type": "Feature", "properties": { "Nombre": "Ensayos OO Culturales", "Tipo": "Espacio cultural callejero", "Observaci": null, "GT": null, "Jerarquia": 3.0 }, "geometry": { "type": "Point", "coordinates": [ -70.678509, -33.44157 ] } },
{ "type": "Feature", "properties": { "Nombre": "Organizaciones de adultos mayores", "Tipo": "OOSS", "Observaci": null, "GT": null, "Jerarquia": null }, "geometry": { "type": "Point", "coordinates": [ -70.677638, -33.44237 ] } },
{ "type": "Feature", "properties": { "Nombre": "Centro Cultural Bombo Acorto Trío", "Tipo": "Espacio cultural", "Observaci": "será en el vecino espacio Ailanto?", "GT": null, "Jerarquia": 2.0 }, "geometry": { "type": "Point", "coordinates": [ -70.677565, -33.442515 ] } },
{ "type": "Feature", "properties": { "Nombre": "Chancho 6", "Tipo": "Restaurant", "Observaci": null, "GT": null, "Jerarquia": 3.0 }, "geometry": { "type": "Point", "coordinates": [ -70.676712, -33.442317 ] } },
{ "type": "Feature", "properties": { "Nombre": "Verde Que Te quiero Verde", "Tipo": "Restaurant", "Observaci": null, "GT": null, "Jerarquia": 3.0 }, "geometry": { "type": "Point", "coordinates": [ -70.676828, -33.442481 ] } },
{ "type": "Feature", "properties": { "Nombre": "El Huaso Enríquez", "Tipo": "Restaurant", "Observaci": null, "GT": null, "Jerarquia": 3.0 }, "geometry": { "type": "Point", "coordinates": [ -70.676696, -33.440451 ] } },
{ "type": "Feature", "properties": { "Nombre": "Taller Las Florez", "Tipo": "Espacio cultural", "Observaci": null, "GT": null, "Jerarquia": 3.0 }, "geometry": { "type": "Point", "coordinates": [ -70.675651, -33.439015 ] } },
{ "type": "Feature", "properties": { "Nombre": "Escuela abierta", "Tipo": "Escuela abierta", "Observaci": null, "GT": null, "Jerarquia": 3.0 }, "geometry": { "type": "Point", "coordinates": [ -70.675322, -33.431432 ] } },
{ "type": "Feature", "properties": { "Nombre": "Parque de Escalada Los Silos", "Tipo": "Deporte", "Observaci": "a veces se hacen actividades culturales. Centro cedido en comodato a Fundación Deporte Libre", "GT": null, "Jerarquia": 3.0 }, "geometry": { "type": "Point", "coordinates": [ -70.675459, -33.426476 ] } },
{ "type": "Feature", "properties": { "Nombre": "Parque Los Reyes poca seguridad mal uso espacios cierre perimetral", "Tipo": "Seguridad", "Observaci": null, "GT": null, "Jerarquia": null }, "geometry": { "type": "Point", "coordinates": [ -70.665436, -33.429908 ] } },
{ "type": "Feature", "properties": { "Nombre": "Fundamas", "Tipo": "Otro", "Observaci": "Fundación aerobiologica y MMAA", "GT": null, "Jerarquia": null }, "geometry": { "type": "Point", "coordinates": [ -70.669651, -33.432011 ] } },
{ "type": "Feature", "properties": { "Nombre": "Plaza Panama", "Tipo": "Área verde", "Observaci": "OO culturales y patrimoniales, seguridad problemas, copamiento comunitario", "GT": null, "Jerarquia": 3.0 }, "geometry": { "type": "Point", "coordinates": [ -70.66808, -33.433871 ] } },
{ "type": "Feature", "properties": { "Nombre": "Parroquísa San Saturnino", "Tipo": "Centro de culto", "Observaci": null, "GT": null, "Jerarquia": 3.0 }, "geometry": { "type": "Point", "coordinates": [ -70.674249, -33.438101 ] } },
{ "type": "Feature", "properties": { "Nombre": "OO infantiles y medioambientales", "Tipo": "OOSS", "Observaci": null, "GT": null, "Jerarquia": null }, "geometry": { "type": "Point", "coordinates": [ -70.674054, -33.439896 ] } },
{ "type": "Feature", "properties": { "Nombre": "ensayo y presentacion de agrupaciones culturales", "Tipo": "Espacio cultural callejero", "Observaci": null, "GT": null, "Jerarquia": 3.0 }, "geometry": { "type": "Point", "coordinates": [ -70.676068, -33.443433 ] } },
{ "type": "Feature", "properties": { "Nombre": "exposicion e intervenciones culturales", "Tipo": "Espacio cultural", "Observaci": null, "GT": null, "Jerarquia": 3.0 }, "geometry": { "type": "Point", "coordinates": [ -70.672373, -33.443 ] } },
{ "type": "Feature", "properties": { "Nombre": "Escuela Abierta", "Tipo": "Escuela abierta", "Observaci": null, "GT": null, "Jerarquia": 3.0 }, "geometry": { "type": "Point", "coordinates": [ -70.671471, -33.443157 ] } },
{ "type": "Feature", "properties": { "Nombre": "ICAL", "Tipo": "Centro de estudios", "Observaci": null, "GT": null, "Jerarquia": null }, "geometry": { "type": "Point", "coordinates": [ -70.668459, -33.440837 ] } },
{ "type": "Feature", "properties": { "Nombre": "Actividades culturales en la plaza, ferias", "Tipo": "Espacio cultural callejero", "Observaci": null, "GT": null, "Jerarquia": 3.0 }, "geometry": { "type": "Point", "coordinates": [ -70.665865, -33.445485 ] } },
{ "type": "Feature", "properties": { "Nombre": "Plaza Brasil", "Tipo": "Área verde", "Observaci": "actividad cultural, problemas de seguridad y trafico, necesidad copamiento, recuperar identidad cultural y turística", "GT": null, "Jerarquia": 1.0 }, "geometry": { "type": "Point", "coordinates": [ -70.665833, -33.440481 ] } },
{ "type": "Feature", "properties": { "Nombre": "Casa Tata Barahona", "Tipo": "Otro", "Observaci": null, "GT": null, "Jerarquia": 3.0 }, "geometry": { "type": "Point", "coordinates": [ -70.646448, -33.457641 ] } },
{ "type": "Feature", "properties": { "Nombre": "Restaurant patrimonial", "Tipo": "?", "Observaci": "no lo encontramos precisar el nombre", "GT": null, "Jerarquia": null }, "geometry": { "type": "Point", "coordinates": [ -70.645189, -33.457235 ] } },
{ "type": "Feature", "properties": { "Nombre": "Clarisas Capuchinas", "Tipo": "otro", "Observaci": null, "GT": null, "Jerarquia": null }, "geometry": { "type": "Point", "coordinates": [ -70.640115, -33.454787 ] } },
{ "type": "Feature", "properties": { "Nombre": "Cabeza de Martillo", "Tipo": "Comercio", "Observaci": "tienda de venta de articulos para malabares", "GT": null, "Jerarquia": 3.0 }, "geometry": { "type": "Point", "coordinates": [ -70.635253, -33.45624 ] } },
{ "type": "Feature", "properties": { "Nombre": "Carnaval", "Tipo": "Espacio cultural callejero", "Observaci": "23 de octubre", "GT": null, "Jerarquia": 3.0 }, "geometry": { "type": "Point", "coordinates": [ -70.634848, -33.456653 ] } },
{ "type": "Feature", "properties": { "Nombre": "Chile y Sus Raices", "Tipo": "Otro", "Observaci": "precisar que es y donde está", "GT": null, "Jerarquia": null }, "geometry": { "type": "Point", "coordinates": [ -70.634743, -33.453911 ] } },
{ "type": "Feature", "properties": { "Nombre": "Escuela Abierta", "Tipo": "Escuela abierta", "Observaci": null, "GT": null, "Jerarquia": 3.0 }, "geometry": { "type": "Point", "coordinates": [ -70.636642, -33.449606 ] } },
{ "type": "Feature", "properties": { "Nombre": "Biblioteca en JJVV?", "Tipo": "JJVV", "Observaci": null, "GT": null, "Jerarquia": null }, "geometry": { "type": "Point", "coordinates": [ -70.63309, -33.449176 ] } },
{ "type": "Feature", "properties": { "Nombre": "Mural de vecinos en plaza Violler", "Tipo": "Espacio cultural callejero", "Observaci": null, "GT": null, "Jerarquia": 3.0 }, "geometry": { "type": "Point", "coordinates": [ -70.635996, -33.443055 ] } },
{ "type": "Feature", "properties": { "Nombre": "Salsa en la Calle (frente a Papagayo)", "Tipo": "Espacio cultural callejero", "Observaci": null, "GT": null, "Jerarquia": 3.0 }, "geometry": { "type": "Point", "coordinates": [ -70.638132, -33.438889 ] } },
{ "type": "Feature", "properties": { "Nombre": "Coro ciudadano San Borja", "Tipo": "Espacio cultural callejero", "Observaci": null, "GT": null, "Jerarquia": 3.0 }, "geometry": { "type": "Point", "coordinates": [ -70.639138, -33.440782 ] } },
{ "type": "Feature", "properties": { "Nombre": "Plaza Los Libros", "Tipo": "Área verde", "Observaci": null, "GT": null, "Jerarquia": 3.0 }, "geometry": { "type": "Point", "coordinates": [ -70.640961, -33.442848 ] } },
{ "type": "Feature", "properties": { "Nombre": "Talleres comunitarios", "Tipo": "?", "Observaci": null, "GT": null, "Jerarquia": 3.0 }, "geometry": { "type": "Point", "coordinates": [ -70.641154, -33.446935 ] } },
{ "type": "Feature", "properties": { "Nombre": "Sindicato de la Construcción", "Tipo": "Patrimonio", "Observaci": "casa patrimonial", "GT": null, "Jerarquia": null }, "geometry": { "type": "Point", "coordinates": [ -70.648117, -33.450688 ] } },
{ "type": "Feature", "properties": { "Nombre": "CUT", "Tipo": "Otro", "Observaci": null, "GT": null, "Jerarquia": 3.0 }, "geometry": { "type": "Point", "coordinates": [ -70.654756, -33.445275 ] } },
{ "type": "Feature", "properties": { "Nombre": "Biblioteca Municipal Nicomedes Guzmán", "Tipo": "Espacio cultural", "Observaci": null, "GT": null, "Jerarquia": 3.0 }, "geometry": { "type": "Point", "coordinates": [ -70.660798, -33.441414 ] } },
{ "type": "Feature", "properties": { "Nombre": "Falta de OO Territoriales", "Tipo": "?", "Observaci": "necesidad de activar con actividades culturales", "GT": null, "Jerarquia": null }, "geometry": { "type": "Point", "coordinates": [ -70.658472, -33.438377 ] } },
{ "type": "Feature", "properties": { "Nombre": "Iglesia Santa Ana", "Tipo": "Centro de culto", "Observaci": null, "GT": null, "Jerarquia": 3.0 }, "geometry": { "type": "Point", "coordinates": [ -70.658742, -33.43807 ] } },
{ "type": "Feature", "properties": { "Nombre": "Odeón Plaza de Armas (pérgola)", "Tipo": "Espacio cultural callejero", "Observaci": "música", "GT": null, "Jerarquia": 3.0 }, "geometry": { "type": "Point", "coordinates": [ -70.650048, -33.437757 ] } },
{ "type": "Feature", "properties": { "Nombre": "Plaza de Armas", "Tipo": "Área verde", "Observaci": "Prostitución, PSC, narcotráfico", "GT": null, "Jerarquia": 0.0 }, "geometry": { "type": "Point", "coordinates": [ -70.65035, -33.438018 ] } },
{ "type": "Feature", "properties": { "Nombre": "Palacio Consistorial Municipalidad de Santiago", "Tipo": "Otro", "Observaci": null, "GT": null, "Jerarquia": null }, "geometry": { "type": "Point", "coordinates": [ -70.650106, -33.437148 ] } },
{ "type": "Feature", "properties": { "Nombre": "Free style", "Tipo": "Espacio cultural callejero", "Observaci": "raperos, traperos y música urbana", "GT": null, "Jerarquia": 3.0 }, "geometry": { "type": "Point", "coordinates": [ -70.645127, -33.43463 ] } },
{ "type": "Feature", "properties": { "Nombre": "Tambores", "Tipo": "Espacio cultural callejero", "Observaci": null, "GT": null, "Jerarquia": 3.0 }, "geometry": { "type": "Point", "coordinates": [ -70.643761, -33.434939 ] } },
{ "type": "Feature", "properties": { "Nombre": "Explanada afuera del MAC", "Tipo": "Espacio cultural callejero", "Observaci": "Usos culturales y eventos callejeros diversos", "GT": null, "Jerarquia": 3.0 }, "geometry": { "type": "Point", "coordinates": [ -70.644639, -33.435083 ] } },
{ "type": "Feature", "properties": { "Nombre": "Galería Cima", "Tipo": "Otro", "Observaci": null, "GT": null, "Jerarquia": 3.0 }, "geometry": { "type": "Point", "coordinates": [ -70.635777, -33.436975 ] } },
{ "type": "Feature", "properties": { "Nombre": "Librería Que Leo Forestal", "Tipo": "Librería", "Observaci": "se hacen lanzamientos de libros y etc", "GT": null, "Jerarquia": null }, "geometry": { "type": "Point", "coordinates": [ -70.636363, -33.437019 ] } },
{ "type": "Feature", "properties": { "Nombre": "problemas de seguridad, PSC, alcohol", "Tipo": "Seguridad", "Observaci": null, "GT": null, "Jerarquia": null }, "geometry": { "type": "Point", "coordinates": [ -70.665813, -33.445509 ] } },
{ "type": "Feature", "properties": { "Nombre": "Cité Andalucía", "Tipo": "Cité", "Observaci": "estaba como zona GT, pero lo cambiamos a punto", "GT": null, "Jerarquia": null }, "geometry": { "type": "Point", "coordinates": [ -70.662323, -33.452408 ] } }
]
}
