{
"type": "FeatureCollection",
"name": "SOC_PTO_EQUIPAMIENTO_DEPORTIVO",
"features": [
{ "type": "Feature", "properties": { "cod_region": "13", "nom_region": "Metropolitana de Santiago", "cod_provin": "131", "nom_provin": "Santiago", "cod_comuna": "13101", "nom_comuna": "Santiago", "nombre": "MULTICANCHA ARAUCO", "sector": "Publico" }, "geometry": { "type": "Point", "coordinates": [ -70.670075, -33.468442 ] } },
{ "type": "Feature", "properties": { "cod_region": "13", "nom_region": "Metropolitana de Santiago", "cod_provin": "131", "nom_provin": "Santiago", "cod_comuna": "13101", "nom_comuna": "Santiago", "nombre": "GIMNASIO SANTIAGO", "sector": "Publico" }, "geometry": { "type": "Point", "coordinates": [ -70.652626, -33.462553 ] } },
{ "type": "Feature", "properties": { "cod_region": "13", "nom_region": "Metropolitana de Santiago", "cod_provin": "131", "nom_provin": "Santiago", "cod_comuna": "13101", "nom_comuna": "Santiago", "nombre": "MULTICANCHA JORGE MONTT", "sector": "Publico" }, "geometry": { "type": "Point", "coordinates": [ -70.671753, -33.475583 ] } },
{ "type": "Feature", "properties": { "cod_region": "13", "nom_region": "Metropolitana de Santiago", "cod_provin": "131", "nom_provin": "Santiago", "cod_comuna": "13101", "nom_comuna": "Santiago", "nombre": "SINDICATO UNIFICADO BANCO BBVA", "sector": "Privado" }, "geometry": { "type": "Point", "coordinates": [ -70.654976, -33.448239 ] } },
{ "type": "Feature", "properties": { "cod_region": "13", "nom_region": "Metropolitana de Santiago", "cod_provin": "131", "nom_provin": "Santiago", "cod_comuna": "13101", "nom_comuna": "Santiago", "nombre": "MULTICANCHA COPIAPO", "sector": "Publico" }, "geometry": { "type": "Point", "coordinates": [ -70.653197, -33.456106 ] } },
{ "type": "Feature", "properties": { "cod_region": "13", "nom_region": "Metropolitana de Santiago", "cod_provin": "131", "nom_provin": "Santiago", "cod_comuna": "13101", "nom_comuna": "Santiago", "nombre": "CLUB MEXICO", "sector": "Privado" }, "geometry": { "type": "Point", "coordinates": [ -70.659963, -33.434526 ] } },
{ "type": "Feature", "properties": { "cod_region": "13", "nom_region": "Metropolitana de Santiago", "cod_provin": "131", "nom_provin": "Santiago", "cod_comuna": "13101", "nom_comuna": "Santiago", "nombre": "CENTRO DE EXTENSION IPS", "sector": "Publico" }, "geometry": { "type": "Point", "coordinates": [ -70.65598, -33.443068 ] } },
{ "type": "Feature", "properties": { "cod_region": "13", "nom_region": "Metropolitana de Santiago", "cod_provin": "131", "nom_provin": "Santiago", "cod_comuna": "13101", "nom_comuna": "Santiago", "nombre": "MULTICANCHA FRANKLIN", "sector": "Publico" }, "geometry": { "type": "Point", "coordinates": [ -70.650968, -33.473418 ] } },
{ "type": "Feature", "properties": { "cod_region": "13", "nom_region": "Metropolitana de Santiago", "cod_provin": "131", "nom_provin": "Santiago", "cod_comuna": "13101", "nom_comuna": "Santiago", "nombre": "ESTADIO VICTOR JARA", "sector": "Publico" }, "geometry": { "type": "Point", "coordinates": [ -70.674868, -33.450422 ] } },
{ "type": "Feature", "properties": { "cod_region": "13", "nom_region": "Metropolitana de Santiago", "cod_provin": "131", "nom_provin": "Santiago", "cod_comuna": "13101", "nom_comuna": "Santiago", "nombre": "COMPLEJO DEPORTIVO QUINTA NORMAL", "sector": "Publico" }, "geometry": { "type": "Point", "coordinates": [ -70.684565, -33.440576 ] } },
{ "type": "Feature", "properties": { "cod_region": "13", "nom_region": "Metropolitana de Santiago", "cod_provin": "131", "nom_provin": "Santiago", "cod_comuna": "13101", "nom_comuna": "Santiago", "nombre": "CLUB DE TIRO JOSE MIGUEL CARRERA", "sector": "Privado" }, "geometry": { "type": "Point", "coordinates": [ -70.644671, -33.449166 ] } },
{ "type": "Feature", "properties": { "cod_region": "13", "nom_region": "Metropolitana de Santiago", "cod_provin": "131", "nom_provin": "Santiago", "cod_comuna": "13101", "nom_comuna": "Santiago", "nombre": "FACULTAD DE CIENCIAS FISICAS Y MATEMATICAS UNIVERSIDAD DE CHILE", "sector": "Publico" }, "geometry": { "type": "Point", "coordinates": [ -70.663974, -33.457995 ] } },
{ "type": "Feature", "properties": { "cod_region": "13", "nom_region": "Metropolitana de Santiago", "cod_provin": "131", "nom_provin": "Santiago", "cod_comuna": "13101", "nom_comuna": "Santiago", "nombre": "UNIVERSIDAD ARTURO PRAT", "sector": "Publico" }, "geometry": { "type": "Point", "coordinates": [ -70.662554, -33.434658 ] } },
{ "type": "Feature", "properties": { "cod_region": "13", "nom_region": "Metropolitana de Santiago", "cod_provin": "131", "nom_provin": "Santiago", "cod_comuna": "13101", "nom_comuna": "Santiago", "nombre": "POLIDEPORTIVO DE UNIVERSIDAD CENTRAL", "sector": "Privado" }, "geometry": { "type": "Point", "coordinates": [ -70.650312, -33.453059 ] } },
{ "type": "Feature", "properties": { "cod_region": "13", "nom_region": "Metropolitana de Santiago", "cod_provin": "131", "nom_provin": "Santiago", "cod_comuna": "13101", "nom_comuna": "Santiago", "nombre": "AIKIKAI CHILE", "sector": "Privado" }, "geometry": { "type": "Point", "coordinates": [ -70.673747, -33.445272 ] } },
{ "type": "Feature", "properties": { "cod_region": "13", "nom_region": "Metropolitana de Santiago", "cod_provin": "131", "nom_provin": "Santiago", "cod_comuna": "13101", "nom_comuna": "Santiago", "nombre": "UNIVERSIDAD ARCIS", "sector": "Privado" }, "geometry": { "type": "Point", "coordinates": [ -70.673462, -33.446756 ] } },
{ "type": "Feature", "properties": { "cod_region": "13", "nom_region": "Metropolitana de Santiago", "cod_provin": "131", "nom_provin": "Santiago", "cod_comuna": "13101", "nom_comuna": "Santiago", "nombre": "PISCINA PARQUE QUINTA NORMAL", "sector": "Publico" }, "geometry": { "type": "Point", "coordinates": [ -70.685812, -33.442405 ] } },
{ "type": "Feature", "properties": { "cod_region": "13", "nom_region": "Metropolitana de Santiago", "cod_provin": "131", "nom_provin": "Santiago", "cod_comuna": "13101", "nom_comuna": "Santiago", "nombre": "SAGRADOS CORAZONES", "sector": "Privado" }, "geometry": { "type": "Point", "coordinates": [ -70.663987, -33.446647 ] } },
{ "type": "Feature", "properties": { "cod_region": "13", "nom_region": "Metropolitana de Santiago", "cod_provin": "131", "nom_provin": "Santiago", "cod_comuna": "13101", "nom_comuna": "Santiago", "nombre": "UNIVERSIDAD ANDRES BELLO", "sector": "Privado" }, "geometry": { "type": "Point", "coordinates": [ -70.666485, -33.450827 ] } },
{ "type": "Feature", "properties": { "cod_region": "13", "nom_region": "Metropolitana de Santiago", "cod_provin": "131", "nom_provin": "Santiago", "cod_comuna": "13101", "nom_comuna": "Santiago", "nombre": "COMPLEJO DEPORTIVO PARQUE LOS REYES", "sector": "Publico" }, "geometry": { "type": "Point", "coordinates": [ -70.66987, -33.428028 ] } },
{ "type": "Feature", "properties": { "cod_region": "13", "nom_region": "Metropolitana de Santiago", "cod_provin": "131", "nom_provin": "Santiago", "cod_comuna": "13101", "nom_comuna": "Santiago", "nombre": "FEDERACION CHILENA DE ESGRIMA", "sector": "Privado" }, "geometry": { "type": "Point", "coordinates": [ -70.645938, -33.446442 ] } },
{ "type": "Feature", "properties": { "cod_region": "13", "nom_region": "Metropolitana de Santiago", "cod_provin": "131", "nom_provin": "Santiago", "cod_comuna": "13101", "nom_comuna": "Santiago", "nombre": "UNIVERSIDAD BERNARDO O'HIGGINS", "sector": "Privado" }, "geometry": { "type": "Point", "coordinates": [ -70.656766, -33.467685 ] } },
{ "type": "Feature", "properties": { "cod_region": "13", "nom_region": "Metropolitana de Santiago", "cod_provin": "131", "nom_provin": "Santiago", "cod_comuna": "13101", "nom_comuna": "Santiago", "nombre": "CLUB GIL LETELIER", "sector": "Publico" }, "geometry": { "type": "Point", "coordinates": [ -70.673591, -33.478369 ] } },
{ "type": "Feature", "properties": { "cod_region": "13", "nom_region": "Metropolitana de Santiago", "cod_provin": "131", "nom_provin": "Santiago", "cod_comuna": "13101", "nom_comuna": "Santiago", "nombre": "CLUB DEPORTIVO SOCIAL SAN BORJA ARRIARAN", "sector": "Publico" }, "geometry": { "type": "Point", "coordinates": [ -70.642942, -33.461709 ] } },
{ "type": "Feature", "properties": { "cod_region": "13", "nom_region": "Metropolitana de Santiago", "cod_provin": "131", "nom_provin": "Santiago", "cod_comuna": "13101", "nom_comuna": "Santiago", "nombre": "ACADEMIA DE GIMNASIA Y EDUCACION LEBLON CENTRO LIMITADA", "sector": "Privado" }, "geometry": { "type": "Point", "coordinates": [ -70.650322, -33.447331 ] } },
{ "type": "Feature", "properties": { "cod_region": "13", "nom_region": "Metropolitana de Santiago", "cod_provin": "131", "nom_provin": "Santiago", "cod_comuna": "13101", "nom_comuna": "Santiago", "nombre": "MULTICANCHA ZENTENO", "sector": "Publico" }, "geometry": { "type": "Point", "coordinates": [ -70.652124, -33.450663 ] } },
{ "type": "Feature", "properties": { "cod_region": "13", "nom_region": "Metropolitana de Santiago", "cod_provin": "131", "nom_provin": "Santiago", "cod_comuna": "13101", "nom_comuna": "Santiago", "nombre": "COMPLEJO DEPORTIVO JOSE MANUEL LOPEZ", "sector": "Publico" }, "geometry": { "type": "Point", "coordinates": [ -70.628338, -33.466079 ] } },
{ "type": "Feature", "properties": { "cod_region": "13", "nom_region": "Metropolitana de Santiago", "cod_provin": "131", "nom_provin": "Santiago", "cod_comuna": "13101", "nom_comuna": "Santiago", "nombre": "GIMNASIO SPORTLIFE", "sector": "Privado" }, "geometry": { "type": "Point", "coordinates": [ -70.652111, -33.44176 ] } },
{ "type": "Feature", "properties": { "cod_region": "13", "nom_region": "Metropolitana de Santiago", "cod_provin": "131", "nom_provin": "Santiago", "cod_comuna": "13101", "nom_comuna": "Santiago", "nombre": "CENTRO COMUNITARIO CAROL URZUA", "sector": "Publico" }, "geometry": { "type": "Point", "coordinates": [ -70.642351, -33.468683 ] } },
{ "type": "Feature", "properties": { "cod_region": "13", "nom_region": "Metropolitana de Santiago", "cod_provin": "131", "nom_provin": "Santiago", "cod_comuna": "13101", "nom_comuna": "Santiago", "nombre": "LADY GIM", "sector": "Privado" }, "geometry": { "type": "Point", "coordinates": [ -70.642815, -33.441989 ] } },
{ "type": "Feature", "properties": { "cod_region": "13", "nom_region": "Metropolitana de Santiago", "cod_provin": "131", "nom_provin": "Santiago", "cod_comuna": "13101", "nom_comuna": "Santiago", "nombre": "MULTICANCHA BANDEJON PEDRO MONTT", "sector": "Publico" }, "geometry": { "type": "Point", "coordinates": [ -70.65735, -33.473174 ] } },
{ "type": "Feature", "properties": { "cod_region": "13", "nom_region": "Metropolitana de Santiago", "cod_provin": "131", "nom_provin": "Santiago", "cod_comuna": "13101", "nom_comuna": "Santiago", "nombre": "MULTICANCHA SANTO DOMINGO", "sector": "Publico" }, "geometry": { "type": "Point", "coordinates": [ -70.664934, -33.437925 ] } },
{ "type": "Feature", "properties": { "cod_region": "13", "nom_region": "Metropolitana de Santiago", "cod_provin": "131", "nom_provin": "Santiago", "cod_comuna": "13101", "nom_comuna": "Santiago", "nombre": "CLUB DEPORTIVO SOCIAL Y CULTURAL SAMURAI", "sector": "Privado" }, "geometry": { "type": "Point", "coordinates": [ -70.648962, -33.446651 ] } },
{ "type": "Feature", "properties": { "cod_region": "13", "nom_region": "Metropolitana de Santiago", "cod_provin": "131", "nom_provin": "Santiago", "cod_comuna": "13101", "nom_comuna": "Santiago", "nombre": "GIMNASIO DOMEYKO", "sector": "Publico" }, "geometry": { "type": "Point", "coordinates": [ -70.664277, -33.454758 ] } },
{ "type": "Feature", "properties": { "cod_region": "13", "nom_region": "Metropolitana de Santiago", "cod_provin": "131", "nom_provin": "Santiago", "cod_comuna": "13101", "nom_comuna": "Santiago", "nombre": "COMPLEJO DEPORTIVO PARQUE CENTENARIO", "sector": "Publico" }, "geometry": { "type": "Point", "coordinates": [ -70.669316, -33.475864 ] } },
{ "type": "Feature", "properties": { "cod_region": "13", "nom_region": "Metropolitana de Santiago", "cod_provin": "131", "nom_provin": "Santiago", "cod_comuna": "13101", "nom_comuna": "Santiago", "nombre": "CENTRO DEPORTIVO BERNARDO YADLYN", "sector": "Publico" }, "geometry": { "type": "Point", "coordinates": [ -70.650619, -33.473886 ] } },
{ "type": "Feature", "properties": { "cod_region": "13", "nom_region": "Metropolitana de Santiago", "cod_provin": "131", "nom_provin": "Santiago", "cod_comuna": "13101", "nom_comuna": "Santiago", "nombre": "CLUB DE TENIS SANTIAGO", "sector": "Privado" }, "geometry": { "type": "Point", "coordinates": [ -70.658362, -33.458428 ] } },
{ "type": "Feature", "properties": { "cod_region": "13", "nom_region": "Metropolitana de Santiago", "cod_provin": "131", "nom_provin": "Santiago", "cod_comuna": "13101", "nom_comuna": "Santiago", "nombre": "MULTICANCHA ABATE MOLINA", "sector": "Publico" }, "geometry": { "type": "Point", "coordinates": [ -70.672075, -33.457586 ] } },
{ "type": "Feature", "properties": { "cod_region": "13", "nom_region": "Metropolitana de Santiago", "cod_provin": "131", "nom_provin": "Santiago", "cod_comuna": "13101", "nom_comuna": "Santiago", "nombre": "MULTICANCHA POBLACION PEDRO MONTT", "sector": "Publico" }, "geometry": { "type": "Point", "coordinates": [ -70.668612, -33.47257 ] } },
{ "type": "Feature", "properties": { "cod_region": "13", "nom_region": "Metropolitana de Santiago", "cod_provin": "131", "nom_provin": "Santiago", "cod_comuna": "13101", "nom_comuna": "Santiago", "nombre": "CANCHA SOTOMAYOR", "sector": "Publico" }, "geometry": { "type": "Point", "coordinates": [ -70.672753, -33.444671 ] } },
{ "type": "Feature", "properties": { "cod_region": "13", "nom_region": "Metropolitana de Santiago", "cod_provin": "131", "nom_provin": "Santiago", "cod_comuna": "13101", "nom_comuna": "Santiago", "nombre": "MULTICANCHA ARSENALES DE GUERRA", "sector": "Publico" }, "geometry": { "type": "Point", "coordinates": [ -70.657989, -33.455632 ] } },
{ "type": "Feature", "properties": { "cod_region": "13", "nom_region": "Metropolitana de Santiago", "cod_provin": "131", "nom_provin": "Santiago", "cod_comuna": "13101", "nom_comuna": "Santiago", "nombre": "FARRU Y LOPEZ LIMITADA", "sector": "Privado" }, "geometry": { "type": "Point", "coordinates": [ -70.660718, -33.451384 ] } },
{ "type": "Feature", "properties": { "cod_region": "13", "nom_region": "Metropolitana de Santiago", "cod_provin": "131", "nom_provin": "Santiago", "cod_comuna": "13101", "nom_comuna": "Santiago", "nombre": "PACIFIC FITNESS LIMITADA", "sector": "Privado" }, "geometry": { "type": "Point", "coordinates": [ -70.635558, -33.44697 ] } },
{ "type": "Feature", "properties": { "cod_region": "13", "nom_region": "Metropolitana de Santiago", "cod_provin": "131", "nom_provin": "Santiago", "cod_comuna": "13101", "nom_comuna": "Santiago", "nombre": "SKATE PARK", "sector": "Publico" }, "geometry": { "type": "Point", "coordinates": [ -70.65748, -33.463909 ] } },
{ "type": "Feature", "properties": { "cod_region": "13", "nom_region": "Metropolitana de Santiago", "cod_provin": "131", "nom_provin": "Santiago", "cod_comuna": "13101", "nom_comuna": "Santiago", "nombre": "CANCHAS DE FUTBOLITO PARQUE O'HIGGINS", "sector": "Privado" }, "geometry": { "type": "Point", "coordinates": [ -70.659224, -33.469363 ] } },
{ "type": "Feature", "properties": { "cod_region": "13", "nom_region": "Metropolitana de Santiago", "cod_provin": "131", "nom_provin": "Santiago", "cod_comuna": "13101", "nom_comuna": "Santiago", "nombre": "PISCINA PARGUE O'HIGGINS", "sector": "Publico" }, "geometry": { "type": "Point", "coordinates": [ -70.659179, -33.468767 ] } },
{ "type": "Feature", "properties": { "cod_region": "13", "nom_region": "Metropolitana de Santiago", "cod_provin": "131", "nom_provin": "Santiago", "cod_comuna": "13101", "nom_comuna": "Santiago", "nombre": "GIMNASIO ENTRE TIEMPO", "sector": "Privado" }, "geometry": { "type": "Point", "coordinates": [ -70.660773, -33.451899 ] } },
{ "type": "Feature", "properties": { "cod_region": "13", "nom_region": "Metropolitana de Santiago", "cod_provin": "131", "nom_provin": "Santiago", "cod_comuna": "13101", "nom_comuna": "Santiago", "nombre": "CANCHA FUTBOLITO PARQUE O'HIGGINS", "sector": "Publico" }, "geometry": { "type": "Point", "coordinates": [ -70.657855, -33.461875 ] } },
{ "type": "Feature", "properties": { "cod_region": "13", "nom_region": "Metropolitana de Santiago", "cod_provin": "131", "nom_provin": "Santiago", "cod_comuna": "13101", "nom_comuna": "Santiago", "nombre": "MULTICANCHA PARQUE O'HIGGINS", "sector": "Publico" }, "geometry": { "type": "Point", "coordinates": [ -70.6579, -33.461464 ] } },
{ "type": "Feature", "properties": { "cod_region": "13", "nom_region": "Metropolitana de Santiago", "cod_provin": "131", "nom_provin": "Santiago", "cod_comuna": "13101", "nom_comuna": "Santiago", "nombre": "NUCLEO DE BALONCESTO", "sector": "Publico" }, "geometry": { "type": "Point", "coordinates": [ -70.662285, -33.464139 ] } },
{ "type": "Feature", "properties": { "cod_region": "13", "nom_region": "Metropolitana de Santiago", "cod_provin": "131", "nom_provin": "Santiago", "cod_comuna": "13101", "nom_comuna": "Santiago", "nombre": "CANCHAS DE TENIS PARQUE O'HIGGINS", "sector": "Publico" }, "geometry": { "type": "Point", "coordinates": [ -70.661333, -33.466499 ] } },
{ "type": "Feature", "properties": { "cod_region": "13", "nom_region": "Metropolitana de Santiago", "cod_provin": "131", "nom_provin": "Santiago", "cod_comuna": "13101", "nom_comuna": "Santiago", "nombre": "PATINODROMO PARQUE O'HIGGINS", "sector": "Publico" }, "geometry": { "type": "Point", "coordinates": [ -70.660906, -33.464407 ] } },
{ "type": "Feature", "properties": { "cod_region": "13", "nom_region": "Metropolitana de Santiago", "cod_provin": "131", "nom_provin": "Santiago", "cod_comuna": "13101", "nom_comuna": "Santiago", "nombre": "GIMNASIO ALICIA FRANCKE", "sector": "Privado" }, "geometry": { "type": "Point", "coordinates": [ -70.657523, -33.442766 ] } },
{ "type": "Feature", "properties": { "cod_region": "13", "nom_region": "Metropolitana de Santiago", "cod_provin": "131", "nom_provin": "Santiago", "cod_comuna": "13101", "nom_comuna": "Santiago", "nombre": "MULTICANCHA DIEZ DE JULIO", "sector": "Publico" }, "geometry": { "type": "Point", "coordinates": [ -70.645347, -33.453871 ] } },
{ "type": "Feature", "properties": { "cod_region": "13", "nom_region": "Metropolitana de Santiago", "cod_provin": "131", "nom_provin": "Santiago", "cod_comuna": "13101", "nom_comuna": "Santiago", "nombre": "GIMNASIO PACIFIC", "sector": "Privado" }, "geometry": { "type": "Point", "coordinates": [ -70.631399, -33.450721 ] } },
{ "type": "Feature", "properties": { "cod_region": "13", "nom_region": "Metropolitana de Santiago", "cod_provin": "131", "nom_provin": "Santiago", "cod_comuna": "13101", "nom_comuna": "Santiago", "nombre": "GIMNASIO PACIFIC FITNESS", "sector": "Privado" }, "geometry": { "type": "Point", "coordinates": [ -70.658983, -33.433212 ] } },
{ "type": "Feature", "properties": { "cod_region": "13", "nom_region": "Metropolitana de Santiago", "cod_provin": "131", "nom_provin": "Santiago", "cod_comuna": "13101", "nom_comuna": "Santiago", "nombre": "ACADEMIA DE ARTES MARCIALES JIYUKAN", "sector": "Privado" }, "geometry": { "type": "Point", "coordinates": [ -70.635031, -33.456767 ] } },
{ "type": "Feature", "properties": { "cod_region": "13", "nom_region": "Metropolitana de Santiago", "cod_provin": "131", "nom_provin": "Santiago", "cod_comuna": "13101", "nom_comuna": "Santiago", "nombre": "GIMNASIO PACIFIC", "sector": "Privado" }, "geometry": { "type": "Point", "coordinates": [ -70.659993, -33.440979 ] } },
{ "type": "Feature", "properties": { "cod_region": "13", "nom_region": "Metropolitana de Santiago", "cod_provin": "131", "nom_provin": "Santiago", "cod_comuna": "13101", "nom_comuna": "Santiago", "nombre": "GIMNASIO GUSTAVO FLORES", "sector": "Privado" }, "geometry": { "type": "Point", "coordinates": [ -70.645948, -33.443546 ] } },
{ "type": "Feature", "properties": { "cod_region": "13", "nom_region": "Metropolitana de Santiago", "cod_provin": "131", "nom_provin": "Santiago", "cod_comuna": "13101", "nom_comuna": "Santiago", "nombre": "CENTRO DE CAPACITACION PACIFIC FITNESS", "sector": "Privado" }, "geometry": { "type": "Point", "coordinates": [ -70.635565, -33.447112 ] } },
{ "type": "Feature", "properties": { "cod_region": "13", "nom_region": "Metropolitana de Santiago", "cod_provin": "131", "nom_provin": "Santiago", "cod_comuna": "13101", "nom_comuna": "Santiago", "nombre": "GIMNASIO GDS", "sector": "Privado" }, "geometry": { "type": "Point", "coordinates": [ -70.642935, -33.444064 ] } },
{ "type": "Feature", "properties": { "cod_region": "13", "nom_region": "Metropolitana de Santiago", "cod_provin": "131", "nom_provin": "Santiago", "cod_comuna": "13101", "nom_comuna": "Santiago", "nombre": "EGAD FITNESS CENTER", "sector": "Privado" }, "geometry": { "type": "Point", "coordinates": [ -70.656427, -33.438109 ] } },
{ "type": "Feature", "properties": { "cod_region": "13", "nom_region": "Metropolitana de Santiago", "cod_provin": "131", "nom_provin": "Santiago", "cod_comuna": "13101", "nom_comuna": "Santiago", "nombre": "PACIFIC FITNESS", "sector": "Privado" }, "geometry": { "type": "Point", "coordinates": [ -70.64673, -33.440996 ] } },
{ "type": "Feature", "properties": { "cod_region": "13", "nom_region": "Metropolitana de Santiago", "cod_provin": "131", "nom_provin": "Santiago", "cod_comuna": "13101", "nom_comuna": "Santiago", "nombre": "GIMNASIO PACIFIC", "sector": "Privado" }, "geometry": { "type": "Point", "coordinates": [ -70.648908, -33.438714 ] } },
{ "type": "Feature", "properties": { "cod_region": "13", "nom_region": "Metropolitana de Santiago", "cod_provin": "131", "nom_provin": "Santiago", "cod_comuna": "13101", "nom_comuna": "Santiago", "nombre": "GIMNASIO PACIFIC", "sector": "Privado" }, "geometry": { "type": "Point", "coordinates": [ -70.665549, -33.444318 ] } },
{ "type": "Feature", "properties": { "cod_region": "13", "nom_region": "Metropolitana de Santiago", "cod_provin": "131", "nom_provin": "Santiago", "cod_comuna": "13101", "nom_comuna": "Santiago", "nombre": "GIMNASIO PACIFIC", "sector": "Privado" }, "geometry": { "type": "Point", "coordinates": [ -70.649304, -33.449318 ] } },
{ "type": "Feature", "properties": { "cod_region": "13", "nom_region": "Metropolitana de Santiago", "cod_provin": "131", "nom_provin": "Santiago", "cod_comuna": "13101", "nom_comuna": "Santiago", "nombre": "GIMNASIO PACIFIC", "sector": "Privado" }, "geometry": { "type": "Point", "coordinates": [ -70.653013, -33.438996 ] } },
{ "type": "Feature", "properties": { "cod_region": "13", "nom_region": "Metropolitana de Santiago", "cod_provin": "131", "nom_provin": "Santiago", "cod_comuna": "13101", "nom_comuna": "Santiago", "nombre": "YMCA", "sector": "Privado" }, "geometry": { "type": "Point", "coordinates": [ -70.656593, -33.439099 ] } },
{ "type": "Feature", "properties": { "cod_region": "13", "nom_region": "Metropolitana de Santiago", "cod_provin": "131", "nom_provin": "Santiago", "cod_comuna": "13101", "nom_comuna": "Santiago", "nombre": "GIMNASIO PACIFIC", "sector": "Privado" }, "geometry": { "type": "Point", "coordinates": [ -70.654192, -33.453134 ] } },
{ "type": "Feature", "properties": { "cod_region": "13", "nom_region": "Metropolitana de Santiago", "cod_provin": "131", "nom_provin": "Santiago", "cod_comuna": "13101", "nom_comuna": "Santiago", "nombre": "CLUB DEPORTIVO GYMKANA", "sector": "Privado" }, "geometry": { "type": "Point", "coordinates": [ -70.655059, -33.460469 ] } },
{ "type": "Feature", "properties": { "cod_region": "13", "nom_region": "Metropolitana de Santiago", "cod_provin": "131", "nom_provin": "Santiago", "cod_comuna": "13101", "nom_comuna": "Santiago", "nombre": "UNIVERSIDAD DIEGO PORTALES", "sector": "Privado" }, "geometry": { "type": "Point", "coordinates": [ -70.659438, -33.451331 ] } },
{ "type": "Feature", "properties": { "cod_region": "13", "nom_region": "Metropolitana de Santiago", "cod_provin": "131", "nom_provin": "Santiago", "cod_comuna": "13101", "nom_comuna": "Santiago", "nombre": "GIMNASIO ESPAN?A", "sector": "Privado" }, "geometry": { "type": "Point", "coordinates": [ -70.669847, -33.451412 ] } },
{ "type": "Feature", "properties": { "cod_region": "13", "nom_region": "Metropolitana de Santiago", "cod_provin": "131", "nom_provin": "Santiago", "cod_comuna": "13101", "nom_comuna": "Santiago", "nombre": "MUNDIAL LAWN TENIS CLUB", "sector": "Publico" }, "geometry": { "type": "Point", "coordinates": [ -70.683033, -33.443858 ] } },
{ "type": "Feature", "properties": { "cod_region": "13", "nom_region": "Metropolitana de Santiago", "cod_provin": "131", "nom_provin": "Santiago", "cod_comuna": "13101", "nom_comuna": "Santiago", "nombre": "CLUB HIPICO DE SANTIAGO", "sector": "Privado" }, "geometry": { "type": "Point", "coordinates": [ -70.671526, -33.458974 ] } },
{ "type": "Feature", "properties": { "cod_region": "13", "nom_region": "Metropolitana de Santiago", "cod_provin": "131", "nom_provin": "Santiago", "cod_comuna": "13101", "nom_comuna": "Santiago", "nombre": "MOVISTAR ARENA", "sector": "Publico" }, "geometry": { "type": "Point", "coordinates": [ -70.66101, -33.461942 ] } },
{ "type": "Feature", "properties": { "cod_region": "13", "nom_region": "Metropolitana de Santiago", "cod_provin": "131", "nom_provin": "Santiago", "cod_comuna": "13101", "nom_comuna": "Santiago", "nombre": "MULTICANCHA ARAUCO", "sector": "Publico" }, "geometry": { "type": "Point", "coordinates": [ -70.670075, -33.468442 ] } },
{ "type": "Feature", "properties": { "cod_region": "13", "nom_region": "Metropolitana de Santiago", "cod_provin": "131", "nom_provin": "Santiago", "cod_comuna": "13101", "nom_comuna": "Santiago", "nombre": "GIMNASIO SANTIAGO", "sector": "Publico" }, "geometry": { "type": "Point", "coordinates": [ -70.652626, -33.462553 ] } },
{ "type": "Feature", "properties": { "cod_region": "13", "nom_region": "Metropolitana de Santiago", "cod_provin": "131", "nom_provin": "Santiago", "cod_comuna": "13101", "nom_comuna": "Santiago", "nombre": "MULTICANCHA JORGE MONTT", "sector": "Publico" }, "geometry": { "type": "Point", "coordinates": [ -70.671753, -33.475583 ] } },
{ "type": "Feature", "properties": { "cod_region": "13", "nom_region": "Metropolitana de Santiago", "cod_provin": "131", "nom_provin": "Santiago", "cod_comuna": "13101", "nom_comuna": "Santiago", "nombre": "SINDICATO UNIFICADO BANCO BBVA", "sector": "Privado" }, "geometry": { "type": "Point", "coordinates": [ -70.654976, -33.448239 ] } },
{ "type": "Feature", "properties": { "cod_region": "13", "nom_region": "Metropolitana de Santiago", "cod_provin": "131", "nom_provin": "Santiago", "cod_comuna": "13101", "nom_comuna": "Santiago", "nombre": "MULTICANCHA COPIAPO", "sector": "Publico" }, "geometry": { "type": "Point", "coordinates": [ -70.653197, -33.456106 ] } },
{ "type": "Feature", "properties": { "cod_region": "13", "nom_region": "Metropolitana de Santiago", "cod_provin": "131", "nom_provin": "Santiago", "cod_comuna": "13101", "nom_comuna": "Santiago", "nombre": "CLUB MEXICO", "sector": "Privado" }, "geometry": { "type": "Point", "coordinates": [ -70.659963, -33.434526 ] } },
{ "type": "Feature", "properties": { "cod_region": "13", "nom_region": "Metropolitana de Santiago", "cod_provin": "131", "nom_provin": "Santiago", "cod_comuna": "13101", "nom_comuna": "Santiago", "nombre": "CENTRO DE EXTENSION IPS", "sector": "Publico" }, "geometry": { "type": "Point", "coordinates": [ -70.65598, -33.443068 ] } },
{ "type": "Feature", "properties": { "cod_region": "13", "nom_region": "Metropolitana de Santiago", "cod_provin": "131", "nom_provin": "Santiago", "cod_comuna": "13101", "nom_comuna": "Santiago", "nombre": "MULTICANCHA FRANKLIN", "sector": "Publico" }, "geometry": { "type": "Point", "coordinates": [ -70.650968, -33.473418 ] } },
{ "type": "Feature", "properties": { "cod_region": "13", "nom_region": "Metropolitana de Santiago", "cod_provin": "131", "nom_provin": "Santiago", "cod_comuna": "13101", "nom_comuna": "Santiago", "nombre": "ESTADIO VICTOR JARA", "sector": "Publico" }, "geometry": { "type": "Point", "coordinates": [ -70.674868, -33.450422 ] } },
{ "type": "Feature", "properties": { "cod_region": "13", "nom_region": "Metropolitana de Santiago", "cod_provin": "131", "nom_provin": "Santiago", "cod_comuna": "13101", "nom_comuna": "Santiago", "nombre": "COMPLEJO DEPORTIVO QUINTA NORMAL", "sector": "Publico" }, "geometry": { "type": "Point", "coordinates": [ -70.684565, -33.440576 ] } },
{ "type": "Feature", "properties": { "cod_region": "13", "nom_region": "Metropolitana de Santiago", "cod_provin": "131", "nom_provin": "Santiago", "cod_comuna": "13101", "nom_comuna": "Santiago", "nombre": "CLUB DE TIRO JOSE MIGUEL CARRERA", "sector": "Privado" }, "geometry": { "type": "Point", "coordinates": [ -70.644671, -33.449166 ] } },
{ "type": "Feature", "properties": { "cod_region": "13", "nom_region": "Metropolitana de Santiago", "cod_provin": "131", "nom_provin": "Santiago", "cod_comuna": "13101", "nom_comuna": "Santiago", "nombre": "FACULTAD DE CIENCIAS FISICAS Y MATEMATICAS UNIVERSIDAD DE CHILE", "sector": "Publico" }, "geometry": { "type": "Point", "coordinates": [ -70.663974, -33.457995 ] } },
{ "type": "Feature", "properties": { "cod_region": "13", "nom_region": "Metropolitana de Santiago", "cod_provin": "131", "nom_provin": "Santiago", "cod_comuna": "13101", "nom_comuna": "Santiago", "nombre": "UNIVERSIDAD ARTURO PRAT", "sector": "Publico" }, "geometry": { "type": "Point", "coordinates": [ -70.662554, -33.434658 ] } },
{ "type": "Feature", "properties": { "cod_region": "13", "nom_region": "Metropolitana de Santiago", "cod_provin": "131", "nom_provin": "Santiago", "cod_comuna": "13101", "nom_comuna": "Santiago", "nombre": "POLIDEPORTIVO DE UNIVERSIDAD CENTRAL", "sector": "Privado" }, "geometry": { "type": "Point", "coordinates": [ -70.650312, -33.453059 ] } },
{ "type": "Feature", "properties": { "cod_region": "13", "nom_region": "Metropolitana de Santiago", "cod_provin": "131", "nom_provin": "Santiago", "cod_comuna": "13101", "nom_comuna": "Santiago", "nombre": "AIKIKAI CHILE", "sector": "Privado" }, "geometry": { "type": "Point", "coordinates": [ -70.673747, -33.445272 ] } },
{ "type": "Feature", "properties": { "cod_region": "13", "nom_region": "Metropolitana de Santiago", "cod_provin": "131", "nom_provin": "Santiago", "cod_comuna": "13101", "nom_comuna": "Santiago", "nombre": "UNIVERSIDAD ARCIS", "sector": "Privado" }, "geometry": { "type": "Point", "coordinates": [ -70.673462, -33.446756 ] } },
{ "type": "Feature", "properties": { "cod_region": "13", "nom_region": "Metropolitana de Santiago", "cod_provin": "131", "nom_provin": "Santiago", "cod_comuna": "13101", "nom_comuna": "Santiago", "nombre": "PISCINA PARQUE QUINTA NORMAL", "sector": "Publico" }, "geometry": { "type": "Point", "coordinates": [ -70.685812, -33.442405 ] } },
{ "type": "Feature", "properties": { "cod_region": "13", "nom_region": "Metropolitana de Santiago", "cod_provin": "131", "nom_provin": "Santiago", "cod_comuna": "13101", "nom_comuna": "Santiago", "nombre": "SAGRADOS CORAZONES", "sector": "Privado" }, "geometry": { "type": "Point", "coordinates": [ -70.663987, -33.446647 ] } },
{ "type": "Feature", "properties": { "cod_region": "13", "nom_region": "Metropolitana de Santiago", "cod_provin": "131", "nom_provin": "Santiago", "cod_comuna": "13101", "nom_comuna": "Santiago", "nombre": "UNIVERSIDAD ANDRES BELLO", "sector": "Privado" }, "geometry": { "type": "Point", "coordinates": [ -70.666485, -33.450827 ] } },
{ "type": "Feature", "properties": { "cod_region": "13", "nom_region": "Metropolitana de Santiago", "cod_provin": "131", "nom_provin": "Santiago", "cod_comuna": "13101", "nom_comuna": "Santiago", "nombre": "COMPLEJO DEPORTIVO PARQUE LOS REYES", "sector": "Publico" }, "geometry": { "type": "Point", "coordinates": [ -70.66987, -33.428028 ] } },
{ "type": "Feature", "properties": { "cod_region": "13", "nom_region": "Metropolitana de Santiago", "cod_provin": "131", "nom_provin": "Santiago", "cod_comuna": "13101", "nom_comuna": "Santiago", "nombre": "FEDERACION CHILENA DE ESGRIMA", "sector": "Privado" }, "geometry": { "type": "Point", "coordinates": [ -70.645938, -33.446442 ] } },
{ "type": "Feature", "properties": { "cod_region": "13", "nom_region": "Metropolitana de Santiago", "cod_provin": "131", "nom_provin": "Santiago", "cod_comuna": "13101", "nom_comuna": "Santiago", "nombre": "UNIVERSIDAD BERNARDO O'HIGGINS", "sector": "Privado" }, "geometry": { "type": "Point", "coordinates": [ -70.656766, -33.467685 ] } },
{ "type": "Feature", "properties": { "cod_region": "13", "nom_region": "Metropolitana de Santiago", "cod_provin": "131", "nom_provin": "Santiago", "cod_comuna": "13101", "nom_comuna": "Santiago", "nombre": "CLUB GIL LETELIER", "sector": "Publico" }, "geometry": { "type": "Point", "coordinates": [ -70.673591, -33.478369 ] } },
{ "type": "Feature", "properties": { "cod_region": "13", "nom_region": "Metropolitana de Santiago", "cod_provin": "131", "nom_provin": "Santiago", "cod_comuna": "13101", "nom_comuna": "Santiago", "nombre": "CLUB DEPORTIVO SOCIAL SAN BORJA ARRIARAN", "sector": "Publico" }, "geometry": { "type": "Point", "coordinates": [ -70.642942, -33.461709 ] } },
{ "type": "Feature", "properties": { "cod_region": "13", "nom_region": "Metropolitana de Santiago", "cod_provin": "131", "nom_provin": "Santiago", "cod_comuna": "13101", "nom_comuna": "Santiago", "nombre": "ACADEMIA DE GIMNASIA Y EDUCACION LEBLON CENTRO LIMITADA", "sector": "Privado" }, "geometry": { "type": "Point", "coordinates": [ -70.650322, -33.447331 ] } },
{ "type": "Feature", "properties": { "cod_region": "13", "nom_region": "Metropolitana de Santiago", "cod_provin": "131", "nom_provin": "Santiago", "cod_comuna": "13101", "nom_comuna": "Santiago", "nombre": "MULTICANCHA ZENTENO", "sector": "Publico" }, "geometry": { "type": "Point", "coordinates": [ -70.652124, -33.450663 ] } },
{ "type": "Feature", "properties": { "cod_region": "13", "nom_region": "Metropolitana de Santiago", "cod_provin": "131", "nom_provin": "Santiago", "cod_comuna": "13101", "nom_comuna": "Santiago", "nombre": "COMPLEJO DEPORTIVO JOSE MANUEL LOPEZ", "sector": "Publico" }, "geometry": { "type": "Point", "coordinates": [ -70.628338, -33.466079 ] } },
{ "type": "Feature", "properties": { "cod_region": "13", "nom_region": "Metropolitana de Santiago", "cod_provin": "131", "nom_provin": "Santiago", "cod_comuna": "13101", "nom_comuna": "Santiago", "nombre": "GIMNASIO SPORTLIFE", "sector": "Privado" }, "geometry": { "type": "Point", "coordinates": [ -70.652111, -33.44176 ] } },
{ "type": "Feature", "properties": { "cod_region": "13", "nom_region": "Metropolitana de Santiago", "cod_provin": "131", "nom_provin": "Santiago", "cod_comuna": "13101", "nom_comuna": "Santiago", "nombre": "CENTRO COMUNITARIO CAROL URZUA", "sector": "Publico" }, "geometry": { "type": "Point", "coordinates": [ -70.642351, -33.468683 ] } },
{ "type": "Feature", "properties": { "cod_region": "13", "nom_region": "Metropolitana de Santiago", "cod_provin": "131", "nom_provin": "Santiago", "cod_comuna": "13101", "nom_comuna": "Santiago", "nombre": "LADY GIM", "sector": "Privado" }, "geometry": { "type": "Point", "coordinates": [ -70.642815, -33.441989 ] } },
{ "type": "Feature", "properties": { "cod_region": "13", "nom_region": "Metropolitana de Santiago", "cod_provin": "131", "nom_provin": "Santiago", "cod_comuna": "13101", "nom_comuna": "Santiago", "nombre": "MULTICANCHA BANDEJON PEDRO MONTT", "sector": "Publico" }, "geometry": { "type": "Point", "coordinates": [ -70.65735, -33.473174 ] } },
{ "type": "Feature", "properties": { "cod_region": "13", "nom_region": "Metropolitana de Santiago", "cod_provin": "131", "nom_provin": "Santiago", "cod_comuna": "13101", "nom_comuna": "Santiago", "nombre": "MULTICANCHA SANTO DOMINGO", "sector": "Publico" }, "geometry": { "type": "Point", "coordinates": [ -70.664934, -33.437925 ] } },
{ "type": "Feature", "properties": { "cod_region": "13", "nom_region": "Metropolitana de Santiago", "cod_provin": "131", "nom_provin": "Santiago", "cod_comuna": "13101", "nom_comuna": "Santiago", "nombre": "CLUB DEPORTIVO SOCIAL Y CULTURAL SAMURAI", "sector": "Privado" }, "geometry": { "type": "Point", "coordinates": [ -70.648962, -33.446651 ] } },
{ "type": "Feature", "properties": { "cod_region": "13", "nom_region": "Metropolitana de Santiago", "cod_provin": "131", "nom_provin": "Santiago", "cod_comuna": "13101", "nom_comuna": "Santiago", "nombre": "GIMNASIO DOMEYKO", "sector": "Publico" }, "geometry": { "type": "Point", "coordinates": [ -70.664277, -33.454758 ] } },
{ "type": "Feature", "properties": { "cod_region": "13", "nom_region": "Metropolitana de Santiago", "cod_provin": "131", "nom_provin": "Santiago", "cod_comuna": "13101", "nom_comuna": "Santiago", "nombre": "COMPLEJO DEPORTIVO PARQUE CENTENARIO", "sector": "Publico" }, "geometry": { "type": "Point", "coordinates": [ -70.669316, -33.475864 ] } },
{ "type": "Feature", "properties": { "cod_region": "13", "nom_region": "Metropolitana de Santiago", "cod_provin": "131", "nom_provin": "Santiago", "cod_comuna": "13101", "nom_comuna": "Santiago", "nombre": "CENTRO DEPORTIVO BERNARDO YADLYN", "sector": "Publico" }, "geometry": { "type": "Point", "coordinates": [ -70.650619, -33.473886 ] } },
{ "type": "Feature", "properties": { "cod_region": "13", "nom_region": "Metropolitana de Santiago", "cod_provin": "131", "nom_provin": "Santiago", "cod_comuna": "13101", "nom_comuna": "Santiago", "nombre": "CLUB DE TENIS SANTIAGO", "sector": "Privado" }, "geometry": { "type": "Point", "coordinates": [ -70.658362, -33.458428 ] } },
{ "type": "Feature", "properties": { "cod_region": "13", "nom_region": "Metropolitana de Santiago", "cod_provin": "131", "nom_provin": "Santiago", "cod_comuna": "13101", "nom_comuna": "Santiago", "nombre": "MULTICANCHA ABATE MOLINA", "sector": "Publico" }, "geometry": { "type": "Point", "coordinates": [ -70.672075, -33.457586 ] } },
{ "type": "Feature", "properties": { "cod_region": "13", "nom_region": "Metropolitana de Santiago", "cod_provin": "131", "nom_provin": "Santiago", "cod_comuna": "13101", "nom_comuna": "Santiago", "nombre": "MULTICANCHA POBLACION PEDRO MONTT", "sector": "Publico" }, "geometry": { "type": "Point", "coordinates": [ -70.668612, -33.47257 ] } },
{ "type": "Feature", "properties": { "cod_region": "13", "nom_region": "Metropolitana de Santiago", "cod_provin": "131", "nom_provin": "Santiago", "cod_comuna": "13101", "nom_comuna": "Santiago", "nombre": "CANCHA SOTOMAYOR", "sector": "Publico" }, "geometry": { "type": "Point", "coordinates": [ -70.672753, -33.444671 ] } },
{ "type": "Feature", "properties": { "cod_region": "13", "nom_region": "Metropolitana de Santiago", "cod_provin": "131", "nom_provin": "Santiago", "cod_comuna": "13101", "nom_comuna": "Santiago", "nombre": "MULTICANCHA ARSENALES DE GUERRA", "sector": "Publico" }, "geometry": { "type": "Point", "coordinates": [ -70.657989, -33.455632 ] } },
{ "type": "Feature", "properties": { "cod_region": "13", "nom_region": "Metropolitana de Santiago", "cod_provin": "131", "nom_provin": "Santiago", "cod_comuna": "13101", "nom_comuna": "Santiago", "nombre": "FARRU Y LOPEZ LIMITADA", "sector": "Privado" }, "geometry": { "type": "Point", "coordinates": [ -70.660718, -33.451384 ] } },
{ "type": "Feature", "properties": { "cod_region": "13", "nom_region": "Metropolitana de Santiago", "cod_provin": "131", "nom_provin": "Santiago", "cod_comuna": "13101", "nom_comuna": "Santiago", "nombre": "PACIFIC FITNESS LIMITADA", "sector": "Privado" }, "geometry": { "type": "Point", "coordinates": [ -70.635558, -33.44697 ] } },
{ "type": "Feature", "properties": { "cod_region": "13", "nom_region": "Metropolitana de Santiago", "cod_provin": "131", "nom_provin": "Santiago", "cod_comuna": "13101", "nom_comuna": "Santiago", "nombre": "SKATE PARK", "sector": "Publico" }, "geometry": { "type": "Point", "coordinates": [ -70.65748, -33.463909 ] } },
{ "type": "Feature", "properties": { "cod_region": "13", "nom_region": "Metropolitana de Santiago", "cod_provin": "131", "nom_provin": "Santiago", "cod_comuna": "13101", "nom_comuna": "Santiago", "nombre": "CANCHAS DE FUTBOLITO PARQUE O'HIGGINS", "sector": "Privado" }, "geometry": { "type": "Point", "coordinates": [ -70.659224, -33.469363 ] } },
{ "type": "Feature", "properties": { "cod_region": "13", "nom_region": "Metropolitana de Santiago", "cod_provin": "131", "nom_provin": "Santiago", "cod_comuna": "13101", "nom_comuna": "Santiago", "nombre": "PISCINA PARGUE O'HIGGINS", "sector": "Publico" }, "geometry": { "type": "Point", "coordinates": [ -70.659179, -33.468767 ] } },
{ "type": "Feature", "properties": { "cod_region": "13", "nom_region": "Metropolitana de Santiago", "cod_provin": "131", "nom_provin": "Santiago", "cod_comuna": "13101", "nom_comuna": "Santiago", "nombre": "GIMNASIO ENTRE TIEMPO", "sector": "Privado" }, "geometry": { "type": "Point", "coordinates": [ -70.660773, -33.451899 ] } },
{ "type": "Feature", "properties": { "cod_region": "13", "nom_region": "Metropolitana de Santiago", "cod_provin": "131", "nom_provin": "Santiago", "cod_comuna": "13101", "nom_comuna": "Santiago", "nombre": "CANCHA FUTBOLITO PARQUE O'HIGGINS", "sector": "Publico" }, "geometry": { "type": "Point", "coordinates": [ -70.657855, -33.461875 ] } },
{ "type": "Feature", "properties": { "cod_region": "13", "nom_region": "Metropolitana de Santiago", "cod_provin": "131", "nom_provin": "Santiago", "cod_comuna": "13101", "nom_comuna": "Santiago", "nombre": "MULTICANCHA PARQUE O'HIGGINS", "sector": "Publico" }, "geometry": { "type": "Point", "coordinates": [ -70.6579, -33.461464 ] } },
{ "type": "Feature", "properties": { "cod_region": "13", "nom_region": "Metropolitana de Santiago", "cod_provin": "131", "nom_provin": "Santiago", "cod_comuna": "13101", "nom_comuna": "Santiago", "nombre": "NUCLEO DE BALONCESTO", "sector": "Publico" }, "geometry": { "type": "Point", "coordinates": [ -70.662285, -33.464139 ] } },
{ "type": "Feature", "properties": { "cod_region": "13", "nom_region": "Metropolitana de Santiago", "cod_provin": "131", "nom_provin": "Santiago", "cod_comuna": "13101", "nom_comuna": "Santiago", "nombre": "CANCHAS DE TENIS PARQUE O'HIGGINS", "sector": "Publico" }, "geometry": { "type": "Point", "coordinates": [ -70.661333, -33.466499 ] } },
{ "type": "Feature", "properties": { "cod_region": "13", "nom_region": "Metropolitana de Santiago", "cod_provin": "131", "nom_provin": "Santiago", "cod_comuna": "13101", "nom_comuna": "Santiago", "nombre": "PATINODROMO PARQUE O'HIGGINS", "sector": "Publico" }, "geometry": { "type": "Point", "coordinates": [ -70.660906, -33.464407 ] } },
{ "type": "Feature", "properties": { "cod_region": "13", "nom_region": "Metropolitana de Santiago", "cod_provin": "131", "nom_provin": "Santiago", "cod_comuna": "13101", "nom_comuna": "Santiago", "nombre": "GIMNASIO ALICIA FRANCKE", "sector": "Privado" }, "geometry": { "type": "Point", "coordinates": [ -70.657523, -33.442766 ] } },
{ "type": "Feature", "properties": { "cod_region": "13", "nom_region": "Metropolitana de Santiago", "cod_provin": "131", "nom_provin": "Santiago", "cod_comuna": "13101", "nom_comuna": "Santiago", "nombre": "MULTICANCHA DIEZ DE JULIO", "sector": "Publico" }, "geometry": { "type": "Point", "coordinates": [ -70.645347, -33.453871 ] } },
{ "type": "Feature", "properties": { "cod_region": "13", "nom_region": "Metropolitana de Santiago", "cod_provin": "131", "nom_provin": "Santiago", "cod_comuna": "13101", "nom_comuna": "Santiago", "nombre": "GIMNASIO PACIFIC", "sector": "Privado" }, "geometry": { "type": "Point", "coordinates": [ -70.631399, -33.450721 ] } },
{ "type": "Feature", "properties": { "cod_region": "13", "nom_region": "Metropolitana de Santiago", "cod_provin": "131", "nom_provin": "Santiago", "cod_comuna": "13101", "nom_comuna": "Santiago", "nombre": "GIMNASIO PACIFIC FITNESS", "sector": "Privado" }, "geometry": { "type": "Point", "coordinates": [ -70.658983, -33.433212 ] } },
{ "type": "Feature", "properties": { "cod_region": "13", "nom_region": "Metropolitana de Santiago", "cod_provin": "131", "nom_provin": "Santiago", "cod_comuna": "13101", "nom_comuna": "Santiago", "nombre": "ACADEMIA DE ARTES MARCIALES JIYUKAN", "sector": "Privado" }, "geometry": { "type": "Point", "coordinates": [ -70.635031, -33.456767 ] } },
{ "type": "Feature", "properties": { "cod_region": "13", "nom_region": "Metropolitana de Santiago", "cod_provin": "131", "nom_provin": "Santiago", "cod_comuna": "13101", "nom_comuna": "Santiago", "nombre": "GIMNASIO PACIFIC", "sector": "Privado" }, "geometry": { "type": "Point", "coordinates": [ -70.659993, -33.440979 ] } },
{ "type": "Feature", "properties": { "cod_region": "13", "nom_region": "Metropolitana de Santiago", "cod_provin": "131", "nom_provin": "Santiago", "cod_comuna": "13101", "nom_comuna": "Santiago", "nombre": "GIMNASIO GUSTAVO FLORES", "sector": "Privado" }, "geometry": { "type": "Point", "coordinates": [ -70.645948, -33.443546 ] } },
{ "type": "Feature", "properties": { "cod_region": "13", "nom_region": "Metropolitana de Santiago", "cod_provin": "131", "nom_provin": "Santiago", "cod_comuna": "13101", "nom_comuna": "Santiago", "nombre": "CENTRO DE CAPACITACION PACIFIC FITNESS", "sector": "Privado" }, "geometry": { "type": "Point", "coordinates": [ -70.635565, -33.447112 ] } },
{ "type": "Feature", "properties": { "cod_region": "13", "nom_region": "Metropolitana de Santiago", "cod_provin": "131", "nom_provin": "Santiago", "cod_comuna": "13101", "nom_comuna": "Santiago", "nombre": "GIMNASIO GDS", "sector": "Privado" }, "geometry": { "type": "Point", "coordinates": [ -70.642935, -33.444064 ] } },
{ "type": "Feature", "properties": { "cod_region": "13", "nom_region": "Metropolitana de Santiago", "cod_provin": "131", "nom_provin": "Santiago", "cod_comuna": "13101", "nom_comuna": "Santiago", "nombre": "EGAD FITNESS CENTER", "sector": "Privado" }, "geometry": { "type": "Point", "coordinates": [ -70.656427, -33.438109 ] } },
{ "type": "Feature", "properties": { "cod_region": "13", "nom_region": "Metropolitana de Santiago", "cod_provin": "131", "nom_provin": "Santiago", "cod_comuna": "13101", "nom_comuna": "Santiago", "nombre": "PACIFIC FITNESS", "sector": "Privado" }, "geometry": { "type": "Point", "coordinates": [ -70.64673, -33.440996 ] } },
{ "type": "Feature", "properties": { "cod_region": "13", "nom_region": "Metropolitana de Santiago", "cod_provin": "131", "nom_provin": "Santiago", "cod_comuna": "13101", "nom_comuna": "Santiago", "nombre": "GIMNASIO PACIFIC", "sector": "Privado" }, "geometry": { "type": "Point", "coordinates": [ -70.648908, -33.438714 ] } },
{ "type": "Feature", "properties": { "cod_region": "13", "nom_region": "Metropolitana de Santiago", "cod_provin": "131", "nom_provin": "Santiago", "cod_comuna": "13101", "nom_comuna": "Santiago", "nombre": "GIMNASIO PACIFIC", "sector": "Privado" }, "geometry": { "type": "Point", "coordinates": [ -70.665549, -33.444318 ] } },
{ "type": "Feature", "properties": { "cod_region": "13", "nom_region": "Metropolitana de Santiago", "cod_provin": "131", "nom_provin": "Santiago", "cod_comuna": "13101", "nom_comuna": "Santiago", "nombre": "GIMNASIO PACIFIC", "sector": "Privado" }, "geometry": { "type": "Point", "coordinates": [ -70.649304, -33.449318 ] } },
{ "type": "Feature", "properties": { "cod_region": "13", "nom_region": "Metropolitana de Santiago", "cod_provin": "131", "nom_provin": "Santiago", "cod_comuna": "13101", "nom_comuna": "Santiago", "nombre": "GIMNASIO PACIFIC", "sector": "Privado" }, "geometry": { "type": "Point", "coordinates": [ -70.653013, -33.438996 ] } },
{ "type": "Feature", "properties": { "cod_region": "13", "nom_region": "Metropolitana de Santiago", "cod_provin": "131", "nom_provin": "Santiago", "cod_comuna": "13101", "nom_comuna": "Santiago", "nombre": "YMCA", "sector": "Privado" }, "geometry": { "type": "Point", "coordinates": [ -70.656593, -33.439099 ] } },
{ "type": "Feature", "properties": { "cod_region": "13", "nom_region": "Metropolitana de Santiago", "cod_provin": "131", "nom_provin": "Santiago", "cod_comuna": "13101", "nom_comuna": "Santiago", "nombre": "GIMNASIO PACIFIC", "sector": "Privado" }, "geometry": { "type": "Point", "coordinates": [ -70.654192, -33.453134 ] } },
{ "type": "Feature", "properties": { "cod_region": "13", "nom_region": "Metropolitana de Santiago", "cod_provin": "131", "nom_provin": "Santiago", "cod_comuna": "13101", "nom_comuna": "Santiago", "nombre": "CLUB DEPORTIVO GYMKANA", "sector": "Privado" }, "geometry": { "type": "Point", "coordinates": [ -70.655059, -33.460469 ] } },
{ "type": "Feature", "properties": { "cod_region": "13", "nom_region": "Metropolitana de Santiago", "cod_provin": "131", "nom_provin": "Santiago", "cod_comuna": "13101", "nom_comuna": "Santiago", "nombre": "UNIVERSIDAD DIEGO PORTALES", "sector": "Privado" }, "geometry": { "type": "Point", "coordinates": [ -70.659438, -33.451331 ] } },
{ "type": "Feature", "properties": { "cod_region": "13", "nom_region": "Metropolitana de Santiago", "cod_provin": "131", "nom_provin": "Santiago", "cod_comuna": "13101", "nom_comuna": "Santiago", "nombre": "GIMNASIO ESPAN?A", "sector": "Privado" }, "geometry": { "type": "Point", "coordinates": [ -70.669847, -33.451412 ] } },
{ "type": "Feature", "properties": { "cod_region": "13", "nom_region": "Metropolitana de Santiago", "cod_provin": "131", "nom_provin": "Santiago", "cod_comuna": "13101", "nom_comuna": "Santiago", "nombre": "MUNDIAL LAWN TENIS CLUB", "sector": "Publico" }, "geometry": { "type": "Point", "coordinates": [ -70.683033, -33.443858 ] } },
{ "type": "Feature", "properties": { "cod_region": "13", "nom_region": "Metropolitana de Santiago", "cod_provin": "131", "nom_provin": "Santiago", "cod_comuna": "13101", "nom_comuna": "Santiago", "nombre": "CLUB HIPICO DE SANTIAGO", "sector": "Privado" }, "geometry": { "type": "Point", "coordinates": [ -70.671526, -33.458974 ] } },
{ "type": "Feature", "properties": { "cod_region": "13", "nom_region": "Metropolitana de Santiago", "cod_provin": "131", "nom_provin": "Santiago", "cod_comuna": "13101", "nom_comuna": "Santiago", "nombre": "MOVISTAR ARENA", "sector": "Publico" }, "geometry": { "type": "Point", "coordinates": [ -70.66101, -33.461942 ] } }
]
}
