{"type":"FeatureCollection","name":"AMB_POL_FUENTES_AGUA_PARQUE_FORESTAL","features":[{"type":"Feature","properties":{"OBJECTID":1,"Shape_Leng":17.4841238367,"Shape_Area":24.0230904505,"Nombre":"RUBEN DARIO","Agua":0,"Estado":null},"geometry":{"type":"Polygon","coordinates":[[[-70.64021,-33.436414,0.0],[-70.640212,-33.436411,0.0],[-70.640215,-33.436409,0.0],[-70.640218,-33.436406,0.0],[-70.640222,-33.436404,0.0],[-70.640226,-33.436403,0.0],[-70.64023,-33.436403,0.0],[-70.640235,-33.436403,0.0],[-70.64024,-33.436404,0.0],[-70.640245,-33.436406,0.0],[-70.64025,-33.436409,0.0],[-70.640253,-33.436412,0.0],[-70.640256,-33.436416,0.0],[-70.640259,-33.43642,0.0],[-70.64026,-33.436425,0.0],[-70.64026,-33.43643,0.0],[-70.64026,-33.436434,0.0],[-70.640258,-33.436439,0.0],[-70.640256,-33.436443,0.0],[-70.640252,-33.436447,0.0],[-70.640248,-33.43645,0.0],[-70.640244,-33.436453,0.0],[-70.640239,-33.436455,0.0],[-70.640233,-33.436456,0.0],[-70.640228,-33.436456,0.0],[-70.640223,-33.436455,0.0],[-70.640219,-33.436454,0.0],[-70.640215,-33.436452,0.0],[-70.640212,-33.43645,0.0],[-70.640209,-33.436447,0.0],[-70.640207,-33.436444,0.0],[-70.640205,-33.436441,0.0],[-70.640204,-33.436437,0.0],[-70.640204,-33.436433,0.0],[-70.640204,-33.43643,0.0],[-70.640207,-33.436422,0.0],[-70.64021,-33.436414,0.0]]]}},{"type":"Feature","properties":{"OBJECTID":2,"Shape_Leng":21.2243334936,"Shape_Area":32.5065700871,"Nombre":"MANUEL MAGALLANES MOURE","Agua":0,"Estado":null},"geometry":{"type":"Polygon","coordinates":[[[-70.647268,-33.434048,0.0],[-70.647257,-33.434018,0.0],[-70.647284,-33.433995,0.0],[-70.647321,-33.434003,0.0],[-70.647331,-33.434033,0.0],[-70.647305,-33.434057,0.0],[-70.647268,-33.434048,0.0]]]}},{"type":"Feature","properties":{"OBJECTID":4,"Shape_Leng":23.0604024921,"Shape_Area":42.1248694501,"Nombre":"CRISTOBAL COLON","Agua":0,"Estado":null},"geometry":{"type":"Polygon","coordinates":[[[-70.645453,-33.434545,0.0],[-70.645446,-33.434543,0.0],[-70.645441,-33.434542,0.0],[-70.645435,-33.434539,0.0],[-70.645431,-33.434536,0.0],[-70.645426,-33.434532,0.0],[-70.645423,-33.434527,0.0],[-70.645421,-33.434522,0.0],[-70.64542,-33.434517,0.0],[-70.645419,-33.434511,0.0],[-70.64542,-33.434505,0.0],[-70.645422,-33.4345,0.0],[-70.645424,-33.434495,0.0],[-70.645428,-33.43449,0.0],[-70.645432,-33.434485,0.0],[-70.645438,-33.434482,0.0],[-70.645444,-33.434479,0.0],[-70.64545,-33.434478,0.0],[-70.645457,-33.434477,0.0],[-70.645464,-33.434478,0.0],[-70.64547,-33.434479,0.0],[-70.645477,-33.434481,0.0],[-70.645482,-33.434485,0.0],[-70.645487,-33.434488,0.0],[-70.645492,-33.434493,0.0],[-70.645495,-33.434498,0.0],[-70.645496,-33.434505,0.0],[-70.645496,-33.434511,0.0],[-70.645495,-33.434518,0.0],[-70.645492,-33.434524,0.0],[-70.645489,-33.43453,0.0],[-70.645484,-33.434535,0.0],[-70.645478,-33.434539,0.0],[-70.645471,-33.434542,0.0],[-70.645465,-33.434544,0.0],[-70.645459,-33.434545,0.0],[-70.645453,-33.434545,0.0]]]}}]}