{"type":"FeatureCollection","name":"AMB_POL_AREA_SILENCIO","features":[{"type":"Feature","properties":{"OBJECTID":1,"Shape_Leng":713.823010776,"Shape_Area":16891.4414236,"Dist":40},"geometry":{"type":"Polygon","coordinates":[[[-70.640229,-33.436586,0.0],[-70.640218,-33.436529,0.0],[-70.640215,-33.436496,0.0],[-70.640202,-33.436465,0.0],[-70.640181,-33.436448,0.0],[-70.640176,-33.43643,0.0],[-70.640177,-33.436417,0.0],[-70.640184,-33.436404,0.0],[-70.640197,-33.436393,0.0],[-70.640215,-33.436388,0.0],[-70.640249,-33.43636,0.0],[-70.640301,-33.436327,0.0],[-70.640354,-33.436306,0.0],[-70.640465,-33.436271,0.0],[-70.640452,-33.436235,0.0],[-70.640442,-33.4362,0.0],[-70.640442,-33.436163,0.0],[-70.640447,-33.43612,0.0],[-70.64046,-33.436077,0.0],[-70.640481,-33.436037,0.0],[-70.640527,-33.435981,0.0],[-70.640592,-33.435938,0.0],[-70.640669,-33.43591,0.0],[-70.640748,-33.435898,0.0],[-70.640826,-33.435901,0.0],[-70.640885,-33.435922,0.0],[-70.640936,-33.435938,0.0],[-70.640978,-33.435967,0.0],[-70.641155,-33.435932,0.0],[-70.641758,-33.435803,0.0],[-70.641956,-33.435753,0.0],[-70.642521,-33.435622,0.0],[-70.642531,-33.435622,0.0],[-70.642623,-33.435601,0.0],[-70.642646,-33.435594,0.0],[-70.642691,-33.435583,0.0],[-70.642694,-33.435585,0.0],[-70.642717,-33.435655,0.0],[-70.642725,-33.435672,0.0],[-70.642736,-33.435688,0.0],[-70.642749,-33.435702,0.0],[-70.642765,-33.435714,0.0],[-70.642783,-33.435724,0.0],[-70.642803,-33.435732,0.0],[-70.642824,-33.435737,0.0],[-70.642847,-33.435739,0.0],[-70.642868,-33.435739,0.0],[-70.64289,-33.435734,0.0],[-70.642932,-33.435724,0.0],[-70.642972,-33.435717,0.0],[-70.643067,-33.435997,0.0],[-70.64309,-33.436064,0.0],[-70.643077,-33.436066,0.0],[-70.640941,-33.436564,0.0],[-70.640646,-33.436632,0.0],[-70.640616,-33.43664,0.0],[-70.6406,-33.436666,0.0],[-70.640616,-33.436758,0.0],[-70.640649,-33.436786,0.0],[-70.640592,-33.436789,0.0],[-70.640145,-33.436793,0.0],[-70.640123,-33.436745,0.0],[-70.640102,-33.436714,0.0],[-70.640085,-33.43667,0.0],[-70.640066,-33.436624,0.0],[-70.640089,-33.436605,0.0],[-70.640142,-33.436597,0.0],[-70.640229,-33.436586,0.0]]]}}]}