{"type":"FeatureCollection","name":"AMB_POL_ESTRATOS_MEDIOS_PF","features":[{"type":"Feature","properties":{"OBJECTID_1":1,"Shape_Leng":73.7583357929,"Shape_Area":101.47172079,"Sector":null,"Especies":null,"Area_m":101.47172079,"COD_MZN":"13101011002004"},"geometry":{"type":"Polygon","coordinates":[[[-70.645555,-33.433848,0.0],[-70.645547,-33.433823,0.0],[-70.645897,-33.433741,0.0],[-70.645907,-33.433767,0.0],[-70.645555,-33.433848,0.0]]]}},{"type":"Feature","properties":{"OBJECTID_1":2,"Shape_Leng":74.0384708675,"Shape_Area":104.307387999,"Sector":null,"Especies":null,"Area_m":104.307387999,"COD_MZN":"13101011001002"},"geometry":{"type":"Polygon","coordinates":[[[-70.644919,-33.433998,0.0],[-70.644911,-33.433972,0.0],[-70.645262,-33.433889,0.0],[-70.645271,-33.433916,0.0],[-70.644919,-33.433998,0.0]]]}},{"type":"Feature","properties":{"OBJECTID_1":3,"Shape_Leng":95.4389996541,"Shape_Area":141.531168223,"Sector":null,"Especies":null,"Area_m":141.531168223,"COD_MZN":"13101011001002"},"geometry":{"type":"Polygon","coordinates":[[[-70.643927,-33.434232,0.0],[-70.64392,-33.43421,0.0],[-70.643918,-33.434205,0.0],[-70.644379,-33.434097,0.0],[-70.644389,-33.434125,0.0],[-70.643927,-33.434232,0.0]]]}},{"type":"Feature","properties":{"OBJECTID_1":4,"Shape_Leng":66.5039157642,"Shape_Area":96.4423636922,"Sector":null,"Especies":null,"Area_m":96.4423636922,"COD_MZN":"13101011001002"},"geometry":{"type":"Polygon","coordinates":[[[-70.643092,-33.434426,0.0],[-70.643083,-33.434399,0.0],[-70.643394,-33.434326,0.0],[-70.643404,-33.434355,0.0],[-70.643092,-33.434426,0.0]]]}},{"type":"Feature","properties":{"OBJECTID_1":5,"Shape_Leng":78.4484420375,"Shape_Area":114.718090717,"Sector":null,"Especies":null,"Area_m":114.718090717,"COD_MZN":"13101011001005"},"geometry":{"type":"Polygon","coordinates":[[[-70.642161,-33.434642,0.0],[-70.642154,-33.434619,0.0],[-70.642152,-33.434614,0.0],[-70.642525,-33.434526,0.0],[-70.642526,-33.43453,0.0],[-70.642535,-33.434554,0.0],[-70.642161,-33.434642,0.0]]]}},{"type":"Feature","properties":{"OBJECTID_1":6,"Shape_Leng":97.5245077667,"Shape_Area":148.143340521,"Sector":null,"Especies":null,"Area_m":148.143340521,"COD_MZN":"13101011001005"},"geometry":{"type":"Polygon","coordinates":[[[-70.641179,-33.434871,0.0],[-70.64117,-33.434843,0.0],[-70.641641,-33.434733,0.0],[-70.641643,-33.434738,0.0],[-70.641651,-33.434762,0.0],[-70.641179,-33.434871,0.0]]]}},{"type":"Feature","properties":{"OBJECTID_1":7,"Shape_Leng":97.7008352081,"Shape_Area":145.740255939,"Sector":null,"Especies":null,"Area_m":145.740255939,"COD_MZN":"13101011001005"},"geometry":{"type":"Polygon","coordinates":[[[-70.640031,-33.435138,0.0],[-70.640022,-33.43511,0.0],[-70.640495,-33.435,0.0],[-70.640497,-33.435005,0.0],[-70.640505,-33.435028,0.0],[-70.640031,-33.435138,0.0]]]}},{"type":"Feature","properties":{"OBJECTID_1":8,"Shape_Leng":90.3944389744,"Shape_Area":131.723960215,"Sector":null,"Especies":null,"Area_m":131.723960215,"COD_MZN":"13101011001005"},"geometry":{"type":"Polygon","coordinates":[[[-70.639075,-33.43536,0.0],[-70.639066,-33.435333,0.0],[-70.639502,-33.435232,0.0],[-70.639504,-33.435236,0.0],[-70.639511,-33.435259,0.0],[-70.639075,-33.43536,0.0]]]}},{"type":"Feature","properties":{"OBJECTID_1":9,"Shape_Leng":63.0198461122,"Shape_Area":85.4327207894,"Sector":null,"Especies":null,"Area_m":85.4327207894,"COD_MZN":"13101011003002"},"geometry":{"type":"Polygon","coordinates":[[[-70.638487,-33.435497,0.0],[-70.638477,-33.43547,0.0],[-70.638773,-33.435401,0.0],[-70.638781,-33.435426,0.0],[-70.638487,-33.435497,0.0]]]}},{"type":"Feature","properties":{"OBJECTID_1":10,"Shape_Leng":66.5426939397,"Shape_Area":91.6990282475,"Sector":null,"Especies":null,"Area_m":91.6990282475,"COD_MZN":"13101011003002"},"geometry":{"type":"Polygon","coordinates":[[[-70.637494,-33.435728,0.0],[-70.637494,-33.435728,0.0],[-70.637487,-33.435707,0.0],[-70.637486,-33.435702,0.0],[-70.637799,-33.435628,0.0],[-70.637808,-33.435655,0.0],[-70.637494,-33.435728,0.0]]]}},{"type":"Feature","properties":{"OBJECTID_1":11,"Shape_Leng":79.7655107458,"Shape_Area":107.86549594,"Sector":null,"Especies":null,"Area_m":107.86549594,"COD_MZN":"13101011003002"},"geometry":{"type":"Polygon","coordinates":[[[-70.635601,-33.436167,0.0],[-70.635593,-33.436141,0.0],[-70.635977,-33.436055,0.0],[-70.635985,-33.43608,0.0],[-70.635601,-33.436167,0.0]]]}},{"type":"Feature","properties":{"OBJECTID_1":12,"Shape_Leng":24.7734859113,"Shape_Area":28.403753249,"Sector":null,"Especies":null,"Area_m":28.403753249,"COD_MZN":"13101011003002"},"geometry":{"type":"Polygon","coordinates":[[[-70.636697,-33.435887,0.0],[-70.636793,-33.435864,0.0],[-70.636802,-33.43589,0.0],[-70.636705,-33.435913,0.0],[-70.636697,-33.435887,0.0]]]}},{"type":"Feature","properties":{"OBJECTID_1":13,"Shape_Leng":99.8113370167,"Shape_Area":143.280159546,"Sector":null,"Especies":null,"Area_m":143.280159546,"COD_MZN":"13101011002004"},"geometry":{"type":"Polygon","coordinates":[[[-70.64661,-33.433603,0.0],[-70.646602,-33.433583,0.0],[-70.646602,-33.433582,0.0],[-70.6466,-33.433576,0.0],[-70.646866,-33.433515,0.0],[-70.647086,-33.433463,0.0],[-70.647094,-33.43349,0.0],[-70.64661,-33.433603,0.0]]]}},{"type":"Feature","properties":{"OBJECTID_1":14,"Shape_Leng":47.4288298309,"Shape_Area":63.2857546575,"Sector":null,"Especies":null,"Area_m":63.2857546575,"COD_MZN":"13101011002004"},"geometry":{"type":"Polygon","coordinates":[[[-70.647615,-33.433369,0.0],[-70.647606,-33.433342,0.0],[-70.64782,-33.433292,0.0],[-70.647829,-33.433319,0.0],[-70.647615,-33.433369,0.0]]]}},{"type":"Feature","properties":{"OBJECTID_1":16,"Shape_Leng":27.1144247533,"Shape_Area":53.1661805921,"Sector":null,"Especies":null,"Area_m":53.1661805921,"COD_MZN":"13101011001006"},"geometry":{"type":"Polygon","coordinates":[[[-70.642799,-33.43554,0.0],[-70.642796,-33.435539,0.0],[-70.642793,-33.435538,0.0],[-70.642791,-33.435537,0.0],[-70.642789,-33.435536,0.0],[-70.642787,-33.435534,0.0],[-70.642786,-33.435532,0.0],[-70.642785,-33.43553,0.0],[-70.642771,-33.435492,0.0],[-70.642771,-33.43549,0.0],[-70.64277,-33.435488,0.0],[-70.642771,-33.435486,0.0],[-70.642771,-33.435484,0.0],[-70.642772,-33.435482,0.0],[-70.642774,-33.43548,0.0],[-70.642776,-33.435478,0.0],[-70.642778,-33.435477,0.0],[-70.64278,-33.435476,0.0],[-70.642782,-33.435475,0.0],[-70.642828,-33.435464,0.0],[-70.642831,-33.435464,0.0],[-70.642834,-33.435464,0.0],[-70.642836,-33.435464,0.0],[-70.642839,-33.435465,0.0],[-70.642841,-33.435466,0.0],[-70.642844,-33.435467,0.0],[-70.642845,-33.435469,0.0],[-70.642847,-33.435471,0.0],[-70.642848,-33.435473,0.0],[-70.642861,-33.435512,0.0],[-70.642862,-33.435514,0.0],[-70.642862,-33.435516,0.0],[-70.642862,-33.435518,0.0],[-70.642861,-33.43552,0.0],[-70.64286,-33.435522,0.0],[-70.642859,-33.435524,0.0],[-70.642857,-33.435525,0.0],[-70.642855,-33.435527,0.0],[-70.642853,-33.435528,0.0],[-70.64285,-33.435529,0.0],[-70.642804,-33.435539,0.0],[-70.642802,-33.435539,0.0],[-70.642799,-33.43554,0.0]]]}},{"type":"Feature","properties":{"OBJECTID_1":17,"Shape_Leng":9.17846759824,"Shape_Area":5.89046359928,"Sector":null,"Especies":null,"Area_m":5.89046359928,"COD_MZN":"13101011001004"},"geometry":{"type":"Polygon","coordinates":[[[-70.643333,-33.435614,0.0],[-70.64333,-33.435611,0.0],[-70.643328,-33.435607,0.0],[-70.64333,-33.435595,0.0],[-70.643339,-33.435586,0.0],[-70.643345,-33.435584,0.0],[-70.643349,-33.435584,0.0],[-70.643353,-33.435587,0.0],[-70.643355,-33.435592,0.0],[-70.643352,-33.435603,0.0],[-70.643343,-33.435613,0.0],[-70.643338,-33.435614,0.0],[-70.643333,-33.435614,0.0]]]}},{"type":"Feature","properties":{"OBJECTID_1":18,"Shape_Leng":18.7457763219,"Shape_Area":17.372340422,"Sector":null,"Especies":null,"Area_m":17.372340422,"COD_MZN":"13101011001004"},"geometry":{"type":"Polygon","coordinates":[[[-70.644888,-33.435074,0.0],[-70.644955,-33.435054,0.0],[-70.644967,-33.435075,0.0],[-70.644896,-33.435096,0.0],[-70.644888,-33.435074,0.0]]]}},{"type":"Feature","properties":{"OBJECTID_1":19,"Shape_Leng":24.5881648588,"Shape_Area":24.3110707567,"Sector":null,"Especies":null,"Area_m":24.3110707567,"COD_MZN":"13101011001004"},"geometry":{"type":"Polygon","coordinates":[[[-70.644851,-33.434957,0.0],[-70.644951,-33.434929,0.0],[-70.644959,-33.43495,0.0],[-70.644859,-33.434978,0.0],[-70.644851,-33.434957,0.0]]]}},{"type":"Feature","properties":{"OBJECTID_1":20,"Shape_Leng":34.9258943476,"Shape_Area":20.3457001267,"Sector":null,"Especies":"<Null>","Area_m":20.3457001267,"COD_MZN":"13101011003003"},"geometry":{"type":"Polygon","coordinates":[[[-70.637578,-33.436434,0.0],[-70.637579,-33.436434,0.0],[-70.637579,-33.436434,0.0],[-70.637579,-33.436434,0.0],[-70.637579,-33.436435,0.0],[-70.63758,-33.436435,0.0],[-70.63758,-33.436435,0.0],[-70.63758,-33.436435,0.0],[-70.637581,-33.436435,0.0],[-70.637581,-33.436436,0.0],[-70.637581,-33.436436,0.0],[-70.637581,-33.436436,0.0],[-70.637582,-33.436436,0.0],[-70.637582,-33.436436,0.0],[-70.637582,-33.436437,0.0],[-70.637582,-33.436437,0.0],[-70.637582,-33.436437,0.0],[-70.637582,-33.436437,0.0],[-70.637583,-33.436437,0.0],[-70.637583,-33.436437,0.0],[-70.637583,-33.436437,0.0],[-70.637583,-33.436438,0.0],[-70.637583,-33.436438,0.0],[-70.637583,-33.436438,0.0],[-70.637583,-33.436438,0.0],[-70.637583,-33.436438,0.0],[-70.637584,-33.436438,0.0],[-70.637584,-33.436438,0.0],[-70.637584,-33.436439,0.0],[-70.637584,-33.436439,0.0],[-70.637584,-33.436439,0.0],[-70.637584,-33.436439,0.0],[-70.637584,-33.436439,0.0],[-70.637584,-33.436439,0.0],[-70.637585,-33.436439,0.0],[-70.637585,-33.436439,0.0],[-70.637585,-33.43644,0.0],[-70.637585,-33.43644,0.0],[-70.637585,-33.43644,0.0],[-70.637585,-33.43644,0.0],[-70.637585,-33.43644,0.0],[-70.637585,-33.43644,0.0],[-70.637586,-33.436441,0.0],[-70.637586,-33.436441,0.0],[-70.637586,-33.436441,0.0],[-70.637586,-33.436441,0.0],[-70.637586,-33.436441,0.0],[-70.637586,-33.436441,0.0],[-70.637586,-33.436441,0.0],[-70.637586,-33.436442,0.0],[-70.637587,-33.436442,0.0],[-70.637587,-33.436442,0.0],[-70.637565,-33.436467,0.0],[-70.637572,-33.436472,0.0],[-70.637581,-33.436478,0.0],[-70.637594,-33.436488,0.0],[-70.637594,-33.436488,0.0],[-70.637594,-33.436488,0.0],[-70.637594,-33.436488,0.0],[-70.637594,-33.436489,0.0],[-70.637593,-33.436489,0.0],[-70.637593,-33.436489,0.0],[-70.637593,-33.436489,0.0],[-70.637593,-33.43649,0.0],[-70.637593,-33.43649,0.0],[-70.637593,-33.43649,0.0],[-70.637592,-33.43649,0.0],[-70.637592,-33.436491,0.0],[-70.637592,-33.436491,0.0],[-70.637592,-33.436491,0.0],[-70.637592,-33.436491,0.0],[-70.637591,-33.436492,0.0],[-70.637591,-33.436492,0.0],[-70.637591,-33.436492,0.0],[-70.637591,-33.436492,0.0],[-70.637591,-33.436493,0.0],[-70.63759,-33.436493,0.0],[-70.63759,-33.436493,0.0],[-70.63759,-33.436493,0.0],[-70.63759,-33.436494,0.0],[-70.637589,-33.436494,0.0],[-70.637589,-33.436494,0.0],[-70.637589,-33.436494,0.0],[-70.637589,-33.436494,0.0],[-70.637588,-33.436495,0.0],[-70.637588,-33.436495,0.0],[-70.637588,-33.436495,0.0],[-70.637576,-33.436488,0.0],[-70.637557,-33.436476,0.0],[-70.637529,-33.436504,0.0],[-70.637529,-33.436504,0.0],[-70.637529,-33.436503,0.0],[-70.637529,-33.436503,0.0],[-70.637528,-33.436503,0.0],[-70.637528,-33.436503,0.0],[-70.637528,-33.436503,0.0],[-70.637528,-33.436503,0.0],[-70.637528,-33.436503,0.0],[-70.637527,-33.436503,0.0],[-70.637527,-33.436503,0.0],[-70.637527,-33.436503,0.0],[-70.637527,-33.436503,0.0],[-70.637527,-33.436502,0.0],[-70.637527,-33.436502,0.0],[-70.637526,-33.436502,0.0],[-70.637526,-33.436502,0.0],[-70.637526,-33.436502,0.0],[-70.637526,-33.436502,0.0],[-70.637526,-33.436502,0.0],[-70.637525,-33.436502,0.0],[-70.637525,-33.436502,0.0],[-70.637525,-33.436501,0.0],[-70.637525,-33.436501,0.0],[-70.637525,-33.436501,0.0],[-70.637524,-33.436501,0.0],[-70.637524,-33.436501,0.0],[-70.637524,-33.436501,0.0],[-70.637524,-33.436501,0.0],[-70.637524,-33.436501,0.0],[-70.637523,-33.4365,0.0],[-70.637523,-33.4365,0.0],[-70.637523,-33.4365,0.0],[-70.637523,-33.4365,0.0],[-70.637523,-33.4365,0.0],[-70.637523,-33.4365,0.0],[-70.637522,-33.436499,0.0],[-70.637522,-33.436499,0.0],[-70.637522,-33.436499,0.0],[-70.637522,-33.436499,0.0],[-70.637522,-33.436499,0.0],[-70.637521,-33.436499,0.0],[-70.637521,-33.436498,0.0],[-70.637521,-33.436498,0.0],[-70.637521,-33.436498,0.0],[-70.637521,-33.436498,0.0],[-70.637538,-33.436478,0.0],[-70.637546,-33.436469,0.0],[-70.637521,-33.436452,0.0],[-70.637512,-33.436445,0.0],[-70.637512,-33.436445,0.0],[-70.637512,-33.436445,0.0],[-70.637512,-33.436445,0.0],[-70.637512,-33.436444,0.0],[-70.637512,-33.436444,0.0],[-70.637512,-33.436444,0.0],[-70.637512,-33.436444,0.0],[-70.637512,-33.436444,0.0],[-70.637512,-33.436444,0.0],[-70.637513,-33.436444,0.0],[-70.637513,-33.436443,0.0],[-70.637513,-33.436443,0.0],[-70.637513,-33.436443,0.0],[-70.637513,-33.436443,0.0],[-70.637513,-33.436443,0.0],[-70.637513,-33.436443,0.0],[-70.637513,-33.436442,0.0],[-70.637513,-33.436442,0.0],[-70.637513,-33.436442,0.0],[-70.637513,-33.436442,0.0],[-70.637513,-33.436442,0.0],[-70.637514,-33.436442,0.0],[-70.637514,-33.436442,0.0],[-70.637514,-33.436441,0.0],[-70.637514,-33.436441,0.0],[-70.637514,-33.436441,0.0],[-70.637514,-33.436441,0.0],[-70.637514,-33.43644,0.0],[-70.637515,-33.43644,0.0],[-70.637515,-33.43644,0.0],[-70.637515,-33.43644,0.0],[-70.637515,-33.43644,0.0],[-70.637515,-33.436439,0.0],[-70.637515,-33.436439,0.0],[-70.637516,-33.436439,0.0],[-70.637516,-33.436439,0.0],[-70.637516,-33.436439,0.0],[-70.637516,-33.436438,0.0],[-70.637516,-33.436438,0.0],[-70.637517,-33.436438,0.0],[-70.637517,-33.436438,0.0],[-70.637517,-33.436438,0.0],[-70.637517,-33.436437,0.0],[-70.637517,-33.436437,0.0],[-70.637518,-33.436437,0.0],[-70.637518,-33.436437,0.0],[-70.637518,-33.436437,0.0],[-70.637518,-33.436437,0.0],[-70.637518,-33.436436,0.0],[-70.637519,-33.436436,0.0],[-70.637519,-33.436436,0.0],[-70.637519,-33.436436,0.0],[-70.637519,-33.436436,0.0],[-70.63752,-33.436436,0.0],[-70.63752,-33.436436,0.0],[-70.63752,-33.436435,0.0],[-70.637554,-33.436458,0.0],[-70.637578,-33.436434,0.0]]]}},{"type":"Feature","properties":{"OBJECTID_1":22,"Shape_Leng":103.920606319,"Shape_Area":38.8615349285,"Sector":null,"Especies":null,"Area_m":38.8615349285,"COD_MZN":"13101011001005"},"geometry":{"type":"Polygon","coordinates":[[[-70.639166,-33.435398,0.0],[-70.639165,-33.435398,0.0],[-70.639165,-33.435398,0.0],[-70.639164,-33.435398,0.0],[-70.639164,-33.435397,0.0],[-70.639163,-33.435397,0.0],[-70.639163,-33.435396,0.0],[-70.639163,-33.435396,0.0],[-70.639163,-33.435395,0.0],[-70.639163,-33.435395,0.0],[-70.639163,-33.435394,0.0],[-70.639163,-33.435394,0.0],[-70.639163,-33.435393,0.0],[-70.639164,-33.435393,0.0],[-70.639164,-33.435392,0.0],[-70.639165,-33.435392,0.0],[-70.639166,-33.435392,0.0],[-70.639166,-33.435392,0.0],[-70.639692,-33.435271,0.0],[-70.639692,-33.435271,0.0],[-70.639693,-33.435271,0.0],[-70.639694,-33.435271,0.0],[-70.639694,-33.435271,0.0],[-70.639695,-33.435271,0.0],[-70.639696,-33.435271,0.0],[-70.639696,-33.435272,0.0],[-70.639697,-33.435272,0.0],[-70.639697,-33.435273,0.0],[-70.639697,-33.435273,0.0],[-70.639697,-33.435274,0.0],[-70.639697,-33.435274,0.0],[-70.639697,-33.435275,0.0],[-70.639697,-33.435275,0.0],[-70.639697,-33.435276,0.0],[-70.639696,-33.435276,0.0],[-70.639696,-33.435277,0.0],[-70.639695,-33.435277,0.0],[-70.639695,-33.435277,0.0],[-70.639694,-33.435278,0.0],[-70.639168,-33.435398,0.0],[-70.639167,-33.435398,0.0],[-70.639167,-33.435398,0.0],[-70.639166,-33.435398,0.0]]]}},{"type":"Feature","properties":{"OBJECTID_1":23,"Shape_Leng":52.8275590248,"Shape_Area":178.217473086,"Sector":null,"Especies":null,"Area_m":178.217473086,"COD_MZN":"13101011001004"},"geometry":{"type":"Polygon","coordinates":[[[-70.644588,-33.435333,0.0],[-70.644586,-33.435333,0.0],[-70.644584,-33.435332,0.0],[-70.644583,-33.435331,0.0],[-70.644581,-33.43533,0.0],[-70.64458,-33.435328,0.0],[-70.644566,-33.435282,0.0],[-70.644553,-33.435229,0.0],[-70.644549,-33.435216,0.0],[-70.644568,-33.435213,0.0],[-70.644612,-33.435204,0.0],[-70.644677,-33.435189,0.0],[-70.64468,-33.435189,0.0],[-70.644683,-33.435189,0.0],[-70.644686,-33.43519,0.0],[-70.644689,-33.435191,0.0],[-70.644691,-33.435192,0.0],[-70.644693,-33.435194,0.0],[-70.644695,-33.435196,0.0],[-70.644738,-33.43525,0.0],[-70.644739,-33.435252,0.0],[-70.64474,-33.435254,0.0],[-70.644741,-33.435256,0.0],[-70.644741,-33.435258,0.0],[-70.644741,-33.43526,0.0],[-70.64474,-33.435262,0.0],[-70.644739,-33.435264,0.0],[-70.644737,-33.435266,0.0],[-70.644735,-33.435268,0.0],[-70.644615,-33.435323,0.0],[-70.644596,-33.435332,0.0],[-70.644594,-33.435333,0.0],[-70.644592,-33.435333,0.0],[-70.64459,-33.435333,0.0],[-70.644588,-33.435333,0.0]]]}},{"type":"Feature","properties":{"OBJECTID_1":24,"Shape_Leng":41.6276593015,"Shape_Area":62.5432566282,"Sector":null,"Especies":null,"Area_m":62.5432566282,"COD_MZN":"13101011001006"},"geometry":{"type":"Polygon","coordinates":[[[-70.641751,-33.435245,0.0],[-70.641749,-33.435245,0.0],[-70.641747,-33.435244,0.0],[-70.641745,-33.435243,0.0],[-70.641743,-33.435242,0.0],[-70.641742,-33.435241,0.0],[-70.64174,-33.435239,0.0],[-70.64174,-33.435238,0.0],[-70.641736,-33.435227,0.0],[-70.641736,-33.435225,0.0],[-70.641736,-33.435223,0.0],[-70.641737,-33.435222,0.0],[-70.641737,-33.43522,0.0],[-70.641738,-33.435219,0.0],[-70.64174,-33.435217,0.0],[-70.641741,-33.435216,0.0],[-70.641743,-33.435215,0.0],[-70.641745,-33.435215,0.0],[-70.641911,-33.435175,0.0],[-70.641913,-33.435175,0.0],[-70.641915,-33.435175,0.0],[-70.641917,-33.435175,0.0],[-70.641918,-33.435176,0.0],[-70.64192,-33.435177,0.0],[-70.641922,-33.435178,0.0],[-70.641923,-33.435179,0.0],[-70.641924,-33.43518,0.0],[-70.641925,-33.435181,0.0],[-70.64193,-33.435197,0.0],[-70.64193,-33.435198,0.0],[-70.64193,-33.435199,0.0],[-70.64193,-33.4352,0.0],[-70.641929,-33.435201,0.0],[-70.641929,-33.435202,0.0],[-70.641928,-33.435203,0.0],[-70.641927,-33.435204,0.0],[-70.641926,-33.435204,0.0],[-70.641924,-33.435205,0.0],[-70.641868,-33.435218,0.0],[-70.641755,-33.435245,0.0],[-70.641753,-33.435245,0.0],[-70.641751,-33.435245,0.0]]]}},{"type":"Feature","properties":{"OBJECTID_1":25,"Shape_Leng":39.2598105436,"Shape_Area":58.0588882586,"Sector":null,"Especies":null,"Area_m":58.0588882586,"COD_MZN":"13101011001006"},"geometry":{"type":"Polygon","coordinates":[[[-70.642007,-33.435185,0.0],[-70.642006,-33.435184,0.0],[-70.642004,-33.435184,0.0],[-70.642002,-33.435183,0.0],[-70.642001,-33.435182,0.0],[-70.642,-33.43518,0.0],[-70.641999,-33.435179,0.0],[-70.641995,-33.435166,0.0],[-70.641994,-33.435165,0.0],[-70.641995,-33.435163,0.0],[-70.641995,-33.435161,0.0],[-70.641996,-33.435159,0.0],[-70.641998,-33.435158,0.0],[-70.641999,-33.435156,0.0],[-70.642001,-33.435155,0.0],[-70.642003,-33.435154,0.0],[-70.642155,-33.435118,0.0],[-70.642158,-33.435117,0.0],[-70.64216,-33.435117,0.0],[-70.642163,-33.435118,0.0],[-70.642165,-33.435118,0.0],[-70.642167,-33.435119,0.0],[-70.642169,-33.43512,0.0],[-70.642171,-33.435122,0.0],[-70.642172,-33.435123,0.0],[-70.642176,-33.435135,0.0],[-70.642176,-33.435137,0.0],[-70.642176,-33.435139,0.0],[-70.642176,-33.43514,0.0],[-70.642175,-33.435142,0.0],[-70.642174,-33.435143,0.0],[-70.642173,-33.435145,0.0],[-70.642172,-33.435146,0.0],[-70.64217,-33.435146,0.0],[-70.642168,-33.435147,0.0],[-70.642011,-33.435185,0.0],[-70.642009,-33.435185,0.0],[-70.642007,-33.435185,0.0]]]}},{"type":"Feature","properties":{"OBJECTID_1":26,"Shape_Leng":503.826217599,"Shape_Area":193.238851476,"Sector":null,"Especies":null,"Area_m":193.238851476,"COD_MZN":"13101011001005"},"geometry":{"type":"Polygon","coordinates":[[[-70.63991,-33.435228,0.0],[-70.639908,-33.435228,0.0],[-70.639908,-33.435228,0.0],[-70.639907,-33.435227,0.0],[-70.639907,-33.435227,0.0],[-70.639906,-33.435226,0.0],[-70.639906,-33.435226,0.0],[-70.639906,-33.435225,0.0],[-70.639906,-33.435224,0.0],[-70.639906,-33.435224,0.0],[-70.639906,-33.435223,0.0],[-70.639906,-33.435223,0.0],[-70.639907,-33.435222,0.0],[-70.639908,-33.435222,0.0],[-70.639908,-33.435222,0.0],[-70.639909,-33.435221,0.0],[-70.639909,-33.435221,0.0],[-70.64229,-33.434666,0.0],[-70.642506,-33.434616,0.0],[-70.642507,-33.434616,0.0],[-70.642507,-33.434616,0.0],[-70.642508,-33.434616,0.0],[-70.642509,-33.434616,0.0],[-70.642509,-33.434616,0.0],[-70.64251,-33.434616,0.0],[-70.64251,-33.434617,0.0],[-70.642511,-33.434617,0.0],[-70.642511,-33.434618,0.0],[-70.642512,-33.434619,0.0],[-70.642512,-33.434619,0.0],[-70.642511,-33.43462,0.0],[-70.642511,-33.43462,0.0],[-70.642511,-33.434621,0.0],[-70.642511,-33.434621,0.0],[-70.64251,-33.434622,0.0],[-70.642509,-33.434622,0.0],[-70.642509,-33.434622,0.0],[-70.642508,-33.434622,0.0],[-70.642293,-33.434673,0.0],[-70.639911,-33.435228,0.0],[-70.63991,-33.435228,0.0],[-70.63991,-33.435228,0.0],[-70.63991,-33.435228,0.0]]]}},{"type":"Feature","properties":{"OBJECTID_1":27,"Shape_Leng":22.2277811776,"Shape_Area":26.6203445487,"Sector":null,"Especies":null,"Area_m":26.6203445487,"COD_MZN":"13101011001004"},"geometry":{"type":"Polygon","coordinates":[[[-70.645548,-33.434638,0.0],[-70.645544,-33.434637,0.0],[-70.645541,-33.434636,0.0],[-70.645537,-33.434633,0.0],[-70.645534,-33.43463,0.0],[-70.645531,-33.434626,0.0],[-70.645512,-33.434581,0.0],[-70.645511,-33.43458,0.0],[-70.645511,-33.434578,0.0],[-70.645511,-33.434576,0.0],[-70.645511,-33.434574,0.0],[-70.645512,-33.434573,0.0],[-70.645513,-33.434571,0.0],[-70.645516,-33.434568,0.0],[-70.64552,-33.434566,0.0],[-70.645524,-33.434564,0.0],[-70.645528,-33.434563,0.0],[-70.645533,-33.434562,0.0],[-70.645577,-33.43463,0.0],[-70.645555,-33.434638,0.0],[-70.645551,-33.434638,0.0],[-70.645548,-33.434638,0.0]]]}},{"type":"Feature","properties":{"OBJECTID_1":28,"Shape_Leng":50.9875535022,"Shape_Area":66.6808673088,"Sector":null,"Especies":null,"Area_m":66.6808673088,"COD_MZN":"13101011002005"},"geometry":{"type":"Polygon","coordinates":[[[-70.645741,-33.434599,0.0],[-70.645724,-33.434587,0.0],[-70.645712,-33.434579,0.0],[-70.645702,-33.43457,0.0],[-70.645693,-33.434559,0.0],[-70.645677,-33.434535,0.0],[-70.645673,-33.434529,0.0],[-70.645686,-33.434525,0.0],[-70.64569,-33.434525,0.0],[-70.645695,-33.434526,0.0],[-70.645699,-33.434527,0.0],[-70.645702,-33.434529,0.0],[-70.645877,-33.43466,0.0],[-70.645862,-33.434674,0.0],[-70.645741,-33.434599,0.0]]]}},{"type":"Feature","properties":{"OBJECTID_1":29,"Shape_Leng":46.8609269133,"Shape_Area":113.771442428,"Sector":null,"Especies":null,"Area_m":113.771442428,"COD_MZN":"13101011002005"},"geometry":{"type":"Polygon","coordinates":[[[-70.646117,-33.434625,0.0],[-70.646115,-33.434625,0.0],[-70.646114,-33.434624,0.0],[-70.646112,-33.434624,0.0],[-70.646111,-33.434623,0.0],[-70.64611,-33.434622,0.0],[-70.646109,-33.43462,0.0],[-70.646108,-33.434619,0.0],[-70.646108,-33.434618,0.0],[-70.646108,-33.434616,0.0],[-70.646108,-33.434615,0.0],[-70.646109,-33.434613,0.0],[-70.646134,-33.434575,0.0],[-70.646155,-33.434535,0.0],[-70.646171,-33.434494,0.0],[-70.646172,-33.434492,0.0],[-70.646174,-33.434489,0.0],[-70.646176,-33.434487,0.0],[-70.646178,-33.434485,0.0],[-70.646181,-33.434484,0.0],[-70.646184,-33.434483,0.0],[-70.646187,-33.434482,0.0],[-70.64619,-33.434482,0.0],[-70.646193,-33.434483,0.0],[-70.646196,-33.434483,0.0],[-70.646199,-33.434485,0.0],[-70.646201,-33.434486,0.0],[-70.646204,-33.434488,0.0],[-70.646234,-33.434511,0.0],[-70.646267,-33.43453,0.0],[-70.646269,-33.434532,0.0],[-70.646271,-33.434535,0.0],[-70.646273,-33.434538,0.0],[-70.646274,-33.434541,0.0],[-70.646274,-33.434544,0.0],[-70.646274,-33.434547,0.0],[-70.646273,-33.43455,0.0],[-70.646271,-33.434553,0.0],[-70.646269,-33.434555,0.0],[-70.646266,-33.434558,0.0],[-70.646263,-33.434559,0.0],[-70.646124,-33.434624,0.0],[-70.646122,-33.434625,0.0],[-70.64612,-33.434625,0.0],[-70.646119,-33.434625,0.0],[-70.646117,-33.434625,0.0]]]}},{"type":"Feature","properties":{"OBJECTID_1":30,"Shape_Leng":24.4628803447,"Shape_Area":29.6515627273,"Sector":null,"Especies":"<Null>","Area_m":29.6515627273,"COD_MZN":"13101011001004"},"geometry":{"type":"Polygon","coordinates":[[[-70.645458,-33.434432,0.0],[-70.645455,-33.434432,0.0],[-70.645453,-33.434431,0.0],[-70.645451,-33.43443,0.0],[-70.64545,-33.434429,0.0],[-70.645448,-33.434427,0.0],[-70.645447,-33.434425,0.0],[-70.645423,-33.434365,0.0],[-70.645422,-33.434363,0.0],[-70.645421,-33.434362,0.0],[-70.645421,-33.43436,0.0],[-70.645422,-33.434358,0.0],[-70.645422,-33.434356,0.0],[-70.645424,-33.434354,0.0],[-70.645425,-33.434352,0.0],[-70.645427,-33.434351,0.0],[-70.645429,-33.43435,0.0],[-70.645436,-33.434347,0.0],[-70.645443,-33.434346,0.0],[-70.64545,-33.434344,0.0],[-70.64547,-33.434395,0.0],[-70.645483,-33.434426,0.0],[-70.645463,-33.434432,0.0],[-70.64546,-33.434432,0.0],[-70.645458,-33.434432,0.0]]]}},{"type":"Feature","properties":{"OBJECTID_1":31,"Shape_Leng":403.20090238,"Shape_Area":163.745011373,"Sector":null,"Especies":null,"Area_m":163.745011373,"COD_MZN":"13101011001002"},"geometry":{"type":"Polygon","coordinates":[[[-70.643138,-33.434484,0.0],[-70.643138,-33.434484,0.0],[-70.643137,-33.434483,0.0],[-70.643136,-33.434483,0.0],[-70.643136,-33.434483,0.0],[-70.643135,-33.434482,0.0],[-70.643135,-33.434482,0.0],[-70.643135,-33.434481,0.0],[-70.643135,-33.43448,0.0],[-70.643135,-33.43448,0.0],[-70.643135,-33.434479,0.0],[-70.643135,-33.434479,0.0],[-70.643135,-33.434478,0.0],[-70.643136,-33.434478,0.0],[-70.643136,-33.434477,0.0],[-70.643137,-33.434477,0.0],[-70.643138,-33.434477,0.0],[-70.643249,-33.434451,0.0],[-70.643334,-33.434432,0.0],[-70.643424,-33.43441,0.0],[-70.64359,-33.434371,0.0],[-70.643767,-33.434331,0.0],[-70.644013,-33.434273,0.0],[-70.644102,-33.434253,0.0],[-70.644464,-33.434167,0.0],[-70.644691,-33.434115,0.0],[-70.644945,-33.434055,0.0],[-70.645214,-33.433994,0.0],[-70.645215,-33.433994,0.0],[-70.645216,-33.433994,0.0],[-70.645217,-33.433995,0.0],[-70.645217,-33.433995,0.0],[-70.645218,-33.433995,0.0],[-70.645219,-33.433996,0.0],[-70.645219,-33.433996,0.0],[-70.645219,-33.433997,0.0],[-70.64522,-33.433997,0.0],[-70.64522,-33.433998,0.0],[-70.64522,-33.433999,0.0],[-70.645219,-33.433999,0.0],[-70.645219,-33.434,0.0],[-70.645219,-33.434,0.0],[-70.645218,-33.434001,0.0],[-70.645217,-33.434001,0.0],[-70.645217,-33.434002,0.0],[-70.644948,-33.434062,0.0],[-70.644693,-33.434122,0.0],[-70.644466,-33.434174,0.0],[-70.64432,-33.43421,0.0],[-70.644016,-33.43428,0.0],[-70.643942,-33.434298,0.0],[-70.643769,-33.434338,0.0],[-70.643592,-33.434378,0.0],[-70.643427,-33.434417,0.0],[-70.643337,-33.434439,0.0],[-70.643251,-33.434458,0.0],[-70.64314,-33.434484,0.0],[-70.643139,-33.434484,0.0],[-70.643138,-33.434484,0.0]]]}},{"type":"Feature","properties":{"OBJECTID_1":32,"Shape_Leng":65.0779034727,"Shape_Area":25.9466891754,"Sector":null,"Especies":null,"Area_m":25.9466891754,"COD_MZN":"13101011002004"},"geometry":{"type":"Polygon","coordinates":[[[-70.645593,-33.433902,0.0],[-70.645592,-33.433902,0.0],[-70.645592,-33.433902,0.0],[-70.645591,-33.433901,0.0],[-70.64559,-33.433901,0.0],[-70.64559,-33.433901,0.0],[-70.645589,-33.4339,0.0],[-70.645589,-33.433899,0.0],[-70.645589,-33.433899,0.0],[-70.645589,-33.433898,0.0],[-70.645589,-33.433898,0.0],[-70.645589,-33.433897,0.0],[-70.64559,-33.433896,0.0],[-70.64559,-33.433896,0.0],[-70.645591,-33.433895,0.0],[-70.645591,-33.433895,0.0],[-70.645592,-33.433895,0.0],[-70.645713,-33.433867,0.0],[-70.645916,-33.433819,0.0],[-70.645917,-33.433819,0.0],[-70.645917,-33.433819,0.0],[-70.645918,-33.433819,0.0],[-70.645919,-33.433819,0.0],[-70.64592,-33.43382,0.0],[-70.64592,-33.43382,0.0],[-70.645921,-33.433821,0.0],[-70.645921,-33.433821,0.0],[-70.645921,-33.433822,0.0],[-70.645921,-33.433822,0.0],[-70.645921,-33.433823,0.0],[-70.645921,-33.433824,0.0],[-70.645921,-33.433824,0.0],[-70.645921,-33.433825,0.0],[-70.64592,-33.433825,0.0],[-70.64592,-33.433826,0.0],[-70.645919,-33.433826,0.0],[-70.645918,-33.433826,0.0],[-70.645709,-33.433875,0.0],[-70.645594,-33.433902,0.0],[-70.645594,-33.433902,0.0],[-70.645593,-33.433902,0.0]]]}},{"type":"Feature","properties":{"OBJECTID_1":33,"Shape_Leng":291.632617962,"Shape_Area":114.474269354,"Sector":null,"Especies":null,"Area_m":114.474269354,"COD_MZN":"13101011002004"},"geometry":{"type":"Polygon","coordinates":[[[-70.646166,-33.433768,0.0],[-70.646166,-33.433768,0.0],[-70.646165,-33.433768,0.0],[-70.646164,-33.433768,0.0],[-70.646164,-33.433767,0.0],[-70.646163,-33.433767,0.0],[-70.646163,-33.433766,0.0],[-70.646162,-33.433766,0.0],[-70.646162,-33.433765,0.0],[-70.646162,-33.433764,0.0],[-70.646162,-33.433764,0.0],[-70.646163,-33.433763,0.0],[-70.646163,-33.433763,0.0],[-70.646163,-33.433762,0.0],[-70.646164,-33.433762,0.0],[-70.646165,-33.433761,0.0],[-70.646165,-33.433761,0.0],[-70.646286,-33.433733,0.0],[-70.647333,-33.433488,0.0],[-70.647361,-33.433478,0.0],[-70.647372,-33.433473,0.0],[-70.647384,-33.433469,0.0],[-70.64766,-33.433404,0.0],[-70.647661,-33.433404,0.0],[-70.647661,-33.433404,0.0],[-70.647662,-33.433404,0.0],[-70.647663,-33.433405,0.0],[-70.647663,-33.433405,0.0],[-70.647664,-33.433405,0.0],[-70.647665,-33.433406,0.0],[-70.647665,-33.433406,0.0],[-70.647665,-33.433407,0.0],[-70.647665,-33.433407,0.0],[-70.647666,-33.433408,0.0],[-70.647665,-33.433408,0.0],[-70.647665,-33.433409,0.0],[-70.647665,-33.433409,0.0],[-70.647665,-33.43341,0.0],[-70.647664,-33.43341,0.0],[-70.647664,-33.433411,0.0],[-70.647663,-33.433411,0.0],[-70.647663,-33.433411,0.0],[-70.647387,-33.433476,0.0],[-70.647374,-33.43348,0.0],[-70.647363,-33.433485,0.0],[-70.647336,-33.433495,0.0],[-70.646282,-33.433742,0.0],[-70.646168,-33.433768,0.0],[-70.646167,-33.433768,0.0],[-70.646166,-33.433768,0.0]]]}},{"type":"Feature","properties":{"OBJECTID_1":34,"Shape_Leng":35.515139082,"Shape_Area":30.8974330412,"Sector":null,"Especies":null,"Area_m":30.8974330412,"COD_MZN":"13101011001006"},"geometry":{"type":"Polygon","coordinates":[[[-70.640348,-33.436791,0.0],[-70.640348,-33.43679,0.0],[-70.640348,-33.436784,0.0],[-70.640348,-33.436773,0.0],[-70.640357,-33.436773,0.0],[-70.640384,-33.436773,0.0],[-70.640423,-33.436773,0.0],[-70.640505,-33.436772,0.0],[-70.640513,-33.436772,0.0],[-70.640514,-33.436772,0.0],[-70.640515,-33.436772,0.0],[-70.640515,-33.436772,0.0],[-70.640516,-33.436773,0.0],[-70.640516,-33.436773,0.0],[-70.640517,-33.436773,0.0],[-70.640517,-33.436774,0.0],[-70.640517,-33.436774,0.0],[-70.640518,-33.436778,0.0],[-70.640519,-33.436785,0.0],[-70.64052,-33.436789,0.0],[-70.640348,-33.436791,0.0]]]}},{"type":"Feature","properties":{"OBJECTID_1":35,"Shape_Leng":64.8283145498,"Shape_Area":57.2285659525,"Sector":null,"Especies":null,"Area_m":57.2285659525,"COD_MZN":"13101011001006"},"geometry":{"type":"Polygon","coordinates":[[[-70.639751,-33.436793,0.0],[-70.639637,-33.436794,0.0],[-70.63944,-33.436794,0.0],[-70.639433,-33.436794,0.0],[-70.639431,-33.436789,0.0],[-70.63943,-33.436777,0.0],[-70.639547,-33.436777,0.0],[-70.639707,-33.436776,0.0],[-70.63973,-33.436776,0.0],[-70.639749,-33.436776,0.0],[-70.63976,-33.436776,0.0],[-70.63976,-33.436793,0.0],[-70.639751,-33.436793,0.0]]]}},{"type":"Feature","properties":{"OBJECTID_1":36,"Shape_Leng":99.5706524924,"Shape_Area":92.8647566137,"Sector":null,"Especies":null,"Area_m":92.8647566137,"COD_MZN":"13101011001006"},"geometry":{"type":"Polygon","coordinates":[[[-70.64028,-33.436791,0.0],[-70.640224,-33.436792,0.0],[-70.639972,-33.436793,0.0],[-70.639815,-33.436793,0.0],[-70.639781,-33.436793,0.0],[-70.639781,-33.436776,0.0],[-70.639855,-33.436776,0.0],[-70.640105,-33.436775,0.0],[-70.640182,-33.436774,0.0],[-70.640265,-33.436774,0.0],[-70.640282,-33.436774,0.0],[-70.640289,-33.436774,0.0],[-70.640296,-33.436774,0.0],[-70.640296,-33.436791,0.0],[-70.64028,-33.436791,0.0]]]}},{"type":"Feature","properties":{"OBJECTID_1":37,"Shape_Leng":576.250559637,"Shape_Area":229.01000227,"Sector":null,"Especies":null,"Area_m":229.01000227,"COD_MZN":"13101011003002"},"geometry":{"type":"Polygon","coordinates":[[[-70.635742,-33.436205,0.0],[-70.635741,-33.436205,0.0],[-70.635741,-33.436204,0.0],[-70.63574,-33.436203,0.0],[-70.635739,-33.436202,0.0],[-70.635739,-33.436202,0.0],[-70.635739,-33.436201,0.0],[-70.635739,-33.4362,0.0],[-70.635739,-33.4362,0.0],[-70.63574,-33.436199,0.0],[-70.63574,-33.436199,0.0],[-70.635741,-33.436198,0.0],[-70.635742,-33.436198,0.0],[-70.635744,-33.436197,0.0],[-70.635837,-33.436176,0.0],[-70.635894,-33.436163,0.0],[-70.636067,-33.436123,0.0],[-70.636983,-33.435909,0.0],[-70.637155,-33.435869,0.0],[-70.637852,-33.435707,0.0],[-70.638525,-33.43555,0.0],[-70.638669,-33.435516,0.0],[-70.638716,-33.435505,0.0],[-70.638717,-33.435505,0.0],[-70.638718,-33.435505,0.0],[-70.638719,-33.435506,0.0],[-70.63872,-33.435506,0.0],[-70.63872,-33.435507,0.0],[-70.63872,-33.435508,0.0],[-70.63872,-33.435509,0.0],[-70.63872,-33.43551,0.0],[-70.638719,-33.43551,0.0],[-70.638718,-33.435511,0.0],[-70.638715,-33.435512,0.0],[-70.638667,-33.435523,0.0],[-70.638217,-33.435629,0.0],[-70.637926,-33.435697,0.0],[-70.63768,-33.435754,0.0],[-70.637346,-33.435832,0.0],[-70.636796,-33.43596,0.0],[-70.636539,-33.43602,0.0],[-70.63587,-33.436176,0.0],[-70.635745,-33.436205,0.0],[-70.635743,-33.436205,0.0],[-70.635742,-33.436205,0.0]]]}},{"type":"Feature","properties":{"OBJECTID_1":40,"Shape_Leng":8.47380827435,"Shape_Area":5.69958162516,"Sector":null,"Especies":"<Null>","Area_m":5.69958162516,"COD_MZN":"13101011001004"},"geometry":{"type":"Polygon","coordinates":[[[-70.643161,-33.435039,0.0],[-70.643159,-33.435038,0.0],[-70.643156,-33.435038,0.0],[-70.643154,-33.435036,0.0],[-70.643152,-33.435035,0.0],[-70.643151,-33.435033,0.0],[-70.64315,-33.435031,0.0],[-70.643149,-33.435029,0.0],[-70.643149,-33.435027,0.0],[-70.643149,-33.435025,0.0],[-70.64315,-33.435023,0.0],[-70.643151,-33.435021,0.0],[-70.643152,-33.435019,0.0],[-70.643154,-33.435018,0.0],[-70.643156,-33.435016,0.0],[-70.643158,-33.435016,0.0],[-70.643161,-33.435015,0.0],[-70.643163,-33.435015,0.0],[-70.643166,-33.435015,0.0],[-70.643168,-33.435015,0.0],[-70.64317,-33.435016,0.0],[-70.643172,-33.435017,0.0],[-70.643174,-33.435019,0.0],[-70.643176,-33.435021,0.0],[-70.643177,-33.435023,0.0],[-70.643178,-33.435025,0.0],[-70.643178,-33.435027,0.0],[-70.643178,-33.435029,0.0],[-70.643177,-33.435031,0.0],[-70.643176,-33.435033,0.0],[-70.643175,-33.435035,0.0],[-70.643173,-33.435036,0.0],[-70.643171,-33.435037,0.0],[-70.643168,-33.435038,0.0],[-70.643166,-33.435039,0.0],[-70.643164,-33.435039,0.0],[-70.643161,-33.435039,0.0]]]}},{"type":"Feature","properties":{"OBJECTID_1":41,"Shape_Leng":8.47380827435,"Shape_Area":5.69958162516,"Sector":null,"Especies":null,"Area_m":5.69958162516,"COD_MZN":"13101011001004"},"geometry":{"type":"Polygon","coordinates":[[[-70.643161,-33.435039,0.0],[-70.643159,-33.435038,0.0],[-70.643156,-33.435038,0.0],[-70.643154,-33.435036,0.0],[-70.643152,-33.435035,0.0],[-70.643151,-33.435033,0.0],[-70.64315,-33.435031,0.0],[-70.643149,-33.435029,0.0],[-70.643149,-33.435027,0.0],[-70.643149,-33.435025,0.0],[-70.64315,-33.435023,0.0],[-70.643151,-33.435021,0.0],[-70.643152,-33.435019,0.0],[-70.643154,-33.435018,0.0],[-70.643156,-33.435016,0.0],[-70.643158,-33.435016,0.0],[-70.643161,-33.435015,0.0],[-70.643163,-33.435015,0.0],[-70.643166,-33.435015,0.0],[-70.643168,-33.435015,0.0],[-70.64317,-33.435016,0.0],[-70.643172,-33.435017,0.0],[-70.643174,-33.435019,0.0],[-70.643176,-33.435021,0.0],[-70.643177,-33.435023,0.0],[-70.643178,-33.435025,0.0],[-70.643178,-33.435027,0.0],[-70.643178,-33.435029,0.0],[-70.643177,-33.435031,0.0],[-70.643176,-33.435033,0.0],[-70.643175,-33.435035,0.0],[-70.643173,-33.435036,0.0],[-70.643171,-33.435037,0.0],[-70.643168,-33.435038,0.0],[-70.643166,-33.435039,0.0],[-70.643164,-33.435039,0.0],[-70.643161,-33.435039,0.0]]]}},{"type":"Feature","properties":{"OBJECTID_1":43,"Shape_Leng":44.5449432052,"Shape_Area":78.3813147229,"Sector":null,"Especies":null,"Area_m":78.3813147229,"COD_MZN":"13101011002005"},"geometry":{"type":"Polygon","coordinates":[[[-70.647166,-33.433985,0.0],[-70.647159,-33.433984,0.0],[-70.647157,-33.433983,0.0],[-70.647154,-33.433982,0.0],[-70.647152,-33.433981,0.0],[-70.647149,-33.43398,0.0],[-70.647147,-33.433979,0.0],[-70.647146,-33.433978,0.0],[-70.647144,-33.433977,0.0],[-70.647143,-33.433976,0.0],[-70.647141,-33.433974,0.0],[-70.64714,-33.433973,0.0],[-70.64714,-33.433971,0.0],[-70.64714,-33.43397,0.0],[-70.64714,-33.433969,0.0],[-70.64714,-33.433966,0.0],[-70.64714,-33.433965,0.0],[-70.647141,-33.433964,0.0],[-70.647141,-33.433963,0.0],[-70.647142,-33.433961,0.0],[-70.647143,-33.433959,0.0],[-70.647145,-33.433958,0.0],[-70.647147,-33.433957,0.0],[-70.647148,-33.433956,0.0],[-70.647152,-33.433954,0.0],[-70.647153,-33.433954,0.0],[-70.647289,-33.433922,0.0],[-70.647312,-33.433917,0.0],[-70.647324,-33.433914,0.0],[-70.64733,-33.433914,0.0],[-70.647332,-33.433914,0.0],[-70.647336,-33.433915,0.0],[-70.647339,-33.433916,0.0],[-70.647343,-33.433918,0.0],[-70.647346,-33.433921,0.0],[-70.647347,-33.433923,0.0],[-70.647348,-33.433926,0.0],[-70.64735,-33.43393,0.0],[-70.64735,-33.433932,0.0],[-70.64735,-33.433935,0.0],[-70.64735,-33.433938,0.0],[-70.647349,-33.43394,0.0],[-70.647348,-33.433942,0.0],[-70.647345,-33.433945,0.0],[-70.647344,-33.433946,0.0],[-70.647342,-33.433948,0.0],[-70.647339,-33.433949,0.0],[-70.647336,-33.43395,0.0],[-70.647327,-33.433952,0.0],[-70.647301,-33.433958,0.0],[-70.647189,-33.433985,0.0],[-70.647178,-33.433986,0.0],[-70.647166,-33.433985,0.0]]]}},{"type":"Feature","properties":{"OBJECTID_1":44,"Shape_Leng":528.384147813,"Shape_Area":674.475252527,"Sector":null,"Especies":null,"Area_m":674.475252527,"COD_MZN":"13101011003003"},"geometry":{"type":"Polygon","coordinates":[[[-70.636455,-33.436812,0.0],[-70.636257,-33.436812,0.0],[-70.636256,-33.436791,0.0],[-70.636257,-33.436789,0.0],[-70.636258,-33.436787,0.0],[-70.63626,-33.436785,0.0],[-70.636263,-33.436783,0.0],[-70.636266,-33.436782,0.0],[-70.636268,-33.436781,0.0],[-70.637155,-33.436776,0.0],[-70.63906,-33.43678,0.0],[-70.639069,-33.43678,0.0],[-70.639069,-33.436796,0.0],[-70.637995,-33.436799,0.0],[-70.637995,-33.436796,0.0],[-70.637977,-33.436796,0.0],[-70.637977,-33.436799,0.0],[-70.637231,-33.436801,0.0],[-70.636874,-33.436806,0.0],[-70.636455,-33.436812,0.0]]]}},{"type":"Feature","properties":{"OBJECTID_1":45,"Shape_Leng":140.121101518,"Shape_Area":39.1149490979,"Sector":null,"Especies":null,"Area_m":39.1149490979,"COD_MZN":"13101011003002"},"geometry":{"type":"Polygon","coordinates":[[[-70.636697,-33.435892,0.0],[-70.636672,-33.435897,0.0],[-70.636036,-33.436046,0.0],[-70.635979,-33.43606,0.0],[-70.635978,-33.43606,0.0],[-70.635977,-33.436055,0.0],[-70.636697,-33.435887,0.0],[-70.636698,-33.435891,0.0],[-70.636697,-33.435892,0.0]]]}},{"type":"Feature","properties":{"OBJECTID_1":46,"Shape_Leng":91.0087019734,"Shape_Area":26.0571414398,"Sector":null,"Especies":null,"Area_m":26.0571414398,"COD_MZN":"13101011003002"},"geometry":{"type":"Polygon","coordinates":[[[-70.637487,-33.435707,0.0],[-70.637131,-33.435791,0.0],[-70.637023,-33.435816,0.0],[-70.637022,-33.435816,0.0],[-70.63702,-33.435811,0.0],[-70.637455,-33.435709,0.0],[-70.637486,-33.435702,0.0],[-70.637487,-33.435707,0.0],[-70.637487,-33.435707,0.0]]]}},{"type":"Feature","properties":{"OBJECTID_1":47,"Shape_Leng":131.922841346,"Shape_Area":33.0599316627,"Sector":null,"Especies":null,"Area_m":33.0599316627,"COD_MZN":"13101011003002"},"geometry":{"type":"Polygon","coordinates":[[[-70.6378,-33.435632,0.0],[-70.637799,-33.435628,0.0],[-70.637803,-33.435627,0.0],[-70.638477,-33.43547,0.0],[-70.638478,-33.435474,0.0],[-70.638478,-33.435474,0.0],[-70.6378,-33.435632,0.0]]]}},{"type":"Feature","properties":{"OBJECTID_1":48,"Shape_Leng":101.536708251,"Shape_Area":28.9994832249,"Sector":null,"Especies":null,"Area_m":28.9994832249,"COD_MZN":"13101011001005"},"geometry":{"type":"Polygon","coordinates":[[[-70.640024,-33.435115,0.0],[-70.640003,-33.43512,0.0],[-70.639876,-33.43515,0.0],[-70.639655,-33.435201,0.0],[-70.639505,-33.435236,0.0],[-70.639504,-33.435237,0.0],[-70.639502,-33.435232,0.0],[-70.640022,-33.43511,0.0],[-70.640024,-33.435115,0.0]]]}},{"type":"Feature","properties":{"OBJECTID_1":49,"Shape_Leng":131.326352202,"Shape_Area":36.4648309062,"Sector":null,"Especies":null,"Area_m":36.4648309062,"COD_MZN":"13101011001005"},"geometry":{"type":"Polygon","coordinates":[[[-70.641172,-33.434848,0.0],[-70.641171,-33.434848,0.0],[-70.641072,-33.434871,0.0],[-70.64087,-33.434918,0.0],[-70.640542,-33.434994,0.0],[-70.640497,-33.435005,0.0],[-70.640495,-33.435,0.0],[-70.641148,-33.434848,0.0],[-70.64117,-33.434843,0.0],[-70.641172,-33.434848,0.0]]]}},{"type":"Feature","properties":{"OBJECTID_1":50,"Shape_Leng":99.7493736293,"Shape_Area":28.5945600699,"Sector":null,"Especies":null,"Area_m":28.5945600699,"COD_MZN":"13101011001005"},"geometry":{"type":"Polygon","coordinates":[[[-70.641641,-33.434733,0.0],[-70.642152,-33.434614,0.0],[-70.642154,-33.434619,0.0],[-70.642153,-33.434619,0.0],[-70.641644,-33.434738,0.0],[-70.641643,-33.434738,0.0],[-70.641641,-33.434733,0.0]]]}},{"type":"Feature","properties":{"OBJECTID_1":51,"Shape_Leng":101.847720269,"Shape_Area":21.3014058557,"Sector":null,"Especies":null,"Area_m":21.3014058557,"COD_MZN":"13101011001002"},"geometry":{"type":"Polygon","coordinates":[[[-70.643394,-33.434326,0.0],[-70.643918,-33.434205,0.0],[-70.643919,-33.434209,0.0],[-70.643918,-33.434209,0.0],[-70.643396,-33.43433,0.0],[-70.643395,-33.43433,0.0],[-70.643394,-33.434326,0.0]]]}},{"type":"Feature","properties":{"OBJECTID_1":52,"Shape_Leng":103.502157398,"Shape_Area":21.9081512477,"Sector":null,"Especies":null,"Area_m":21.9081512477,"COD_MZN":"13101011001002"},"geometry":{"type":"Polygon","coordinates":[[[-70.644381,-33.4341,0.0],[-70.64438,-33.4341,0.0],[-70.644379,-33.434097,0.0],[-70.644386,-33.434096,0.0],[-70.644911,-33.433972,0.0],[-70.644912,-33.433977,0.0],[-70.644912,-33.433977,0.0],[-70.644381,-33.4341,0.0]]]}},{"type":"Feature","properties":{"OBJECTID_1":53,"Shape_Leng":136.751764285,"Shape_Area":45.3694450746,"Sector":null,"Especies":null,"Area_m":45.3694450746,"COD_MZN":"13101011002004"},"geometry":{"type":"Polygon","coordinates":[[[-70.645899,-33.43374,0.0],[-70.6466,-33.433576,0.0],[-70.646602,-33.433582,0.0],[-70.646602,-33.433582,0.0],[-70.6466,-33.433583,0.0],[-70.645901,-33.433746,0.0],[-70.6459,-33.433746,0.0],[-70.645899,-33.43374,0.0]]]}},{"type":"Feature","properties":{"OBJECTID_1":54,"Shape_Leng":101.8673495,"Shape_Area":33.6785008049,"Sector":null,"Especies":null,"Area_m":33.6785008049,"COD_MZN":"13101011002004"},"geometry":{"type":"Polygon","coordinates":[[[-70.647086,-33.433463,0.0],[-70.647606,-33.433342,0.0],[-70.647608,-33.433348,0.0],[-70.647608,-33.433348,0.0],[-70.647298,-33.43342,0.0],[-70.647088,-33.433469,0.0],[-70.647087,-33.433469,0.0],[-70.647086,-33.433463,0.0]]]}}]}