{"type":"FeatureCollection","name":"AMB_POL_AV_PARQUE","features":[{"type":"Feature","properties":{"OBJECTID_1":1,"CUT":13101,"COMUNA":"SANTIAGO","AREA":408226.869861,"Nombre":"Parque Quinta Normal","CATEGORIA":"PARQUE"},"geometry":{"type":"Polygon","coordinates":[[[-70.680438,-33.440541],[-70.68044,-33.440477],[-70.68044,-33.440477],[-70.680129,-33.440456],[-70.680116,-33.440454],[-70.680106,-33.440451],[-70.68009,-33.440445],[-70.680077,-33.440439],[-70.680069,-33.440432],[-70.680063,-33.440426],[-70.680057,-33.440419],[-70.680053,-33.440411],[-70.680051,-33.440405],[-70.680047,-33.440395],[-70.680047,-33.440395],[-70.680046,-33.440391],[-70.680046,-33.440391],[-70.680045,-33.440378],[-70.680045,-33.440378],[-70.680045,-33.440337],[-70.680044,-33.440319],[-70.680044,-33.440319],[-70.6802,-33.438528],[-70.6802,-33.438528],[-70.680206,-33.438516],[-70.68022,-33.438501],[-70.680231,-33.438497],[-70.680241,-33.438493],[-70.680254,-33.438492],[-70.680633,-33.438515],[-70.682062,-33.438609],[-70.682984,-33.438669],[-70.684145,-33.43875],[-70.685013,-33.438809],[-70.685482,-33.43884],[-70.686296,-33.438894],[-70.687308,-33.438962],[-70.687347,-33.439476],[-70.687691,-33.444078],[-70.687702,-33.444229],[-70.687701,-33.444229],[-70.687665,-33.444227],[-70.687456,-33.444217],[-70.684494,-33.444072],[-70.68447,-33.444069],[-70.684454,-33.444067],[-70.684433,-33.44406],[-70.684416,-33.444052],[-70.684399,-33.444043],[-70.684381,-33.44403],[-70.684375,-33.444024],[-70.684364,-33.444015],[-70.684352,-33.444001],[-70.684346,-33.443993],[-70.684342,-33.443986],[-70.684336,-33.443977],[-70.684333,-33.443962],[-70.684333,-33.443962],[-70.684332,-33.443946],[-70.684332,-33.443946],[-70.684332,-33.443931],[-70.684332,-33.443927],[-70.684332,-33.443927],[-70.684469,-33.441858],[-70.684465,-33.441858],[-70.684408,-33.441855],[-70.684308,-33.441849],[-70.684303,-33.441849],[-70.684185,-33.44383],[-70.684185,-33.44383],[-70.684181,-33.443853],[-70.684181,-33.443853],[-70.684167,-33.443914],[-70.684162,-33.443938],[-70.684162,-33.443938],[-70.684159,-33.443948],[-70.684159,-33.443948],[-70.684154,-33.443966],[-70.684154,-33.443966],[-70.68415,-33.443977],[-70.684143,-33.443989],[-70.684138,-33.443997],[-70.684131,-33.444005],[-70.684123,-33.444013],[-70.684116,-33.44402],[-70.684106,-33.444027],[-70.6841,-33.444032],[-70.68409,-33.444038],[-70.684079,-33.444044],[-70.684068,-33.444048],[-70.684055,-33.44405],[-70.684026,-33.444051],[-70.683845,-33.444043],[-70.683152,-33.444009],[-70.682473,-33.443975],[-70.681063,-33.443908],[-70.680927,-33.443901],[-70.680841,-33.443897],[-70.680647,-33.443887],[-70.680546,-33.443881],[-70.680473,-33.443876],[-70.680385,-33.443866],[-70.680271,-33.443852],[-70.679913,-33.443808],[-70.679865,-33.443796],[-70.679846,-33.443789],[-70.679828,-33.443782],[-70.679815,-33.443776],[-70.679802,-33.443767],[-70.679793,-33.443761],[-70.679785,-33.443753],[-70.679778,-33.443746],[-70.679764,-33.443726],[-70.679756,-33.443705],[-70.679756,-33.443705],[-70.679755,-33.44369],[-70.679755,-33.44369],[-70.679755,-33.443668],[-70.679755,-33.443668],[-70.679782,-33.443342],[-70.679782,-33.443342],[-70.679851,-33.442525],[-70.679851,-33.442525],[-70.679858,-33.442453],[-70.679858,-33.442453],[-70.679863,-33.44242],[-70.67988,-33.44229],[-70.67988,-33.44229],[-70.679887,-33.442247],[-70.679907,-33.442115],[-70.679907,-33.442115],[-70.679918,-33.442021],[-70.679918,-33.44202],[-70.679923,-33.441947],[-70.679923,-33.441947],[-70.679925,-33.441939],[-70.679925,-33.441939],[-70.679925,-33.441889],[-70.679925,-33.441889],[-70.679924,-33.441818],[-70.679924,-33.441807],[-70.679924,-33.441807],[-70.679921,-33.441731],[-70.679921,-33.441731],[-70.680012,-33.440662],[-70.680012,-33.440662],[-70.680017,-33.440635],[-70.680017,-33.440635],[-70.680023,-33.44062],[-70.680028,-33.44061],[-70.680031,-33.440606],[-70.680035,-33.4406],[-70.680041,-33.440593],[-70.680053,-33.440584],[-70.680062,-33.440578],[-70.68007,-33.440575],[-70.680082,-33.440572],[-70.680096,-33.440572],[-70.680437,-33.440593],[-70.680438,-33.440541]]]}},{"type":"Feature","properties":{"OBJECTID_1":2,"CUT":13101,"COMUNA":"SANTIAGO","AREA":25752.8761484,"Nombre":"Parque San Borja","CATEGORIA":"PARQUE"},"geometry":{"type":"Polygon","coordinates":[[[-70.636545,-33.441007],[-70.636626,-33.44087],[-70.637194,-33.439895],[-70.637507,-33.439359],[-70.637526,-33.439386],[-70.637537,-33.439403],[-70.637552,-33.439423],[-70.637566,-33.439442],[-70.637584,-33.439461],[-70.637627,-33.4395],[-70.637647,-33.439514],[-70.637804,-33.439617],[-70.637904,-33.439688],[-70.637988,-33.439749],[-70.638291,-33.439984],[-70.638332,-33.440019],[-70.638344,-33.440031],[-70.638359,-33.440051],[-70.638393,-33.440125],[-70.638401,-33.440144],[-70.638401,-33.440144],[-70.638408,-33.440169],[-70.638408,-33.440169],[-70.638416,-33.44021],[-70.638416,-33.44021],[-70.63842,-33.44023],[-70.63842,-33.44023],[-70.63842,-33.44026],[-70.63842,-33.44026],[-70.63842,-33.440278],[-70.63842,-33.440278],[-70.63842,-33.440309],[-70.63842,-33.440309],[-70.638418,-33.440342],[-70.638418,-33.440342],[-70.638415,-33.440369],[-70.638415,-33.440369],[-70.638412,-33.440391],[-70.638412,-33.440391],[-70.638398,-33.440452],[-70.638362,-33.440603],[-70.638333,-33.440727],[-70.638333,-33.440727],[-70.63831,-33.440822],[-70.638143,-33.441516],[-70.638052,-33.44169],[-70.636545,-33.441007]]]}},{"type":"Feature","properties":{"OBJECTID_1":3,"CUT":13101,"COMUNA":"SANTIAGO","AREA":164445.289076,"Nombre":"Parque Los Reyes","CATEGORIA":"PARQUE"},"geometry":{"type":"Polygon","coordinates":[[[-70.66114,-33.430383],[-70.661421,-33.430296],[-70.661603,-33.430253],[-70.661937,-33.430158],[-70.661974,-33.430148],[-70.662129,-33.430108],[-70.662809,-33.429901],[-70.663325,-33.429737],[-70.664407,-33.429369],[-70.664911,-33.429196],[-70.66603,-33.428837],[-70.666691,-33.428615],[-70.667078,-33.428488],[-70.667752,-33.428259],[-70.668636,-33.427947],[-70.669304,-33.427727],[-70.669996,-33.427489],[-70.670429,-33.427344],[-70.671056,-33.427115],[-70.67135,-33.427004],[-70.67149,-33.426955],[-70.671514,-33.427041],[-70.671547,-33.427158],[-70.671633,-33.427448],[-70.671635,-33.42746],[-70.671638,-33.427468],[-70.671638,-33.427468],[-70.671645,-33.427498],[-70.671649,-33.427511],[-70.671649,-33.427511],[-70.671698,-33.427727],[-70.671698,-33.427728],[-70.671728,-33.427912],[-70.671738,-33.428],[-70.671738,-33.428106],[-70.671738,-33.428107],[-70.67173,-33.428168],[-70.67173,-33.428168],[-70.671719,-33.428205],[-70.671713,-33.428215],[-70.671692,-33.428249],[-70.671689,-33.428252],[-70.671665,-33.428272],[-70.671632,-33.42829],[-70.671589,-33.428314],[-70.671324,-33.428404],[-70.671139,-33.428466],[-70.670833,-33.428568],[-70.67036,-33.428725],[-70.670277,-33.428752],[-70.670256,-33.428762],[-70.670219,-33.42878],[-70.670166,-33.428813],[-70.670157,-33.428819],[-70.670101,-33.428843],[-70.669507,-33.429039],[-70.669281,-33.429114],[-70.668366,-33.429415],[-70.667372,-33.429744],[-70.667118,-33.429828],[-70.666784,-33.429938],[-70.665995,-33.430199],[-70.665043,-33.430504],[-70.664776,-33.43057],[-70.664518,-33.430618],[-70.664338,-33.430637],[-70.664097,-33.430652],[-70.663953,-33.430652],[-70.663781,-33.430644],[-70.663637,-33.430633],[-70.66349,-33.430614],[-70.663448,-33.430609],[-70.663393,-33.430599],[-70.663278,-33.430579],[-70.663222,-33.430571],[-70.663055,-33.430545],[-70.662988,-33.430533],[-70.662792,-33.430513],[-70.662737,-33.430507],[-70.662695,-33.430506],[-70.662522,-33.4305],[-70.662347,-33.430497],[-70.662304,-33.430498],[-70.662252,-33.430499],[-70.66225,-33.430499],[-70.662186,-33.430501],[-70.662119,-33.430497],[-70.662042,-33.430503],[-70.661854,-33.430525],[-70.661764,-33.430539],[-70.661677,-33.430553],[-70.661448,-33.430602],[-70.661316,-33.43063],[-70.661294,-33.430581],[-70.661145,-33.430629],[-70.661145,-33.43063],[-70.661122,-33.430637],[-70.661026,-33.430671],[-70.660746,-33.43076],[-70.660628,-33.430793],[-70.66064,-33.430835],[-70.66064,-33.430837],[-70.660583,-33.43086],[-70.660546,-33.430875],[-70.660543,-33.430876],[-70.660535,-33.430879],[-70.660525,-33.430883],[-70.660493,-33.430896],[-70.660261,-33.430971],[-70.660155,-33.431001],[-70.660143,-33.431004],[-70.660138,-33.431006],[-70.66011,-33.431014],[-70.660054,-33.43103],[-70.660001,-33.431047],[-70.659974,-33.431055],[-70.659897,-33.43108],[-70.659878,-33.431086],[-70.659851,-33.431095],[-70.659718,-33.43114],[-70.659705,-33.431144],[-70.659519,-33.431208],[-70.659421,-33.431243],[-70.659397,-33.431252],[-70.659384,-33.431256],[-70.659193,-33.431326],[-70.659164,-33.431336],[-70.659048,-33.431374],[-70.658897,-33.431424],[-70.658772,-33.431476],[-70.658767,-33.431478],[-70.658717,-33.431499],[-70.658706,-33.431503],[-70.65856,-33.431548],[-70.658417,-33.431598],[-70.658395,-33.431604],[-70.658288,-33.43163],[-70.658287,-33.43163],[-70.658194,-33.431656],[-70.658132,-33.431673],[-70.658071,-33.43169],[-70.658016,-33.431705],[-70.657919,-33.431732],[-70.657891,-33.43174],[-70.657879,-33.431743],[-70.65787,-33.431746],[-70.657744,-33.431776],[-70.657738,-33.431778],[-70.657577,-33.431816],[-70.65757,-33.431818],[-70.657564,-33.43182],[-70.65753,-33.431828],[-70.657515,-33.431831],[-70.657503,-33.431834],[-70.657503,-33.431834],[-70.657503,-33.431834],[-70.657497,-33.431836],[-70.657497,-33.431836],[-70.657497,-33.431836],[-70.657489,-33.431838],[-70.657482,-33.431839],[-70.657477,-33.431841],[-70.657453,-33.431846],[-70.657385,-33.431863],[-70.657336,-33.431875],[-70.657334,-33.431875],[-70.657278,-33.431889],[-70.657266,-33.431892],[-70.657093,-33.431934],[-70.657063,-33.431941],[-70.657049,-33.431944],[-70.657042,-33.431946],[-70.657028,-33.43195],[-70.65694,-33.431971],[-70.656875,-33.431987],[-70.656851,-33.431993],[-70.656392,-33.432108],[-70.656323,-33.432123],[-70.656256,-33.431916],[-70.655409,-33.432135],[-70.655323,-33.431876],[-70.655262,-33.431692],[-70.655262,-33.431692],[-70.655262,-33.431692],[-70.653163,-33.432197],[-70.653157,-33.432184],[-70.653125,-33.432111],[-70.653125,-33.432111],[-70.653116,-33.432078],[-70.653111,-33.432062],[-70.653128,-33.432058],[-70.657499,-33.431057],[-70.657506,-33.431055],[-70.65758,-33.431038],[-70.659056,-33.430694],[-70.65911,-33.430691],[-70.659134,-33.430687],[-70.659185,-33.43068],[-70.659273,-33.430665],[-70.659338,-33.430651],[-70.659395,-33.430638],[-70.659406,-33.430636],[-70.659465,-33.430625],[-70.659534,-33.430617],[-70.659586,-33.43061],[-70.659639,-33.430601],[-70.659662,-33.430597],[-70.659704,-33.430589],[-70.659772,-33.430572],[-70.659832,-33.430559],[-70.659897,-33.430543],[-70.65996,-33.430527],[-70.66003,-33.430507],[-70.660103,-33.430488],[-70.660167,-33.430472],[-70.660222,-33.430454],[-70.660265,-33.43044],[-70.660315,-33.430423],[-70.66033,-33.430418],[-70.660472,-33.430378],[-70.660474,-33.430377],[-70.660483,-33.430375],[-70.660486,-33.430374],[-70.660486,-33.430374],[-70.660486,-33.430374],[-70.660486,-33.430375],[-70.660487,-33.430375],[-70.660488,-33.430379],[-70.660488,-33.430379],[-70.660489,-33.430385],[-70.660496,-33.430416],[-70.660496,-33.430416],[-70.660521,-33.430483],[-70.660531,-33.430511],[-70.660541,-33.430538],[-70.660549,-33.430561],[-70.660573,-33.430626],[-70.660573,-33.430626],[-70.660587,-33.430666],[-70.660599,-33.430702],[-70.660723,-33.43066],[-70.660999,-33.430575],[-70.661095,-33.430546],[-70.661116,-33.43054],[-70.661117,-33.43054],[-70.661189,-33.430519],[-70.66114,-33.430383]]]}},{"type":"Feature","properties":{"OBJECTID_1":4,"CUT":13101,"COMUNA":"SANTIAGO","AREA":3789.48683345,"Nombre":"Parque Portales","CATEGORIA":"PARQUE"},"geometry":{"type":"Polygon","coordinates":[[[-70.675257,-33.443477],[-70.674059,-33.443341],[-70.674032,-33.443334],[-70.674012,-33.443324],[-70.673997,-33.443309],[-70.673991,-33.443298],[-70.673991,-33.443288],[-70.673991,-33.443288],[-70.673992,-33.443272],[-70.673992,-33.443272],[-70.67401,-33.443078],[-70.67401,-33.443078],[-70.674011,-33.443073],[-70.674011,-33.443073],[-70.674012,-33.443071],[-70.674013,-33.443069],[-70.674014,-33.443068],[-70.674016,-33.443066],[-70.67402,-33.443064],[-70.674025,-33.443063],[-70.674032,-33.443062],[-70.674327,-33.443096],[-70.675328,-33.443209],[-70.675334,-33.44321],[-70.67534,-33.443213],[-70.675344,-33.443216],[-70.675347,-33.443219],[-70.675347,-33.443219],[-70.675348,-33.443223],[-70.675348,-33.443225],[-70.675348,-33.443225],[-70.675349,-33.443229],[-70.675349,-33.443229],[-70.67533,-33.443426],[-70.67533,-33.443426],[-70.675324,-33.443445],[-70.675316,-33.443456],[-70.675301,-33.443469],[-70.675299,-33.44347],[-70.675284,-33.443477],[-70.675275,-33.443478],[-70.675257,-33.443477]]]}},{"type":"Feature","properties":{"OBJECTID_1":5,"CUT":13101,"COMUNA":"SANTIAGO","AREA":2287.03580883,"Nombre":"Parque Portales","CATEGORIA":"PARQUE"},"geometry":{"type":"Polygon","coordinates":[[[-70.673574,-33.443284],[-70.673133,-33.443233],[-70.673124,-33.443232],[-70.673117,-33.44323],[-70.673111,-33.443227],[-70.673105,-33.443223],[-70.673102,-33.443218],[-70.6731,-33.443213],[-70.6731,-33.443213],[-70.673099,-33.443207],[-70.673099,-33.443207],[-70.673099,-33.4432],[-70.673099,-33.4432],[-70.6731,-33.443193],[-70.6731,-33.443193],[-70.673119,-33.442992],[-70.673119,-33.442992],[-70.67312,-33.442978],[-70.67312,-33.442978],[-70.673123,-33.442971],[-70.673123,-33.442971],[-70.673124,-33.442969],[-70.673127,-33.442966],[-70.673131,-33.442963],[-70.673136,-33.442962],[-70.673141,-33.442961],[-70.673148,-33.442962],[-70.673163,-33.442963],[-70.673569,-33.44301],[-70.673906,-33.443048],[-70.673915,-33.44305],[-70.673923,-33.443054],[-70.673928,-33.443058],[-70.673929,-33.443059],[-70.673932,-33.443064],[-70.673932,-33.443064],[-70.673933,-33.443072],[-70.673933,-33.443072],[-70.673913,-33.443292],[-70.673913,-33.443292],[-70.673909,-33.4433],[-70.673902,-33.443307],[-70.673895,-33.443312],[-70.673882,-33.443317],[-70.673868,-33.443318],[-70.673574,-33.443284]]]}},{"type":"Feature","properties":{"OBJECTID_1":6,"CUT":13101,"COMUNA":"SANTIAGO","AREA":2290.78390435,"Nombre":"Parque Portales","CATEGORIA":"PARQUE"},"geometry":{"type":"Polygon","coordinates":[[[-70.672975,-33.443215],[-70.672249,-33.443132],[-70.672237,-33.44313],[-70.67223,-33.443129],[-70.672216,-33.44312],[-70.672208,-33.44311],[-70.672206,-33.443103],[-70.672206,-33.443103],[-70.672203,-33.443092],[-70.672203,-33.443092],[-70.672203,-33.443086],[-70.672203,-33.443086],[-70.67222,-33.442891],[-70.67222,-33.442891],[-70.672224,-33.442876],[-70.672224,-33.442876],[-70.672228,-33.442871],[-70.67223,-33.44287],[-70.672232,-33.442868],[-70.67224,-33.442864],[-70.672252,-33.442861],[-70.672265,-33.442861],[-70.672276,-33.442862],[-70.672281,-33.442863],[-70.673013,-33.442946],[-70.673022,-33.442949],[-70.673027,-33.442951],[-70.673032,-33.442953],[-70.673037,-33.44296],[-70.673038,-33.44296],[-70.673038,-33.44296],[-70.67304,-33.442969],[-70.67304,-33.442969],[-70.673019,-33.443181],[-70.673019,-33.443181],[-70.673018,-33.443188],[-70.673016,-33.443195],[-70.673009,-33.443207],[-70.673,-33.443213],[-70.672987,-33.443215],[-70.672975,-33.443215]]]}},{"type":"Feature","properties":{"OBJECTID_1":7,"CUT":13101,"COMUNA":"SANTIAGO","AREA":2137.11999275,"Nombre":"Parque Portales","CATEGORIA":"PARQUE"},"geometry":{"type":"Polygon","coordinates":[[[-70.672061,-33.443106],[-70.6719,-33.443088],[-70.671348,-33.443024],[-70.671326,-33.443016],[-70.671317,-33.443006],[-70.671312,-33.442993],[-70.671312,-33.442993],[-70.671311,-33.44298],[-70.671311,-33.44298],[-70.671312,-33.442969],[-70.671312,-33.442969],[-70.671315,-33.442948],[-70.671315,-33.442948],[-70.67133,-33.442794],[-70.671332,-33.44279],[-70.671338,-33.442784],[-70.671347,-33.442779],[-70.671361,-33.442774],[-70.671364,-33.442773],[-70.671371,-33.442773],[-70.671943,-33.442835],[-70.672086,-33.442851],[-70.672106,-33.442856],[-70.672119,-33.442864],[-70.672123,-33.442866],[-70.672129,-33.442871],[-70.672134,-33.442878],[-70.672142,-33.442899],[-70.672143,-33.442909],[-70.672127,-33.443081],[-70.672127,-33.443081],[-70.672123,-33.443092],[-70.672116,-33.4431],[-70.672105,-33.443105],[-70.672093,-33.443107],[-70.67208,-33.443108],[-70.672061,-33.443106]]]}},{"type":"Feature","properties":{"OBJECTID_1":8,"CUT":13101,"COMUNA":"SANTIAGO","AREA":1279.94754974,"Nombre":"Parque Portales","CATEGORIA":"PARQUE"},"geometry":{"type":"Polygon","coordinates":[[[-70.671165,-33.443003],[-70.671155,-33.443002],[-70.670743,-33.442955],[-70.670745,-33.442943],[-70.670783,-33.442705],[-70.670854,-33.442709],[-70.671052,-33.44273],[-70.671221,-33.442746],[-70.671234,-33.442747],[-70.671239,-33.442749],[-70.671246,-33.442755],[-70.671251,-33.442763],[-70.671252,-33.442768],[-70.671253,-33.44278],[-70.671235,-33.442974],[-70.671231,-33.44298],[-70.671227,-33.442984],[-70.67122,-33.44299],[-70.671212,-33.442996],[-70.6712,-33.443001],[-70.671186,-33.443003],[-70.671175,-33.443003],[-70.671165,-33.443003]]]}},{"type":"Feature","properties":{"OBJECTID_1":9,"CUT":13101,"COMUNA":"SANTIAGO","AREA":20370.6392048,"Nombre":"Parque Almagro","CATEGORIA":"PARQUE"},"geometry":{"type":"Polygon","coordinates":[[[-70.654657,-33.452863],[-70.654313,-33.452759],[-70.6544,-33.451924],[-70.6544,-33.451924],[-70.654415,-33.451842],[-70.654415,-33.451842],[-70.654432,-33.451734],[-70.654432,-33.451734],[-70.654442,-33.451666],[-70.654525,-33.451677],[-70.65605,-33.451883],[-70.656155,-33.451898],[-70.655926,-33.452952],[-70.655926,-33.452952],[-70.655917,-33.452991],[-70.655917,-33.452991],[-70.655908,-33.453016],[-70.655891,-33.453037],[-70.655888,-33.453038],[-70.655866,-33.453049],[-70.655833,-33.453054],[-70.655787,-33.453053],[-70.655628,-33.453037],[-70.655461,-33.45302],[-70.655286,-33.452996],[-70.655182,-33.452983],[-70.655179,-33.452982],[-70.655172,-33.45298],[-70.655166,-33.452976],[-70.65498,-33.452941],[-70.654825,-33.452904],[-70.654657,-33.452863]]]}},{"type":"Feature","properties":{"OBJECTID_1":10,"CUT":13101,"COMUNA":"SANTIAGO","AREA":887.267453885,"Nombre":"Parque Santa Isabel","CATEGORIA":"PARQUE"},"geometry":{"type":"Polygon","coordinates":[[[-70.646896,-33.451166],[-70.646899,-33.451139],[-70.646911,-33.451035],[-70.646914,-33.451016],[-70.646914,-33.451015],[-70.646922,-33.451006],[-70.646923,-33.451005],[-70.646937,-33.450999],[-70.646955,-33.450997],[-70.646972,-33.450999],[-70.646988,-33.451003],[-70.647139,-33.451051],[-70.647416,-33.45114],[-70.647372,-33.451291],[-70.646943,-33.451178],[-70.646896,-33.451166]]]}},{"type":"Feature","properties":{"OBJECTID_1":11,"CUT":13101,"COMUNA":"SANTIAGO","AREA":62634.8080691,"Nombre":"Parque Los Reyes","CATEGORIA":"PARQUE"},"geometry":{"type":"Polygon","coordinates":[[[-70.675131,-33.425976],[-70.675395,-33.427055],[-70.672056,-33.428174],[-70.671988,-33.428192],[-70.671941,-33.428175],[-70.671913,-33.428147],[-70.671898,-33.428085],[-70.671766,-33.427233],[-70.671598,-33.42665],[-70.672376,-33.42634],[-70.673783,-33.425809],[-70.674693,-33.425418],[-70.67496,-33.425281],[-70.675131,-33.425976]]]}},{"type":"Feature","properties":{"OBJECTID_1":12,"CUT":13101,"COMUNA":"SANTIAGO","AREA":11460.1223551,"Nombre":"Parque Forestal","CATEGORIA":"PARQUE"},"geometry":{"type":"Polygon","coordinates":[[[-70.647702,-33.433633],[-70.647874,-33.433593],[-70.647891,-33.433592],[-70.647898,-33.433596],[-70.647901,-33.4336],[-70.647903,-33.433604],[-70.647903,-33.433611],[-70.647866,-33.433678],[-70.6477,-33.433971],[-70.647673,-33.434019],[-70.647643,-33.434069],[-70.647637,-33.434078],[-70.647631,-33.434084],[-70.647626,-33.434087],[-70.647618,-33.43409],[-70.647364,-33.434147],[-70.64727,-33.434159],[-70.647189,-33.434181],[-70.647189,-33.434181],[-70.647188,-33.434182],[-70.647187,-33.434182],[-70.647187,-33.434182],[-70.647186,-33.434182],[-70.647186,-33.434182],[-70.647185,-33.434181],[-70.647185,-33.434181],[-70.647184,-33.434181],[-70.647184,-33.434181],[-70.647183,-33.43418],[-70.647183,-33.43418],[-70.647183,-33.43418],[-70.647182,-33.434179],[-70.647182,-33.434179],[-70.647182,-33.434178],[-70.647182,-33.434178],[-70.647182,-33.434177],[-70.647182,-33.434177],[-70.647182,-33.434176],[-70.647183,-33.434176],[-70.647183,-33.434175],[-70.647196,-33.434151],[-70.647197,-33.43415],[-70.647197,-33.43415],[-70.647198,-33.434149],[-70.647198,-33.434149],[-70.647199,-33.434148],[-70.647199,-33.434148],[-70.647199,-33.434147],[-70.6472,-33.434147],[-70.6472,-33.434146],[-70.647201,-33.434146],[-70.647201,-33.434145],[-70.647202,-33.434145],[-70.647202,-33.434144],[-70.647203,-33.434144],[-70.647203,-33.434143],[-70.647204,-33.434143],[-70.647204,-33.434142],[-70.647205,-33.434142],[-70.647205,-33.434141],[-70.647206,-33.434141],[-70.647206,-33.43414],[-70.647207,-33.43414],[-70.647208,-33.43414],[-70.647208,-33.434139],[-70.647209,-33.434139],[-70.647209,-33.434138],[-70.64721,-33.434138],[-70.647211,-33.434138],[-70.647211,-33.434137],[-70.647212,-33.434137],[-70.647212,-33.434137],[-70.647213,-33.434136],[-70.647214,-33.434136],[-70.647214,-33.434136],[-70.647215,-33.434135],[-70.647216,-33.434135],[-70.647216,-33.434135],[-70.647217,-33.434134],[-70.647218,-33.434134],[-70.647219,-33.434134],[-70.647219,-33.434134],[-70.64722,-33.434133],[-70.647221,-33.434133],[-70.647221,-33.434133],[-70.647222,-33.434133],[-70.647223,-33.434133],[-70.647224,-33.434132],[-70.647298,-33.434115],[-70.647299,-33.434116],[-70.647511,-33.434066],[-70.647491,-33.434032],[-70.647468,-33.434038],[-70.647287,-33.43408],[-70.647277,-33.434083],[-70.647224,-33.434096],[-70.647221,-33.434096],[-70.64722,-33.434096],[-70.647218,-33.434097],[-70.647217,-33.434097],[-70.647215,-33.434097],[-70.647214,-33.434098],[-70.647212,-33.434098],[-70.647211,-33.434099],[-70.647209,-33.434099],[-70.647208,-33.4341],[-70.647206,-33.4341],[-70.647205,-33.434101],[-70.647203,-33.434101],[-70.647202,-33.434102],[-70.6472,-33.434102],[-70.647199,-33.434103],[-70.647198,-33.434103],[-70.647196,-33.434104],[-70.647195,-33.434105],[-70.647193,-33.434105],[-70.647192,-33.434106],[-70.647191,-33.434107],[-70.647189,-33.434108],[-70.647188,-33.434108],[-70.647187,-33.434109],[-70.647185,-33.43411],[-70.647184,-33.434111],[-70.647183,-33.434112],[-70.647182,-33.434112],[-70.64718,-33.434113],[-70.647179,-33.434114],[-70.647178,-33.434115],[-70.647177,-33.434116],[-70.647176,-33.434117],[-70.647175,-33.434118],[-70.647174,-33.434119],[-70.647173,-33.43412],[-70.647171,-33.434121],[-70.64717,-33.434122],[-70.647169,-33.434123],[-70.647168,-33.434124],[-70.647167,-33.434125],[-70.647167,-33.434126],[-70.647166,-33.434127],[-70.647165,-33.434128],[-70.647164,-33.434129],[-70.647163,-33.43413],[-70.647162,-33.434132],[-70.647161,-33.434133],[-70.647118,-33.434202],[-70.647117,-33.434203],[-70.647117,-33.434204],[-70.647116,-33.434204],[-70.647116,-33.434205],[-70.647115,-33.434205],[-70.647115,-33.434206],[-70.647114,-33.434206],[-70.647113,-33.434207],[-70.647113,-33.434207],[-70.647112,-33.434208],[-70.647111,-33.434208],[-70.647111,-33.434209],[-70.64711,-33.434209],[-70.647089,-33.434216],[-70.647058,-33.434229],[-70.64687,-33.434309],[-70.646747,-33.434366],[-70.646449,-33.434507],[-70.645997,-33.43472],[-70.645996,-33.43472],[-70.645995,-33.434721],[-70.645994,-33.434721],[-70.645993,-33.434721],[-70.645992,-33.434722],[-70.645992,-33.434722],[-70.645991,-33.434722],[-70.64599,-33.434722],[-70.645989,-33.434723],[-70.645988,-33.434723],[-70.645987,-33.434723],[-70.645987,-33.434723],[-70.645986,-33.434723],[-70.645985,-33.434723],[-70.645984,-33.434724],[-70.645983,-33.434724],[-70.645982,-33.434724],[-70.645981,-33.434724],[-70.645981,-33.434724],[-70.64598,-33.434724],[-70.645979,-33.434724],[-70.645978,-33.434724],[-70.645977,-33.434724],[-70.645976,-33.434724],[-70.645975,-33.434725],[-70.645974,-33.434725],[-70.645974,-33.434725],[-70.645973,-33.434725],[-70.645972,-33.434725],[-70.645971,-33.434724],[-70.64597,-33.434724],[-70.645969,-33.434724],[-70.645968,-33.434724],[-70.645968,-33.434724],[-70.645967,-33.434724],[-70.645966,-33.434724],[-70.645965,-33.434724],[-70.645964,-33.434724],[-70.645963,-33.434724],[-70.645962,-33.434723],[-70.645962,-33.434723],[-70.645961,-33.434723],[-70.64596,-33.434723],[-70.645959,-33.434723],[-70.645958,-33.434722],[-70.645957,-33.434722],[-70.645957,-33.434722],[-70.645956,-33.434722],[-70.645955,-33.434721],[-70.645954,-33.434721],[-70.645953,-33.434721],[-70.645953,-33.434721],[-70.645952,-33.43472],[-70.645951,-33.43472],[-70.64595,-33.43472],[-70.645949,-33.434719],[-70.645949,-33.434719],[-70.645948,-33.434719],[-70.645947,-33.434718],[-70.645946,-33.434718],[-70.645946,-33.434717],[-70.645945,-33.434717],[-70.645741,-33.434591],[-70.645736,-33.434588],[-70.645733,-33.434586],[-70.64573,-33.434583],[-70.645727,-33.434581],[-70.645725,-33.434579],[-70.645722,-33.434576],[-70.645719,-33.434574],[-70.645717,-33.434571],[-70.645714,-33.434569],[-70.645712,-33.434566],[-70.645709,-33.434564],[-70.645707,-33.434561],[-70.645705,-33.434558],[-70.645702,-33.434556],[-70.6457,-33.434553],[-70.645698,-33.43455],[-70.645696,-33.434547],[-70.645694,-33.434545],[-70.645692,-33.434542],[-70.64569,-33.434539],[-70.645688,-33.434536],[-70.645686,-33.434533],[-70.645685,-33.43453],[-70.645683,-33.434527],[-70.645681,-33.434524],[-70.64568,-33.434521],[-70.645678,-33.434518],[-70.645677,-33.434515],[-70.645569,-33.43424],[-70.645542,-33.434174],[-70.645542,-33.434174],[-70.645542,-33.434173],[-70.645542,-33.434172],[-70.645541,-33.434172],[-70.645541,-33.434171],[-70.645541,-33.434171],[-70.645541,-33.43417],[-70.64554,-33.43417],[-70.64554,-33.434169],[-70.64554,-33.434169],[-70.64554,-33.434168],[-70.64554,-33.434168],[-70.64554,-33.434167],[-70.64554,-33.434167],[-70.645539,-33.434166],[-70.645539,-33.434166],[-70.645539,-33.434165],[-70.645539,-33.434165],[-70.645539,-33.434164],[-70.645539,-33.434163],[-70.645539,-33.434163],[-70.645539,-33.434162],[-70.645539,-33.434162],[-70.645539,-33.434161],[-70.645539,-33.434161],[-70.645539,-33.43416],[-70.645539,-33.43416],[-70.645539,-33.434159],[-70.645539,-33.434159],[-70.645539,-33.434158],[-70.645539,-33.434157],[-70.645539,-33.434157],[-70.645539,-33.434156],[-70.645539,-33.434156],[-70.645539,-33.434155],[-70.64554,-33.434155],[-70.64554,-33.434154],[-70.64554,-33.434154],[-70.64554,-33.434153],[-70.64554,-33.434153],[-70.64554,-33.434152],[-70.645541,-33.434152],[-70.645541,-33.434151],[-70.645541,-33.434151],[-70.645541,-33.43415],[-70.645541,-33.43415],[-70.645542,-33.434149],[-70.645542,-33.434149],[-70.645542,-33.434148],[-70.645542,-33.434148],[-70.645543,-33.434147],[-70.645543,-33.434147],[-70.645543,-33.434146],[-70.645544,-33.434146],[-70.645544,-33.434145],[-70.645544,-33.434145],[-70.645545,-33.434144],[-70.645545,-33.434144],[-70.645545,-33.434143],[-70.645546,-33.434143],[-70.645546,-33.434142],[-70.645546,-33.434142],[-70.645547,-33.434142],[-70.645547,-33.434141],[-70.645548,-33.434141],[-70.645548,-33.43414],[-70.645549,-33.43414],[-70.645549,-33.434139],[-70.645549,-33.434139],[-70.64555,-33.434139],[-70.64555,-33.434138],[-70.645551,-33.434138],[-70.645551,-33.434138],[-70.645552,-33.434137],[-70.645552,-33.434137],[-70.645553,-33.434136],[-70.645553,-33.434136],[-70.645554,-33.434136],[-70.645554,-33.434135],[-70.645555,-33.434135],[-70.645555,-33.434135],[-70.645556,-33.434135],[-70.645557,-33.434134],[-70.645557,-33.434134],[-70.645558,-33.434134],[-70.645558,-33.434133],[-70.645559,-33.434133],[-70.645559,-33.434133],[-70.64556,-33.434133],[-70.645561,-33.434132],[-70.645561,-33.434132],[-70.645562,-33.434132],[-70.645562,-33.434132],[-70.647702,-33.433633]]]}},{"type":"Feature","properties":{"OBJECTID_1":13,"CUT":13101,"COMUNA":"SANTIAGO","AREA":26229.9180435,"Nombre":"Parque Forestal","CATEGORIA":"PARQUE"},"geometry":{"type":"Polygon","coordinates":[[[-70.642983,-33.434734],[-70.642984,-33.434734],[-70.642984,-33.434733],[-70.642985,-33.434733],[-70.642986,-33.434732],[-70.642987,-33.434732],[-70.642988,-33.434732],[-70.642989,-33.434731],[-70.64299,-33.434731],[-70.642991,-33.434731],[-70.642992,-33.43473],[-70.642993,-33.43473],[-70.642994,-33.43473],[-70.642995,-33.43473],[-70.642996,-33.43473],[-70.642997,-33.43473],[-70.64318,-33.434687],[-70.644535,-33.434371],[-70.645384,-33.434173],[-70.645385,-33.434173],[-70.645385,-33.434173],[-70.645386,-33.434173],[-70.645387,-33.434173],[-70.645388,-33.434173],[-70.645389,-33.434172],[-70.64539,-33.434172],[-70.645391,-33.434172],[-70.645391,-33.434172],[-70.645392,-33.434172],[-70.645393,-33.434172],[-70.645394,-33.434172],[-70.645395,-33.434172],[-70.645396,-33.434172],[-70.645397,-33.434172],[-70.645398,-33.434172],[-70.645398,-33.434172],[-70.645399,-33.434172],[-70.6454,-33.434172],[-70.645401,-33.434172],[-70.645402,-33.434172],[-70.645403,-33.434172],[-70.645404,-33.434172],[-70.645405,-33.434172],[-70.645405,-33.434172],[-70.645406,-33.434172],[-70.645407,-33.434172],[-70.645408,-33.434173],[-70.645409,-33.434173],[-70.64541,-33.434173],[-70.645411,-33.434173],[-70.645411,-33.434173],[-70.645412,-33.434173],[-70.645413,-33.434174],[-70.645414,-33.434174],[-70.645415,-33.434174],[-70.645416,-33.434174],[-70.645416,-33.434175],[-70.645417,-33.434175],[-70.645418,-33.434175],[-70.645419,-33.434175],[-70.64542,-33.434176],[-70.64542,-33.434176],[-70.645421,-33.434176],[-70.645422,-33.434177],[-70.645423,-33.434177],[-70.645423,-33.434177],[-70.645424,-33.434178],[-70.645425,-33.434178],[-70.645426,-33.434179],[-70.645426,-33.434179],[-70.645427,-33.434179],[-70.645428,-33.43418],[-70.645429,-33.43418],[-70.645429,-33.434181],[-70.64543,-33.434181],[-70.645431,-33.434182],[-70.645431,-33.434182],[-70.645432,-33.434183],[-70.645433,-33.434183],[-70.645433,-33.434184],[-70.645434,-33.434184],[-70.645434,-33.434185],[-70.645435,-33.434185],[-70.645436,-33.434186],[-70.645436,-33.434186],[-70.645437,-33.434187],[-70.645437,-33.434188],[-70.645438,-33.434188],[-70.645438,-33.434189],[-70.645439,-33.434189],[-70.645439,-33.43419],[-70.64544,-33.43419],[-70.64544,-33.434191],[-70.645441,-33.434192],[-70.645441,-33.434192],[-70.645442,-33.434193],[-70.645442,-33.434194],[-70.645443,-33.434194],[-70.645443,-33.434195],[-70.645443,-33.434196],[-70.645444,-33.434196],[-70.645444,-33.434197],[-70.645444,-33.434198],[-70.645445,-33.434198],[-70.645542,-33.434448],[-70.645571,-33.43452],[-70.645583,-33.434551],[-70.645595,-33.434573],[-70.645598,-33.434578],[-70.645602,-33.434583],[-70.645605,-33.434588],[-70.645609,-33.434593],[-70.645613,-33.434598],[-70.645616,-33.434603],[-70.64562,-33.434608],[-70.645624,-33.434613],[-70.645628,-33.434617],[-70.645633,-33.434622],[-70.645637,-33.434627],[-70.645641,-33.434631],[-70.645646,-33.434636],[-70.645652,-33.434642],[-70.645662,-33.434649],[-70.645672,-33.434656],[-70.645682,-33.434663],[-70.645695,-33.434672],[-70.645805,-33.434742],[-70.645806,-33.434742],[-70.645806,-33.434743],[-70.645807,-33.434743],[-70.645807,-33.434744],[-70.645808,-33.434744],[-70.645808,-33.434745],[-70.645809,-33.434745],[-70.64581,-33.434745],[-70.64581,-33.434746],[-70.645811,-33.434746],[-70.645811,-33.434747],[-70.645812,-33.434747],[-70.645812,-33.434748],[-70.645813,-33.434748],[-70.645813,-33.434749],[-70.645813,-33.434749],[-70.645814,-33.43475],[-70.645814,-33.434751],[-70.645815,-33.434751],[-70.645815,-33.434752],[-70.645816,-33.434752],[-70.645816,-33.434753],[-70.645816,-33.434753],[-70.645817,-33.434754],[-70.645817,-33.434754],[-70.645817,-33.434755],[-70.645818,-33.434756],[-70.645818,-33.434756],[-70.645818,-33.434757],[-70.645819,-33.434757],[-70.645819,-33.434758],[-70.645819,-33.434759],[-70.645819,-33.434759],[-70.64582,-33.43476],[-70.64582,-33.43476],[-70.64582,-33.434761],[-70.64582,-33.434762],[-70.645821,-33.434762],[-70.645821,-33.434763],[-70.645821,-33.434764],[-70.645821,-33.434764],[-70.645821,-33.434765],[-70.645821,-33.434766],[-70.645821,-33.434766],[-70.645822,-33.434767],[-70.645822,-33.434768],[-70.645822,-33.434769],[-70.645822,-33.43477],[-70.645822,-33.434771],[-70.645822,-33.434771],[-70.645822,-33.434772],[-70.645822,-33.434773],[-70.645822,-33.434774],[-70.645822,-33.434775],[-70.645822,-33.434776],[-70.645822,-33.434776],[-70.645822,-33.434777],[-70.645821,-33.434778],[-70.645821,-33.434779],[-70.645821,-33.43478],[-70.645821,-33.43478],[-70.645821,-33.434781],[-70.645821,-33.434782],[-70.64582,-33.434783],[-70.64582,-33.434784],[-70.64582,-33.434785],[-70.64582,-33.434785],[-70.645819,-33.434786],[-70.645819,-33.434787],[-70.645819,-33.434788],[-70.645818,-33.434788],[-70.645818,-33.434789],[-70.645818,-33.43479],[-70.645817,-33.434791],[-70.645817,-33.434792],[-70.645817,-33.434792],[-70.645816,-33.434793],[-70.645816,-33.434794],[-70.645815,-33.434795],[-70.645815,-33.434795],[-70.645814,-33.434796],[-70.645814,-33.434797],[-70.645813,-33.434797],[-70.645813,-33.434798],[-70.645812,-33.434799],[-70.645812,-33.434799],[-70.645811,-33.4348],[-70.64581,-33.434801],[-70.64581,-33.434801],[-70.645809,-33.434802],[-70.645809,-33.434803],[-70.645808,-33.434803],[-70.645807,-33.434804],[-70.645807,-33.434805],[-70.645806,-33.434805],[-70.645805,-33.434806],[-70.645805,-33.434806],[-70.645804,-33.434807],[-70.645803,-33.434808],[-70.645802,-33.434808],[-70.645802,-33.434809],[-70.645801,-33.434809],[-70.6458,-33.43481],[-70.645799,-33.43481],[-70.645799,-33.434811],[-70.645798,-33.434811],[-70.645797,-33.434812],[-70.645796,-33.434812],[-70.645795,-33.434813],[-70.645744,-33.434836],[-70.645478,-33.434959],[-70.64517,-33.435102],[-70.644803,-33.435271],[-70.643976,-33.435654],[-70.643877,-33.435629],[-70.643877,-33.435629],[-70.643876,-33.435629],[-70.643875,-33.435629],[-70.643875,-33.435628],[-70.643874,-33.435628],[-70.643873,-33.435628],[-70.643873,-33.435627],[-70.643872,-33.435627],[-70.643872,-33.435627],[-70.643871,-33.435626],[-70.643871,-33.435626],[-70.64387,-33.435625],[-70.64387,-33.435625],[-70.64387,-33.435624],[-70.643869,-33.435624],[-70.643869,-33.435623],[-70.643869,-33.435623],[-70.643868,-33.435622],[-70.643868,-33.435622],[-70.643868,-33.435621],[-70.643868,-33.435621],[-70.643868,-33.43562],[-70.643868,-33.43562],[-70.643867,-33.435619],[-70.643867,-33.435619],[-70.643867,-33.435618],[-70.643867,-33.435618],[-70.643867,-33.435617],[-70.643867,-33.435617],[-70.643867,-33.435616],[-70.643867,-33.435616],[-70.643867,-33.435615],[-70.643867,-33.435615],[-70.643867,-33.435614],[-70.643868,-33.435614],[-70.643868,-33.435613],[-70.643868,-33.435613],[-70.643868,-33.435612],[-70.643868,-33.435612],[-70.643868,-33.435612],[-70.643869,-33.435611],[-70.643869,-33.435611],[-70.643869,-33.43561],[-70.643869,-33.43561],[-70.64387,-33.435609],[-70.64387,-33.435609],[-70.64387,-33.435608],[-70.643871,-33.435608],[-70.643871,-33.435608],[-70.643872,-33.435607],[-70.643872,-33.435607],[-70.643872,-33.435607],[-70.643873,-33.435606],[-70.643873,-33.435606],[-70.643874,-33.435606],[-70.643874,-33.435605],[-70.643875,-33.435605],[-70.643875,-33.435605],[-70.643876,-33.435604],[-70.643876,-33.435604],[-70.643877,-33.435604],[-70.643877,-33.435604],[-70.643878,-33.435604],[-70.643878,-33.435603],[-70.643879,-33.435603],[-70.64388,-33.435603],[-70.64388,-33.435603],[-70.643881,-33.435603],[-70.643881,-33.435603],[-70.643882,-33.435603],[-70.643882,-33.435603],[-70.643883,-33.435603],[-70.643884,-33.435602],[-70.643884,-33.435602],[-70.643885,-33.435602],[-70.64388,-33.435582],[-70.643686,-33.435626],[-70.643595,-33.435647],[-70.643607,-33.435687],[-70.643615,-33.435703],[-70.643634,-33.435698],[-70.643643,-33.435699],[-70.643644,-33.435707],[-70.643607,-33.435767],[-70.643608,-33.435767],[-70.643608,-33.435768],[-70.643609,-33.435768],[-70.643609,-33.435768],[-70.64361,-33.435769],[-70.643611,-33.435769],[-70.643611,-33.43577],[-70.643612,-33.43577],[-70.643612,-33.43577],[-70.643613,-33.435771],[-70.643613,-33.435771],[-70.643614,-33.435772],[-70.643614,-33.435772],[-70.643615,-33.435773],[-70.643615,-33.435773],[-70.643615,-33.435774],[-70.643616,-33.435775],[-70.643616,-33.435775],[-70.643616,-33.435776],[-70.643617,-33.435776],[-70.643617,-33.435777],[-70.643617,-33.435778],[-70.643617,-33.435778],[-70.643618,-33.435779],[-70.643618,-33.435779],[-70.643618,-33.43578],[-70.643618,-33.435781],[-70.643618,-33.435781],[-70.643618,-33.435782],[-70.643618,-33.435783],[-70.643618,-33.435783],[-70.643618,-33.435784],[-70.643618,-33.435784],[-70.643618,-33.435785],[-70.643618,-33.435786],[-70.643612,-33.435804],[-70.643606,-33.435822],[-70.643606,-33.435822],[-70.643606,-33.435823],[-70.643606,-33.435823],[-70.643606,-33.435824],[-70.643605,-33.435824],[-70.643605,-33.435824],[-70.643604,-33.435825],[-70.643604,-33.435825],[-70.643603,-33.435825],[-70.643529,-33.43586],[-70.643416,-33.435911],[-70.643415,-33.435912],[-70.643415,-33.435912],[-70.643414,-33.435912],[-70.643413,-33.435913],[-70.643412,-33.435913],[-70.643411,-33.435913],[-70.64341,-33.435913],[-70.643409,-33.435914],[-70.643408,-33.435914],[-70.643407,-33.435914],[-70.643406,-33.435914],[-70.643405,-33.435914],[-70.643404,-33.435914],[-70.643404,-33.435914],[-70.643403,-33.435914],[-70.643402,-33.435914],[-70.643401,-33.435914],[-70.6434,-33.435914],[-70.643399,-33.435914],[-70.643398,-33.435914],[-70.643397,-33.435914],[-70.643396,-33.435913],[-70.643395,-33.435913],[-70.643394,-33.435913],[-70.643393,-33.435913],[-70.643392,-33.435912],[-70.643392,-33.435912],[-70.643391,-33.435912],[-70.64339,-33.435911],[-70.64339,-33.435911],[-70.643389,-33.435911],[-70.643389,-33.435911],[-70.643388,-33.43591],[-70.643388,-33.43591],[-70.643387,-33.43591],[-70.643387,-33.43591],[-70.643387,-33.435909],[-70.643386,-33.435909],[-70.643386,-33.435909],[-70.643385,-33.435909],[-70.643385,-33.435908],[-70.643384,-33.435908],[-70.643384,-33.435908],[-70.643384,-33.435907],[-70.643383,-33.435907],[-70.643383,-33.435907],[-70.643383,-33.435906],[-70.643382,-33.435906],[-70.643382,-33.435906],[-70.643381,-33.435905],[-70.643381,-33.435905],[-70.643381,-33.435905],[-70.64338,-33.435904],[-70.64338,-33.435904],[-70.64338,-33.435904],[-70.643379,-33.435903],[-70.643379,-33.435903],[-70.643379,-33.435902],[-70.643379,-33.435902],[-70.643378,-33.435902],[-70.643378,-33.435901],[-70.643378,-33.435901],[-70.643378,-33.435901],[-70.643377,-33.4359],[-70.643377,-33.4359],[-70.643377,-33.435899],[-70.643336,-33.435825],[-70.643284,-33.435719],[-70.643251,-33.435645],[-70.643181,-33.435453],[-70.643065,-33.435092],[-70.643018,-33.434947],[-70.642995,-33.434868],[-70.642981,-33.434805],[-70.64297,-33.434754],[-70.64297,-33.434753],[-70.64297,-33.434753],[-70.64297,-33.434752],[-70.64297,-33.434751],[-70.642971,-33.43475],[-70.642971,-33.434749],[-70.642971,-33.434748],[-70.642971,-33.434747],[-70.642972,-33.434747],[-70.642972,-33.434746],[-70.642972,-33.434745],[-70.642973,-33.434744],[-70.642973,-33.434743],[-70.642974,-33.434743],[-70.642974,-33.434742],[-70.642975,-33.434741],[-70.642975,-33.43474],[-70.642976,-33.43474],[-70.642977,-33.434739],[-70.642977,-33.434738],[-70.642978,-33.434738],[-70.642979,-33.434737],[-70.642979,-33.434736],[-70.64298,-33.434736],[-70.642981,-33.434735],[-70.642982,-33.434735],[-70.642983,-33.434734],[-70.642983,-33.434734]]]}},{"type":"Feature","properties":{"OBJECTID_1":14,"CUT":13101,"COMUNA":"SANTIAGO","AREA":49908.224296,"Nombre":"Parque Forestal","CATEGORIA":"PARQUE"},"geometry":{"type":"Polygon","coordinates":[[[-70.643078,-33.436],[-70.643026,-33.436015],[-70.641073,-33.43647],[-70.641065,-33.43647],[-70.640871,-33.436508],[-70.640675,-33.436554],[-70.640669,-33.436557],[-70.640666,-33.436566],[-70.640664,-33.436571],[-70.640656,-33.436575],[-70.640632,-33.43658],[-70.640613,-33.436586],[-70.640598,-33.436594],[-70.640584,-33.436604],[-70.640571,-33.436614],[-70.640561,-33.436629],[-70.640554,-33.436651],[-70.640552,-33.436676],[-70.640552,-33.436696],[-70.640556,-33.436723],[-70.640572,-33.436789],[-70.639438,-33.436795],[-70.639413,-33.436789],[-70.639401,-33.436783],[-70.639388,-33.43676],[-70.639355,-33.436631],[-70.639068,-33.435725],[-70.639063,-33.435702],[-70.639066,-33.435684],[-70.639075,-33.435668],[-70.639084,-33.435658],[-70.639103,-33.435645],[-70.639132,-33.435639],[-70.639153,-33.435635],[-70.642637,-33.434815],[-70.642672,-33.434805],[-70.642691,-33.434804],[-70.642714,-33.434804],[-70.642729,-33.43481],[-70.642736,-33.434815],[-70.642743,-33.43482],[-70.642748,-33.434831],[-70.642776,-33.434905],[-70.642855,-33.435133],[-70.642891,-33.435246],[-70.642942,-33.435406],[-70.64298,-33.435526],[-70.643013,-33.435622],[-70.643031,-33.435674],[-70.643053,-33.435725],[-70.643144,-33.435982],[-70.643078,-33.436]]]}},{"type":"Feature","properties":{"OBJECTID_1":15,"CUT":13101,"COMUNA":"SANTIAGO","AREA":27066.9357151,"Nombre":"Parque Forestal","CATEGORIA":"PARQUE"},"geometry":{"type":"Polygon","coordinates":[[[-70.63923,-33.436794],[-70.638817,-33.436795],[-70.637955,-33.436797],[-70.6376,-33.436796],[-70.63693,-33.436797],[-70.636878,-33.436801],[-70.63681,-33.436806],[-70.636774,-33.436809],[-70.636736,-33.436811],[-70.636632,-33.436811],[-70.636454,-33.436812],[-70.636089,-33.436813],[-70.635963,-33.436812],[-70.635814,-33.436808],[-70.635731,-33.436803],[-70.635581,-33.436793],[-70.635465,-33.436776],[-70.635457,-33.436773],[-70.635452,-33.436769],[-70.63545,-33.436763],[-70.63545,-33.436753],[-70.635464,-33.436711],[-70.635476,-33.436678],[-70.635496,-33.436592],[-70.635514,-33.436508],[-70.635524,-33.436492],[-70.635534,-33.436483],[-70.635549,-33.436475],[-70.635557,-33.436472],[-70.635605,-33.436463],[-70.635644,-33.436454],[-70.636665,-33.436221],[-70.638805,-33.435709],[-70.638846,-33.43571],[-70.638871,-33.435715],[-70.638888,-33.435724],[-70.638903,-33.435732],[-70.638921,-33.435744],[-70.638934,-33.43576],[-70.639259,-33.436765],[-70.639256,-33.436777],[-70.63925,-33.436786],[-70.639241,-33.436791],[-70.63923,-33.436794]]]}},{"type":"Feature","properties":{"OBJECTID_1":16,"CUT":13101,"COMUNA":"SANTIAGO","AREA":2310.5392763,"Nombre":"Parque Portales","CATEGORIA":"PARQUE"},"geometry":{"type":"Polygon","coordinates":[[[-70.676128,-33.443553],[-70.675483,-33.44348],[-70.675474,-33.443479],[-70.675465,-33.443477],[-70.675458,-33.443474],[-70.675452,-33.44347],[-70.675446,-33.443465],[-70.675441,-33.44346],[-70.675437,-33.443454],[-70.675434,-33.443447],[-70.675432,-33.443441],[-70.675431,-33.443434],[-70.675449,-33.443239],[-70.675454,-33.443233],[-70.675473,-33.443219],[-70.675481,-33.443217],[-70.676147,-33.443291],[-70.676285,-33.443306],[-70.676293,-33.44331],[-70.676304,-33.443322],[-70.676307,-33.443329],[-70.67629,-33.443518],[-70.676289,-33.443527],[-70.676287,-33.443535],[-70.676282,-33.443542],[-70.676278,-33.443548],[-70.676272,-33.443553],[-70.676266,-33.443556],[-70.676259,-33.44356],[-70.676251,-33.443562],[-70.676244,-33.443564],[-70.676235,-33.443564],[-70.676228,-33.443563],[-70.676128,-33.443553]]]}},{"type":"Feature","properties":{"OBJECTID_1":17,"CUT":13101,"COMUNA":"SANTIAGO","AREA":2554.17774128,"Nombre":"Parque Portales","CATEGORIA":"PARQUE"},"geometry":{"type":"Polygon","coordinates":[[[-70.677067,-33.443662],[-70.676447,-33.443592],[-70.676437,-33.443591],[-70.676429,-33.443588],[-70.676422,-33.443585],[-70.676416,-33.443582],[-70.67641,-33.443577],[-70.676405,-33.443572],[-70.676401,-33.443566],[-70.676398,-33.443559],[-70.676396,-33.443553],[-70.676395,-33.443546],[-70.676412,-33.443351],[-70.676418,-33.443345],[-70.676437,-33.443331],[-70.676444,-33.443329],[-70.677094,-33.443401],[-70.677338,-33.443428],[-70.677346,-33.443432],[-70.677357,-33.443444],[-70.67736,-33.443451],[-70.677344,-33.443641],[-70.677343,-33.443649],[-70.67734,-33.443658],[-70.677336,-33.443665],[-70.677331,-33.44367],[-70.677325,-33.443675],[-70.67732,-33.443679],[-70.677312,-33.443682],[-70.677304,-33.443685],[-70.677297,-33.443686],[-70.677288,-33.443686],[-70.677281,-33.443686],[-70.677067,-33.443662]]]}},{"type":"Feature","properties":{"OBJECTID_1":18,"CUT":13101,"COMUNA":"SANTIAGO","AREA":2549.0368438,"Nombre":"Parque Portales","CATEGORIA":"PARQUE"},"geometry":{"type":"Polygon","coordinates":[[[-70.678152,-33.443782],[-70.677505,-33.443709],[-70.677495,-33.443708],[-70.677487,-33.443706],[-70.67748,-33.443703],[-70.677474,-33.443699],[-70.677467,-33.443694],[-70.677463,-33.443689],[-70.677459,-33.443683],[-70.677455,-33.443676],[-70.677454,-33.44367],[-70.677453,-33.443663],[-70.67747,-33.443468],[-70.677476,-33.443462],[-70.677494,-33.443448],[-70.677502,-33.443446],[-70.678201,-33.443524],[-70.678393,-33.443549],[-70.678401,-33.443553],[-70.678412,-33.443565],[-70.678415,-33.443572],[-70.678399,-33.443762],[-70.678398,-33.44377],[-70.678395,-33.443779],[-70.678391,-33.443786],[-70.678386,-33.443792],[-70.678381,-33.443796],[-70.678375,-33.4438],[-70.678367,-33.443803],[-70.678359,-33.443806],[-70.678352,-33.443807],[-70.678343,-33.443808],[-70.678336,-33.443807],[-70.678152,-33.443782]]]}},{"type":"Feature","properties":{"OBJECTID_1":19,"CUT":13101,"COMUNA":"SANTIAGO","AREA":11628.7016566,"Nombre":"Parque Almagro","CATEGORIA":"PARQUE"},"geometry":{"type":"Polygon","coordinates":[[[-70.654137,-33.452606],[-70.654054,-33.452588],[-70.652975,-33.452366],[-70.65296,-33.452357],[-70.652946,-33.452345],[-70.652935,-33.452323],[-70.653054,-33.451577],[-70.653065,-33.451553],[-70.653072,-33.451544],[-70.653094,-33.451534],[-70.65367,-33.451603],[-70.654244,-33.45164],[-70.654261,-33.451643],[-70.654279,-33.451649],[-70.654294,-33.451662],[-70.654299,-33.451669],[-70.654263,-33.451951],[-70.654185,-33.452556],[-70.654175,-33.452592],[-70.654159,-33.452603],[-70.654137,-33.452606]]]}},{"type":"Feature","properties":{"OBJECTID_1":20,"CUT":13101,"COMUNA":"SANTIAGO","AREA":739110.328848,"Nombre":"Parque O\"Higgins","CATEGORIA":"PARQUE"},"geometry":{"type":"Polygon","coordinates":[[[-70.663544,-33.462188],[-70.663542,-33.462233],[-70.663541,-33.462267],[-70.663539,-33.462314],[-70.663499,-33.463218],[-70.663441,-33.464497],[-70.663429,-33.464751],[-70.663432,-33.464751],[-70.663411,-33.465229],[-70.663407,-33.465229],[-70.66339,-33.465641],[-70.663394,-33.465642],[-70.663372,-33.466083],[-70.663367,-33.466083],[-70.663345,-33.466549],[-70.66335,-33.46655],[-70.663328,-33.46699],[-70.663324,-33.466989],[-70.663302,-33.467456],[-70.663308,-33.467457],[-70.663294,-33.46775],[-70.663287,-33.467898],[-70.663282,-33.467898],[-70.663262,-33.468337],[-70.663265,-33.468337],[-70.663252,-33.468668],[-70.663245,-33.468804],[-70.66324,-33.468804],[-70.663218,-33.469243],[-70.663223,-33.469243],[-70.663199,-33.469714],[-70.663194,-33.469714],[-70.663177,-33.470158],[-70.663013,-33.470287],[-70.662735,-33.470267],[-70.662735,-33.470269],[-70.662374,-33.470248],[-70.662177,-33.470234],[-70.662177,-33.470237],[-70.661948,-33.470222],[-70.661655,-33.470205],[-70.661654,-33.470208],[-70.661047,-33.47017],[-70.660706,-33.470149],[-70.660576,-33.470141],[-70.660576,-33.470144],[-70.66005,-33.470114],[-70.659882,-33.469836],[-70.659723,-33.469828],[-70.65944,-33.469814],[-70.659326,-33.469807],[-70.659122,-33.470072],[-70.658499,-33.470034],[-70.657287,-33.469963],[-70.657206,-33.469877],[-70.657205,-33.469871],[-70.657253,-33.469155],[-70.657249,-33.469034],[-70.65725,-33.468918],[-70.65725,-33.46885],[-70.657249,-33.46875],[-70.657247,-33.468683],[-70.657248,-33.468657],[-70.657242,-33.468625],[-70.657236,-33.468599],[-70.657229,-33.468575],[-70.657219,-33.468546],[-70.657209,-33.468522],[-70.657198,-33.468498],[-70.657186,-33.468475],[-70.657171,-33.468447],[-70.657155,-33.468421],[-70.657143,-33.468402],[-70.657128,-33.468379],[-70.657115,-33.468361],[-70.657098,-33.468339],[-70.657071,-33.468306],[-70.657039,-33.468269],[-70.657016,-33.468243],[-70.656994,-33.468215],[-70.656973,-33.468188],[-70.656951,-33.468156],[-70.656931,-33.468124],[-70.656911,-33.468092],[-70.656893,-33.468058],[-70.656874,-33.468021],[-70.656858,-33.467987],[-70.656844,-33.467953],[-70.656831,-33.467918],[-70.656819,-33.467883],[-70.656808,-33.467847],[-70.656799,-33.467811],[-70.656791,-33.467773],[-70.656805,-33.467771],[-70.656816,-33.46777],[-70.656847,-33.467236],[-70.656872,-33.466701],[-70.656889,-33.466429],[-70.656889,-33.466425],[-70.656888,-33.466421],[-70.656843,-33.466256],[-70.656862,-33.465651],[-70.656875,-33.46557],[-70.656948,-33.465457],[-70.656977,-33.465421],[-70.657102,-33.465287],[-70.657192,-33.465194],[-70.657267,-33.465109],[-70.657336,-33.464982],[-70.657361,-33.464919],[-70.657382,-33.46491],[-70.657368,-33.464894],[-70.657373,-33.464877],[-70.657381,-33.464813],[-70.657364,-33.464732],[-70.657376,-33.464718],[-70.657357,-33.46471],[-70.657302,-33.464524],[-70.657265,-33.464406],[-70.657236,-33.464311],[-70.657182,-33.464137],[-70.657136,-33.463981],[-70.65713,-33.463948],[-70.657125,-33.463914],[-70.657123,-33.463898],[-70.657121,-33.463881],[-70.657119,-33.463847],[-70.657118,-33.463813],[-70.657119,-33.463779],[-70.657121,-33.463745],[-70.657136,-33.463598],[-70.657132,-33.463598],[-70.657144,-33.463488],[-70.657163,-33.463477],[-70.657148,-33.463462],[-70.657196,-33.463023],[-70.657202,-33.463023],[-70.657252,-33.462558],[-70.657247,-33.462558],[-70.657263,-33.462425],[-70.657281,-33.462243],[-70.657295,-33.462118],[-70.657299,-33.462118],[-70.65731,-33.462009],[-70.657333,-33.461679],[-70.657327,-33.461678],[-70.657352,-33.461209],[-70.657357,-33.461209],[-70.657364,-33.461101],[-70.657367,-33.461073],[-70.657377,-33.461018],[-70.657411,-33.460912],[-70.657571,-33.460832],[-70.657614,-33.460851],[-70.657632,-33.460822],[-70.657638,-33.460815],[-70.657695,-33.46072],[-70.657675,-33.460682],[-70.657673,-33.460683],[-70.657669,-33.460676],[-70.65767,-33.460673],[-70.657649,-33.460632],[-70.657643,-33.460623],[-70.657643,-33.460622],[-70.657637,-33.460597],[-70.657636,-33.460587],[-70.657635,-33.460574],[-70.657636,-33.460561],[-70.657638,-33.460548],[-70.657641,-33.460538],[-70.657645,-33.460527],[-70.657657,-33.460508],[-70.657685,-33.460482],[-70.657723,-33.460457],[-70.657722,-33.460455],[-70.657821,-33.460391],[-70.657823,-33.460393],[-70.657873,-33.460359],[-70.657872,-33.460356],[-70.657871,-33.460356],[-70.657835,-33.460027],[-70.657801,-33.460006],[-70.65779,-33.459914],[-70.657766,-33.459501],[-70.657771,-33.45939],[-70.657777,-33.45917],[-70.657783,-33.459005],[-70.657791,-33.458895],[-70.657792,-33.458868],[-70.657742,-33.458346],[-70.657812,-33.458288],[-70.658746,-33.458351],[-70.658786,-33.458358],[-70.659267,-33.458394],[-70.659268,-33.458389],[-70.659759,-33.458421],[-70.659913,-33.458533],[-70.659955,-33.458558],[-70.66004,-33.4586],[-70.660187,-33.458639],[-70.660187,-33.458649],[-70.66019,-33.45866],[-70.660195,-33.458669],[-70.660202,-33.458678],[-70.660211,-33.458684],[-70.66022,-33.458689],[-70.66023,-33.458693],[-70.660243,-33.458695],[-70.660256,-33.458695],[-70.660269,-33.458692],[-70.660278,-33.458688],[-70.660288,-33.458682],[-70.660296,-33.458675],[-70.660303,-33.458667],[-70.660307,-33.458658],[-70.66031,-33.458647],[-70.660458,-33.458621],[-70.66053,-33.458605],[-70.660594,-33.458576],[-70.660632,-33.458558],[-70.660768,-33.458486],[-70.661451,-33.45853],[-70.661451,-33.458534],[-70.661973,-33.458568],[-70.661974,-33.458563],[-70.663375,-33.458656],[-70.663412,-33.458702],[-70.663407,-33.45875],[-70.66346,-33.458809],[-70.663518,-33.458874],[-70.663561,-33.458921],[-70.663671,-33.458924],[-70.663713,-33.458967],[-70.663707,-33.459078],[-70.663699,-33.459142],[-70.66368,-33.459517],[-70.663687,-33.459517],[-70.663672,-33.459779],[-70.663663,-33.459949],[-70.66366,-33.459986],[-70.663657,-33.459986],[-70.663653,-33.460047],[-70.663652,-33.460066],[-70.663643,-33.460237],[-70.663626,-33.460582],[-70.663626,-33.4606],[-70.663624,-33.460618],[-70.663628,-33.460619],[-70.66362,-33.460783],[-70.663609,-33.461016],[-70.663575,-33.461638],[-70.663551,-33.462131],[-70.663547,-33.462131],[-70.663544,-33.462188]]]}},{"type":"Feature","properties":{"OBJECTID_1":21,"CUT":13101,"COMUNA":"SANTIAGO","AREA":11724.5741002,"Nombre":"Parque Centenario","CATEGORIA":"PARQUE"},"geometry":{"type":"Polygon","coordinates":[[[-70.671438,-33.475898],[-70.671455,-33.475899],[-70.671458,-33.475899],[-70.671465,-33.4759],[-70.67147,-33.475902],[-70.671475,-33.475904],[-70.671479,-33.475907],[-70.671483,-33.475911],[-70.671485,-33.475914],[-70.671486,-33.475917],[-70.671486,-33.475921],[-70.671484,-33.47608],[-70.664845,-33.47594],[-70.664847,-33.475805],[-70.664848,-33.4758],[-70.66485,-33.475796],[-70.664852,-33.475791],[-70.664857,-33.475787],[-70.664861,-33.475784],[-70.664867,-33.475781],[-70.664873,-33.47578],[-70.664881,-33.475779],[-70.671438,-33.475898]]]}},{"type":"Feature","properties":{"OBJECTID_1":22,"CUT":13101,"COMUNA":"SANTIAGO","AREA":13778.1998608,"Nombre":"Parque Sanjon de la Aguada","CATEGORIA":"PARQUE"},"geometry":{"type":"Polygon","coordinates":[[[-70.680626,-33.476526],[-70.680614,-33.476734],[-70.679649,-33.476702],[-70.679123,-33.476683],[-70.678395,-33.47672],[-70.677581,-33.476767],[-70.676735,-33.476806],[-70.676114,-33.476823],[-70.675696,-33.47682],[-70.675267,-33.47679],[-70.673645,-33.476615],[-70.673356,-33.476601],[-70.672906,-33.476616],[-70.672295,-33.476625],[-70.671663,-33.476652],[-70.671632,-33.476649],[-70.67161,-33.476631],[-70.671601,-33.476592],[-70.671592,-33.476257],[-70.671882,-33.476298],[-70.672087,-33.476394],[-70.672304,-33.476517],[-70.672369,-33.476534],[-70.673182,-33.476487],[-70.673568,-33.476481],[-70.673772,-33.476487],[-70.674309,-33.476543],[-70.674889,-33.476643],[-70.675448,-33.476725],[-70.675673,-33.476749],[-70.675823,-33.476728],[-70.676412,-33.476675],[-70.67669,-33.476689],[-70.677215,-33.476673],[-70.677697,-33.47663],[-70.678039,-33.476599],[-70.678788,-33.476525],[-70.679216,-33.476501],[-70.679785,-33.476511],[-70.680053,-33.476526],[-70.680626,-33.476526]]]}},{"type":"Feature","properties":{"OBJECTID_1":23,"CUT":13101,"COMUNA":"SANTIAGO","AREA":65762.9578264,"Nombre":"Parque Cerro Santa Lucía","CATEGORIA":"PARQUE"},"geometry":{"type":"Polygon","coordinates":[[[-70.643962,-33.442031],[-70.643959,-33.442031],[-70.643957,-33.442031],[-70.643954,-33.442031],[-70.643952,-33.442031],[-70.643949,-33.442031],[-70.643947,-33.442031],[-70.643944,-33.442031],[-70.643942,-33.442031],[-70.643939,-33.442031],[-70.643937,-33.442031],[-70.643934,-33.442031],[-70.643932,-33.44203],[-70.643927,-33.44203],[-70.643925,-33.44203],[-70.643923,-33.442029],[-70.643922,-33.442029],[-70.64392,-33.442029],[-70.643918,-33.442029],[-70.643917,-33.442028],[-70.643915,-33.442028],[-70.643913,-33.442027],[-70.643912,-33.442027],[-70.64391,-33.442027],[-70.643908,-33.442026],[-70.643906,-33.442026],[-70.643898,-33.442023],[-70.643893,-33.442022],[-70.643883,-33.442019],[-70.643868,-33.442014],[-70.643866,-33.442014],[-70.643864,-33.442013],[-70.643862,-33.442012],[-70.643859,-33.442011],[-70.643825,-33.442],[-70.643824,-33.442],[-70.643822,-33.442],[-70.643821,-33.441999],[-70.64382,-33.441999],[-70.643818,-33.441999],[-70.643817,-33.441998],[-70.643816,-33.441998],[-70.643814,-33.441998],[-70.643813,-33.441997],[-70.643812,-33.441997],[-70.64381,-33.441996],[-70.643809,-33.441996],[-70.643808,-33.441996],[-70.643807,-33.441995],[-70.643805,-33.441995],[-70.643804,-33.441994],[-70.643803,-33.441993],[-70.643802,-33.441993],[-70.6438,-33.441992],[-70.643799,-33.441992],[-70.643798,-33.441991],[-70.643797,-33.441991],[-70.643796,-33.44199],[-70.643795,-33.441989],[-70.643793,-33.441989],[-70.643791,-33.441987],[-70.64379,-33.441986],[-70.643788,-33.441985],[-70.643786,-33.441984],[-70.643784,-33.441983],[-70.643783,-33.441982],[-70.643781,-33.441981],[-70.643779,-33.44198],[-70.643778,-33.441979],[-70.643775,-33.441977],[-70.643775,-33.441977],[-70.643774,-33.441976],[-70.643774,-33.441976],[-70.643774,-33.441976],[-70.643774,-33.441976],[-70.643774,-33.441976],[-70.643773,-33.441976],[-70.643773,-33.441975],[-70.643773,-33.441975],[-70.643773,-33.441975],[-70.643773,-33.441975],[-70.643772,-33.441975],[-70.643772,-33.441974],[-70.643772,-33.441974],[-70.643772,-33.441974],[-70.643772,-33.441974],[-70.643771,-33.441973],[-70.643771,-33.441973],[-70.643771,-33.441973],[-70.643771,-33.441973],[-70.643771,-33.441973],[-70.643771,-33.441972],[-70.64377,-33.441972],[-70.64377,-33.441972],[-70.64377,-33.441972],[-70.64377,-33.441971],[-70.64377,-33.441971],[-70.64377,-33.441971],[-70.64377,-33.441971],[-70.64377,-33.44197],[-70.64377,-33.44197],[-70.643769,-33.44197],[-70.643769,-33.44197],[-70.643769,-33.441969],[-70.643769,-33.441969],[-70.643769,-33.441969],[-70.643769,-33.441969],[-70.643769,-33.441968],[-70.643769,-33.441968],[-70.643769,-33.441968],[-70.643769,-33.441968],[-70.643769,-33.441967],[-70.643769,-33.441967],[-70.643769,-33.441967],[-70.643769,-33.441966],[-70.643769,-33.441966],[-70.643769,-33.441965],[-70.643769,-33.441964],[-70.643769,-33.441964],[-70.643769,-33.441963],[-70.643769,-33.441963],[-70.643769,-33.441962],[-70.643769,-33.441961],[-70.64377,-33.441961],[-70.64377,-33.44196],[-70.64377,-33.44196],[-70.64377,-33.44196],[-70.64377,-33.44196],[-70.64377,-33.44196],[-70.64377,-33.44196],[-70.64377,-33.44196],[-70.64377,-33.441959],[-70.64377,-33.441959],[-70.64377,-33.441959],[-70.64377,-33.441959],[-70.64377,-33.441959],[-70.64377,-33.441959],[-70.64377,-33.441959],[-70.64377,-33.441959],[-70.64377,-33.441959],[-70.64377,-33.441959],[-70.64377,-33.441958],[-70.643771,-33.441958],[-70.643771,-33.441958],[-70.643758,-33.441929],[-70.643756,-33.441929],[-70.643755,-33.441928],[-70.643732,-33.441933],[-70.643731,-33.441933],[-70.64373,-33.441933],[-70.643729,-33.441934],[-70.643728,-33.441934],[-70.643727,-33.441934],[-70.643726,-33.441934],[-70.643725,-33.441934],[-70.643725,-33.441934],[-70.643724,-33.441934],[-70.643723,-33.441934],[-70.643722,-33.441934],[-70.643721,-33.441934],[-70.64372,-33.441934],[-70.643719,-33.441934],[-70.643718,-33.441934],[-70.643717,-33.441934],[-70.643716,-33.441934],[-70.643715,-33.441934],[-70.643714,-33.441934],[-70.643714,-33.441934],[-70.643713,-33.441934],[-70.643712,-33.441934],[-70.64371,-33.441934],[-70.643704,-33.441933],[-70.643699,-33.441932],[-70.643689,-33.44193],[-70.643526,-33.441859],[-70.643517,-33.441855],[-70.643506,-33.441851],[-70.643505,-33.441852],[-70.643084,-33.441672],[-70.643046,-33.441655],[-70.643,-33.441632],[-70.642946,-33.441604],[-70.642874,-33.441564],[-70.64281,-33.441524],[-70.642761,-33.441495],[-70.64272,-33.441467],[-70.642702,-33.441455],[-70.642536,-33.441339],[-70.642163,-33.441077],[-70.642104,-33.44104],[-70.642105,-33.441038],[-70.642123,-33.441019],[-70.642081,-33.440992],[-70.64208,-33.440992],[-70.642064,-33.44098],[-70.642064,-33.440981],[-70.642021,-33.440953],[-70.642003,-33.440972],[-70.642002,-33.440974],[-70.641949,-33.440939],[-70.64195,-33.440938],[-70.641948,-33.440936],[-70.641951,-33.440934],[-70.641953,-33.440931],[-70.641956,-33.440929],[-70.641958,-33.440927],[-70.64196,-33.440924],[-70.641962,-33.440922],[-70.641964,-33.440919],[-70.641966,-33.440916],[-70.641967,-33.440916],[-70.641968,-33.440914],[-70.64197,-33.440911],[-70.641972,-33.440909],[-70.641974,-33.440906],[-70.641976,-33.440903],[-70.641977,-33.440901],[-70.641979,-33.440898],[-70.641981,-33.440895],[-70.641981,-33.440895],[-70.641982,-33.440893],[-70.641983,-33.440891],[-70.641983,-33.44089],[-70.641984,-33.440888],[-70.641984,-33.440887],[-70.641985,-33.440885],[-70.641985,-33.440884],[-70.641985,-33.440882],[-70.641986,-33.440881],[-70.641986,-33.440879],[-70.641986,-33.440878],[-70.641986,-33.440876],[-70.641987,-33.440874],[-70.641987,-33.440873],[-70.641987,-33.440871],[-70.641987,-33.44087],[-70.641987,-33.440868],[-70.641987,-33.440867],[-70.641987,-33.440865],[-70.641987,-33.440864],[-70.641987,-33.440862],[-70.641987,-33.440861],[-70.641987,-33.440859],[-70.641987,-33.440858],[-70.641986,-33.440856],[-70.641986,-33.440855],[-70.641986,-33.440853],[-70.641986,-33.440852],[-70.641985,-33.44085],[-70.641985,-33.440849],[-70.641985,-33.440847],[-70.641984,-33.440846],[-70.641984,-33.440844],[-70.641983,-33.440843],[-70.641983,-33.440841],[-70.641982,-33.440839],[-70.641982,-33.440838],[-70.641981,-33.440836],[-70.64198,-33.440835],[-70.64198,-33.440833],[-70.641979,-33.440832],[-70.641978,-33.44083],[-70.641977,-33.440829],[-70.641977,-33.440827],[-70.641976,-33.440826],[-70.641975,-33.440825],[-70.641974,-33.440823],[-70.641973,-33.440822],[-70.641972,-33.440821],[-70.641971,-33.440819],[-70.64197,-33.440818],[-70.642012,-33.440779],[-70.642071,-33.440726],[-70.642073,-33.440725],[-70.642074,-33.440724],[-70.642076,-33.440723],[-70.642078,-33.440723],[-70.642079,-33.440722],[-70.642081,-33.440722],[-70.642083,-33.440721],[-70.642083,-33.440721],[-70.642147,-33.44066],[-70.642147,-33.44066],[-70.642147,-33.44066],[-70.642147,-33.44066],[-70.642147,-33.440659],[-70.642147,-33.440659],[-70.642147,-33.440659],[-70.642147,-33.440659],[-70.642147,-33.440658],[-70.642147,-33.440658],[-70.642147,-33.440658],[-70.642147,-33.440658],[-70.642147,-33.440658],[-70.642147,-33.440657],[-70.642147,-33.440657],[-70.642147,-33.440657],[-70.642147,-33.440657],[-70.642147,-33.440656],[-70.642147,-33.440656],[-70.642148,-33.440656],[-70.642148,-33.440656],[-70.642148,-33.440655],[-70.642148,-33.440655],[-70.642148,-33.440655],[-70.642148,-33.440655],[-70.642148,-33.440655],[-70.642148,-33.440654],[-70.642149,-33.440654],[-70.642217,-33.440591],[-70.642241,-33.44057],[-70.642244,-33.440568],[-70.642247,-33.440565],[-70.64225,-33.440563],[-70.642256,-33.440536],[-70.642256,-33.440536],[-70.642257,-33.440537],[-70.642258,-33.440537],[-70.642259,-33.440537],[-70.64226,-33.440537],[-70.642261,-33.440537],[-70.642262,-33.440537],[-70.642263,-33.440538],[-70.642362,-33.440554],[-70.642363,-33.44055],[-70.642387,-33.440554],[-70.642388,-33.44055],[-70.642389,-33.440542],[-70.642393,-33.440522],[-70.642395,-33.440515],[-70.642401,-33.440483],[-70.642407,-33.440442],[-70.642408,-33.440421],[-70.642412,-33.440395],[-70.642415,-33.440395],[-70.642419,-33.440395],[-70.642434,-33.440396],[-70.642433,-33.440344],[-70.642433,-33.440316],[-70.642426,-33.440316],[-70.642425,-33.440319],[-70.642421,-33.440318],[-70.64242,-33.440316],[-70.642415,-33.440316],[-70.642414,-33.440292],[-70.64241,-33.440028],[-70.642411,-33.440011],[-70.642409,-33.43985],[-70.642408,-33.43985],[-70.642407,-33.439769],[-70.642404,-33.439668],[-70.642406,-33.439637],[-70.642405,-33.439548],[-70.642405,-33.439542],[-70.642421,-33.439542],[-70.642421,-33.439503],[-70.642421,-33.439503],[-70.642416,-33.439477],[-70.642414,-33.439477],[-70.642405,-33.439475],[-70.64241,-33.439459],[-70.642414,-33.439443],[-70.642431,-33.439383],[-70.642448,-33.439323],[-70.642481,-33.439207],[-70.642481,-33.439207],[-70.642481,-33.439206],[-70.642481,-33.439206],[-70.642482,-33.439206],[-70.642482,-33.439206],[-70.642482,-33.439206],[-70.642482,-33.439206],[-70.642482,-33.439206],[-70.642482,-33.439206],[-70.642482,-33.439206],[-70.642482,-33.439206],[-70.642482,-33.439206],[-70.642482,-33.439206],[-70.642482,-33.439206],[-70.642482,-33.439206],[-70.642482,-33.439206],[-70.642483,-33.439206],[-70.642483,-33.439206],[-70.642483,-33.439205],[-70.642483,-33.439205],[-70.642483,-33.439205],[-70.642483,-33.439205],[-70.642483,-33.439205],[-70.642483,-33.439205],[-70.642483,-33.439205],[-70.642483,-33.439205],[-70.642484,-33.439205],[-70.642484,-33.439205],[-70.642484,-33.439205],[-70.642484,-33.439205],[-70.642484,-33.439205],[-70.642484,-33.439205],[-70.642484,-33.439205],[-70.642484,-33.439205],[-70.642484,-33.439205],[-70.642484,-33.439205],[-70.642485,-33.439205],[-70.642485,-33.439205],[-70.642485,-33.439205],[-70.642485,-33.439205],[-70.642485,-33.439205],[-70.642485,-33.439205],[-70.642485,-33.439205],[-70.642485,-33.439205],[-70.642485,-33.439205],[-70.642486,-33.439205],[-70.642486,-33.439205],[-70.642486,-33.439205],[-70.642486,-33.439205],[-70.642486,-33.439205],[-70.642486,-33.439205],[-70.642486,-33.439205],[-70.642486,-33.439205],[-70.642486,-33.439205],[-70.642486,-33.439205],[-70.642487,-33.439205],[-70.642487,-33.439205],[-70.642487,-33.439205],[-70.642487,-33.439205],[-70.642487,-33.439205],[-70.642487,-33.439205],[-70.642487,-33.439205],[-70.642487,-33.439205],[-70.642487,-33.439205],[-70.642488,-33.439205],[-70.642488,-33.439205],[-70.642488,-33.439205],[-70.642491,-33.439197],[-70.6425,-33.439163],[-70.642528,-33.439062],[-70.642598,-33.438813],[-70.6427,-33.438475],[-70.642727,-33.438426],[-70.642729,-33.438422],[-70.642732,-33.438417],[-70.642734,-33.438413],[-70.642736,-33.438408],[-70.642739,-33.438404],[-70.642742,-33.4384],[-70.642744,-33.438396],[-70.642747,-33.438391],[-70.64275,-33.438387],[-70.642753,-33.438383],[-70.642758,-33.438376],[-70.642775,-33.438355],[-70.642793,-33.438333],[-70.642811,-33.438312],[-70.64283,-33.438291],[-70.642849,-33.43827],[-70.642868,-33.43825],[-70.642888,-33.43823],[-70.642908,-33.43821],[-70.642942,-33.438179],[-70.642997,-33.438132],[-70.643071,-33.438068],[-70.643071,-33.438067],[-70.643132,-33.438013],[-70.643132,-33.438013],[-70.643148,-33.437999],[-70.643149,-33.437998],[-70.64315,-33.437997],[-70.643152,-33.437996],[-70.643153,-33.437995],[-70.643154,-33.437995],[-70.643156,-33.437994],[-70.643157,-33.437993],[-70.643158,-33.437992],[-70.64316,-33.437991],[-70.643161,-33.43799],[-70.643162,-33.437989],[-70.643164,-33.437989],[-70.643165,-33.437988],[-70.643167,-33.437987],[-70.643168,-33.437986],[-70.64317,-33.437986],[-70.643171,-33.437985],[-70.643172,-33.437984],[-70.643174,-33.437984],[-70.643176,-33.437983],[-70.643177,-33.437983],[-70.643179,-33.437982],[-70.64318,-33.437982],[-70.643182,-33.437981],[-70.643183,-33.43798],[-70.643185,-33.43798],[-70.643186,-33.43798],[-70.643188,-33.437979],[-70.64319,-33.437979],[-70.643191,-33.437978],[-70.643193,-33.437978],[-70.643195,-33.437978],[-70.643196,-33.437977],[-70.643198,-33.437977],[-70.6432,-33.437977],[-70.643201,-33.437977],[-70.643203,-33.437976],[-70.643205,-33.437976],[-70.643206,-33.437976],[-70.643208,-33.437976],[-70.64321,-33.437976],[-70.643211,-33.437976],[-70.643213,-33.437976],[-70.643215,-33.437976],[-70.643216,-33.437976],[-70.643218,-33.437976],[-70.64322,-33.437976],[-70.643221,-33.437976],[-70.643223,-33.437976],[-70.643226,-33.437976],[-70.643226,-33.437974],[-70.643227,-33.437971],[-70.643283,-33.437984],[-70.643283,-33.437985],[-70.643285,-33.437986],[-70.643314,-33.438007],[-70.643335,-33.438037],[-70.643379,-33.438109],[-70.643359,-33.438114],[-70.643376,-33.438144],[-70.643395,-33.438136],[-70.643408,-33.438159],[-70.643474,-33.438287],[-70.643481,-33.438301],[-70.643513,-33.438361],[-70.64352,-33.438375],[-70.643544,-33.43842],[-70.643551,-33.438433],[-70.643593,-33.438515],[-70.6436,-33.438528],[-70.643615,-33.438557],[-70.643622,-33.43857],[-70.643631,-33.438588],[-70.643664,-33.438651],[-70.643672,-33.438665],[-70.643713,-33.438743],[-70.64372,-33.438757],[-70.643762,-33.438838],[-70.643769,-33.438851],[-70.64381,-33.43893],[-70.643812,-33.438933],[-70.643814,-33.438933],[-70.643856,-33.43902],[-70.643854,-33.439021],[-70.643857,-33.439027],[-70.64387,-33.439054],[-70.643877,-33.439067],[-70.643936,-33.439181],[-70.643942,-33.439194],[-70.643955,-33.439218],[-70.643962,-33.439231],[-70.643976,-33.439259],[-70.643976,-33.439259],[-70.643977,-33.439259],[-70.643977,-33.43926],[-70.643977,-33.43926],[-70.643977,-33.43926],[-70.643977,-33.439261],[-70.643977,-33.439261],[-70.643977,-33.439261],[-70.643977,-33.439262],[-70.643977,-33.439262],[-70.643978,-33.439262],[-70.643978,-33.439263],[-70.643978,-33.439263],[-70.643978,-33.439263],[-70.643978,-33.439264],[-70.643978,-33.439264],[-70.643978,-33.439264],[-70.643978,-33.439265],[-70.643978,-33.439265],[-70.643978,-33.439265],[-70.643978,-33.439266],[-70.643978,-33.439266],[-70.643979,-33.439266],[-70.643994,-33.439295],[-70.643996,-33.439293],[-70.643998,-33.439289],[-70.644014,-33.439322],[-70.644016,-33.439325],[-70.64414,-33.43957],[-70.644132,-33.439573],[-70.644143,-33.439594],[-70.64415,-33.439592],[-70.644192,-33.439673],[-70.644199,-33.439688],[-70.644197,-33.439689],[-70.644209,-33.439712],[-70.644212,-33.439714],[-70.644252,-33.439791],[-70.644322,-33.439923],[-70.644329,-33.439922],[-70.644352,-33.439965],[-70.644343,-33.439968],[-70.6444,-33.440081],[-70.6444,-33.440082],[-70.644401,-33.440083],[-70.644401,-33.440084],[-70.644401,-33.440085],[-70.644401,-33.440086],[-70.644401,-33.440087],[-70.644401,-33.440089],[-70.644401,-33.44009],[-70.6444,-33.440091],[-70.6444,-33.440091],[-70.644413,-33.44011],[-70.644428,-33.440131],[-70.644439,-33.440152],[-70.644469,-33.440214],[-70.644469,-33.440214],[-70.644468,-33.440216],[-70.644474,-33.440233],[-70.644475,-33.440234],[-70.644477,-33.440235],[-70.644498,-33.440261],[-70.644555,-33.440396],[-70.644557,-33.440402],[-70.644571,-33.440452],[-70.644591,-33.440533],[-70.644603,-33.440584],[-70.644604,-33.44059],[-70.644604,-33.440591],[-70.644662,-33.44083],[-70.644662,-33.44083],[-70.644665,-33.440847],[-70.644666,-33.440846],[-70.644668,-33.440856],[-70.64467,-33.440862],[-70.644671,-33.440868],[-70.644672,-33.440873],[-70.644674,-33.440884],[-70.644689,-33.440886],[-70.644689,-33.440886],[-70.644693,-33.440886],[-70.644692,-33.440898],[-70.644682,-33.440947],[-70.644617,-33.44116],[-70.644616,-33.441165],[-70.644615,-33.441167],[-70.644614,-33.441169],[-70.644612,-33.441173],[-70.64461,-33.441177],[-70.644586,-33.441217],[-70.644473,-33.441403],[-70.644458,-33.441429],[-70.644385,-33.44155],[-70.644355,-33.441599],[-70.644296,-33.441695],[-70.644216,-33.441827],[-70.644216,-33.441827],[-70.644215,-33.441829],[-70.644199,-33.441858],[-70.644198,-33.44186],[-70.644126,-33.441975],[-70.644122,-33.441981],[-70.644117,-33.441987],[-70.644113,-33.441993],[-70.644108,-33.441999],[-70.644104,-33.442006],[-70.644099,-33.442011],[-70.644093,-33.442019],[-70.64408,-33.442033],[-70.644079,-33.442036],[-70.64407,-33.442046],[-70.644065,-33.442051],[-70.644062,-33.442056],[-70.644061,-33.442057],[-70.644056,-33.442062],[-70.644051,-33.442068],[-70.644049,-33.442071],[-70.644048,-33.442071],[-70.644046,-33.44207],[-70.644044,-33.44207],[-70.644042,-33.44207],[-70.64404,-33.44207],[-70.644037,-33.442069],[-70.644035,-33.442069],[-70.644033,-33.442069],[-70.644031,-33.442068],[-70.644029,-33.442068],[-70.644027,-33.442067],[-70.644024,-33.442067],[-70.644022,-33.442066],[-70.64402,-33.442066],[-70.644018,-33.442065],[-70.644016,-33.442065],[-70.644014,-33.442064],[-70.644012,-33.442063],[-70.64401,-33.442063],[-70.644008,-33.442062],[-70.644006,-33.442061],[-70.644004,-33.44206],[-70.644002,-33.44206],[-70.644,-33.442059],[-70.643998,-33.442058],[-70.643995,-33.442056],[-70.643994,-33.442056],[-70.643993,-33.442056],[-70.643991,-33.442055],[-70.64399,-33.442055],[-70.643989,-33.442054],[-70.643988,-33.442053],[-70.643987,-33.442053],[-70.643986,-33.442052],[-70.643984,-33.442052],[-70.643983,-33.442051],[-70.643982,-33.44205],[-70.643981,-33.44205],[-70.64398,-33.442049],[-70.643979,-33.442048],[-70.643978,-33.442048],[-70.643977,-33.442047],[-70.643976,-33.442046],[-70.643975,-33.442046],[-70.643974,-33.442045],[-70.643973,-33.442044],[-70.643972,-33.442043],[-70.643971,-33.442042],[-70.64397,-33.442042],[-70.643969,-33.442041],[-70.643968,-33.44204],[-70.643967,-33.442039],[-70.643966,-33.442038],[-70.643966,-33.442038],[-70.643966,-33.442037],[-70.643966,-33.442037],[-70.643965,-33.442037],[-70.643965,-33.442037],[-70.643965,-33.442036],[-70.643965,-33.442036],[-70.643964,-33.442036],[-70.643964,-33.442035],[-70.643964,-33.442035],[-70.643964,-33.442035],[-70.643964,-33.442034],[-70.643963,-33.442034],[-70.643963,-33.442034],[-70.643963,-33.442033],[-70.643963,-33.442033],[-70.643963,-33.442033],[-70.643962,-33.442032],[-70.643962,-33.442032],[-70.643962,-33.442031],[-70.643962,-33.442031],[-70.643962,-33.442031]]]}},{"type":"Feature","properties":{"OBJECTID_1":24,"CUT":13101,"COMUNA":"SANTIAGO","AREA":2555.59704047,"Nombre":"Parque Portales","CATEGORIA":"PARQUE"},"geometry":{"type":"Polygon","coordinates":[[[-70.679205,-33.443917],[-70.678675,-33.443856],[-70.678562,-33.443849],[-70.678553,-33.443847],[-70.678545,-33.443844],[-70.678539,-33.443841],[-70.678533,-33.443837],[-70.678527,-33.443832],[-70.678523,-33.443827],[-70.67852,-33.443822],[-70.678518,-33.443816],[-70.678517,-33.44381],[-70.678517,-33.443803],[-70.678527,-33.443702],[-70.678537,-33.4436],[-70.67854,-33.443594],[-70.678557,-33.443583],[-70.678564,-33.443581],[-70.679257,-33.443661],[-70.679466,-33.443686],[-70.679475,-33.443691],[-70.67948,-33.443696],[-70.679483,-33.443701],[-70.679486,-33.443707],[-70.67948,-33.443777],[-70.679468,-33.443897],[-70.679466,-33.443903],[-70.679462,-33.44391],[-70.679458,-33.443917],[-70.679453,-33.443922],[-70.679447,-33.443927],[-70.67944,-33.443932],[-70.679433,-33.443935],[-70.679426,-33.443938],[-70.679418,-33.44394],[-70.67941,-33.443942],[-70.679205,-33.443917]]]}},{"type":"Feature","properties":{"OBJECTID_1":25,"CUT":13101,"COMUNA":"SANTIAGO","AREA":16787.535706,"Nombre":"Parque Almagro","CATEGORIA":"PARQUE"},"geometry":{"type":"Polygon","coordinates":[[[-70.652703,-33.452276],[-70.652665,-33.452271],[-70.650585,-33.45179],[-70.650534,-33.451772],[-70.650522,-33.45176],[-70.65051,-33.451747],[-70.650498,-33.451726],[-70.650489,-33.451698],[-70.650551,-33.451261],[-70.650559,-33.451243],[-70.650575,-33.45123],[-70.650594,-33.45122],[-70.65063,-33.451214],[-70.652864,-33.451481],[-70.652887,-33.451494],[-70.652895,-33.451504],[-70.652903,-33.451516],[-70.652903,-33.451534],[-70.652782,-33.452228],[-70.652764,-33.452255],[-70.652733,-33.452273],[-70.652703,-33.452276]]]}}]}