{
"type": "FeatureCollection",
"name": "AMB_POL_SECTOR_RECICLAJE",
"features": [
{ "type": "Feature", "properties": { "Id": 0, "Area": 3679876.1682000002, "Dia": "Lunes" }, "geometry": { "type": "Polygon", "coordinates": [ [ [ -70.648978, -33.433925 ], [ -70.648778, -33.433316 ], [ -70.649302, -33.433216 ], [ -70.652977, -33.432333 ], [ -70.653417, -33.432919 ], [ -70.655112, -33.432527 ], [ -70.658615, -33.43166 ], [ -70.662291, -33.431269 ], [ -70.664187, -33.430832 ], [ -70.668697, -33.429426 ], [ -70.675475, -33.427211 ], [ -70.676623, -33.426614 ], [ -70.67723, -33.426558 ], [ -70.677923, -33.426758 ], [ -70.678483, -33.427147 ], [ -70.679265, -33.427494 ], [ -70.67995, -33.428054 ], [ -70.680369, -33.428538 ], [ -70.68056, -33.429082 ], [ -70.680608, -33.429851 ], [ -70.680586, -33.431733 ], [ -70.680375, -33.434622 ], [ -70.680261, -33.435905 ], [ -70.680131, -33.437481 ], [ -70.679035, -33.437409 ], [ -70.677964, -33.437336 ], [ -70.676913, -33.437248 ], [ -70.675944, -33.437198 ], [ -70.674522, -33.4371 ], [ -70.673648, -33.43704 ], [ -70.672745, -33.43698 ], [ -70.671869, -33.43692 ], [ -70.67072, -33.436845 ], [ -70.669888, -33.436784 ], [ -70.668836, -33.436712 ], [ -70.668752, -33.43772 ], [ -70.668602, -33.439228 ], [ -70.668552, -33.440377 ], [ -70.668292, -33.441535 ], [ -70.668032, -33.442638 ], [ -70.666467, -33.442376 ], [ -70.665091, -33.442236 ], [ -70.663482, -33.442083 ], [ -70.661989, -33.44194 ], [ -70.66042, -33.441783 ], [ -70.660991, -33.444059 ], [ -70.661, -33.44421 ], [ -70.660971, -33.444549 ], [ -70.660853, -33.445078 ], [ -70.660639, -33.446014 ], [ -70.660602, -33.446523 ], [ -70.658428, -33.44603 ], [ -70.655434, -33.445277 ], [ -70.653842, -33.444839 ], [ -70.651925, -33.444348 ], [ -70.651308, -33.444155 ], [ -70.650601, -33.443978 ], [ -70.648886, -33.443547 ], [ -70.647682, -33.443205 ], [ -70.647673, -33.443109 ], [ -70.647956, -33.441173 ], [ -70.648978, -33.433925 ] ] ] } },
{ "type": "Feature", "properties": { "Id": 0, "Area": 773429.30325, "Dia": "Sabado" }, "geometry": { "type": "Polygon", "coordinates": [ [ [ -70.648778, -33.433316 ], [ -70.648978, -33.433925 ], [ -70.648928, -33.434658 ], [ -70.648722, -33.436001 ], [ -70.648341, -33.438299 ], [ -70.648028, -33.440612 ], [ -70.647673, -33.443109 ], [ -70.647682, -33.443205 ], [ -70.646951, -33.443043 ], [ -70.646278, -33.442898 ], [ -70.646228, -33.442918 ], [ -70.645039, -33.44263 ], [ -70.643922, -33.44228 ], [ -70.643144, -33.441967 ], [ -70.642703, -33.441739 ], [ -70.641685, -33.441051 ], [ -70.640457, -33.440214 ], [ -70.640422, -33.440214 ], [ -70.638073, -33.438536 ], [ -70.638027, -33.438513 ], [ -70.637966, -33.438476 ], [ -70.63726, -33.438019 ], [ -70.636529, -33.437648 ], [ -70.636476, -33.437634 ], [ -70.636401, -33.437617 ], [ -70.635228, -33.4373 ], [ -70.635259, -33.437136 ], [ -70.635167, -33.437092 ], [ -70.635374, -33.436605 ], [ -70.635398, -33.436482 ], [ -70.638982, -33.435681 ], [ -70.642842, -33.434773 ], [ -70.645463, -33.434189 ], [ -70.648778, -33.433316 ] ] ] } },
{ "type": "Feature", "properties": { "Id": 0, "Area": 2514138.1239499999, "Dia": "Miercoles" }, "geometry": { "type": "Polygon", "coordinates": [ [ [ -70.691804, -33.439346 ], [ -70.692014, -33.444547 ], [ -70.679588, -33.443779 ], [ -70.678966, -33.45078 ], [ -70.674308, -33.449569 ], [ -70.671952, -33.448927 ], [ -70.668404, -33.44799 ], [ -70.667557, -33.447744 ], [ -70.666495, -33.44743 ], [ -70.664588, -33.446938 ], [ -70.662616, -33.446486 ], [ -70.660639, -33.446014 ], [ -70.660932, -33.44473 ], [ -70.66098, -33.444463 ], [ -70.660998, -33.444179 ], [ -70.660717, -33.442933 ], [ -70.66042, -33.441783 ], [ -70.662687, -33.442007 ], [ -70.665091, -33.442236 ], [ -70.666467, -33.442376 ], [ -70.668032, -33.442638 ], [ -70.668292, -33.441535 ], [ -70.668552, -33.440377 ], [ -70.668602, -33.439228 ], [ -70.668752, -33.43772 ], [ -70.668836, -33.436712 ], [ -70.669888, -33.436784 ], [ -70.67072, -33.436845 ], [ -70.671869, -33.43692 ], [ -70.672745, -33.43698 ], [ -70.673648, -33.43704 ], [ -70.674522, -33.4371 ], [ -70.675944, -33.437198 ], [ -70.676913, -33.437248 ], [ -70.677964, -33.437336 ], [ -70.679035, -33.437409 ], [ -70.680131, -33.437481 ], [ -70.680041, -33.438513 ], [ -70.681779, -33.438629 ], [ -70.681823, -33.437923 ], [ -70.681888, -33.437927 ], [ -70.681929, -33.437466 ], [ -70.681432, -33.437427 ], [ -70.681421, -33.437473 ], [ -70.681322, -33.437469 ], [ -70.68133, -33.437344 ], [ -70.680777, -33.437326 ], [ -70.680879, -33.436029 ], [ -70.683629, -33.43653 ], [ -70.683726, -33.437613 ], [ -70.684239, -33.437613 ], [ -70.684147, -33.438708 ], [ -70.691804, -33.439346 ] ] ] } },
{ "type": "Feature", "properties": { "Id": 0, "Area": 1904324.8993500001, "Dia": "Sabado" }, "geometry": { "type": "Polygon", "coordinates": [ [ [ -70.677885, -33.450523 ], [ -70.67778, -33.450786 ], [ -70.678356, -33.458221 ], [ -70.678113, -33.458166 ], [ -70.676262, -33.458543 ], [ -70.676068, -33.458544 ], [ -70.67497, -33.458488 ], [ -70.673707, -33.458406 ], [ -70.67235, -33.458334 ], [ -70.672139, -33.458391 ], [ -70.671986, -33.458455 ], [ -70.668338, -33.457781 ], [ -70.666484, -33.457463 ], [ -70.664938, -33.457196 ], [ -70.664016, -33.457118 ], [ -70.662503, -33.456993 ], [ -70.660944, -33.456818 ], [ -70.659627, -33.456671 ], [ -70.657778, -33.456527 ], [ -70.656904, -33.456278 ], [ -70.657048, -33.455969 ], [ -70.65713, -33.45583 ], [ -70.657292, -33.455624 ], [ -70.657493, -33.455366 ], [ -70.657719, -33.455038 ], [ -70.657972, -33.454661 ], [ -70.658121, -33.454371 ], [ -70.658243, -33.453938 ], [ -70.658471, -33.453154 ], [ -70.658626, -33.452623 ], [ -70.659082, -33.451072 ], [ -70.659633, -33.449267 ], [ -70.6598, -33.448674 ], [ -70.660348, -33.447139 ], [ -70.660579, -33.446583 ], [ -70.660639, -33.446014 ], [ -70.662616, -33.446486 ], [ -70.66373, -33.446733 ], [ -70.664588, -33.446938 ], [ -70.665909, -33.447271 ], [ -70.667557, -33.447744 ], [ -70.669064, -33.448159 ], [ -70.670374, -33.448498 ], [ -70.672272, -33.449014 ], [ -70.672998, -33.449203 ], [ -70.674308, -33.449569 ], [ -70.675617, -33.449909 ], [ -70.676663, -33.450182 ], [ -70.677771, -33.45047 ], [ -70.677885, -33.450523 ] ] ] } },
{ "type": "Feature", "properties": { "Id": 0, "Area": 4200362.8164799996, "Dia": "Martes" }, "geometry": { "type": "Polygon", "coordinates": [ [ [ -70.678356, -33.458221 ], [ -70.678475, -33.460297 ], [ -70.678556, -33.461474 ], [ -70.678711, -33.463462 ], [ -70.678844, -33.465007 ], [ -70.678979, -33.466726 ], [ -70.679131, -33.469375 ], [ -70.67993, -33.470586 ], [ -70.679851, -33.470747 ], [ -70.679145, -33.470747 ], [ -70.678073, -33.470744 ], [ -70.676788, -33.470725 ], [ -70.675544, -33.470706 ], [ -70.674239, -33.470696 ], [ -70.672943, -33.470696 ], [ -70.672915, -33.472008 ], [ -70.672863, -33.473704 ], [ -70.672832, -33.475136 ], [ -70.672791, -33.475304 ], [ -70.6725, -33.475739 ], [ -70.672271, -33.475913 ], [ -70.671555, -33.475913 ], [ -70.671629, -33.476159 ], [ -70.671756, -33.476833 ], [ -70.673117, -33.476799 ], [ -70.673474, -33.476749 ], [ -70.674831, -33.47686 ], [ -70.675847, -33.476952 ], [ -70.677141, -33.476904 ], [ -70.678521, -33.476853 ], [ -70.679278, -33.476847 ], [ -70.679589, -33.476973 ], [ -70.679731, -33.477323 ], [ -70.679849, -33.478476 ], [ -70.674527, -33.47862 ], [ -70.6732, -33.478636 ], [ -70.671579, -33.478594 ], [ -70.671584, -33.476837 ], [ -70.669844, -33.476865 ], [ -70.667817, -33.476812 ], [ -70.667016, -33.476712 ], [ -70.66611, -33.476551 ], [ -70.665138, -33.476257 ], [ -70.664792, -33.47609 ], [ -70.664671, -33.475957 ], [ -70.663659, -33.475987 ], [ -70.662593, -33.476046 ], [ -70.661536, -33.476104 ], [ -70.660238, -33.476176 ], [ -70.658326, -33.476281 ], [ -70.65473, -33.476498 ], [ -70.654667, -33.476346 ], [ -70.654399, -33.475698 ], [ -70.6543, -33.475245 ], [ -70.654264, -33.474744 ], [ -70.654293, -33.474294 ], [ -70.65432, -33.474129 ], [ -70.654437, -33.473728 ], [ -70.65473, -33.47309 ], [ -70.655265, -33.472336 ], [ -70.655665, -33.471744 ], [ -70.656119, -33.471114 ], [ -70.656188, -33.470849 ], [ -70.656256, -33.47 ], [ -70.65633, -33.46855 ], [ -70.656418, -33.466863 ], [ -70.656544, -33.464614 ], [ -70.656783, -33.460964 ], [ -70.656802, -33.460721 ], [ -70.65681, -33.46063 ], [ -70.656816, -33.460557 ], [ -70.656815, -33.460434 ], [ -70.65681, -33.460145 ], [ -70.656801, -33.459813 ], [ -70.65677, -33.459064 ], [ -70.656674, -33.458282 ], [ -70.656687, -33.457805 ], [ -70.656775, -33.456886 ], [ -70.656856, -33.456503 ], [ -70.656904, -33.456278 ], [ -70.657778, -33.456527 ], [ -70.659627, -33.456671 ], [ -70.660944, -33.456818 ], [ -70.662503, -33.456993 ], [ -70.664016, -33.457118 ], [ -70.664938, -33.457196 ], [ -70.666484, -33.457463 ], [ -70.668336, -33.457781 ], [ -70.671986, -33.458455 ], [ -70.672139, -33.458391 ], [ -70.67235, -33.458334 ], [ -70.673511, -33.458399 ], [ -70.673707, -33.458406 ], [ -70.674778, -33.458473 ], [ -70.67497, -33.458488 ], [ -70.676069, -33.458545 ], [ -70.676262, -33.458543 ], [ -70.677542, -33.458282 ], [ -70.678113, -33.458166 ], [ -70.678356, -33.458221 ] ] ] } },
{ "type": "Feature", "properties": { "Id": 0, "Area": 2365796.44582, "Dia": "Jueves" }, "geometry": { "type": "Polygon", "coordinates": [ [ [ -70.656767, -33.46117 ], [ -70.656544, -33.464614 ], [ -70.656402, -33.467166 ], [ -70.656317, -33.468801 ], [ -70.656256, -33.47 ], [ -70.656196, -33.470798 ], [ -70.656119, -33.471114 ], [ -70.655574, -33.47188 ], [ -70.654944, -33.472775 ], [ -70.654605, -33.473327 ], [ -70.654332, -33.474087 ], [ -70.654264, -33.474744 ], [ -70.654368, -33.475556 ], [ -70.654667, -33.476346 ], [ -70.653985, -33.476528 ], [ -70.651832, -33.476611 ], [ -70.648151, -33.476713 ], [ -70.648182, -33.476497 ], [ -70.64361, -33.476453 ], [ -70.641971, -33.476375 ], [ -70.642007, -33.475359 ], [ -70.642049, -33.473923 ], [ -70.642084, -33.472994 ], [ -70.642148, -33.471766 ], [ -70.642204, -33.470485 ], [ -70.642267, -33.469195 ], [ -70.642325, -33.467913 ], [ -70.64239, -33.466722 ], [ -70.642447, -33.465432 ], [ -70.642561, -33.464303 ], [ -70.642679, -33.463165 ], [ -70.64282, -33.462193 ], [ -70.642977, -33.460749 ], [ -70.642999, -33.460558 ], [ -70.643071, -33.460021 ], [ -70.643125, -33.459562 ], [ -70.643278, -33.458405 ], [ -70.64529, -33.458816 ], [ -70.649145, -33.459638 ], [ -70.65167, -33.45995 ], [ -70.656816, -33.460557 ], [ -70.656767, -33.46117 ] ] ] } },
{ "type": "Feature", "properties": { "Id": 0, "Area": 2730345.9041499998, "Dia": "Viernes" }, "geometry": { "type": "Polygon", "coordinates": [ [ [ -70.643278, -33.458405 ], [ -70.643278, -33.458408 ], [ -70.643125, -33.459562 ], [ -70.643111, -33.459705 ], [ -70.643071, -33.460021 ], [ -70.642999, -33.460558 ], [ -70.642977, -33.460749 ], [ -70.64282, -33.462193 ], [ -70.642679, -33.463165 ], [ -70.642447, -33.465432 ], [ -70.64239, -33.466722 ], [ -70.642325, -33.467913 ], [ -70.642303, -33.468382 ], [ -70.642267, -33.469195 ], [ -70.642204, -33.470485 ], [ -70.642148, -33.471766 ], [ -70.642084, -33.472994 ], [ -70.642049, -33.473923 ], [ -70.642007, -33.475359 ], [ -70.641969, -33.476497 ], [ -70.641374, -33.476428 ], [ -70.641049, -33.476406 ], [ -70.640446, -33.476337 ], [ -70.639875, -33.476241 ], [ -70.638956, -33.475985 ], [ -70.638216, -33.475746 ], [ -70.636777, -33.475225 ], [ -70.636808, -33.47508 ], [ -70.634068, -33.474181 ], [ -70.632001, -33.473454 ], [ -70.631968, -33.473596 ], [ -70.630698, -33.473126 ], [ -70.628971, -33.472525 ], [ -70.626915, -33.471798 ], [ -70.626663, -33.471605 ], [ -70.626149, -33.47124 ], [ -70.625121, -33.469731 ], [ -70.625498, -33.469468 ], [ -70.625957, -33.469375 ], [ -70.626479, -33.467464 ], [ -70.627206, -33.464901 ], [ -70.62775, -33.462972 ], [ -70.628054, -33.461892 ], [ -70.628612, -33.459981 ], [ -70.629223, -33.457833 ], [ -70.629887, -33.455585 ], [ -70.631276, -33.45588 ], [ -70.632129, -33.456051 ], [ -70.633276, -33.456301 ], [ -70.634318, -33.456507 ], [ -70.635814, -33.456829 ], [ -70.636926, -33.457065 ], [ -70.639542, -33.457615 ], [ -70.640903, -33.45791 ], [ -70.642094, -33.458159 ], [ -70.643278, -33.458405 ] ] ] } },
{ "type": "Feature", "properties": { "Id": 0, "Area": 878650.79172199999, "Dia": "Miercoles" }, "geometry": { "type": "Polygon", "coordinates": [ [ [ -70.646854, -33.450971 ], [ -70.647208, -33.451067 ], [ -70.648094, -33.451351 ], [ -70.648849, -33.451567 ], [ -70.650379, -33.451941 ], [ -70.652822, -33.452551 ], [ -70.653524, -33.45273 ], [ -70.654249, -33.452905 ], [ -70.655082, -33.453086 ], [ -70.65591, -33.453168 ], [ -70.656896, -33.453263 ], [ -70.657033, -33.453216 ], [ -70.657173, -33.453169 ], [ -70.657337, -33.453077 ], [ -70.657818, -33.452665 ], [ -70.657916, -33.452631 ], [ -70.658278, -33.452538 ], [ -70.658626, -33.452623 ], [ -70.658541, -33.452913 ], [ -70.658253, -33.453904 ], [ -70.658035, -33.454555 ], [ -70.657897, -33.454774 ], [ -70.657534, -33.455289 ], [ -70.657207, -33.455733 ], [ -70.657048, -33.455969 ], [ -70.656964, -33.456113 ], [ -70.656933, -33.456197 ], [ -70.656907, -33.456263 ], [ -70.656762, -33.456952 ], [ -70.656704, -33.457545 ], [ -70.656676, -33.458032 ], [ -70.656674, -33.458282 ], [ -70.6567, -33.458492 ], [ -70.65677, -33.459064 ], [ -70.656793, -33.459496 ], [ -70.656805, -33.459973 ], [ -70.656814, -33.460291 ], [ -70.656816, -33.460557 ], [ -70.656472, -33.46051 ], [ -70.653384, -33.46015 ], [ -70.652529, -33.46005 ], [ -70.65167, -33.45995 ], [ -70.650707, -33.45983 ], [ -70.649145, -33.459638 ], [ -70.647271, -33.459239 ], [ -70.646227, -33.459023 ], [ -70.64529, -33.458816 ], [ -70.645658, -33.457418 ], [ -70.645934, -33.456293 ], [ -70.646063, -33.455762 ], [ -70.646154, -33.455404 ], [ -70.646273, -33.454908 ], [ -70.646384, -33.454375 ], [ -70.646506, -33.453781 ], [ -70.646721, -33.452106 ], [ -70.646854, -33.450971 ] ] ] } },
{ "type": "Feature", "properties": { "Id": 0, "Area": 994823.81058100006, "Dia": "Martes" }, "geometry": { "type": "Polygon", "coordinates": [ [ [ -70.647144, -33.443082 ], [ -70.647213, -33.443096 ], [ -70.647682, -33.443205 ], [ -70.648886, -33.443547 ], [ -70.650425, -33.443937 ], [ -70.651072, -33.444088 ], [ -70.651597, -33.444246 ], [ -70.652145, -33.4444 ], [ -70.65295, -33.444624 ], [ -70.654034, -33.444885 ], [ -70.654582, -33.445029 ], [ -70.655434, -33.445279 ], [ -70.657302, -33.445747 ], [ -70.658428, -33.44603 ], [ -70.659198, -33.446203 ], [ -70.65991, -33.446362 ], [ -70.660188, -33.446424 ], [ -70.660505, -33.446495 ], [ -70.660579, -33.44658 ], [ -70.660411, -33.447001 ], [ -70.660245, -33.447406 ], [ -70.659602, -33.449362 ], [ -70.659058, -33.451148 ], [ -70.658626, -33.45262 ], [ -70.65854, -33.452594 ], [ -70.658277, -33.452535 ], [ -70.657818, -33.452662 ], [ -70.65759, -33.452854 ], [ -70.657337, -33.453074 ], [ -70.657173, -33.453166 ], [ -70.656896, -33.45326 ], [ -70.65591, -33.453165 ], [ -70.655082, -33.453083 ], [ -70.654249, -33.452902 ], [ -70.652822, -33.452548 ], [ -70.650379, -33.451938 ], [ -70.648849, -33.451564 ], [ -70.648094, -33.451348 ], [ -70.647161, -33.451049 ], [ -70.646854, -33.450968 ], [ -70.646954, -33.450012 ], [ -70.646978, -33.449542 ], [ -70.647013, -33.449015 ], [ -70.64705, -33.448565 ], [ -70.647068, -33.446781 ], [ -70.647082, -33.445554 ], [ -70.647094, -33.444679 ], [ -70.647104, -33.443187 ], [ -70.647144, -33.443082 ] ] ] } },
{ "type": "Feature", "properties": { "Id": 0, "Area": 1294072.3727899999, "Dia": "Jueves" }, "geometry": { "type": "Polygon", "coordinates": [ [ [ -70.647144, -33.443085 ], [ -70.647104, -33.44319 ], [ -70.647094, -33.444682 ], [ -70.647082, -33.445557 ], [ -70.647068, -33.446784 ], [ -70.64705, -33.448568 ], [ -70.647014, -33.449018 ], [ -70.646954, -33.450015 ], [ -70.646854, -33.450971 ], [ -70.64442, -33.450569 ], [ -70.642983, -33.450373 ], [ -70.641567, -33.449946 ], [ -70.640334, -33.449561 ], [ -70.639041, -33.449243 ], [ -70.63668, -33.44862 ], [ -70.636047, -33.448481 ], [ -70.635299, -33.448261 ], [ -70.634443, -33.448035 ], [ -70.632311, -33.447474 ], [ -70.632551, -33.446732 ], [ -70.632765, -33.446002 ], [ -70.632904, -33.445467 ], [ -70.633074, -33.444853 ], [ -70.633295, -33.444121 ], [ -70.633529, -33.443378 ], [ -70.633666, -33.442848 ], [ -70.63375, -33.442554 ], [ -70.63386, -33.442179 ], [ -70.633927, -33.441951 ], [ -70.634084, -33.441381 ], [ -70.634285, -33.440841 ], [ -70.634474, -33.440135 ], [ -70.634607, -33.439618 ], [ -70.634912, -33.43842 ], [ -70.635044, -33.437956 ], [ -70.635228, -33.4373 ], [ -70.635294, -33.43732 ], [ -70.635437, -33.437359 ], [ -70.635931, -33.437491 ], [ -70.636529, -33.437646 ], [ -70.636823, -33.437797 ], [ -70.637152, -33.437957 ], [ -70.637523, -33.438169 ], [ -70.638027, -33.438513 ], [ -70.638489, -33.438833 ], [ -70.638723, -33.439008 ], [ -70.639133, -33.439305 ], [ -70.639463, -33.439529 ], [ -70.639821, -33.439791 ], [ -70.639898, -33.439845 ], [ -70.639987, -33.439907 ], [ -70.640163, -33.440029 ], [ -70.640293, -33.440121 ], [ -70.640419, -33.440212 ], [ -70.640515, -33.440254 ], [ -70.640673, -33.440362 ], [ -70.641546, -33.440957 ], [ -70.641991, -33.441258 ], [ -70.64245, -33.441568 ], [ -70.642703, -33.441739 ], [ -70.643023, -33.441915 ], [ -70.643285, -33.442027 ], [ -70.643717, -33.442209 ], [ -70.64404, -33.442319 ], [ -70.644362, -33.442422 ], [ -70.644603, -33.442498 ], [ -70.644769, -33.44255 ], [ -70.64516, -33.442659 ], [ -70.645585, -33.442762 ], [ -70.646228, -33.442918 ], [ -70.646278, -33.442898 ], [ -70.646723, -33.442993 ], [ -70.647144, -33.443085 ] ] ] } },
{ "type": "Feature", "properties": { "Id": 0, "Area": 1291141.9135, "Dia": "Viernes" }, "geometry": { "type": "Polygon", "coordinates": [ [ [ -70.629889, -33.455586 ], [ -70.630199, -33.454579 ], [ -70.630568, -33.453315 ], [ -70.630915, -33.452131 ], [ -70.630953, -33.452001 ], [ -70.6317, -33.449491 ], [ -70.631862, -33.448938 ], [ -70.632311, -33.447474 ], [ -70.633653, -33.447837 ], [ -70.634443, -33.448035 ], [ -70.635299, -33.448261 ], [ -70.63668, -33.44862 ], [ -70.639041, -33.449243 ], [ -70.640334, -33.449561 ], [ -70.641567, -33.449946 ], [ -70.642983, -33.450373 ], [ -70.64442, -33.450569 ], [ -70.646854, -33.450971 ], [ -70.646721, -33.452106 ], [ -70.646506, -33.453781 ], [ -70.646273, -33.454908 ], [ -70.645934, -33.456293 ], [ -70.645658, -33.457418 ], [ -70.64529, -33.458816 ], [ -70.643278, -33.458405 ], [ -70.642094, -33.458159 ], [ -70.640903, -33.45791 ], [ -70.639542, -33.457615 ], [ -70.636926, -33.457065 ], [ -70.635814, -33.456829 ], [ -70.634318, -33.456507 ], [ -70.632129, -33.456051 ], [ -70.631276, -33.45588 ], [ -70.629889, -33.455586 ] ] ] } }
]
}
