{
"type": "FeatureCollection",
"name": "AMB_PTO_BASUREROS_PARQUE_FORESTAL",
"features": [
{ "type": "Feature", "properties": { "OBJECTID_1": 1, "Tipo_B": "Vaivén", "Sector": "103", "Estado": null, "Cap": 50, "Tipo": null, "Lineam": "102", "X": -70.644569201099998, "Y": -33.435642538400003 }, "geometry": { "type": "Point", "coordinates": [ -70.644569, -33.435643, 0.0 ] } },
{ "type": "Feature", "properties": { "OBJECTID_1": 2, "Tipo_B": "Vaivén", "Sector": "101", "Estado": null, "Cap": 50, "Tipo": null, "Lineam": "102", "X": -70.635881179799995, "Y": -33.436777066099999 }, "geometry": { "type": "Point", "coordinates": [ -70.635881, -33.436777, 0.0 ] } },
{ "type": "Feature", "properties": { "OBJECTID_1": 3, "Tipo_B": "Vaivén", "Sector": "101", "Estado": null, "Cap": 50, "Tipo": null, "Lineam": "102", "X": -70.635752142100003, "Y": -33.4367752 }, "geometry": { "type": "Point", "coordinates": [ -70.635752, -33.436775, 0.0 ] } },
{ "type": "Feature", "properties": { "OBJECTID_1": 4, "Tipo_B": "Vaivén", "Sector": "101", "Estado": null, "Cap": 50, "Tipo": null, "Lineam": "102", "X": -70.636038560299994, "Y": -33.436563170699998 }, "geometry": { "type": "Point", "coordinates": [ -70.636039, -33.436563, 0.0 ] } },
{ "type": "Feature", "properties": { "OBJECTID_1": 5, "Tipo_B": "Vaivén", "Sector": "101", "Estado": null, "Cap": 50, "Tipo": null, "Lineam": "102", "X": -70.635770388300003, "Y": -33.4366329546 }, "geometry": { "type": "Point", "coordinates": [ -70.63577, -33.436633, 0.0 ] } },
{ "type": "Feature", "properties": { "OBJECTID_1": 6, "Tipo_B": "Vaivén", "Sector": "101", "Estado": null, "Cap": 50, "Tipo": null, "Lineam": "102", "X": -70.638910128800006, "Y": -33.436601078199999 }, "geometry": { "type": "Point", "coordinates": [ -70.63891, -33.436601, 0.0 ] } },
{ "type": "Feature", "properties": { "OBJECTID_1": 7, "Tipo_B": "Vaivén", "Sector": "101", "Estado": null, "Cap": 50, "Tipo": null, "Lineam": "102", "X": -70.638730663199993, "Y": -33.435975747900002 }, "geometry": { "type": "Point", "coordinates": [ -70.638731, -33.435976, 0.0 ] } },
{ "type": "Feature", "properties": { "OBJECTID_1": 8, "Tipo_B": "Vaivén", "Sector": "101", "Estado": null, "Cap": 50, "Tipo": null, "Lineam": "102", "X": -70.6360103353, "Y": -33.436779650200002 }, "geometry": { "type": "Point", "coordinates": [ -70.63601, -33.43678, 0.0 ] } },
{ "type": "Feature", "properties": { "OBJECTID_1": 9, "Tipo_B": "Vaivén", "Sector": "101", "Estado": null, "Cap": 50, "Tipo": null, "Lineam": "102", "X": -70.636133019699997, "Y": -33.436782056200002 }, "geometry": { "type": "Point", "coordinates": [ -70.636133, -33.436782, 0.0 ] } },
{ "type": "Feature", "properties": { "OBJECTID_1": 10, "Tipo_B": "Vaivén", "Sector": "101", "Estado": null, "Cap": 50, "Tipo": null, "Lineam": "102", "X": -70.636059422299994, "Y": -33.436426159200003 }, "geometry": { "type": "Point", "coordinates": [ -70.636059, -33.436426, 0.0 ] } },
{ "type": "Feature", "properties": { "OBJECTID_1": 11, "Tipo_B": "Vaivén", "Sector": "101", "Estado": null, "Cap": 50, "Tipo": null, "Lineam": "102", "X": -70.638278849700001, "Y": -33.436218415100001 }, "geometry": { "type": "Point", "coordinates": [ -70.638279, -33.436218, 0.0 ] } },
{ "type": "Feature", "properties": { "OBJECTID_1": 12, "Tipo_B": "Vaivén", "Sector": "101", "Estado": null, "Cap": 50, "Tipo": null, "Lineam": "102", "X": -70.638535257800001, "Y": -33.435950287099999 }, "geometry": { "type": "Point", "coordinates": [ -70.638535, -33.43595, 0.0 ] } },
{ "type": "Feature", "properties": { "OBJECTID_1": 13, "Tipo_B": "Vaivén", "Sector": "101", "Estado": null, "Cap": 50, "Tipo": null, "Lineam": "102", "X": -70.638611143800006, "Y": -33.436093051900002 }, "geometry": { "type": "Point", "coordinates": [ -70.638611, -33.436093, 0.0 ] } },
{ "type": "Feature", "properties": { "OBJECTID_1": 14, "Tipo_B": "Vaivén", "Sector": "101", "Estado": null, "Cap": 50, "Tipo": null, "Lineam": "102", "X": -70.638099936200007, "Y": -33.436156479499999 }, "geometry": { "type": "Point", "coordinates": [ -70.6381, -33.436156, 0.0 ] } },
{ "type": "Feature", "properties": { "OBJECTID_1": 15, "Tipo_B": "Vaivén", "Sector": "101", "Estado": null, "Cap": 50, "Tipo": null, "Lineam": "102", "X": -70.637484975800007, "Y": -33.436093349099998 }, "geometry": { "type": "Point", "coordinates": [ -70.637485, -33.436093, 0.0 ] } },
{ "type": "Feature", "properties": { "OBJECTID_1": 16, "Tipo_B": "Vaivén", "Sector": "101", "Estado": null, "Cap": 50, "Tipo": null, "Lineam": "102", "X": -70.636860788199996, "Y": -33.436373452600002 }, "geometry": { "type": "Point", "coordinates": [ -70.636861, -33.436373, 0.0 ] } },
{ "type": "Feature", "properties": { "OBJECTID_1": 17, "Tipo_B": "Vaivén", "Sector": "101", "Estado": null, "Cap": 50, "Tipo": null, "Lineam": "102", "X": -70.636639909300001, "Y": -33.4365436135 }, "geometry": { "type": "Point", "coordinates": [ -70.63664, -33.436544, 0.0 ] } },
{ "type": "Feature", "properties": { "OBJECTID_1": 18, "Tipo_B": "Vaivén", "Sector": "101", "Estado": null, "Cap": 50, "Tipo": null, "Lineam": "102", "X": -70.637277220499996, "Y": -33.436468790500001 }, "geometry": { "type": "Point", "coordinates": [ -70.637277, -33.436469, 0.0 ] } },
{ "type": "Feature", "properties": { "OBJECTID_1": 19, "Tipo_B": "Vaivén", "Sector": "101", "Estado": null, "Cap": 50, "Tipo": null, "Lineam": "102", "X": -70.637385663700002, "Y": -33.436548753899999 }, "geometry": { "type": "Point", "coordinates": [ -70.637386, -33.436549, 0.0 ] } },
{ "type": "Feature", "properties": { "OBJECTID_1": 20, "Tipo_B": "Vaivén", "Sector": "101", "Estado": null, "Cap": 50, "Tipo": null, "Lineam": "102", "X": -70.638223966400005, "Y": -33.436351455699999 }, "geometry": { "type": "Point", "coordinates": [ -70.638224, -33.436351, 0.0 ] } },
{ "type": "Feature", "properties": { "OBJECTID_1": 21, "Tipo_B": "Vaivén", "Sector": "101", "Estado": null, "Cap": 50, "Tipo": null, "Lineam": "102", "X": -70.638296043799997, "Y": -33.436456813600003 }, "geometry": { "type": "Point", "coordinates": [ -70.638296, -33.436457, 0.0 ] } },
{ "type": "Feature", "properties": { "OBJECTID_1": 22, "Tipo_B": "Vaivén", "Sector": "101", "Estado": null, "Cap": 50, "Tipo": null, "Lineam": "102", "X": -70.638305409599994, "Y": -33.4365659491 }, "geometry": { "type": "Point", "coordinates": [ -70.638305, -33.436566, 0.0 ] } },
{ "type": "Feature", "properties": { "OBJECTID_1": 23, "Tipo_B": "Vaivén", "Sector": "101", "Estado": null, "Cap": 50, "Tipo": null, "Lineam": "102", "X": -70.638385130200007, "Y": -33.436503850900003 }, "geometry": { "type": "Point", "coordinates": [ -70.638385, -33.436504, 0.0 ] } },
{ "type": "Feature", "properties": { "OBJECTID_1": 24, "Tipo_B": "Vaivén", "Sector": "101", "Estado": null, "Cap": 50, "Tipo": null, "Lineam": "102", "X": -70.638370236300005, "Y": -33.436635079799998 }, "geometry": { "type": "Point", "coordinates": [ -70.63837, -33.436635, 0.0 ] } },
{ "type": "Feature", "properties": { "OBJECTID_1": 25, "Tipo_B": "Vaivén", "Sector": "101", "Estado": null, "Cap": 50, "Tipo": null, "Lineam": "102", "X": -70.638664604799999, "Y": -33.436547530699997 }, "geometry": { "type": "Point", "coordinates": [ -70.638665, -33.436548, 0.0 ] } },
{ "type": "Feature", "properties": { "OBJECTID_1": 26, "Tipo_B": "Vaivén", "Sector": "101", "Estado": null, "Cap": 50, "Tipo": null, "Lineam": "102", "X": -70.638872851399995, "Y": -33.436374947700003 }, "geometry": { "type": "Point", "coordinates": [ -70.638873, -33.436375, 0.0 ] } },
{ "type": "Feature", "properties": { "OBJECTID_1": 27, "Tipo_B": "Vaivén", "Sector": "101", "Estado": null, "Cap": 50, "Tipo": null, "Lineam": "102", "X": -70.639086333999998, "Y": -33.4367420954 }, "geometry": { "type": "Point", "coordinates": [ -70.639086, -33.436742, 0.0 ] } },
{ "type": "Feature", "properties": { "OBJECTID_1": 28, "Tipo_B": "Vaivén", "Sector": "101", "Estado": null, "Cap": 50, "Tipo": null, "Lineam": "102", "X": -70.638358347099995, "Y": -33.436167406099997 }, "geometry": { "type": "Point", "coordinates": [ -70.638358, -33.436167, 0.0 ] } },
{ "type": "Feature", "properties": { "OBJECTID_1": 29, "Tipo_B": "Vaivén", "Sector": null, "Estado": null, "Cap": 50, "Tipo": null, "Lineam": null, "X": -70.639759214999998, "Y": -33.435198748300003 }, "geometry": { "type": "Point", "coordinates": [ -70.639759, -33.435199, 0.0 ] } },
{ "type": "Feature", "properties": { "OBJECTID_1": 30, "Tipo_B": "Tulipa", "Sector": "102", "Estado": null, "Cap": 60, "Tipo": "101", "Lineam": "101", "X": -70.6397198449, "Y": -33.436622891500001 }, "geometry": { "type": "Point", "coordinates": [ -70.63972, -33.436623, 0.0 ] } },
{ "type": "Feature", "properties": { "OBJECTID_1": 31, "Tipo_B": "Tulipa", "Sector": "102", "Estado": null, "Cap": 60, "Tipo": "101", "Lineam": "101", "X": -70.639279576600003, "Y": -33.435911745200002 }, "geometry": { "type": "Point", "coordinates": [ -70.63928, -33.435912, 0.0 ] } },
{ "type": "Feature", "properties": { "OBJECTID_1": 32, "Tipo_B": "Tulipa", "Sector": "102", "Estado": null, "Cap": 60, "Tipo": "101", "Lineam": "101", "X": -70.639489934400004, "Y": -33.436146719200003 }, "geometry": { "type": "Point", "coordinates": [ -70.63949, -33.436147, 0.0 ] } },
{ "type": "Feature", "properties": { "OBJECTID_1": 33, "Tipo_B": "Tulipa", "Sector": "102", "Estado": null, "Cap": 60, "Tipo": "101", "Lineam": "101", "X": -70.640437384199998, "Y": -33.436544459899999 }, "geometry": { "type": "Point", "coordinates": [ -70.640437, -33.436544, 0.0 ] } },
{ "type": "Feature", "properties": { "OBJECTID_1": 34, "Tipo_B": "Tulipa", "Sector": "102", "Estado": null, "Cap": 60, "Tipo": "101", "Lineam": "101", "X": -70.640083822799994, "Y": -33.436677614399997 }, "geometry": { "type": "Point", "coordinates": [ -70.640084, -33.436678, 0.0 ] } },
{ "type": "Feature", "properties": { "OBJECTID_1": 35, "Tipo_B": "Tulipa", "Sector": "102", "Estado": null, "Cap": 60, "Tipo": "101", "Lineam": "101", "X": -70.639451173300003, "Y": -33.436752308000003 }, "geometry": { "type": "Point", "coordinates": [ -70.639451, -33.436752, 0.0 ] } },
{ "type": "Feature", "properties": { "OBJECTID_1": 36, "Tipo_B": "Tulipa", "Sector": "102", "Estado": null, "Cap": 60, "Tipo": "101", "Lineam": "101", "X": -70.639904696900004, "Y": -33.436573979199999 }, "geometry": { "type": "Point", "coordinates": [ -70.639905, -33.436574, 0.0 ] } },
{ "type": "Feature", "properties": { "OBJECTID_1": 37, "Tipo_B": "Tulipa", "Sector": "102", "Estado": null, "Cap": 60, "Tipo": "101", "Lineam": "101", "X": -70.640206177899998, "Y": -33.436533243699998 }, "geometry": { "type": "Point", "coordinates": [ -70.640206, -33.436533, 0.0 ] } },
{ "type": "Feature", "properties": { "OBJECTID_1": 38, "Tipo_B": "Tulipa", "Sector": "102", "Estado": null, "Cap": 60, "Tipo": "101", "Lineam": "101", "X": -70.640004118700006, "Y": -33.436037527400003 }, "geometry": { "type": "Point", "coordinates": [ -70.640004, -33.436038, 0.0 ] } },
{ "type": "Feature", "properties": { "OBJECTID_1": 39, "Tipo_B": "Tulipa", "Sector": "102", "Estado": null, "Cap": 60, "Tipo": "101", "Lineam": "101", "X": -70.639872844300001, "Y": -33.436350920199999 }, "geometry": { "type": "Point", "coordinates": [ -70.639873, -33.436351, 0.0 ] } },
{ "type": "Feature", "properties": { "OBJECTID_1": 40, "Tipo_B": "Tulipa", "Sector": "102", "Estado": null, "Cap": 60, "Tipo": "101", "Lineam": "101", "X": -70.639504108400004, "Y": -33.436223879800004 }, "geometry": { "type": "Point", "coordinates": [ -70.639504, -33.436224, 0.0 ] } },
{ "type": "Feature", "properties": { "OBJECTID_1": 41, "Tipo_B": "Tulipa", "Sector": "102", "Estado": null, "Cap": 60, "Tipo": "101", "Lineam": "101", "X": -70.639677994400003, "Y": -33.435914855100002 }, "geometry": { "type": "Point", "coordinates": [ -70.639678, -33.435915, 0.0 ] } },
{ "type": "Feature", "properties": { "OBJECTID_1": 42, "Tipo_B": "Tulipa", "Sector": "102", "Estado": null, "Cap": 60, "Tipo": "101", "Lineam": "101", "X": -70.640458847700003, "Y": -33.435952814799997 }, "geometry": { "type": "Point", "coordinates": [ -70.640459, -33.435953, 0.0 ] } },
{ "type": "Feature", "properties": { "OBJECTID_1": 43, "Tipo_B": "Tulipa", "Sector": "102", "Estado": null, "Cap": 60, "Tipo": "101", "Lineam": "101", "X": -70.640937801899994, "Y": -33.435935795799999 }, "geometry": { "type": "Point", "coordinates": [ -70.640938, -33.435936, 0.0 ] } },
{ "type": "Feature", "properties": { "OBJECTID_1": 44, "Tipo_B": "Tulipa", "Sector": "102", "Estado": null, "Cap": 60, "Tipo": "101", "Lineam": "101", "X": -70.641221109, "Y": -33.435911647600001 }, "geometry": { "type": "Point", "coordinates": [ -70.641221, -33.435912, 0.0 ] } },
{ "type": "Feature", "properties": { "OBJECTID_1": 45, "Tipo_B": "Tulipa", "Sector": "102", "Estado": null, "Cap": 60, "Tipo": "101", "Lineam": "101", "X": -70.640425392699996, "Y": -33.435686226100003 }, "geometry": { "type": "Point", "coordinates": [ -70.640425, -33.435686, 0.0 ] } },
{ "type": "Feature", "properties": { "OBJECTID_1": 46, "Tipo_B": "Tulipa", "Sector": "102", "Estado": null, "Cap": 60, "Tipo": "101", "Lineam": "101", "X": -70.641997982999996, "Y": -33.435910563199997 }, "geometry": { "type": "Point", "coordinates": [ -70.641998, -33.435911, 0.0 ] } },
{ "type": "Feature", "properties": { "OBJECTID_1": 47, "Tipo_B": "Tulipa", "Sector": "102", "Estado": null, "Cap": 60, "Tipo": "101", "Lineam": "101", "X": -70.641824092299998, "Y": -33.436220609300001 }, "geometry": { "type": "Point", "coordinates": [ -70.641824, -33.436221, 0.0 ] } },
{ "type": "Feature", "properties": { "OBJECTID_1": 48, "Tipo_B": "Tulipa", "Sector": "102", "Estado": null, "Cap": 60, "Tipo": "101", "Lineam": "101", "X": -70.641509055699998, "Y": -33.4356251046 }, "geometry": { "type": "Point", "coordinates": [ -70.641509, -33.435625, 0.0 ] } },
{ "type": "Feature", "properties": { "OBJECTID_1": 49, "Tipo_B": "Tulipa", "Sector": "102", "Estado": null, "Cap": 60, "Tipo": "101", "Lineam": "101", "X": -70.641234105300001, "Y": -33.435583511399997 }, "geometry": { "type": "Point", "coordinates": [ -70.641234, -33.435584, 0.0 ] } },
{ "type": "Feature", "properties": { "OBJECTID_1": 50, "Tipo_B": "Tulipa", "Sector": "102", "Estado": null, "Cap": 60, "Tipo": "101", "Lineam": "101", "X": -70.640625521999993, "Y": -33.4355809925 }, "geometry": { "type": "Point", "coordinates": [ -70.640626, -33.435581, 0.0 ] } },
{ "type": "Feature", "properties": { "OBJECTID_1": 51, "Tipo_B": "Tulipa", "Sector": "102", "Estado": null, "Cap": 60, "Tipo": "101", "Lineam": "101", "X": -70.641403170399997, "Y": -33.435782992500002 }, "geometry": { "type": "Point", "coordinates": [ -70.641403, -33.435783, 0.0 ] } },
{ "type": "Feature", "properties": { "OBJECTID_1": 52, "Tipo_B": "Tulipa", "Sector": "102", "Estado": null, "Cap": 60, "Tipo": "101", "Lineam": "101", "X": -70.640732783000004, "Y": -33.4358399869 }, "geometry": { "type": "Point", "coordinates": [ -70.640733, -33.43584, 0.0 ] } },
{ "type": "Feature", "properties": { "OBJECTID_1": 53, "Tipo_B": "Tulipa", "Sector": "102", "Estado": null, "Cap": 60, "Tipo": "101", "Lineam": "101", "X": -70.640352803200003, "Y": -33.435878044900001 }, "geometry": { "type": "Point", "coordinates": [ -70.640353, -33.435878, 0.0 ] } },
{ "type": "Feature", "properties": { "OBJECTID_1": 54, "Tipo_B": "Tulipa", "Sector": "102", "Estado": null, "Cap": 60, "Tipo": "101", "Lineam": "101", "X": -70.642549371399994, "Y": -33.436082797700003 }, "geometry": { "type": "Point", "coordinates": [ -70.642549, -33.436083, 0.0 ] } },
{ "type": "Feature", "properties": { "OBJECTID_1": 55, "Tipo_B": "Tulipa", "Sector": "102", "Estado": null, "Cap": 60, "Tipo": "101", "Lineam": "101", "X": -70.641341652099996, "Y": -33.436322354200001 }, "geometry": { "type": "Point", "coordinates": [ -70.641342, -33.436322, 0.0 ] } },
{ "type": "Feature", "properties": { "OBJECTID_1": 56, "Tipo_B": "Tulipa", "Sector": "102", "Estado": null, "Cap": 60, "Tipo": "101", "Lineam": "101", "X": -70.641010183199995, "Y": -33.436348897800002 }, "geometry": { "type": "Point", "coordinates": [ -70.64101, -33.436349, 0.0 ] } },
{ "type": "Feature", "properties": { "OBJECTID_1": 57, "Tipo_B": "Tulipa", "Sector": "102", "Estado": null, "Cap": 60, "Tipo": "101", "Lineam": "101", "X": -70.642183872499999, "Y": -33.435693763899998 }, "geometry": { "type": "Point", "coordinates": [ -70.642184, -33.435694, 0.0 ] } },
{ "type": "Feature", "properties": { "OBJECTID_1": 58, "Tipo_B": "Tulipa", "Sector": "102", "Estado": null, "Cap": 60, "Tipo": "101", "Lineam": "101", "X": -70.641962587699993, "Y": -33.435745632200003 }, "geometry": { "type": "Point", "coordinates": [ -70.641963, -33.435746, 0.0 ] } },
{ "type": "Feature", "properties": { "OBJECTID_1": 59, "Tipo_B": "Tulipa", "Sector": "102", "Estado": null, "Cap": 60, "Tipo": "101", "Lineam": "101", "X": -70.641734474299994, "Y": -33.435796461499997 }, "geometry": { "type": "Point", "coordinates": [ -70.641734, -33.435796, 0.0 ] } },
{ "type": "Feature", "properties": { "OBJECTID_1": 60, "Tipo_B": "Tulipa", "Sector": "102", "Estado": null, "Cap": 60, "Tipo": "101", "Lineam": "101", "X": -70.642302270399995, "Y": -33.436095035100003 }, "geometry": { "type": "Point", "coordinates": [ -70.642302, -33.436095, 0.0 ] } },
{ "type": "Feature", "properties": { "OBJECTID_1": 61, "Tipo_B": "Tulipa", "Sector": "102", "Estado": null, "Cap": 60, "Tipo": "101", "Lineam": "101", "X": -70.641150160400002, "Y": -33.436093071400002 }, "geometry": { "type": "Point", "coordinates": [ -70.64115, -33.436093, 0.0 ] } },
{ "type": "Feature", "properties": { "OBJECTID_1": 62, "Tipo_B": "Tulipa", "Sector": "102", "Estado": null, "Cap": 60, "Tipo": "101", "Lineam": "101", "X": -70.639754876400005, "Y": -33.436372886999997 }, "geometry": { "type": "Point", "coordinates": [ -70.639755, -33.436373, 0.0 ] } },
{ "type": "Feature", "properties": { "OBJECTID_1": 63, "Tipo_B": "Tulipa", "Sector": "102", "Estado": null, "Cap": 60, "Tipo": "101", "Lineam": "101", "X": -70.642935154499995, "Y": -33.4357142084 }, "geometry": { "type": "Point", "coordinates": [ -70.642935, -33.435714, 0.0 ] } },
{ "type": "Feature", "properties": { "OBJECTID_1": 64, "Tipo_B": "Tulipa", "Sector": "102", "Estado": null, "Cap": 60, "Tipo": "101", "Lineam": "101", "X": -70.642860216700001, "Y": -33.435938701300003 }, "geometry": { "type": "Point", "coordinates": [ -70.64286, -33.435939, 0.0 ] } },
{ "type": "Feature", "properties": { "OBJECTID_1": 65, "Tipo_B": "Tulipa", "Sector": "102", "Estado": null, "Cap": 60, "Tipo": "101", "Lineam": "101", "X": -70.642683586800004, "Y": -33.434987038400003 }, "geometry": { "type": "Point", "coordinates": [ -70.642684, -33.434987, 0.0 ] } },
{ "type": "Feature", "properties": { "OBJECTID_1": 66, "Tipo_B": "Tulipa", "Sector": "102", "Estado": null, "Cap": 60, "Tipo": "101", "Lineam": "101", "X": -70.639970334699996, "Y": -33.436312121900002 }, "geometry": { "type": "Point", "coordinates": [ -70.63997, -33.436312, 0.0 ] } },
{ "type": "Feature", "properties": { "OBJECTID_1": 67, "Tipo_B": "Tulipa", "Sector": "102", "Estado": null, "Cap": 60, "Tipo": "101", "Lineam": "101", "X": -70.640358403999997, "Y": -33.436278338299999 }, "geometry": { "type": "Point", "coordinates": [ -70.640358, -33.436278, 0.0 ] } },
{ "type": "Feature", "properties": { "OBJECTID_1": 68, "Tipo_B": "Tulipa", "Sector": "102", "Estado": null, "Cap": 60, "Tipo": "101", "Lineam": "101", "X": -70.641788753599997, "Y": -33.4356839107 }, "geometry": { "type": "Point", "coordinates": [ -70.641789, -33.435684, 0.0 ] } },
{ "type": "Feature", "properties": { "OBJECTID_1": 69, "Tipo_B": "Tulipa", "Sector": "102", "Estado": null, "Cap": 60, "Tipo": "101", "Lineam": "101", "X": -70.6421603374, "Y": -33.435612672200001 }, "geometry": { "type": "Point", "coordinates": [ -70.64216, -33.435613, 0.0 ] } },
{ "type": "Feature", "properties": { "OBJECTID_1": 70, "Tipo_B": "Tulipa", "Sector": "102", "Estado": null, "Cap": 60, "Tipo": "101", "Lineam": "101", "X": -70.642435184700005, "Y": -33.435549446099998 }, "geometry": { "type": "Point", "coordinates": [ -70.642435, -33.435549, 0.0 ] } },
{ "type": "Feature", "properties": { "OBJECTID_1": 71, "Tipo_B": "Tulipa", "Sector": "102", "Estado": null, "Cap": 60, "Tipo": "101", "Lineam": "101", "X": -70.642061558199998, "Y": -33.435524222300003 }, "geometry": { "type": "Point", "coordinates": [ -70.642062, -33.435524, 0.0 ] } },
{ "type": "Feature", "properties": { "OBJECTID_1": 72, "Tipo_B": "Tulipa", "Sector": "102", "Estado": null, "Cap": 60, "Tipo": "101", "Lineam": "101", "X": -70.6417593364, "Y": -33.435312683900001 }, "geometry": { "type": "Point", "coordinates": [ -70.641759, -33.435313, 0.0 ] } },
{ "type": "Feature", "properties": { "OBJECTID_1": 73, "Tipo_B": "Tulipa", "Sector": "102", "Estado": null, "Cap": 60, "Tipo": "101", "Lineam": "101", "X": -70.639416909399998, "Y": -33.4365866813 }, "geometry": { "type": "Point", "coordinates": [ -70.639417, -33.436587, 0.0 ] } },
{ "type": "Feature", "properties": { "OBJECTID_1": 74, "Tipo_B": "Tulipa", "Sector": "102", "Estado": null, "Cap": 60, "Tipo": "101", "Lineam": "101", "X": -70.639222538300004, "Y": -33.435793599599997 }, "geometry": { "type": "Point", "coordinates": [ -70.639223, -33.435794, 0.0 ] } },
{ "type": "Feature", "properties": { "OBJECTID_1": 75, "Tipo_B": "Tulipa", "Sector": "102", "Estado": null, "Cap": 60, "Tipo": "101", "Lineam": "101", "X": -70.640653928299997, "Y": -33.436524522299997 }, "geometry": { "type": "Point", "coordinates": [ -70.640654, -33.436525, 0.0 ] } },
{ "type": "Feature", "properties": { "OBJECTID_1": 76, "Tipo_B": "Tulipa", "Sector": "102", "Estado": null, "Cap": 60, "Tipo": "101", "Lineam": "101", "X": -70.642248885300006, "Y": -33.435413913399998 }, "geometry": { "type": "Point", "coordinates": [ -70.642249, -33.435414, 0.0 ] } },
{ "type": "Feature", "properties": { "OBJECTID_1": 77, "Tipo_B": "Tulipa", "Sector": "102", "Estado": null, "Cap": 60, "Tipo": "101", "Lineam": "101", "X": -70.639481546, "Y": -33.435629468400002 }, "geometry": { "type": "Point", "coordinates": [ -70.639482, -33.435629, 0.0 ] } },
{ "type": "Feature", "properties": { "OBJECTID_1": 78, "Tipo_B": "Tulipa", "Sector": "102", "Estado": null, "Cap": 60, "Tipo": "101", "Lineam": "101", "X": -70.640057015400004, "Y": -33.4358283945 }, "geometry": { "type": "Point", "coordinates": [ -70.640057, -33.435828, 0.0 ] } },
{ "type": "Feature", "properties": { "OBJECTID_1": 79, "Tipo_B": "Vaivén", "Sector": "104", "Estado": null, "Cap": 50, "Tipo": null, "Lineam": "102", "X": -70.646476501500004, "Y": -33.434106288300001 }, "geometry": { "type": "Point", "coordinates": [ -70.646477, -33.434106, 0.0 ] } },
{ "type": "Feature", "properties": { "OBJECTID_1": 80, "Tipo_B": "Vaivén", "Sector": "104", "Estado": null, "Cap": 50, "Tipo": null, "Lineam": "102", "X": -70.645806979900001, "Y": -33.434262766400003 }, "geometry": { "type": "Point", "coordinates": [ -70.645807, -33.434263, 0.0 ] } },
{ "type": "Feature", "properties": { "OBJECTID_1": 81, "Tipo_B": "Vaivén", "Sector": "104", "Estado": null, "Cap": 50, "Tipo": null, "Lineam": "102", "X": -70.646171232300006, "Y": -33.4342622562 }, "geometry": { "type": "Point", "coordinates": [ -70.646171, -33.434262, 0.0 ] } },
{ "type": "Feature", "properties": { "OBJECTID_1": 82, "Tipo_B": "Vaivén", "Sector": "104", "Estado": null, "Cap": 50, "Tipo": null, "Lineam": "102", "X": -70.646212016299998, "Y": -33.434383630900001 }, "geometry": { "type": "Point", "coordinates": [ -70.646212, -33.434384, 0.0 ] } },
{ "type": "Feature", "properties": { "OBJECTID_1": 83, "Tipo_B": "Vaivén", "Sector": "104", "Estado": null, "Cap": 50, "Tipo": null, "Lineam": "102", "X": -70.645919952300005, "Y": -33.434325211800001 }, "geometry": { "type": "Point", "coordinates": [ -70.64592, -33.434325, 0.0 ] } },
{ "type": "Feature", "properties": { "OBJECTID_1": 84, "Tipo_B": "Vaivén", "Sector": "104", "Estado": null, "Cap": 50, "Tipo": null, "Lineam": "102", "X": -70.6470821809, "Y": -33.433859225699997 }, "geometry": { "type": "Point", "coordinates": [ -70.647082, -33.433859, 0.0 ] } },
{ "type": "Feature", "properties": { "OBJECTID_1": 85, "Tipo_B": "Vaivén", "Sector": "104", "Estado": null, "Cap": 50, "Tipo": null, "Lineam": "102", "X": -70.646208599199994, "Y": -33.4340649353 }, "geometry": { "type": "Point", "coordinates": [ -70.646209, -33.434065, 0.0 ] } },
{ "type": "Feature", "properties": { "OBJECTID_1": 86, "Tipo_B": "Vaivén", "Sector": "104", "Estado": null, "Cap": 50, "Tipo": null, "Lineam": "102", "X": -70.647507568799995, "Y": -33.4340722349 }, "geometry": { "type": "Point", "coordinates": [ -70.647508, -33.434072, 0.0 ] } },
{ "type": "Feature", "properties": { "OBJECTID_1": 87, "Tipo_B": "Vaivén", "Sector": "104", "Estado": null, "Cap": 50, "Tipo": null, "Lineam": "102", "X": -70.647004171399999, "Y": -33.433983641799998 }, "geometry": { "type": "Point", "coordinates": [ -70.647004, -33.433984, 0.0 ] } },
{ "type": "Feature", "properties": { "OBJECTID_1": 88, "Tipo_B": "Vaivén", "Sector": "104", "Estado": null, "Cap": 50, "Tipo": null, "Lineam": "102", "X": -70.646699815600002, "Y": -33.434058017700004 }, "geometry": { "type": "Point", "coordinates": [ -70.6467, -33.434058, 0.0 ] } },
{ "type": "Feature", "properties": { "OBJECTID_1": 89, "Tipo_B": "Vaivén", "Sector": "104", "Estado": null, "Cap": 50, "Tipo": null, "Lineam": "102", "X": -70.646702394200005, "Y": -33.4342020801 }, "geometry": { "type": "Point", "coordinates": [ -70.646702, -33.434202, 0.0 ] } },
{ "type": "Feature", "properties": { "OBJECTID_1": 90, "Tipo_B": "Vaivén", "Sector": "104", "Estado": null, "Cap": 50, "Tipo": null, "Lineam": "102", "X": -70.647801964500005, "Y": -33.433349952599997 }, "geometry": { "type": "Point", "coordinates": [ -70.647802, -33.43335, 0.0 ] } },
{ "type": "Feature", "properties": { "OBJECTID_1": 91, "Tipo_B": "Vaivén", "Sector": "104", "Estado": null, "Cap": 50, "Tipo": null, "Lineam": "102", "X": -70.646577172299999, "Y": -33.4336345205 }, "geometry": { "type": "Point", "coordinates": [ -70.646577, -33.433635, 0.0 ] } },
{ "type": "Feature", "properties": { "OBJECTID_1": 92, "Tipo_B": "Vaivén", "Sector": "104", "Estado": null, "Cap": 50, "Tipo": null, "Lineam": "102", "X": -70.645912714100007, "Y": -33.433791114000002 }, "geometry": { "type": "Point", "coordinates": [ -70.645913, -33.433791, 0.0 ] } },
{ "type": "Feature", "properties": { "OBJECTID_1": 93, "Tipo_B": "Vaivén", "Sector": "104", "Estado": null, "Cap": 50, "Tipo": null, "Lineam": "102", "X": -70.647099226400002, "Y": -33.4335137319 }, "geometry": { "type": "Point", "coordinates": [ -70.647099, -33.433514, 0.0 ] } },
{ "type": "Feature", "properties": { "OBJECTID_1": 94, "Tipo_B": "Vaivén", "Sector": "104", "Estado": null, "Cap": 50, "Tipo": null, "Lineam": "102", "X": -70.645676598500003, "Y": -33.433853632400002 }, "geometry": { "type": "Point", "coordinates": [ -70.645677, -33.433854, 0.0 ] } },
{ "type": "Feature", "properties": { "OBJECTID_1": 95, "Tipo_B": "Vaivén", "Sector": "104", "Estado": null, "Cap": 50, "Tipo": null, "Lineam": "102", "X": -70.647617669799999, "Y": -33.433457101899997 }, "geometry": { "type": "Point", "coordinates": [ -70.647618, -33.433457, 0.0 ] } },
{ "type": "Feature", "properties": { "OBJECTID_1": 96, "Tipo_B": "Vaivén", "Sector": "104", "Estado": null, "Cap": 50, "Tipo": null, "Lineam": "102", "X": -70.647204544700003, "Y": -33.433463536799998 }, "geometry": { "type": "Point", "coordinates": [ -70.647205, -33.433464, 0.0 ] } },
{ "type": "Feature", "properties": { "OBJECTID_1": 97, "Tipo_B": "Vaivén", "Sector": "104", "Estado": null, "Cap": 50, "Tipo": null, "Lineam": "102", "X": -70.646449516000004, "Y": -33.433638632499999 }, "geometry": { "type": "Point", "coordinates": [ -70.64645, -33.433639, 0.0 ] } },
{ "type": "Feature", "properties": { "OBJECTID_1": 98, "Tipo_B": "Vaivén", "Sector": "104", "Estado": null, "Cap": 50, "Tipo": null, "Lineam": "102", "X": -70.646284725000001, "Y": -33.433677156999998 }, "geometry": { "type": "Point", "coordinates": [ -70.646285, -33.433677, 0.0 ] } },
{ "type": "Feature", "properties": { "OBJECTID_1": 99, "Tipo_B": "Vaivén", "Sector": "104", "Estado": null, "Cap": 50, "Tipo": null, "Lineam": "102", "X": -70.646035461300002, "Y": -33.433734980799997 }, "geometry": { "type": "Point", "coordinates": [ -70.646035, -33.433735, 0.0 ] } },
{ "type": "Feature", "properties": { "OBJECTID_1": 100, "Tipo_B": "Vaivén", "Sector": "104", "Estado": null, "Cap": 50, "Tipo": null, "Lineam": "102", "X": -70.648620794899998, "Y": -33.433677387700001 }, "geometry": { "type": "Point", "coordinates": [ -70.648621, -33.433677, 0.0 ] } },
{ "type": "Feature", "properties": { "OBJECTID_1": 101, "Tipo_B": "Vaivén", "Sector": "104", "Estado": null, "Cap": 50, "Tipo": null, "Lineam": "102", "X": -70.648051397000003, "Y": -33.433752650899997 }, "geometry": { "type": "Point", "coordinates": [ -70.648051, -33.433753, 0.0 ] } },
{ "type": "Feature", "properties": { "OBJECTID_1": 102, "Tipo_B": "Vaivén", "Sector": "104", "Estado": null, "Cap": 50, "Tipo": null, "Lineam": "102", "X": -70.648511489599997, "Y": -33.433559113500003 }, "geometry": { "type": "Point", "coordinates": [ -70.648511, -33.433559, 0.0 ] } },
{ "type": "Feature", "properties": { "OBJECTID_1": 103, "Tipo_B": "Vaivén", "Sector": "104", "Estado": null, "Cap": 50, "Tipo": null, "Lineam": "102", "X": -70.648390082999995, "Y": -33.433589740199999 }, "geometry": { "type": "Point", "coordinates": [ -70.64839, -33.43359, 0.0 ] } },
{ "type": "Feature", "properties": { "OBJECTID_1": 104, "Tipo_B": "Vaivén", "Sector": "104", "Estado": null, "Cap": 50, "Tipo": null, "Lineam": "102", "X": -70.648321788499999, "Y": -33.433603765199997 }, "geometry": { "type": "Point", "coordinates": [ -70.648322, -33.433604, 0.0 ] } },
{ "type": "Feature", "properties": { "OBJECTID_1": 105, "Tipo_B": "Vaivén", "Sector": "101", "Estado": null, "Cap": 50, "Tipo": null, "Lineam": "102", "X": -70.637790312500002, "Y": -33.436456560700002 }, "geometry": { "type": "Point", "coordinates": [ -70.63779, -33.436457, 0.0 ] } },
{ "type": "Feature", "properties": { "OBJECTID_1": 106, "Tipo_B": "Vaivén", "Sector": "101", "Estado": null, "Cap": 50, "Tipo": null, "Lineam": "102", "X": -70.637934831199999, "Y": -33.4362362297 }, "geometry": { "type": "Point", "coordinates": [ -70.637935, -33.436236, 0.0 ] } },
{ "type": "Feature", "properties": { "OBJECTID_1": 107, "Tipo_B": "Vaivén", "Sector": "104", "Estado": null, "Cap": 50, "Tipo": null, "Lineam": "102", "X": -70.646178838899999, "Y": -33.434176481599998 }, "geometry": { "type": "Point", "coordinates": [ -70.646179, -33.434176, 0.0 ] } },
{ "type": "Feature", "properties": { "OBJECTID_1": 108, "Tipo_B": "Vaivén", "Sector": "103", "Estado": null, "Cap": 50, "Tipo": null, "Lineam": "102", "X": -70.645336214400004, "Y": -33.434225556000001 }, "geometry": { "type": "Point", "coordinates": [ -70.645336, -33.434226, 0.0 ] } },
{ "type": "Feature", "properties": { "OBJECTID_1": 109, "Tipo_B": "Vaivén", "Sector": "103", "Estado": null, "Cap": 50, "Tipo": null, "Lineam": "102", "X": -70.643074008100001, "Y": -33.434791279400002 }, "geometry": { "type": "Point", "coordinates": [ -70.643074, -33.434791, 0.0 ] } },
{ "type": "Feature", "properties": { "OBJECTID_1": 110, "Tipo_B": "Vaivén", "Sector": "103", "Estado": null, "Cap": 50, "Tipo": null, "Lineam": "102", "X": -70.643487942700006, "Y": -33.435749131199998 }, "geometry": { "type": "Point", "coordinates": [ -70.643488, -33.435749, 0.0 ] } },
{ "type": "Feature", "properties": { "OBJECTID_1": 111, "Tipo_B": "Vaivén", "Sector": "103", "Estado": null, "Cap": 50, "Tipo": null, "Lineam": "102", "X": -70.643343149900005, "Y": -33.435709395799996 }, "geometry": { "type": "Point", "coordinates": [ -70.643343, -33.435709, 0.0 ] } },
{ "type": "Feature", "properties": { "OBJECTID_1": 112, "Tipo_B": "Vaivén", "Sector": "103", "Estado": null, "Cap": 50, "Tipo": null, "Lineam": "102", "X": -70.644126228999994, "Y": -33.435528737799999 }, "geometry": { "type": "Point", "coordinates": [ -70.644126, -33.435529, 0.0 ] } },
{ "type": "Feature", "properties": { "OBJECTID_1": 113, "Tipo_B": "Vaivén", "Sector": "103", "Estado": null, "Cap": 50, "Tipo": null, "Lineam": "102", "X": -70.644562311100003, "Y": -33.435338997099997 }, "geometry": { "type": "Point", "coordinates": [ -70.644562, -33.435339, 0.0 ] } },
{ "type": "Feature", "properties": { "OBJECTID_1": 114, "Tipo_B": "Vaivén", "Sector": "103", "Estado": null, "Cap": 50, "Tipo": null, "Lineam": "102", "X": -70.643480112700004, "Y": -33.434696402500002 }, "geometry": { "type": "Point", "coordinates": [ -70.64348, -33.434696, 0.0 ] } },
{ "type": "Feature", "properties": { "OBJECTID_1": 115, "Tipo_B": "Vaivén", "Sector": null, "Estado": null, "Cap": 50, "Tipo": null, "Lineam": null, "X": -70.639516768500002, "Y": -33.435283002600002 }, "geometry": { "type": "Point", "coordinates": [ -70.639517, -33.435283, 0.0 ] } },
{ "type": "Feature", "properties": { "OBJECTID_1": 116, "Tipo_B": "Vaivén", "Sector": null, "Estado": null, "Cap": 50, "Tipo": null, "Lineam": null, "X": -70.642139141399994, "Y": -33.434673075900001 }, "geometry": { "type": "Point", "coordinates": [ -70.642139, -33.434673, 0.0 ] } },
{ "type": "Feature", "properties": { "OBJECTID_1": 117, "Tipo_B": "Vaivén", "Sector": null, "Estado": null, "Cap": 50, "Tipo": null, "Lineam": null, "X": -70.641659190599995, "Y": -33.434785796600003 }, "geometry": { "type": "Point", "coordinates": [ -70.641659, -33.434786, 0.0 ] } },
{ "type": "Feature", "properties": { "OBJECTID_1": 118, "Tipo_B": "Vaivén", "Sector": null, "Estado": null, "Cap": 50, "Tipo": null, "Lineam": null, "X": -70.641148826399998, "Y": -33.434902852699999 }, "geometry": { "type": "Point", "coordinates": [ -70.641149, -33.434903, 0.0 ] } },
{ "type": "Feature", "properties": { "OBJECTID_1": 119, "Tipo_B": "Vaivén", "Sector": null, "Estado": null, "Cap": 50, "Tipo": null, "Lineam": null, "X": -70.640788524399994, "Y": -33.434959273300002 }, "geometry": { "type": "Point", "coordinates": [ -70.640789, -33.434959, 0.0 ] } },
{ "type": "Feature", "properties": { "OBJECTID_1": 120, "Tipo_B": "Vaivén", "Sector": null, "Estado": null, "Cap": 50, "Tipo": null, "Lineam": null, "X": -70.640512068299998, "Y": -33.435052434200003 }, "geometry": { "type": "Point", "coordinates": [ -70.640512, -33.435052, 0.0 ] } },
{ "type": "Feature", "properties": { "OBJECTID_1": 121, "Tipo_B": "Vaivén", "Sector": "104", "Estado": null, "Cap": 50, "Tipo": null, "Lineam": "102", "X": -70.647255736899993, "Y": -33.433973512800002 }, "geometry": { "type": "Point", "coordinates": [ -70.647256, -33.433974, 0.0 ] } },
{ "type": "Feature", "properties": { "OBJECTID_1": 122, "Tipo_B": "Vaivén", "Sector": "104", "Estado": null, "Cap": 50, "Tipo": null, "Lineam": "102", "X": -70.647404898000005, "Y": -33.433935763699999 }, "geometry": { "type": "Point", "coordinates": [ -70.647405, -33.433936, 0.0 ] } },
{ "type": "Feature", "properties": { "OBJECTID_1": 123, "Tipo_B": "Vaivén", "Sector": "104", "Estado": null, "Cap": 50, "Tipo": null, "Lineam": "102", "X": -70.647631838899997, "Y": -33.433837798600003 }, "geometry": { "type": "Point", "coordinates": [ -70.647632, -33.433838, 0.0 ] } },
{ "type": "Feature", "properties": { "OBJECTID_1": 124, "Tipo_B": "Vaivén", "Sector": "104", "Estado": null, "Cap": 50, "Tipo": null, "Lineam": "102", "X": -70.647598707699998, "Y": -33.433736655200001 }, "geometry": { "type": "Point", "coordinates": [ -70.647599, -33.433737, 0.0 ] } },
{ "type": "Feature", "properties": { "OBJECTID_1": 125, "Tipo_B": "Vaivén", "Sector": "104", "Estado": null, "Cap": 50, "Tipo": null, "Lineam": "102", "X": -70.646863018100007, "Y": -33.433909653999997 }, "geometry": { "type": "Point", "coordinates": [ -70.646863, -33.43391, 0.0 ] } },
{ "type": "Feature", "properties": { "OBJECTID_1": 126, "Tipo_B": "Vaivén", "Sector": "104", "Estado": null, "Cap": 50, "Tipo": null, "Lineam": "102", "X": -70.646315400399999, "Y": -33.434520236099999 }, "geometry": { "type": "Point", "coordinates": [ -70.646315, -33.43452, 0.0 ] } },
{ "type": "Feature", "properties": { "OBJECTID_1": 127, "Tipo_B": "Vaivén", "Sector": "104", "Estado": null, "Cap": 50, "Tipo": null, "Lineam": "102", "X": -70.646107968500004, "Y": -33.434624444800001 }, "geometry": { "type": "Point", "coordinates": [ -70.646108, -33.434624, 0.0 ] } },
{ "type": "Feature", "properties": { "OBJECTID_1": 128, "Tipo_B": "Vaivén", "Sector": "104", "Estado": null, "Cap": 50, "Tipo": null, "Lineam": "102", "X": -70.645744780699999, "Y": -33.434483455699997 }, "geometry": { "type": "Point", "coordinates": [ -70.645745, -33.434483, 0.0 ] } },
{ "type": "Feature", "properties": { "OBJECTID_1": 129, "Tipo_B": "Vaivén", "Sector": "104", "Estado": null, "Cap": 50, "Tipo": null, "Lineam": "102", "X": -70.645978087299994, "Y": -33.434444737500002 }, "geometry": { "type": "Point", "coordinates": [ -70.645978, -33.434445, 0.0 ] } },
{ "type": "Feature", "properties": { "OBJECTID_1": 130, "Tipo_B": "Vaivén", "Sector": "104", "Estado": null, "Cap": 50, "Tipo": null, "Lineam": "102", "X": -70.645697120799994, "Y": -33.434404401899997 }, "geometry": { "type": "Point", "coordinates": [ -70.645697, -33.434404, 0.0 ] } },
{ "type": "Feature", "properties": { "OBJECTID_1": 131, "Tipo_B": "Vaivén", "Sector": "104", "Estado": null, "Cap": 50, "Tipo": null, "Lineam": "102", "X": -70.646723492700005, "Y": -33.434338005599997 }, "geometry": { "type": "Point", "coordinates": [ -70.646723, -33.434338, 0.0 ] } },
{ "type": "Feature", "properties": { "OBJECTID_1": 132, "Tipo_B": "Vaivén", "Sector": "103", "Estado": null, "Cap": 50, "Tipo": null, "Lineam": "102", "X": -70.643342030100001, "Y": -33.434838591400002 }, "geometry": { "type": "Point", "coordinates": [ -70.643342, -33.434839, 0.0 ] } },
{ "type": "Feature", "properties": { "OBJECTID_1": 133, "Tipo_B": "Vaivén", "Sector": "103", "Estado": null, "Cap": 50, "Tipo": null, "Lineam": "102", "X": -70.643234408200001, "Y": -33.434965526 }, "geometry": { "type": "Point", "coordinates": [ -70.643234, -33.434966, 0.0 ] } },
{ "type": "Feature", "properties": { "OBJECTID_1": 134, "Tipo_B": "Vaivén", "Sector": "103", "Estado": null, "Cap": 50, "Tipo": null, "Lineam": "102", "X": -70.643394926, "Y": -33.434934679900003 }, "geometry": { "type": "Point", "coordinates": [ -70.643395, -33.434935, 0.0 ] } },
{ "type": "Feature", "properties": { "OBJECTID_1": 135, "Tipo_B": "Vaivén", "Sector": "103", "Estado": null, "Cap": 50, "Tipo": null, "Lineam": "102", "X": -70.643835178499998, "Y": -33.434725741500003 }, "geometry": { "type": "Point", "coordinates": [ -70.643835, -33.434726, 0.0 ] } },
{ "type": "Feature", "properties": { "OBJECTID_1": 136, "Tipo_B": "Vaivén", "Sector": "103", "Estado": null, "Cap": 50, "Tipo": null, "Lineam": "102", "X": -70.643820281700002, "Y": -33.434825691100002 }, "geometry": { "type": "Point", "coordinates": [ -70.64382, -33.434826, 0.0 ] } },
{ "type": "Feature", "properties": { "OBJECTID_1": 137, "Tipo_B": "Vaivén", "Sector": "103", "Estado": null, "Cap": 50, "Tipo": null, "Lineam": "102", "X": -70.644102080099998, "Y": -33.434870633700001 }, "geometry": { "type": "Point", "coordinates": [ -70.644102, -33.434871, 0.0 ] } },
{ "type": "Feature", "properties": { "OBJECTID_1": 138, "Tipo_B": "Vaivén", "Sector": "103", "Estado": null, "Cap": 50, "Tipo": null, "Lineam": "102", "X": -70.644074276200001, "Y": -33.434560343500003 }, "geometry": { "type": "Point", "coordinates": [ -70.644074, -33.43456, 0.0 ] } },
{ "type": "Feature", "properties": { "OBJECTID_1": 139, "Tipo_B": "Vaivén", "Sector": "103", "Estado": null, "Cap": 50, "Tipo": null, "Lineam": "102", "X": -70.644629967599997, "Y": -33.434429589600001 }, "geometry": { "type": "Point", "coordinates": [ -70.64463, -33.43443, 0.0 ] } },
{ "type": "Feature", "properties": { "OBJECTID_1": 140, "Tipo_B": "Vaivén", "Sector": "103", "Estado": null, "Cap": 50, "Tipo": null, "Lineam": "102", "X": -70.644982909500001, "Y": -33.434510856400003 }, "geometry": { "type": "Point", "coordinates": [ -70.644983, -33.434511, 0.0 ] } },
{ "type": "Feature", "properties": { "OBJECTID_1": 141, "Tipo_B": "Vaivén", "Sector": "103", "Estado": null, "Cap": 50, "Tipo": null, "Lineam": "102", "X": -70.644901141600002, "Y": -33.434639102399998 }, "geometry": { "type": "Point", "coordinates": [ -70.644901, -33.434639, 0.0 ] } },
{ "type": "Feature", "properties": { "OBJECTID_1": 142, "Tipo_B": "Vaivén", "Sector": "103", "Estado": null, "Cap": 50, "Tipo": null, "Lineam": "102", "X": -70.645102045300007, "Y": -33.4346769868 }, "geometry": { "type": "Point", "coordinates": [ -70.645102, -33.434677, 0.0 ] } },
{ "type": "Feature", "properties": { "OBJECTID_1": 143, "Tipo_B": "Vaivén", "Sector": "103", "Estado": null, "Cap": 50, "Tipo": null, "Lineam": "102", "X": -70.644896767299997, "Y": -33.434871257499999 }, "geometry": { "type": "Point", "coordinates": [ -70.644897, -33.434871, 0.0 ] } },
{ "type": "Feature", "properties": { "OBJECTID_1": 144, "Tipo_B": "Vaivén", "Sector": "103", "Estado": null, "Cap": 50, "Tipo": null, "Lineam": "102", "X": -70.6449539953, "Y": -33.435023197500001 }, "geometry": { "type": "Point", "coordinates": [ -70.644954, -33.435023, 0.0 ] } },
{ "type": "Feature", "properties": { "OBJECTID_1": 145, "Tipo_B": "Vaivén", "Sector": "103", "Estado": null, "Cap": 50, "Tipo": null, "Lineam": "102", "X": -70.645028709499996, "Y": -33.4350588593 }, "geometry": { "type": "Point", "coordinates": [ -70.645029, -33.435059, 0.0 ] } },
{ "type": "Feature", "properties": { "OBJECTID_1": 146, "Tipo_B": "Vaivén", "Sector": "103", "Estado": null, "Cap": 50, "Tipo": null, "Lineam": "102", "X": -70.644695620899995, "Y": -33.435188430899998 }, "geometry": { "type": "Point", "coordinates": [ -70.644696, -33.435188, 0.0 ] } },
{ "type": "Feature", "properties": { "OBJECTID_1": 147, "Tipo_B": "Vaivén", "Sector": "103", "Estado": null, "Cap": 50, "Tipo": null, "Lineam": "102", "X": -70.645462030999994, "Y": -33.434642151299997 }, "geometry": { "type": "Point", "coordinates": [ -70.645462, -33.434642, 0.0 ] } },
{ "type": "Feature", "properties": { "OBJECTID_1": 148, "Tipo_B": "Vaivén", "Sector": "103", "Estado": null, "Cap": 50, "Tipo": null, "Lineam": "102", "X": -70.645471498399999, "Y": -33.434838143299999 }, "geometry": { "type": "Point", "coordinates": [ -70.645471, -33.434838, 0.0 ] } },
{ "type": "Feature", "properties": { "OBJECTID_1": 149, "Tipo_B": "Vaivén", "Sector": "103", "Estado": null, "Cap": 50, "Tipo": null, "Lineam": "102", "X": -70.645664875899996, "Y": -33.4348330284 }, "geometry": { "type": "Point", "coordinates": [ -70.645665, -33.434833, 0.0 ] } },
{ "type": "Feature", "properties": { "OBJECTID_1": 150, "Tipo_B": "Vaivén", "Sector": "103", "Estado": null, "Cap": 50, "Tipo": null, "Lineam": "102", "X": -70.6436920684, "Y": -33.4342841108 }, "geometry": { "type": "Point", "coordinates": [ -70.643692, -33.434284, 0.0 ] } },
{ "type": "Feature", "properties": { "OBJECTID_1": 151, "Tipo_B": "Tulipa", "Sector": "102", "Estado": null, "Cap": 60, "Tipo": "101", "Lineam": "101", "X": -70.642484862000003, "Y": -33.434928518100001 }, "geometry": { "type": "Point", "coordinates": [ -70.642485, -33.434929, 0.0 ] } },
{ "type": "Feature", "properties": { "OBJECTID_1": 152, "Tipo_B": "Vaivén", "Sector": "103", "Estado": null, "Cap": 50, "Tipo": null, "Lineam": "102", "X": -70.645330935700002, "Y": -33.434374641300003 }, "geometry": { "type": "Point", "coordinates": [ -70.645331, -33.434375, 0.0 ] } },
{ "type": "Feature", "properties": { "OBJECTID_1": 153, "Tipo_B": "Tulipa", "Sector": "102", "Estado": null, "Cap": 60, "Tipo": "101", "Lineam": "101", "X": -70.642105681000004, "Y": -33.435166864000003 }, "geometry": { "type": "Point", "coordinates": [ -70.642106, -33.435167, 0.0 ] } },
{ "type": "Feature", "properties": { "OBJECTID_1": 154, "Tipo_B": "Tulipa", "Sector": "102", "Estado": null, "Cap": 60, "Tipo": "101", "Lineam": "101", "X": -70.641899329799998, "Y": -33.435173311299998 }, "geometry": { "type": "Point", "coordinates": [ -70.641899, -33.435173, 0.0 ] } },
{ "type": "Feature", "properties": { "OBJECTID_1": 155, "Tipo_B": "Tulipa", "Sector": "102", "Estado": null, "Cap": 60, "Tipo": "101", "Lineam": "101", "X": -70.641436509800002, "Y": -33.4352816488 }, "geometry": { "type": "Point", "coordinates": [ -70.641437, -33.435282, 0.0 ] } },
{ "type": "Feature", "properties": { "OBJECTID_1": 156, "Tipo_B": "Tulipa", "Sector": "102", "Estado": null, "Cap": 60, "Tipo": "101", "Lineam": "101", "X": -70.641397430599994, "Y": -33.435181479699999 }, "geometry": { "type": "Point", "coordinates": [ -70.641397, -33.435181, 0.0 ] } }
]
}
