{
"type": "FeatureCollection",
"name": "AMB_POL_AREAS_RECOLECCION_DOMICILIARIA",
"features": [
{ "type": "Feature", "properties": { "RUTA": "CP12", "RUTA_ASEO": 0, "VIAJES": 3, "LONG_M": 2432.4055118852216, "AREA_M2": 372775.58757692541, "FUENTE": "Areas Recoleccion Domiciliaria", "ANIO_REF": "SIN ESPECIFICAR", "ESTADO_REV": "VALIDADO" }, "geometry": { "type": "Polygon", "coordinates": [ [ [ -70.67363, -33.42773 ], [ -70.67666, -33.42668 ], [ -70.676922, -33.426634 ], [ -70.677233, -33.42663 ], [ -70.677494, -33.426662 ], [ -70.677804, -33.426783 ], [ -70.678338, -33.427027 ], [ -70.679131, -33.427351 ], [ -70.679644, -33.427714 ], [ -70.680084, -33.428173 ], [ -70.680304, -33.428492 ], [ -70.680563, -33.429094 ], [ -70.680668, -33.429556 ], [ -70.680539, -33.431611 ], [ -70.680426, -33.433076 ], [ -70.677634, -33.43279 ], [ -70.674064, -33.432428 ], [ -70.674376, -33.42919 ], [ -70.67352, -33.429173 ], [ -70.67363, -33.42773 ] ] ] } },
{ "type": "Feature", "properties": { "RUTA": "CP7", "RUTA_ASEO": 0, "VIAJES": 3, "LONG_M": 2396.949595541083, "AREA_M2": 323792.07766152726, "FUENTE": "Areas Recoleccion Domiciliaria", "ANIO_REF": "SIN ESPECIFICAR", "ESTADO_REV": "VALIDADO" }, "geometry": { "type": "Polygon", "coordinates": [ [ [ -70.67363, -33.42773 ], [ -70.67352, -33.429173 ], [ -70.674376, -33.42919 ], [ -70.674064, -33.432428 ], [ -70.673693, -33.435013 ], [ -70.668888, -33.434958 ], [ -70.668873, -33.4348 ], [ -70.669465, -33.429201 ], [ -70.67363, -33.42773 ] ] ] } },
{ "type": "Feature", "properties": { "RUTA": "CP9", "RUTA_ASEO": 0, "VIAJES": 0, "LONG_M": 2378.8351590181232, "AREA_M2": 354013.29074425838, "FUENTE": "Areas Recoleccion Domiciliaria", "ANIO_REF": "SIN ESPECIFICAR", "ESTADO_REV": "VALIDADO" }, "geometry": { "type": "Polygon", "coordinates": [ [ [ -70.674064, -33.432428 ], [ -70.680426, -33.433076 ], [ -70.68021, -33.43586 ], [ -70.679859, -33.438421 ], [ -70.674475, -33.438045 ], [ -70.674528, -33.437072 ], [ -70.673706, -33.436905 ], [ -70.673693, -33.435013 ], [ -70.674064, -33.432428 ] ] ] } },
{ "type": "Feature", "properties": { "RUTA": "CP11", "RUTA_ASEO": 0, "VIAJES": 0, "LONG_M": 2793.1912145467973, "AREA_M2": 455451.39793550357, "FUENTE": "Areas Recoleccion Domiciliaria", "ANIO_REF": "SIN ESPECIFICAR", "ESTADO_REV": "VALIDADO" }, "geometry": { "type": "Polygon", "coordinates": [ [ [ -70.668888, -33.434958 ], [ -70.673693, -33.435013 ], [ -70.673706, -33.436905 ], [ -70.674528, -33.437072 ], [ -70.674475, -33.438045 ], [ -70.67396, -33.44302 ], [ -70.668093, -33.442578 ], [ -70.668888, -33.434958 ] ] ] } },
{ "type": "Feature", "properties": { "RUTA": "CP8", "RUTA_ASEO": 0, "VIAJES": 0, "LONG_M": 4413.3505341265281, "AREA_M2": 939623.30864715506, "FUENTE": "Areas Recoleccion Domiciliaria", "ANIO_REF": "SIN ESPECIFICAR", "ESTADO_REV": "VALIDADO" }, "geometry": { "type": "Polygon", "coordinates": [ [ [ -70.674475, -33.438045 ], [ -70.69161, -33.43924 ], [ -70.69168, -33.444465 ], [ -70.679534, -33.443783 ], [ -70.679505, -33.443501 ], [ -70.67396, -33.44302 ], [ -70.674475, -33.438045 ] ] ] } },
{ "type": "Feature", "properties": { "RUTA": "CP10", "RUTA_ASEO": 0, "VIAJES": 0, "LONG_M": 2512.5691502891927, "AREA_M2": 360791.29247602588, "FUENTE": "Areas Recoleccion Domiciliaria", "ANIO_REF": "SIN ESPECIFICAR", "ESTADO_REV": "VALIDADO" }, "geometry": { "type": "Polygon", "coordinates": [ [ [ -70.669465, -33.429201 ], [ -70.66886, -33.43493 ], [ -70.661604, -33.434595 ], [ -70.660832, -33.434552 ], [ -70.661263, -33.431802 ], [ -70.662292, -33.431199 ], [ -70.669465, -33.429201 ] ] ] } },
{ "type": "Feature", "properties": { "RUTA": "NCP15", "RUTA_ASEO": 0, "VIAJES": 0, "LONG_M": 2681.4582858481685, "AREA_M2": 387413.61823183182, "FUENTE": "Areas Recoleccion Domiciliaria", "ANIO_REF": "SIN ESPECIFICAR", "ESTADO_REV": "VALIDADO" }, "geometry": { "type": "Polygon", "coordinates": [ [ [ -70.660832, -33.434552 ], [ -70.666313, -33.434802 ], [ -70.665973, -33.438834 ], [ -70.664738, -33.438754 ], [ -70.664921, -33.440014 ], [ -70.665153, -33.442145 ], [ -70.660464, -33.441622 ], [ -70.660266, -33.440756 ], [ -70.660155, -33.439464 ], [ -70.660832, -33.434552 ] ] ] } },
{ "type": "Feature", "properties": { "RUTA": "NCP16", "RUTA_ASEO": 0, "VIAJES": 0, "LONG_M": 4799.108836385727, "AREA_M2": 748956.75075445126, "FUENTE": "Areas Recoleccion Domiciliaria", "ANIO_REF": "SIN ESPECIFICAR", "ESTADO_REV": "VALIDADO" }, "geometry": { "type": "Polygon", "coordinates": [ [ [ -70.660765, -33.445896 ], [ -70.660384, -33.441563 ], [ -70.665153, -33.442145 ], [ -70.664738, -33.438754 ], [ -70.665973, -33.438834 ], [ -70.666313, -33.434802 ], [ -70.668888, -33.434958 ], [ -70.668093, -33.442578 ], [ -70.67125, -33.442842 ], [ -70.670963, -33.445476 ], [ -70.6703, -33.448344 ], [ -70.664161, -33.446766 ], [ -70.660765, -33.445896 ] ] ] } },
{ "type": "Feature", "properties": { "RUTA": "NCP14", "RUTA_ASEO": 0, "VIAJES": 0, "LONG_M": 3041.0351296076037, "AREA_M2": 569227.56390113127, "FUENTE": "Areas Recoleccion Domiciliaria", "ANIO_REF": "SIN ESPECIFICAR", "ESTADO_REV": "VALIDADO" }, "geometry": { "type": "Polygon", "coordinates": [ [ [ -70.67125, -33.442842 ], [ -70.67396, -33.44302 ], [ -70.679505, -33.443501 ], [ -70.67901, -33.45072 ], [ -70.6703, -33.448344 ], [ -70.67125, -33.442842 ] ] ] } },
{ "type": "Feature", "properties": { "RUTA": "NP48", "RUTA_ASEO": 0, "VIAJES": 0, "LONG_M": 2526.2502869254299, "AREA_M2": 394017.53818265314, "FUENTE": "Areas Recoleccion Domiciliaria", "ANIO_REF": "SIN ESPECIFICAR", "ESTADO_REV": "VALIDADO" }, "geometry": { "type": "Polygon", "coordinates": [ [ [ -70.660765, -33.445896 ], [ -70.666635, -33.447437 ], [ -70.666308, -33.453035 ], [ -70.65923, -33.45169 ], [ -70.660765, -33.445896 ] ] ] } },
{ "type": "Feature", "properties": { "RUTA": "NP47", "RUTA_ASEO": 0, "VIAJES": 0, "LONG_M": 2830.3234173541, "AREA_M2": 479931.29986548913, "FUENTE": "Areas Recoleccion Domiciliaria", "ANIO_REF": "SIN ESPECIFICAR", "ESTADO_REV": "VALIDADO" }, "geometry": { "type": "Polygon", "coordinates": [ [ [ -70.666635, -33.447437 ], [ -70.675579, -33.449784 ], [ -70.674364, -33.454769 ], [ -70.666308, -33.453035 ], [ -70.666635, -33.447437 ] ] ] } },
{ "type": "Feature", "properties": { "RUTA": "NP5O", "RUTA_ASEO": 0, "VIAJES": 0, "LONG_M": 1710.3580372301717, "AREA_M2": 158819.3746645588, "FUENTE": "Areas Recoleccion Domiciliaria", "ANIO_REF": "SIN ESPECIFICAR", "ESTADO_REV": "VALIDADO" }, "geometry": { "type": "Polygon", "coordinates": [ [ [ -70.675579, -33.449784 ], [ -70.677798, -33.450363 ], [ -70.678098, -33.455523 ], [ -70.674364, -33.454769 ], [ -70.675579, -33.449784 ] ] ] } },
{ "type": "Feature", "properties": { "RUTA": "NP49", "RUTA_ASEO": 0, "VIAJES": 0, "LONG_M": 2543.9319364209923, "AREA_M2": 367197.53175488609, "FUENTE": "Areas Recoleccion Domiciliaria", "ANIO_REF": "SIN ESPECIFICAR", "ESTADO_REV": "VALIDADO" }, "geometry": { "type": "Polygon", "coordinates": [ [ [ -70.65923, -33.45169 ], [ -70.666308, -33.453035 ], [ -70.666007, -33.457155 ], [ -70.657089, -33.456472 ], [ -70.657397, -33.455824 ], [ -70.658378, -33.454896 ], [ -70.65923, -33.45169 ] ] ] } },
{ "type": "Feature", "properties": { "RUTA": "NP46", "RUTA_ASEO": 0, "VIAJES": 0, "LONG_M": 3107.243360740661, "AREA_M2": 474808.84089442849, "FUENTE": "Areas Recoleccion Domiciliaria", "ANIO_REF": "SIN ESPECIFICAR", "ESTADO_REV": "VALIDADO" }, "geometry": { "type": "Polygon", "coordinates": [ [ [ -70.666308, -33.453035 ], [ -70.678116, -33.455541 ], [ -70.678234, -33.458822 ], [ -70.676214, -33.458592 ], [ -70.673444, -33.458416 ], [ -70.672016, -33.458181 ], [ -70.666007, -33.457155 ], [ -70.666308, -33.453035 ] ] ] } },
{ "type": "Feature", "properties": { "RUTA": "P43", "RUTA_ASEO": 0, "VIAJES": 0, "LONG_M": 2737.537258337828, "AREA_M2": 463137.85394553631, "FUENTE": "Areas Recoleccion Domiciliaria", "ANIO_REF": "SIN ESPECIFICAR", "ESTADO_REV": "VALIDADO" }, "geometry": { "type": "Polygon", "coordinates": [ [ [ -70.672016, -33.458181 ], [ -70.678234, -33.458822 ], [ -70.67881, -33.46498 ], [ -70.676885, -33.465073 ], [ -70.676929, -33.465588 ], [ -70.67286, -33.464933 ], [ -70.672007, -33.464783 ], [ -70.671566, -33.464713 ], [ -70.671568, -33.463472 ], [ -70.672016, -33.458181 ] ] ] } },
{ "type": "Feature", "properties": { "RUTA": "P44", "RUTA_ASEO": 0, "VIAJES": 0, "LONG_M": 3101.1489666233797, "AREA_M2": 462456.24769671698, "FUENTE": "Areas Recoleccion Domiciliaria", "ANIO_REF": "SIN ESPECIFICAR", "ESTADO_REV": "VALIDADO" }, "geometry": { "type": "Polygon", "coordinates": [ [ [ -70.67881, -33.46498 ], [ -70.679064, -33.46902 ], [ -70.679116, -33.469553 ], [ -70.679898, -33.470601 ], [ -70.679102, -33.470636 ], [ -70.676689, -33.470633 ], [ -70.671697, -33.470554 ], [ -70.67155, -33.470547 ], [ -70.671576, -33.46948 ], [ -70.670102, -33.469421 ], [ -70.669397, -33.469404 ], [ -70.669104, -33.469243 ], [ -70.671597, -33.466554 ], [ -70.671566, -33.464713 ], [ -70.676929, -33.465588 ], [ -70.676885, -33.465073 ], [ -70.67881, -33.46498 ] ] ] } },
{ "type": "Feature", "properties": { "RUTA": "P45", "RUTA_ASEO": 0, "VIAJES": 0, "LONG_M": 4744.6936798372881, "AREA_M2": 760193.32479840354, "FUENTE": "Areas Recoleccion Domiciliaria", "ANIO_REF": "SIN ESPECIFICAR", "ESTADO_REV": "VALIDADO" }, "geometry": { "type": "Polygon", "coordinates": [ [ [ -70.655564, -33.476584 ], [ -70.654814, -33.475506 ], [ -70.654706, -33.474591 ], [ -70.655066, -33.473746 ], [ -70.655467, -33.473183 ], [ -70.664861, -33.473749 ], [ -70.664927, -33.473731 ], [ -70.66493, -33.47123 ], [ -70.664944, -33.470467 ], [ -70.666578, -33.47046 ], [ -70.667628, -33.470467 ], [ -70.668145, -33.469918 ], [ -70.669104, -33.469243 ], [ -70.669397, -33.469404 ], [ -70.671576, -33.46948 ], [ -70.67155, -33.470547 ], [ -70.672985, -33.470581 ], [ -70.672972, -33.472432 ], [ -70.672941, -33.474902 ], [ -70.67264, -33.475533 ], [ -70.671357, -33.476012 ], [ -70.664899, -33.47593 ], [ -70.660722, -33.475989 ], [ -70.657943, -33.476208 ], [ -70.655564, -33.476584 ] ] ] } },
{ "type": "Feature", "properties": { "RUTA": "P42", "RUTA_ASEO": 0, "VIAJES": 0, "LONG_M": 5347.8703352289276, "AREA_M2": 1391752.8980806486, "FUENTE": "Areas Recoleccion Domiciliaria", "ANIO_REF": "SIN ESPECIFICAR", "ESTADO_REV": "VALIDADO" }, "geometry": { "type": "Polygon", "coordinates": [ [ [ -70.655467, -33.473183 ], [ -70.656491, -33.47156 ], [ -70.656687, -33.470166 ], [ -70.656812, -33.467493 ], [ -70.657315, -33.459808 ], [ -70.657074, -33.458475 ], [ -70.656972, -33.457969 ], [ -70.656971, -33.457182 ], [ -70.657019, -33.45671 ], [ -70.657089, -33.456472 ], [ -70.659665, -33.456669 ], [ -70.662437, -33.456882 ], [ -70.66498, -33.457076 ], [ -70.664904, -33.460965 ], [ -70.664903, -33.464091 ], [ -70.664977, -33.467663 ], [ -70.664944, -33.470467 ], [ -70.664927, -33.473731 ], [ -70.655467, -33.473183 ] ] ] } },
{ "type": "Feature", "properties": { "RUTA": "OM", "RUTA_ASEO": 28, "VIAJES": 3, "LONG_M": 3063.4484192618288, "AREA_M2": 491202.79717456154, "FUENTE": "Areas Recoleccion Domiciliaria", "ANIO_REF": "SIN ESPECIFICAR", "ESTADO_REV": "VALIDADO" }, "geometry": { "type": "Polygon", "coordinates": [ [ [ -70.655914, -33.470205 ], [ -70.655866, -33.471133 ], [ -70.655372, -33.472125 ], [ -70.654234, -33.47365 ], [ -70.654167, -33.474805 ], [ -70.652201, -33.474712 ], [ -70.651965, -33.476523 ], [ -70.650058, -33.476616 ], [ -70.648188, -33.476709 ], [ -70.648216, -33.475717 ], [ -70.646555, -33.475604 ], [ -70.646559, -33.475523 ], [ -70.646643, -33.472921 ], [ -70.646787, -33.469717 ], [ -70.648626, -33.469873 ], [ -70.652994, -33.470301 ], [ -70.655221, -33.47046 ], [ -70.655914, -33.470205 ] ] ] } },
{ "type": "Feature", "properties": { "RUTA": "OÑ", "RUTA_ASEO": 30, "VIAJES": 0, "LONG_M": 3017.3806898266039, "AREA_M2": 465210.72497490852, "FUENTE": "Areas Recoleccion Domiciliaria", "ANIO_REF": "SIN ESPECIFICAR", "ESTADO_REV": "VALIDADO" }, "geometry": { "type": "Polygon", "coordinates": [ [ [ -70.635065, -33.474439 ], [ -70.631963, -33.473397 ], [ -70.632193, -33.472305 ], [ -70.6269, -33.47123 ], [ -70.625717, -33.469342 ], [ -70.626417, -33.467389 ], [ -70.62959, -33.467734 ], [ -70.636551, -33.468585 ], [ -70.635065, -33.474439 ] ] ] } },
{ "type": "Feature", "properties": { "RUTA": "OA", "RUTA_ASEO": 17, "VIAJES": 3, "LONG_M": 3046.8523897198006, "AREA_M2": 549741.75667615409, "FUENTE": "Areas Recoleccion Domiciliaria", "ANIO_REF": "SIN ESPECIFICAR", "ESTADO_REV": "VALIDADO" }, "geometry": { "type": "Polygon", "coordinates": [ [ [ -70.656513, -33.460665 ], [ -70.64909, -33.459606 ], [ -70.650036, -33.452623 ], [ -70.658045, -33.453509 ], [ -70.656834, -33.455996 ], [ -70.656513, -33.460665 ] ] ] } },
{ "type": "Feature", "properties": { "RUTA": "OE", "RUTA_ASEO": 21, "VIAJES": 0, "LONG_M": 2288.5172604880277, "AREA_M2": 312810.47513725259, "FUENTE": "Areas Recoleccion Domiciliaria", "ANIO_REF": "SIN ESPECIFICAR", "ESTADO_REV": "VALIDADO" }, "geometry": { "type": "Polygon", "coordinates": [ [ [ -70.648853, -33.463865 ], [ -70.64909, -33.459606 ], [ -70.656493, -33.460601 ], [ -70.656125, -33.464545 ], [ -70.648853, -33.463865 ] ] ] } },
{ "type": "Feature", "properties": { "RUTA": "ON", "RUTA_ASEO": 29, "VIAJES": 0, "LONG_M": 3488.1538174132002, "AREA_M2": 762971.0910742319, "FUENTE": "Areas Recoleccion Domiciliaria", "ANIO_REF": "SIN ESPECIFICAR", "ESTADO_REV": "VALIDADO" }, "geometry": { "type": "Polygon", "coordinates": [ [ [ -70.646555, -33.475604 ], [ -70.643695, -33.475485 ], [ -70.643709, -33.476229 ], [ -70.640994, -33.476322 ], [ -70.638525, -33.475825 ], [ -70.637183, -33.475313 ], [ -70.635065, -33.474439 ], [ -70.636551, -33.468585 ], [ -70.643708, -33.469166 ], [ -70.646791, -33.469541 ], [ -70.646787, -33.469717 ], [ -70.646555, -33.475604 ] ] ] } },
{ "type": "Feature", "properties": { "RUTA": "OJ", "RUTA_ASEO": 25, "VIAJES": 0, "LONG_M": 2661.6095862769944, "AREA_M2": 450859.17931742989, "FUENTE": "Areas Recoleccion Domiciliaria", "ANIO_REF": "SIN ESPECIFICAR", "ESTADO_REV": "VALIDADO" }, "geometry": { "type": "Polygon", "coordinates": [ [ [ -70.648626, -33.469873 ], [ -70.648853, -33.463865 ], [ -70.656125, -33.464545 ], [ -70.655914, -33.470205 ], [ -70.655221, -33.47046 ], [ -70.652428, -33.470245 ], [ -70.648626, -33.469873 ] ] ] } },
{ "type": "Feature", "properties": { "RUTA": "OK", "RUTA_ASEO": 26, "VIAJES": 0, "LONG_M": 3516.5205407395524, "AREA_M2": 659417.52201726427, "FUENTE": "Areas Recoleccion Domiciliaria", "ANIO_REF": "SIN ESPECIFICAR", "ESTADO_REV": "VALIDADO" }, "geometry": { "type": "Polygon", "coordinates": [ [ [ -70.648626, -33.469873 ], [ -70.646787, -33.469717 ], [ -70.646791, -33.469541 ], [ -70.643708, -33.469166 ], [ -70.636551, -33.468585 ], [ -70.637972, -33.463649 ], [ -70.641612, -33.464159 ], [ -70.64171, -33.463041 ], [ -70.648853, -33.463865 ], [ -70.648626, -33.469873 ] ] ] } },
{ "type": "Feature", "properties": { "RUTA": "OG", "RUTA_ASEO": 22, "VIAJES": 0, "LONG_M": 2836.4318095605581, "AREA_M2": 442260.91916062328, "FUENTE": "Areas Recoleccion Domiciliaria", "ANIO_REF": "SIN ESPECIFICAR", "ESTADO_REV": "VALIDADO" }, "geometry": { "type": "Polygon", "coordinates": [ [ [ -70.648853, -33.463865 ], [ -70.64171, -33.463041 ], [ -70.639246, -33.462701 ], [ -70.64022, -33.458536 ], [ -70.639733, -33.457761 ], [ -70.641765, -33.458174 ], [ -70.64909, -33.459606 ], [ -70.648853, -33.463865 ] ] ] } },
{ "type": "Feature", "properties": { "RUTA": "OL", "RUTA_ASEO": 27, "VIAJES": 0, "LONG_M": 3512.9037713194307, "AREA_M2": 677075.20272999047, "FUENTE": "Areas Recoleccion Domiciliaria", "ANIO_REF": "SIN ESPECIFICAR", "ESTADO_REV": "VALIDADO" }, "geometry": { "type": "Polygon", "coordinates": [ [ [ -70.636551, -33.468585 ], [ -70.634533, -33.468347 ], [ -70.626417, -33.467389 ], [ -70.628158, -33.461785 ], [ -70.628688, -33.459981 ], [ -70.632066, -33.460641 ], [ -70.631817, -33.461414 ], [ -70.63571, -33.462054 ], [ -70.635421, -33.463179 ], [ -70.637972, -33.463649 ], [ -70.636551, -33.468585 ] ] ] } },
{ "type": "Feature", "properties": { "RUTA": "OH", "RUTA_ASEO": 23, "VIAJES": 0, "LONG_M": 2590.1795992461439, "AREA_M2": 287214.07351591298, "FUENTE": "Areas Recoleccion Domiciliaria", "ANIO_REF": "SIN ESPECIFICAR", "ESTADO_REV": "VALIDADO" }, "geometry": { "type": "Polygon", "coordinates": [ [ [ -70.64171, -33.463041 ], [ -70.641612, -33.464159 ], [ -70.637972, -33.463649 ], [ -70.635421, -33.463179 ], [ -70.63571, -33.462054 ], [ -70.634978, -33.461933 ], [ -70.634985, -33.4619 ], [ -70.63643, -33.456991 ], [ -70.639733, -33.457761 ], [ -70.64022, -33.458536 ], [ -70.639246, -33.462701 ], [ -70.64171, -33.463041 ] ] ] } },
{ "type": "Feature", "properties": { "RUTA": "OI", "RUTA_ASEO": 24, "VIAJES": 0, "LONG_M": 2390.3296799698869, "AREA_M2": 328790.71332733089, "FUENTE": "Areas Recoleccion Domiciliaria", "ANIO_REF": "SIN ESPECIFICAR", "ESTADO_REV": "VALIDADO" }, "geometry": { "type": "Polygon", "coordinates": [ [ [ -70.628688, -33.459981 ], [ -70.629923, -33.455661 ], [ -70.63643, -33.456991 ], [ -70.634985, -33.4619 ], [ -70.634978, -33.461933 ], [ -70.631817, -33.461414 ], [ -70.632066, -33.460641 ], [ -70.628688, -33.459981 ] ] ] } },
{ "type": "Feature", "properties": { "RUTA": "OD", "RUTA_ASEO": 20, "VIAJES": 0, "LONG_M": 3400.4725149264286, "AREA_M2": 465699.93748635496, "FUENTE": "Areas Recoleccion Domiciliaria", "ANIO_REF": "SIN ESPECIFICAR", "ESTADO_REV": "VALIDADO" }, "geometry": { "type": "Polygon", "coordinates": [ [ [ -70.636972, -33.457117 ], [ -70.63643, -33.456991 ], [ -70.629923, -33.455661 ], [ -70.630992, -33.451981 ], [ -70.634303, -33.451663 ], [ -70.635001, -33.449695 ], [ -70.638928, -33.449333 ], [ -70.641579, -33.449705 ], [ -70.641162, -33.450837 ], [ -70.638616, -33.45027 ], [ -70.636972, -33.457117 ] ] ] } },
{ "type": "Feature", "properties": { "RUTA": "NO33", "RUTA_ASEO": 0, "VIAJES": 0, "LONG_M": 3035.8301914802123, "AREA_M2": 407321.30340660701, "FUENTE": "Areas Recoleccion Domiciliaria", "ANIO_REF": "SIN ESPECIFICAR", "ESTADO_REV": "VALIDADO" }, "geometry": { "type": "Polygon", "coordinates": [ [ [ -70.630992, -33.451981 ], [ -70.63347, -33.44327 ], [ -70.636778, -33.444601 ], [ -70.638954, -33.445052 ], [ -70.637803, -33.448828 ], [ -70.639091, -33.449063 ], [ -70.638928, -33.449333 ], [ -70.635001, -33.449695 ], [ -70.634303, -33.451663 ], [ -70.630992, -33.451981 ] ] ] } },
{ "type": "Feature", "properties": { "RUTA": "OB", "RUTA_ASEO": 18, "VIAJES": 0, "LONG_M": 2896.4691323435195, "AREA_M2": 437605.1853895266, "FUENTE": "Areas Recoleccion Domiciliaria", "ANIO_REF": "SIN ESPECIFICAR", "ESTADO_REV": "VALIDADO" }, "geometry": { "type": "Polygon", "coordinates": [ [ [ -70.64909, -33.459606 ], [ -70.643298, -33.458474 ], [ -70.64333, -33.458171 ], [ -70.643503, -33.457071 ], [ -70.643669, -33.455766 ], [ -70.643891, -33.454387 ], [ -70.644042, -33.453238 ], [ -70.645199, -33.453413 ], [ -70.645415, -33.451828 ], [ -70.646734, -33.452003 ], [ -70.646885, -33.450944 ], [ -70.648896, -33.451547 ], [ -70.650395, -33.451906 ], [ -70.650292, -33.452652 ], [ -70.650036, -33.452623 ], [ -70.64909, -33.459606 ] ] ] } },
{ "type": "Feature", "properties": { "RUTA": "OC", "RUTA_ASEO": 19, "VIAJES": 0, "LONG_M": 3385.8499794304794, "AREA_M2": 529348.85299504129, "FUENTE": "Areas Recoleccion Domiciliaria", "ANIO_REF": "SIN ESPECIFICAR", "ESTADO_REV": "VALIDADO" }, "geometry": { "type": "Polygon", "coordinates": [ [ [ -70.643298, -33.458474 ], [ -70.639733, -33.457761 ], [ -70.638859, -33.457557 ], [ -70.637181, -33.457166 ], [ -70.636972, -33.457117 ], [ -70.637184, -33.455962 ], [ -70.637513, -33.454646 ], [ -70.638616, -33.45027 ], [ -70.641162, -33.450837 ], [ -70.641579, -33.449705 ], [ -70.643006, -33.450238 ], [ -70.646885, -33.450944 ], [ -70.646734, -33.452003 ], [ -70.645415, -33.451828 ], [ -70.645199, -33.453413 ], [ -70.644042, -33.453238 ], [ -70.643669, -33.455766 ], [ -70.643298, -33.458474 ] ] ] } },
{ "type": "Feature", "properties": { "RUTA": "NO34", "RUTA_ASEO": 0, "VIAJES": 0, "LONG_M": 2804.1783119149236, "AREA_M2": 465078.43260046025, "FUENTE": "Areas Recoleccion Domiciliaria", "ANIO_REF": "SIN ESPECIFICAR", "ESTADO_REV": "VALIDADO" }, "geometry": { "type": "Polygon", "coordinates": [ [ [ -70.658045, -33.453509 ], [ -70.652737, -33.452925 ], [ -70.65284, -33.45198 ], [ -70.654046, -33.444833 ], [ -70.660179, -33.446511 ], [ -70.659597, -33.448236 ], [ -70.658045, -33.453509 ] ] ] } },
{ "type": "Feature", "properties": { "RUTA": "NO35", "RUTA_ASEO": 0, "VIAJES": 0, "LONG_M": 2992.180052241104, "AREA_M2": 429579.0480203281, "FUENTE": "Areas Recoleccion Domiciliaria", "ANIO_REF": "SIN ESPECIFICAR", "ESTADO_REV": "VALIDADO" }, "geometry": { "type": "Polygon", "coordinates": [ [ [ -70.652737, -33.452925 ], [ -70.650292, -33.452652 ], [ -70.650395, -33.451906 ], [ -70.646885, -33.450944 ], [ -70.646983, -33.448455 ], [ -70.648485, -33.448832 ], [ -70.649479, -33.443776 ], [ -70.654046, -33.444833 ], [ -70.652996, -33.45101 ], [ -70.652737, -33.452925 ] ] ] } },
{ "type": "Feature", "properties": { "RUTA": "NO36", "RUTA_ASEO": 0, "VIAJES": 0, "LONG_M": 2639.751624176276, "AREA_M2": 330681.08714805561, "FUENTE": "Areas Recoleccion Domiciliaria", "ANIO_REF": "SIN ESPECIFICAR", "ESTADO_REV": "VALIDADO" }, "geometry": { "type": "Polygon", "coordinates": [ [ [ -70.646885, -33.450944 ], [ -70.643006, -33.450238 ], [ -70.641579, -33.449705 ], [ -70.638928, -33.449333 ], [ -70.639091, -33.449063 ], [ -70.637803, -33.448828 ], [ -70.638954, -33.445052 ], [ -70.640412, -33.445377 ], [ -70.641584, -33.445964 ], [ -70.644018, -33.446364 ], [ -70.644548, -33.446173 ], [ -70.645305, -33.446268 ], [ -70.644998, -33.448038 ], [ -70.646983, -33.448455 ], [ -70.646885, -33.450944 ] ] ] } },
{ "type": "Feature", "properties": { "RUTA": "NO37", "RUTA_ASEO": 0, "VIAJES": 0, "LONG_M": 2668.5320488749508, "AREA_M2": 362454.12718075601, "FUENTE": "Areas Recoleccion Domiciliaria", "ANIO_REF": "SIN ESPECIFICAR", "ESTADO_REV": "VALIDADO" }, "geometry": { "type": "Polygon", "coordinates": [ [ [ -70.649479, -33.443776 ], [ -70.648485, -33.448832 ], [ -70.646983, -33.448455 ], [ -70.644998, -33.448038 ], [ -70.645305, -33.446268 ], [ -70.644548, -33.446173 ], [ -70.644018, -33.446364 ], [ -70.641584, -33.445964 ], [ -70.640412, -33.445377 ], [ -70.640188, -33.445308 ], [ -70.641274, -33.443066 ], [ -70.643871, -33.442445 ], [ -70.649479, -33.443776 ] ] ] } },
{ "type": "Feature", "properties": { "RUTA": "NO38", "RUTA_ASEO": 0, "VIAJES": 0, "LONG_M": 2849.6888852769407, "AREA_M2": 444545.44882255193, "FUENTE": "Areas Recoleccion Domiciliaria", "ANIO_REF": "SIN ESPECIFICAR", "ESTADO_REV": "VALIDADO" }, "geometry": { "type": "Polygon", "coordinates": [ [ [ -70.640188, -33.445308 ], [ -70.638954, -33.445052 ], [ -70.636778, -33.444601 ], [ -70.63347, -33.44327 ], [ -70.635307, -33.43734 ], [ -70.636527, -33.437689 ], [ -70.640261, -33.440201 ], [ -70.641801, -33.441234 ], [ -70.643871, -33.442445 ], [ -70.641274, -33.443066 ], [ -70.640188, -33.445308 ] ] ] } },
{ "type": "Feature", "properties": { "RUTA": "NCO4", "RUTA_ASEO": 0, "VIAJES": 0, "LONG_M": 3021.2618847581757, "AREA_M2": 401966.08648199058, "FUENTE": "Areas Recoleccion Domiciliaria", "ANIO_REF": "SIN ESPECIFICAR", "ESTADO_REV": "VALIDADO" }, "geometry": { "type": "Polygon", "coordinates": [ [ [ -70.635307, -33.43734 ], [ -70.635391, -33.436894 ], [ -70.639, -33.436998 ], [ -70.640503, -33.436696 ], [ -70.643426, -33.43597 ], [ -70.645808, -33.435005 ], [ -70.64609, -33.434983 ], [ -70.645032, -33.441473 ], [ -70.644865, -33.442693 ], [ -70.643871, -33.442445 ], [ -70.635307, -33.43734 ] ] ] } },
{ "type": "Feature", "properties": { "RUTA": "NCO1", "RUTA_ASEO": 0, "VIAJES": 0, "LONG_M": 2814.3403010322222, "AREA_M2": 438648.33263202582, "FUENTE": "Areas Recoleccion Domiciliaria", "ANIO_REF": "SIN ESPECIFICAR", "ESTADO_REV": "VALIDADO" }, "geometry": { "type": "Polygon", "coordinates": [ [ [ -70.65172, -33.43309 ], [ -70.6534, -33.43288 ], [ -70.65854, -33.43162 ], [ -70.65958, -33.43153 ], [ -70.6607, -33.43138 ], [ -70.65953, -33.43824 ], [ -70.65399, -33.43765 ], [ -70.65263, -33.43751 ], [ -70.65305, -33.4343 ], [ -70.65172, -33.43309 ] ] ] } },
{ "type": "Feature", "properties": { "RUTA": "NCO2", "RUTA_ASEO": 0, "VIAJES": 0, "LONG_M": 2509.2209196124263, "AREA_M2": 340065.59528826078, "FUENTE": "Areas Recoleccion Domiciliaria", "ANIO_REF": "SIN ESPECIFICAR", "ESTADO_REV": "VALIDADO" }, "geometry": { "type": "Polygon", "coordinates": [ [ [ -70.65953, -33.43824 ], [ -70.65932, -33.44043 ], [ -70.66033, -33.44416 ], [ -70.66006, -33.44584 ], [ -70.65479, -33.44464 ], [ -70.65546, -33.44239 ], [ -70.65501, -33.44119 ], [ -70.65543, -33.43892 ], [ -70.65558, -33.43781 ], [ -70.65953, -33.43824 ] ] ] } },
{ "type": "Feature", "properties": { "RUTA": "NCO5", "RUTA_ASEO": 0, "VIAJES": 0, "LONG_M": 2265.1425183619899, "AREA_M2": 326063.89058682357, "FUENTE": "Areas Recoleccion Domiciliaria", "ANIO_REF": "SIN ESPECIFICAR", "ESTADO_REV": "VALIDADO" }, "geometry": { "type": "Polygon", "coordinates": [ [ [ -70.65479, -33.44464 ], [ -70.65035, -33.4437 ], [ -70.64977, -33.44186 ], [ -70.64994, -33.4407 ], [ -70.65109, -33.43849 ], [ -70.65263, -33.43751 ], [ -70.65558, -33.43781 ], [ -70.65501, -33.44119 ], [ -70.65546, -33.44239 ], [ -70.65479, -33.44464 ] ] ] } },
{ "type": "Feature", "properties": { "RUTA": "NCO6", "RUTA_ASEO": 0, "VIAJES": 0, "LONG_M": 2153.2873744604044, "AREA_M2": 254134.31773684197, "FUENTE": "Areas Recoleccion Domiciliaria", "ANIO_REF": "SIN ESPECIFICAR", "ESTADO_REV": "VALIDADO" }, "geometry": { "type": "Polygon", "coordinates": [ [ [ -70.65035, -33.4437 ], [ -70.64493, -33.44252 ], [ -70.6456, -33.43795 ], [ -70.6497, -33.43834 ], [ -70.65109, -33.43849 ], [ -70.64994, -33.4407 ], [ -70.64977, -33.44186 ], [ -70.65035, -33.4437 ] ] ] } },
{ "type": "Feature", "properties": { "RUTA": "NCO3", "RUTA_ASEO": 0, "VIAJES": 0, "LONG_M": 2152.7028617265764, "AREA_M2": 314714.61248613463, "FUENTE": "Areas Recoleccion Domiciliaria", "ANIO_REF": "SIN ESPECIFICAR", "ESTADO_REV": "VALIDADO" }, "geometry": { "type": "Polygon", "coordinates": [ [ [ -70.646, -33.43479 ], [ -70.64768, -33.43412 ], [ -70.651, -33.43322 ], [ -70.65172, -33.43309 ], [ -70.652251, -33.433573 ], [ -70.65305, -33.4343 ], [ -70.652994, -33.434792 ], [ -70.65294, -33.43526 ], [ -70.65278, -33.43635 ], [ -70.652696, -33.436867 ], [ -70.65263, -33.43751 ], [ -70.65109, -33.43849 ], [ -70.64833, -33.43822 ], [ -70.64701, -33.43808 ], [ -70.6456, -33.43795 ], [ -70.646, -33.43479 ] ] ] } }
]
}
