{"type":"FeatureCollection","name":"AMB_PTO_MICROBASURAL","features":[{"type":"Feature","properties":{"Id":0,"Territorio":"Nor Poniente","Barrio":"Balmaceda","COD_MZN":"13101071001009"},"geometry":{"type":"Point","coordinates":[-70.680651,-33.429614]}},{"type":"Feature","properties":{"Id":0,"Territorio":"Nor Poniente","Barrio":"Balmaceda","COD_MZN":"13101071001009"},"geometry":{"type":"Point","coordinates":[-70.680541,-33.429582]}},{"type":"Feature","properties":{"Id":0,"Territorio":"Nor Poniente","Barrio":"Balmaceda","COD_MZN":"13101071001009"},"geometry":{"type":"Point","coordinates":[-70.6806,-33.429681]}},{"type":"Feature","properties":{"Id":0,"Territorio":"Nor Poniente","Barrio":"Balmaceda","COD_MZN":"13101071001009"},"geometry":{"type":"Point","coordinates":[-70.68067,-33.429741]}},{"type":"Feature","properties":{"Id":0,"Territorio":"Nor Poniente","Barrio":"Balmaceda","COD_MZN":"13101071001009"},"geometry":{"type":"Point","coordinates":[-70.680643,-33.42956]}},{"type":"Feature","properties":{"Id":0,"Territorio":"Nor Poniente","Barrio":"Balmaceda","COD_MZN":"13101071001011"},"geometry":{"type":"Point","coordinates":[-70.679757,-33.430222]}},{"type":"Feature","properties":{"Id":0,"Territorio":"Nor Poniente","Barrio":"Balmaceda","COD_MZN":"13101071001014"},"geometry":{"type":"Point","coordinates":[-70.67964,-33.431536]}},{"type":"Feature","properties":{"Id":0,"Territorio":"Nor Poniente","Barrio":"Balmaceda","COD_MZN":"13101071001017"},"geometry":{"type":"Point","coordinates":[-70.680386,-33.432147]}},{"type":"Feature","properties":{"Id":0,"Territorio":"Nor Poniente","Barrio":"Balmaceda","COD_MZN":"13101071001016"},"geometry":{"type":"Point","coordinates":[-70.679328,-33.432772]}},{"type":"Feature","properties":{"Id":0,"Territorio":"Nor Poniente","Barrio":"Balmaceda","COD_MZN":"13101081004005"},"geometry":{"type":"Point","coordinates":[-70.673974,-33.4323]}},{"type":"Feature","properties":{"Id":0,"Territorio":"Nor Poniente","Barrio":"Balmaceda","COD_MZN":"13101081004001"},"geometry":{"type":"Point","coordinates":[-70.673381,-33.431635]}},{"type":"Feature","properties":{"Id":0,"Territorio":"Nor Poniente","Barrio":"Balmaceda","COD_MZN":"13101081004001"},"geometry":{"type":"Point","coordinates":[-70.674046,-33.431626]}},{"type":"Feature","properties":{"Id":0,"Territorio":"Nor Poniente","Barrio":"Balmaceda","COD_MZN":"13101081003009"},"geometry":{"type":"Point","coordinates":[-70.671578,-33.429676]}},{"type":"Feature","properties":{"Id":0,"Territorio":"Nor Poniente","Barrio":"Balmaceda","COD_MZN":"13101081003007"},"geometry":{"type":"Point","coordinates":[-70.669685,-33.429209]}},{"type":"Feature","properties":{"Id":0,"Territorio":"Nor Poniente","Barrio":"Yungay","COD_MZN":"13101081003026"},"geometry":{"type":"Point","coordinates":[-70.669428,-33.432985]}},{"type":"Feature","properties":{"Id":0,"Territorio":"Nor Poniente","Barrio":"Yungay","COD_MZN":"13101081002015"},"geometry":{"type":"Point","coordinates":[-70.673971,-33.434786]}},{"type":"Feature","properties":{"Id":0,"Territorio":"Nor Poniente","Barrio":"Balmaceda","COD_MZN":"13101071001010"},"geometry":{"type":"Point","coordinates":[-70.676438,-33.432527]}},{"type":"Feature","properties":{"Id":0,"Territorio":"Nor Poniente","Barrio":"Yungay","COD_MZN":"13101071002005"},"geometry":{"type":"Point","coordinates":[-70.679455,-33.433611]}},{"type":"Feature","properties":{"Id":0,"Territorio":"Nor Poniente","Barrio":"Yungay","COD_MZN":"13101071002005"},"geometry":{"type":"Point","coordinates":[-70.679814,-33.433668]}},{"type":"Feature","properties":{"Id":0,"Territorio":"Nor Poniente","Barrio":"Panama","COD_MZN":"13101091001030"},"geometry":{"type":"Point","coordinates":[-70.661121,-33.43323]}},{"type":"Feature","properties":{"Id":0,"Territorio":"Nor Poniente","Barrio":"Panama","COD_MZN":"13101091001033"},"geometry":{"type":"Point","coordinates":[-70.662871,-33.433207]}},{"type":"Feature","properties":{"Id":0,"Territorio":"Nor Poniente","Barrio":"Panama","COD_MZN":"13101091004008"},"geometry":{"type":"Point","coordinates":[-70.666643,-33.433557]}},{"type":"Feature","properties":{"Id":0,"Territorio":"Nor Poniente","Barrio":"Panama","COD_MZN":"13101091001011"},"geometry":{"type":"Point","coordinates":[-70.666403,-33.430854]}},{"type":"Feature","properties":{"Id":0,"Territorio":"Nor Poniente","Barrio":"Panama","COD_MZN":"13101091001011"},"geometry":{"type":"Point","coordinates":[-70.666437,-33.430396]}},{"type":"Feature","properties":{"Id":0,"Territorio":"Nor Oriente","Barrio":"Casco Historico","COD_MZN":"13101021001004"},"geometry":{"type":"Point","coordinates":[-70.657344,-33.43308]}},{"type":"Feature","properties":{"Id":0,"Territorio":"Nor Oriente","Barrio":"Santa Ana","COD_MZN":"13101031001012"},"geometry":{"type":"Point","coordinates":[-70.658941,-33.432091]}},{"type":"Feature","properties":{"Id":0,"Territorio":"Nor Oriente","Barrio":"Casco Historico","COD_MZN":"13101021001004"},"geometry":{"type":"Point","coordinates":[-70.654575,-33.432931]}},{"type":"Feature","properties":{"Id":0,"Territorio":"Nor Oriente","Barrio":"Casco Historico","COD_MZN":"13101021001022"},"geometry":{"type":"Point","coordinates":[-70.655834,-33.434511]}},{"type":"Feature","properties":{"Id":0,"Territorio":"Nor Oriente","Barrio":"Casco Historico","COD_MZN":"13101021008008"},"geometry":{"type":"Point","coordinates":[-70.655404,-33.437953]}},{"type":"Feature","properties":{"Id":0,"Territorio":"Nor Poniente","Barrio":"Brasil","COD_MZN":"13101041004003"},"geometry":{"type":"Point","coordinates":[-70.662319,-33.438428]}},{"type":"Feature","properties":{"Id":0,"Territorio":"Nor Poniente","Barrio":"Yungay","COD_MZN":"13101071002022"},"geometry":{"type":"Point","coordinates":[-70.67911,-33.437269]}},{"type":"Feature","properties":{"Id":0,"Territorio":"Nor Poniente","Barrio":"Yungay","COD_MZN":"13101071003007"},"geometry":{"type":"Point","coordinates":[-70.678002,-33.437375]}},{"type":"Feature","properties":{"Id":0,"Territorio":"Nor Poniente","Barrio":"Yungay","COD_MZN":"13101071003008"},"geometry":{"type":"Point","coordinates":[-70.678001,-33.437518]}},{"type":"Feature","properties":{"Id":0,"Territorio":"Nor Poniente","Barrio":"Yungay","COD_MZN":"13101081002019"},"geometry":{"type":"Point","coordinates":[-70.671943,-33.436692]}},{"type":"Feature","properties":{"Id":0,"Territorio":"Nor Poniente","Barrio":"Yungay","COD_MZN":"13101081002019"},"geometry":{"type":"Point","coordinates":[-70.671966,-33.436352]}},{"type":"Feature","properties":{"Id":0,"Territorio":"Nor Poniente","Barrio":"Yungay","COD_MZN":"13101061001011"},"geometry":{"type":"Point","coordinates":[-70.669345,-33.440345]}},{"type":"Feature","properties":{"Id":0,"Territorio":"Nor Poniente","Barrio":"Brasil","COD_MZN":"13101041001003"},"geometry":{"type":"Point","coordinates":[-70.668057,-33.439088]}},{"type":"Feature","properties":{"Id":0,"Territorio":"Nor Poniente","Barrio":"Brasil","COD_MZN":"13101041001008"},"geometry":{"type":"Point","coordinates":[-70.666734,-33.440214]}},{"type":"Feature","properties":{"Id":0,"Territorio":"Nor Poniente","Barrio":"Brasil","COD_MZN":"13101041003003"},"geometry":{"type":"Point","coordinates":[-70.664043,-33.439946]}},{"type":"Feature","properties":{"Id":0,"Territorio":"Nor Poniente","Barrio":"Brasil","COD_MZN":"13101041003005"},"geometry":{"type":"Point","coordinates":[-70.664883,-33.442092]}},{"type":"Feature","properties":{"Id":0,"Territorio":"Nor Poniente","Barrio":"Brasil","COD_MZN":"13101041004006"},"geometry":{"type":"Point","coordinates":[-70.66217,-33.439545]}},{"type":"Feature","properties":{"Id":0,"Territorio":"Nor Poniente","Barrio":"Brasil","COD_MZN":"13101041004010"},"geometry":{"type":"Point","coordinates":[-70.662064,-33.440656]}},{"type":"Feature","properties":{"Id":0,"Territorio":"Nor Poniente","Barrio":"Yungay","COD_MZN":"13101051002001"},"geometry":{"type":"Point","coordinates":[-70.674679,-33.444675]}},{"type":"Feature","properties":{"Id":0,"Territorio":"Nor Poniente","Barrio":"Yungay","COD_MZN":"13101061002014"},"geometry":{"type":"Point","coordinates":[-70.67934,-33.441706]}},{"type":"Feature","properties":{"Id":0,"Territorio":"Nor Poniente","Barrio":"Yungay","COD_MZN":"13101051002004"},"geometry":{"type":"Point","coordinates":[-70.678472,-33.444861]}},{"type":"Feature","properties":{"Id":0,"Territorio":"Nor Poniente","Barrio":"Panama","COD_MZN":"13101091003008"},"geometry":{"type":"Point","coordinates":[-70.667101,-33.436805]}},{"type":"Feature","properties":{"Id":0,"Territorio":"Nor Oriente","Barrio":"Lastarria_Forestal","COD_MZN":"13101011002009"},"geometry":{"type":"Point","coordinates":[-70.645699,-33.43667]}},{"type":"Feature","properties":{"Id":0,"Territorio":"Nor Oriente","Barrio":"Lastarria_Forestal","COD_MZN":"13101011004007"},"geometry":{"type":"Point","coordinates":[-70.644932,-33.441675]}},{"type":"Feature","properties":{"Id":0,"Territorio":"Nor Oriente","Barrio":"Lastarria_Forestal","COD_MZN":"13101011004004"},"geometry":{"type":"Point","coordinates":[-70.644161,-33.439457]}},{"type":"Feature","properties":{"Id":0,"Territorio":"Nor Oriente","Barrio":"Lastarria_Forestal","COD_MZN":"13101011001013"},"geometry":{"type":"Point","coordinates":[-70.642686,-33.438238]}},{"type":"Feature","properties":{"Id":0,"Territorio":"Nor Oriente","Barrio":"Lastarria_Forestal","COD_MZN":"13101011003010"},"geometry":{"type":"Point","coordinates":[-70.642257,-33.439671]}},{"type":"Feature","properties":{"Id":0,"Territorio":"Nor Oriente","Barrio":"Lastarria_Forestal","COD_MZN":"13101011003010"},"geometry":{"type":"Point","coordinates":[-70.642194,-33.440254]}},{"type":"Feature","properties":{"Id":0,"Territorio":"Nor Oriente","Barrio":"Lastarria_Forestal","COD_MZN":"13101011003004"},"geometry":{"type":"Point","coordinates":[-70.635523,-33.437019]}},{"type":"Feature","properties":{"Id":0,"Territorio":"Nor Oriente","Barrio":"Lastarria_Forestal","COD_MZN":"13101011001011"},"geometry":{"type":"Point","coordinates":[-70.640657,-33.436731]}},{"type":"Feature","properties":{"Id":0,"Territorio":"Nor Oriente","Barrio":"Casco Historico","COD_MZN":"13101021005047"},"geometry":{"type":"Point","coordinates":[-70.65567,-33.444125]}},{"type":"Feature","properties":{"Id":0,"Territorio":"Nor Oriente","Barrio":"Casco Historico","COD_MZN":"13101021004005"},"geometry":{"type":"Point","coordinates":[-70.650149,-33.434626]}},{"type":"Feature","properties":{"Id":0,"Territorio":"Nor Oriente","Barrio":"Casco Historico","COD_MZN":"13101021005010"},"geometry":{"type":"Point","coordinates":[-70.647201,-33.440283]}},{"type":"Feature","properties":{"Id":0,"Territorio":"Nor Oriente","Barrio":"Santa Ana","COD_MZN":"13101031006002"},"geometry":{"type":"Point","coordinates":[-70.657999,-33.441618]}},{"type":"Feature","properties":{"Id":0,"Territorio":"Nor Oriente","Barrio":"Santa Ana","COD_MZN":"13101031007001"},"geometry":{"type":"Point","coordinates":[-70.657488,-33.443409]}},{"type":"Feature","properties":{"Id":0,"Territorio":"Nor Oriente","Barrio":"Santa Ana","COD_MZN":"13101031007006"},"geometry":{"type":"Point","coordinates":[-70.659591,-33.444489]}},{"type":"Feature","properties":{"Id":0,"Territorio":"Nor Oriente","Barrio":"Santa Ana","COD_MZN":"13101031007004"},"geometry":{"type":"Point","coordinates":[-70.659772,-33.443157]}},{"type":"Feature","properties":{"Id":0,"Territorio":"Centro Oriente","Barrio":"Parque Almagro","COD_MZN":"13101121001006"},"geometry":{"type":"Point","coordinates":[-70.649369,-33.44441]}},{"type":"Feature","properties":{"Id":0,"Territorio":"Centro Oriente","Barrio":"Parque Almagro","COD_MZN":"13101121007001"},"geometry":{"type":"Point","coordinates":[-70.644987,-33.448233]}},{"type":"Feature","properties":{"Id":0,"Territorio":"Centro Oriente","Barrio":"Parque Almagro","COD_MZN":"13101121009001"},"geometry":{"type":"Point","coordinates":[-70.648612,-33.448035]}},{"type":"Feature","properties":{"Id":0,"Territorio":"Centro Oriente","Barrio":"Parque Almagro","COD_MZN":"13101121002005"},"geometry":{"type":"Point","coordinates":[-70.649484,-33.448954]}},{"type":"Feature","properties":{"Id":0,"Territorio":"Centro Oriente","Barrio":"Parque Almagro","COD_MZN":"13101131004001"},"geometry":{"type":"Point","coordinates":[-70.65089,-33.448594]}},{"type":"Feature","properties":{"Id":0,"Territorio":"Centro Oriente","Barrio":"Parque Almagro","COD_MZN":"13101131002001"},"geometry":{"type":"Point","coordinates":[-70.65492,-33.447884]}},{"type":"Feature","properties":{"Id":0,"Territorio":"Centro Oriente","Barrio":"Parque Almagro","COD_MZN":"13101131005008"},"geometry":{"type":"Point","coordinates":[-70.652928,-33.452429]}},{"type":"Feature","properties":{"Id":0,"Territorio":"Centro Oriente","Barrio":"Parque Almagro","COD_MZN":"13101131006002"},"geometry":{"type":"Point","coordinates":[-70.655755,-33.452848]}},{"type":"Feature","properties":{"Id":0,"Territorio":"Centro Oriente","Barrio":"Parque Almagro","COD_MZN":"13101131006004"},"geometry":{"type":"Point","coordinates":[-70.655082,-33.453086]}},{"type":"Feature","properties":{"Id":0,"Territorio":"Centro Oriente","Barrio":"Parque Almagro","COD_MZN":"13101131007024"},"geometry":{"type":"Point","coordinates":[-70.65765,-33.454409]}},{"type":"Feature","properties":{"Id":0,"Territorio":"Centro Oriente","Barrio":"Parque Almagro","COD_MZN":"13101131005011"},"geometry":{"type":"Point","coordinates":[-70.650118,-33.453598]}},{"type":"Feature","properties":{"Id":0,"Territorio":"Centro Oriente","Barrio":"Diez de Julio","COD_MZN":"13101141001021"},"geometry":{"type":"Point","coordinates":[-70.642297,-33.456946]}},{"type":"Feature","properties":{"Id":0,"Territorio":"Centro Oriente","Barrio":"Diez de Julio","COD_MZN":"13101141001028"},"geometry":{"type":"Point","coordinates":[-70.640943,-33.457603]}},{"type":"Feature","properties":{"Id":0,"Territorio":"Centro Oriente","Barrio":"Diez de Julio","COD_MZN":"13101141002004"},"geometry":{"type":"Point","coordinates":[-70.630823,-33.452826]}},{"type":"Feature","properties":{"Id":0,"Territorio":"Centro Oriente","Barrio":"Diez de Julio","COD_MZN":"13101141003005"},"geometry":{"type":"Point","coordinates":[-70.631277,-33.455566]}},{"type":"Feature","properties":{"Id":0,"Territorio":"Centro Oriente","Barrio":"Diez de Julio","COD_MZN":"13101141001009"},"geometry":{"type":"Point","coordinates":[-70.637151,-33.454513]}},{"type":"Feature","properties":{"Id":0,"Territorio":"Centro Oriente","Barrio":"Diez de Julio","COD_MZN":"13101141002016"},"geometry":{"type":"Point","coordinates":[-70.636173,-33.45504]}},{"type":"Feature","properties":{"Id":0,"Territorio":"Centro Oriente","Barrio":"Diez de Julio","COD_MZN":"13101141002012"},"geometry":{"type":"Point","coordinates":[-70.634689,-33.455252]}},{"type":"Feature","properties":{"Id":0,"Territorio":"Centro Oriente","Barrio":"Diez de Julio","COD_MZN":"13101141002011"},"geometry":{"type":"Point","coordinates":[-70.633585,-33.455096]}},{"type":"Feature","properties":{"Id":0,"Territorio":"Centro Oriente","Barrio":"Santa Isabel","COD_MZN":"13101111006002"},"geometry":{"type":"Point","coordinates":[-70.643779,-33.448006]}},{"type":"Feature","properties":{"Id":0,"Territorio":"Centro Oriente","Barrio":"Santa Isabel","COD_MZN":"13101101003001"},"geometry":{"type":"Point","coordinates":[-70.63623,-33.442714]}},{"type":"Feature","properties":{"Id":0,"Territorio":"Centro Oriente","Barrio":"Santa Isabel","COD_MZN":"13101101003003"},"geometry":{"type":"Point","coordinates":[-70.635684,-33.443642]}},{"type":"Feature","properties":{"Id":0,"Territorio":"Centro Oriente","Barrio":"Santa Isabel","COD_MZN":"13101111015002"},"geometry":{"type":"Point","coordinates":[-70.637592,-33.445454]}},{"type":"Feature","properties":{"Id":0,"Territorio":"Centro Oriente","Barrio":"Santa Isabel","COD_MZN":"13101111016002"},"geometry":{"type":"Point","coordinates":[-70.639556,-33.447132]}},{"type":"Feature","properties":{"Id":0,"Territorio":"Centro Oriente","Barrio":"Santa Isabel","COD_MZN":"13101111016002"},"geometry":{"type":"Point","coordinates":[-70.638879,-33.446984]}},{"type":"Feature","properties":{"Id":0,"Territorio":"Centro Oriente","Barrio":"Santa Isabel","COD_MZN":"13101111012005"},"geometry":{"type":"Point","coordinates":[-70.640374,-33.447472]}},{"type":"Feature","properties":{"Id":0,"Territorio":"Centro Oriente","Barrio":"Santa Isabel","COD_MZN":"13101111012007"},"geometry":{"type":"Point","coordinates":[-70.640819,-33.448418]}},{"type":"Feature","properties":{"Id":0,"Territorio":"Centro Oriente","Barrio":"Santa Isabel","COD_MZN":"13101111010001"},"geometry":{"type":"Point","coordinates":[-70.640454,-33.449466]}},{"type":"Feature","properties":{"Id":0,"Territorio":"Centro Oriente","Barrio":"Santa Isabel","COD_MZN":"13101111010001"},"geometry":{"type":"Point","coordinates":[-70.641494,-33.449796]}},{"type":"Feature","properties":{"Id":0,"Territorio":"Centro Oriente","Barrio":"Santa Isabel","COD_MZN":"13101111007002"},"geometry":{"type":"Point","coordinates":[-70.643183,-33.450153]}},{"type":"Feature","properties":{"Id":0,"Territorio":"Centro Oriente","Barrio":"Santa Isabel","COD_MZN":"13101111009001"},"geometry":{"type":"Point","coordinates":[-70.641189,-33.450831]}},{"type":"Feature","properties":{"Id":0,"Territorio":"Centro Oriente","Barrio":"Santa Isabel","COD_MZN":"13101111009001"},"geometry":{"type":"Point","coordinates":[-70.6401,-33.450587]}},{"type":"Feature","properties":{"Id":0,"Territorio":"Centro Oriente","Barrio":"Santa Isabel","COD_MZN":"13101111011001"},"geometry":{"type":"Point","coordinates":[-70.639578,-33.449198]}},{"type":"Feature","properties":{"Id":0,"Territorio":"Centro Oriente","Barrio":"Santa Isabel","COD_MZN":"13101111018001"},"geometry":{"type":"Point","coordinates":[-70.638944,-33.449092]}},{"type":"Feature","properties":{"Id":0,"Territorio":"Centro Oriente","Barrio":"Santa Isabel","COD_MZN":"13101111019002"},"geometry":{"type":"Point","coordinates":[-70.635874,-33.450502]}},{"type":"Feature","properties":{"Id":0,"Territorio":"Centro Oriente","Barrio":"Santa Isabel","COD_MZN":"13101111019003"},"geometry":{"type":"Point","coordinates":[-70.63603,-33.451469]}},{"type":"Feature","properties":{"Id":0,"Territorio":"Centro Oriente","Barrio":"Santa Isabel","COD_MZN":"13101101010003"},"geometry":{"type":"Point","coordinates":[-70.631528,-33.450529]}},{"type":"Feature","properties":{"Id":0,"Territorio":"Centro Oriente","Barrio":"Santa Isabel","COD_MZN":"13101101006003"},"geometry":{"type":"Point","coordinates":[-70.632861,-33.446608]}},{"type":"Feature","properties":{"Id":0,"Territorio":"Centro Oriente","Barrio":"Santa Isabel","COD_MZN":"13101101007001"},"geometry":{"type":"Point","coordinates":[-70.63448,-33.44749]}},{"type":"Feature","properties":{"Id":0,"Territorio":"Centro Oriente","Barrio":"Santa Isabel","COD_MZN":"13101111017004"},"geometry":{"type":"Point","coordinates":[-70.635448,-33.448127]}},{"type":"Feature","properties":{"Id":0,"Territorio":"Centro Oriente","Barrio":"Santa Isabel","COD_MZN":"13101101008001"},"geometry":{"type":"Point","coordinates":[-70.633409,-33.448368]}},{"type":"Feature","properties":{"Id":0,"Territorio":"Centro Oriente","Barrio":"Santa Isabel","COD_MZN":"13101101008001"},"geometry":{"type":"Point","coordinates":[-70.633232,-33.448939]}},{"type":"Feature","properties":{"Id":0,"Territorio":"Centro Oriente","Barrio":"San Borja","COD_MZN":"13101111002002"},"geometry":{"type":"Point","coordinates":[-70.644532,-33.443684]}},{"type":"Feature","properties":{"Id":0,"Territorio":"Centro Oriente","Barrio":"San Borja","COD_MZN":"13101111002002"},"geometry":{"type":"Point","coordinates":[-70.643383,-33.443085]}},{"type":"Feature","properties":{"Id":0,"Territorio":"Centro Oriente","Barrio":"San Borja","COD_MZN":"13101111001003"},"geometry":{"type":"Point","coordinates":[-70.642414,-33.442131]}},{"type":"Feature","properties":{"Id":0,"Territorio":"Centro Oriente","Barrio":"San Borja","COD_MZN":"13101111001004"},"geometry":{"type":"Point","coordinates":[-70.642649,-33.442519]}},{"type":"Feature","properties":{"Id":0,"Territorio":"Centro Oriente","Barrio":"San Borja","COD_MZN":"13101111004001"},"geometry":{"type":"Point","coordinates":[-70.644218,-33.446397]}},{"type":"Feature","properties":{"Id":0,"Territorio":"Centro Oriente","Barrio":"San Borja","COD_MZN":"13101111014002"},"geometry":{"type":"Point","coordinates":[-70.639031,-33.444877]}},{"type":"Feature","properties":{"Id":0,"Territorio":"Centro Oriente","Barrio":"San Borja","COD_MZN":"13101111013003"},"geometry":{"type":"Point","coordinates":[-70.640614,-33.445174]}},{"type":"Feature","properties":{"Id":0,"Territorio":"Centro Oriente","Barrio":"San Borja","COD_MZN":"13101111012001"},"geometry":{"type":"Point","coordinates":[-70.641504,-33.446193]}},{"type":"Feature","properties":{"Id":0,"Territorio":"Centro Oriente","Barrio":"San Borja","COD_MZN":"13101111013001"},"geometry":{"type":"Point","coordinates":[-70.64197,-33.444268]}},{"type":"Feature","properties":{"Id":0,"Territorio":"Centro Oriente","Barrio":"Matta Norte","COD_MZN":"13101151002006"},"geometry":{"type":"Point","coordinates":[-70.656443,-33.45606]}},{"type":"Feature","properties":{"Id":0,"Territorio":"Centro Oriente","Barrio":"Matta Norte","COD_MZN":"13101151003012"},"geometry":{"type":"Point","coordinates":[-70.654372,-33.458663]}},{"type":"Feature","properties":{"Id":0,"Territorio":"Centro Oriente","Barrio":"Matta Norte","COD_MZN":"13101151002008"},"geometry":{"type":"Point","coordinates":[-70.656118,-33.460244]}},{"type":"Feature","properties":{"Id":0,"Territorio":"Centro Oriente","Barrio":"Matta Norte","COD_MZN":"13101121004006"},"geometry":{"type":"Point","coordinates":[-70.648432,-33.452856]}},{"type":"Feature","properties":{"Id":0,"Territorio":"Centro Oriente","Barrio":"Matta Norte","COD_MZN":"13101121004004"},"geometry":{"type":"Point","coordinates":[-70.648669,-33.451836]}},{"type":"Feature","properties":{"Id":0,"Territorio":"Centro Oriente","Barrio":"Matta Norte","COD_MZN":"13101121004004"},"geometry":{"type":"Point","coordinates":[-70.648034,-33.451608]}},{"type":"Feature","properties":{"Id":0,"Territorio":"Centro Oriente","Barrio":"Matta Norte","COD_MZN":"13101121005006"},"geometry":{"type":"Point","coordinates":[-70.646694,-33.453108]}},{"type":"Feature","properties":{"Id":0,"Territorio":"Centro Oriente","Barrio":"Matta Norte","COD_MZN":"13101121005004"},"geometry":{"type":"Point","coordinates":[-70.644367,-33.453325]}},{"type":"Feature","properties":{"Id":0,"Territorio":"Centro Oriente","Barrio":"Matta Norte","COD_MZN":"13101121005001"},"geometry":{"type":"Point","coordinates":[-70.645637,-33.451828]}},{"type":"Feature","properties":{"Id":0,"Territorio":"Centro Oriente","Barrio":"Matta Norte","COD_MZN":"13101121005004"},"geometry":{"type":"Point","coordinates":[-70.64543,-33.451947]}},{"type":"Feature","properties":{"Id":0,"Territorio":"Centro Oriente","Barrio":"Matta Norte","COD_MZN":"13101151001009"},"geometry":{"type":"Point","coordinates":[-70.647173,-33.455151]}},{"type":"Feature","properties":{"Id":0,"Territorio":"Centro Oriente","Barrio":"Matta Norte","COD_MZN":"13101151001009"},"geometry":{"type":"Point","coordinates":[-70.646784,-33.456361]}},{"type":"Feature","properties":{"Id":0,"Territorio":"Centro Oriente","Barrio":"Matta Norte","COD_MZN":"13101151001016"},"geometry":{"type":"Point","coordinates":[-70.646727,-33.457565]}},{"type":"Feature","properties":{"Id":0,"Territorio":"Centro Oriente","Barrio":"Matta Norte","COD_MZN":"13101151001020"},"geometry":{"type":"Point","coordinates":[-70.645009,-33.457877]}},{"type":"Feature","properties":{"Id":0,"Territorio":"Centro Oriente","Barrio":"Matta Norte","COD_MZN":"13101151001013"},"geometry":{"type":"Point","coordinates":[-70.644453,-33.457156]}},{"type":"Feature","properties":{"Id":0,"Territorio":"Centro Oriente","Barrio":"Matta Norte","COD_MZN":"13101151001013"},"geometry":{"type":"Point","coordinates":[-70.644566,-33.456505]}},{"type":"Feature","properties":{"Id":0,"Territorio":"Centro Oriente","Barrio":"Matta Norte","COD_MZN":"13101151001003"},"geometry":{"type":"Point","coordinates":[-70.648041,-33.454817]}},{"type":"Feature","properties":{"Id":0,"Territorio":"Centro Poniente","Barrio":"Meiggs","COD_MZN":"13101261001011"},"geometry":{"type":"Point","coordinates":[-70.677831,-33.45158]}},{"type":"Feature","properties":{"Id":0,"Territorio":"Centro Poniente","Barrio":"Meiggs","COD_MZN":"13101261001030"},"geometry":{"type":"Point","coordinates":[-70.678043,-33.454592]}},{"type":"Feature","properties":{"Id":0,"Territorio":"Centro Poniente","Barrio":"Meiggs","COD_MZN":"13101261001008"},"geometry":{"type":"Point","coordinates":[-70.67538,-33.451721]}},{"type":"Feature","properties":{"Id":0,"Territorio":"Centro Poniente","Barrio":"Meiggs","COD_MZN":"13101261001002"},"geometry":{"type":"Point","coordinates":[-70.672668,-33.451028]}},{"type":"Feature","properties":{"Id":0,"Territorio":"Centro Poniente","Barrio":"Meiggs","COD_MZN":"13101261001038"},"geometry":{"type":"Point","coordinates":[-70.672704,-33.456705]}},{"type":"Feature","properties":{"Id":0,"Territorio":"Centro Poniente","Barrio":"Meiggs","COD_MZN":"13101261001041"},"geometry":{"type":"Point","coordinates":[-70.676419,-33.457857]}},{"type":"Feature","properties":{"Id":0,"Territorio":"Centro Poniente","Barrio":"Meiggs","COD_MZN":"13101261001039"},"geometry":{"type":"Point","coordinates":[-70.675098,-33.457213]}},{"type":"Feature","properties":{"Id":0,"Territorio":"Centro Poniente","Barrio":"Meiggs","COD_MZN":"13101261001033"},"geometry":{"type":"Point","coordinates":[-70.674626,-33.455985]}},{"type":"Feature","properties":{"Id":0,"Territorio":"Centro Poniente","Barrio":"Republica","COD_MZN":"13101271001021"},"geometry":{"type":"Point","coordinates":[-70.669661,-33.452605]}},{"type":"Feature","properties":{"Id":0,"Territorio":"Centro Poniente","Barrio":"Republica","COD_MZN":"13101271002012"},"geometry":{"type":"Point","coordinates":[-70.670821,-33.454068]}},{"type":"Feature","properties":{"Id":0,"Territorio":"Centro Poniente","Barrio":"Republica","COD_MZN":"13101271002010"},"geometry":{"type":"Point","coordinates":[-70.666332,-33.453076]}},{"type":"Feature","properties":{"Id":0,"Territorio":"Centro Poniente","Barrio":"Republica","COD_MZN":"13101271002008"},"geometry":{"type":"Point","coordinates":[-70.664792,-33.452768]}},{"type":"Feature","properties":{"Id":0,"Territorio":"Centro Poniente","Barrio":"Republica","COD_MZN":"13101271002002"},"geometry":{"type":"Point","coordinates":[-70.665502,-33.450634]}},{"type":"Feature","properties":{"Id":0,"Territorio":"Centro Poniente","Barrio":"Ejercito","COD_MZN":"13101281006002"},"geometry":{"type":"Point","coordinates":[-70.659765,-33.455339]}},{"type":"Feature","properties":{"Id":0,"Territorio":"Sur Poniente","Barrio":"San Vicente","COD_MZN":"13101261001041"},"geometry":{"type":"Point","coordinates":[-70.677375,-33.458535]}},{"type":"Feature","properties":{"Id":0,"Territorio":"Sur Poniente","Barrio":"San Vicente","COD_MZN":"13101251001009"},"geometry":{"type":"Point","coordinates":[-70.676734,-33.459205]}},{"type":"Feature","properties":{"Id":0,"Territorio":"Sur Poniente","Barrio":"San Vicente","COD_MZN":"13101251001004"},"geometry":{"type":"Point","coordinates":[-70.672169,-33.458906]}},{"type":"Feature","properties":{"Id":0,"Territorio":"Sur Poniente","Barrio":"San Vicente","COD_MZN":"13101251001050"},"geometry":{"type":"Point","coordinates":[-70.675448,-33.466417]}},{"type":"Feature","properties":{"Id":0,"Territorio":"Sur Poniente","Barrio":"San Vicente","COD_MZN":"13101251001044"},"geometry":{"type":"Point","coordinates":[-70.674243,-33.465138]}},{"type":"Feature","properties":{"Id":0,"Territorio":"Sur Poniente","Barrio":"San Vicente","COD_MZN":"13101251001034"},"geometry":{"type":"Point","coordinates":[-70.67269,-33.462673]}},{"type":"Feature","properties":{"Id":0,"Territorio":"Sur Poniente","Barrio":"San Vicente","COD_MZN":"13101251001019"},"geometry":{"type":"Point","coordinates":[-70.673599,-33.461534]}},{"type":"Feature","properties":{"Id":0,"Territorio":"Sur Poniente","Barrio":"Club Hipico","COD_MZN":"13101231001004"},"geometry":{"type":"Point","coordinates":[-70.665001,-33.463538]}},{"type":"Feature","properties":{"Id":0,"Territorio":"Sur Poniente","Barrio":"Club Hipico","COD_MZN":"13101231001004"},"geometry":{"type":"Point","coordinates":[-70.664977,-33.467216]}},{"type":"Feature","properties":{"Id":0,"Territorio":"Sur Poniente","Barrio":"Club Hipico","COD_MZN":"13101231001004"},"geometry":{"type":"Point","coordinates":[-70.664975,-33.469731]}},{"type":"Feature","properties":{"Id":0,"Territorio":"Sur Poniente","Barrio":"Club Hipico","COD_MZN":"13101231001019"},"geometry":{"type":"Point","coordinates":[-70.663646,-33.469296]}},{"type":"Feature","properties":{"Id":0,"Territorio":"Sur Poniente","Barrio":"Club Hipico","COD_MZN":"13101231001012"},"geometry":{"type":"Point","coordinates":[-70.66382,-33.465902]}},{"type":"Feature","properties":{"Id":0,"Territorio":"Sur Poniente","Barrio":"San Eugenio","COD_MZN":"13101221001026"},"geometry":{"type":"Point","coordinates":[-70.662133,-33.470504]}},{"type":"Feature","properties":{"Id":0,"Territorio":"Sur Poniente","Barrio":"San Eugenio","COD_MZN":"13101231001028"},"geometry":{"type":"Point","coordinates":[-70.666231,-33.472247]}},{"type":"Feature","properties":{"Id":0,"Territorio":"Sur Poniente","Barrio":"San Eugenio","COD_MZN":"13101241001019"},"geometry":{"type":"Point","coordinates":[-70.66737,-33.473359]}},{"type":"Feature","properties":{"Id":0,"Territorio":"Sur Poniente","Barrio":"San Eugenio","COD_MZN":"13101241001040"},"geometry":{"type":"Point","coordinates":[-70.671355,-33.47589]}},{"type":"Feature","properties":{"Id":0,"Territorio":"Sur Poniente","Barrio":"San Eugenio","COD_MZN":"13101241001035"},"geometry":{"type":"Point","coordinates":[-70.671699,-33.47476]}},{"type":"Feature","properties":{"Id":0,"Territorio":"Sur Poniente","Barrio":"San Eugenio","COD_MZN":"13101241001036"},"geometry":{"type":"Point","coordinates":[-70.672807,-33.473813]}},{"type":"Feature","properties":{"Id":0,"Territorio":"Sur Poniente","Barrio":"San Eugenio","COD_MZN":"13101241001003"},"geometry":{"type":"Point","coordinates":[-70.670469,-33.471808]}},{"type":"Feature","properties":{"Id":0,"Territorio":"Sur Poniente","Barrio":"San Eugenio","COD_MZN":"13101241002033"},"geometry":{"type":"Point","coordinates":[-70.67176,-33.470555]}},{"type":"Feature","properties":{"Id":0,"Territorio":"Sur Poniente","Barrio":"San Eugenio","COD_MZN":"13101241002018"},"geometry":{"type":"Point","coordinates":[-70.670091,-33.469324]}},{"type":"Feature","properties":{"Id":0,"Territorio":"Sur Poniente","Barrio":"San Eugenio","COD_MZN":"13101241002026"},"geometry":{"type":"Point","coordinates":[-70.675707,-33.469384]}},{"type":"Feature","properties":{"Id":0,"Territorio":"Sur Poniente","Barrio":"San Eugenio","COD_MZN":"13101241002016"},"geometry":{"type":"Point","coordinates":[-70.67699,-33.467382]}},{"type":"Feature","properties":{"Id":0,"Territorio":"Sur Poniente","Barrio":"Rondizzoni","COD_MZN":"13101221001016"},"geometry":{"type":"Point","coordinates":[-70.658311,-33.470288]}},{"type":"Feature","properties":{"Id":0,"Territorio":"Sur Poniente","Barrio":"Rondizzoni","COD_MZN":"13101221001004"},"geometry":{"type":"Point","coordinates":[-70.658362,-33.471756]}},{"type":"Feature","properties":{"Id":0,"Territorio":"Sur Poniente","Barrio":"Rondizzoni","COD_MZN":"13101221001038"},"geometry":{"type":"Point","coordinates":[-70.658626,-33.475899]}},{"type":"Feature","properties":{"Id":0,"Territorio":"Centro Poniente","Barrio":"Ejercito","COD_MZN":"13101281006003"},"geometry":{"type":"Point","coordinates":[-70.659455,-33.456895]}},{"type":"Feature","properties":{"Id":0,"Territorio":null,"Barrio":"Viel","COD_MZN":"13101191001009"},"geometry":{"type":"Point","coordinates":[-70.652467,-33.460503]}},{"type":"Feature","properties":{"Id":0,"Territorio":null,"Barrio":"Viel","COD_MZN":"13101191001035"},"geometry":{"type":"Point","coordinates":[-70.655235,-33.464337]}},{"type":"Feature","properties":{"Id":0,"Territorio":null,"Barrio":"Viel","COD_MZN":"13101191001031"},"geometry":{"type":"Point","coordinates":[-70.652735,-33.464045]}},{"type":"Feature","properties":{"Id":0,"Territorio":null,"Barrio":"Viel","COD_MZN":"13101191002008"},"geometry":{"type":"Point","coordinates":[-70.653849,-33.466321]}},{"type":"Feature","properties":{"Id":0,"Territorio":null,"Barrio":"Viel","COD_MZN":"13101191002014"},"geometry":{"type":"Point","coordinates":[-70.655022,-33.466916]}},{"type":"Feature","properties":{"Id":0,"Territorio":null,"Barrio":"Viel","COD_MZN":"13101191002020"},"geometry":{"type":"Point","coordinates":[-70.653574,-33.469413]}},{"type":"Feature","properties":{"Id":0,"Territorio":null,"Barrio":"Viel","COD_MZN":"13101191003008"},"geometry":{"type":"Point","coordinates":[-70.650064,-33.468994]}},{"type":"Feature","properties":{"Id":0,"Territorio":"Sur Oriente","Barrio":"Huemul","COD_MZN":"13101211001028"},"geometry":{"type":"Point","coordinates":[-70.655188,-33.472144]}},{"type":"Feature","properties":{"Id":0,"Territorio":"Sur Oriente","Barrio":"Huemul","COD_MZN":"13101211001036"},"geometry":{"type":"Point","coordinates":[-70.652076,-33.472986]}},{"type":"Feature","properties":{"Id":0,"Territorio":"Sur Oriente","Barrio":"Huemul","COD_MZN":"13101211002009"},"geometry":{"type":"Point","coordinates":[-70.649429,-33.475035]}},{"type":"Feature","properties":{"Id":0,"Territorio":"Sur Oriente","Barrio":"Huemul","COD_MZN":"13101211002028"},"geometry":{"type":"Point","coordinates":[-70.650515,-33.4751]}},{"type":"Feature","properties":{"Id":0,"Territorio":"Sur Oriente","Barrio":"Huemul","COD_MZN":"13101211002030"},"geometry":{"type":"Point","coordinates":[-70.65111,-33.475183]}},{"type":"Feature","properties":{"Id":0,"Territorio":"Sur Oriente","Barrio":"Huemul","COD_MZN":"13101211002030"},"geometry":{"type":"Point","coordinates":[-70.651411,-33.474742]}},{"type":"Feature","properties":{"Id":0,"Territorio":"Sur Oriente","Barrio":"Huemul","COD_MZN":"13101211002030"},"geometry":{"type":"Point","coordinates":[-70.651402,-33.475758]}},{"type":"Feature","properties":{"Id":0,"Territorio":"Sur Oriente","Barrio":"Huemul","COD_MZN":"13101211002031"},"geometry":{"type":"Point","coordinates":[-70.65203,-33.475472]}},{"type":"Feature","properties":{"Id":0,"Territorio":"Sur Oriente","Barrio":"Franklin","COD_MZN":"13101211002024"},"geometry":{"type":"Point","coordinates":[-70.64602,-33.476384]}},{"type":"Feature","properties":{"Id":0,"Territorio":"Sur Oriente","Barrio":"Franklin","COD_MZN":"13101211002034"},"geometry":{"type":"Point","coordinates":[-70.642069,-33.475637]}},{"type":"Feature","properties":{"Id":0,"Territorio":"Sur Oriente","Barrio":"Franklin","COD_MZN":"13101211001003"},"geometry":{"type":"Point","coordinates":[-70.646578,-33.470826]}},{"type":"Feature","properties":{"Id":0,"Territorio":"Sur Oriente","Barrio":"Franklin","COD_MZN":"13101211001003"},"geometry":{"type":"Point","coordinates":[-70.645431,-33.470691]}},{"type":"Feature","properties":{"Id":0,"Territorio":null,"Barrio":"Bogota","COD_MZN":"13101181002010"},"geometry":{"type":"Point","coordinates":[-70.645485,-33.468172]}},{"type":"Feature","properties":{"Id":0,"Territorio":null,"Barrio":"Bogota","COD_MZN":"13101181002005"},"geometry":{"type":"Point","coordinates":[-70.645583,-33.466898]}},{"type":"Feature","properties":{"Id":0,"Territorio":null,"Barrio":"Bogota","COD_MZN":"13101181002007"},"geometry":{"type":"Point","coordinates":[-70.647658,-33.467176]}},{"type":"Feature","properties":{"Id":0,"Territorio":null,"Barrio":"Bogota","COD_MZN":"13101181002007"},"geometry":{"type":"Point","coordinates":[-70.648574,-33.467271]}},{"type":"Feature","properties":{"Id":0,"Territorio":null,"Barrio":"Bogota","COD_MZN":"13101181001021"},"geometry":{"type":"Point","coordinates":[-70.647088,-33.465938]}},{"type":"Feature","properties":{"Id":0,"Territorio":null,"Barrio":"Bogota","COD_MZN":"13101181002004"},"geometry":{"type":"Point","coordinates":[-70.645868,-33.463492]}},{"type":"Feature","properties":{"Id":0,"Territorio":null,"Barrio":"Matta Sur","COD_MZN":"13101181001012"},"geometry":{"type":"Point","coordinates":[-70.647284,-33.462295]}},{"type":"Feature","properties":{"Id":0,"Territorio":null,"Barrio":"Matta Sur","COD_MZN":"13101181001005"},"geometry":{"type":"Point","coordinates":[-70.646062,-33.459223]}},{"type":"Feature","properties":{"Id":0,"Territorio":"Sur Oriente","Barrio":"Sierra Bella","COD_MZN":"13101201003032"},"geometry":{"type":"Point","coordinates":[-70.641481,-33.471729]}},{"type":"Feature","properties":{"Id":0,"Territorio":"Sur Oriente","Barrio":"Sierra Bella","COD_MZN":"13101201003031"},"geometry":{"type":"Point","coordinates":[-70.640987,-33.471702]}},{"type":"Feature","properties":{"Id":0,"Territorio":"Sur Oriente","Barrio":"Sierra Bella","COD_MZN":"13101201003009"},"geometry":{"type":"Point","coordinates":[-70.642134,-33.469309]}},{"type":"Feature","properties":{"Id":0,"Territorio":"Sur Oriente","Barrio":"Sierra Bella","COD_MZN":"13101201003004"},"geometry":{"type":"Point","coordinates":[-70.635771,-33.469348]}},{"type":"Feature","properties":{"Id":0,"Territorio":"Sur Oriente","Barrio":"Sierra Bella","COD_MZN":"13101201002008"},"geometry":{"type":"Point","coordinates":[-70.636587,-33.473346]}},{"type":"Feature","properties":{"Id":0,"Territorio":"Sur Oriente","Barrio":"Sierra Bella","COD_MZN":"13101201001024"},"geometry":{"type":"Point","coordinates":[-70.628121,-33.471365]}},{"type":"Feature","properties":{"Id":0,"Territorio":"Sur Oriente","Barrio":"Sierra Bella","COD_MZN":"13101201001010"},"geometry":{"type":"Point","coordinates":[-70.627653,-33.468634]}},{"type":"Feature","properties":{"Id":0,"Territorio":null,"Barrio":"Santa Elena","COD_MZN":"13101161003003"},"geometry":{"type":"Point","coordinates":[-70.628063,-33.466571]}},{"type":"Feature","properties":{"Id":0,"Territorio":null,"Barrio":"Santa Elena","COD_MZN":"13101161003003"},"geometry":{"type":"Point","coordinates":[-70.628429,-33.465236]}},{"type":"Feature","properties":{"Id":0,"Territorio":null,"Barrio":"Bogota","COD_MZN":"13101171002015"},"geometry":{"type":"Point","coordinates":[-70.637408,-33.46606]}},{"type":"Feature","properties":{"Id":0,"Territorio":null,"Barrio":"Bogota","COD_MZN":"13101171003015"},"geometry":{"type":"Point","coordinates":[-70.636609,-33.467178]}},{"type":"Feature","properties":{"Id":0,"Territorio":null,"Barrio":"Bogota","COD_MZN":"13101171003016"},"geometry":{"type":"Point","coordinates":[-70.637351,-33.467259]}},{"type":"Feature","properties":{"Id":0,"Territorio":null,"Barrio":"Bogota","COD_MZN":"13101171003017"},"geometry":{"type":"Point","coordinates":[-70.637756,-33.467296]}},{"type":"Feature","properties":{"Id":0,"Territorio":null,"Barrio":"Bogota","COD_MZN":"13101171002009"},"geometry":{"type":"Point","coordinates":[-70.63934,-33.464795]}},{"type":"Feature","properties":{"Id":0,"Territorio":null,"Barrio":"Bogota","COD_MZN":"13101171002004"},"geometry":{"type":"Point","coordinates":[-70.640708,-33.463057]}},{"type":"Feature","properties":{"Id":0,"Territorio":null,"Barrio":"Matta Sur","COD_MZN":"13101171001056"},"geometry":{"type":"Point","coordinates":[-70.641262,-33.462652]}},{"type":"Feature","properties":{"Id":0,"Territorio":null,"Barrio":"Matta Sur","COD_MZN":"13101171001058"},"geometry":{"type":"Point","coordinates":[-70.642689,-33.462313]}},{"type":"Feature","properties":{"Id":0,"Territorio":null,"Barrio":"Matta Sur","COD_MZN":"13101181001002"},"geometry":{"type":"Point","coordinates":[-70.643229,-33.459494]}},{"type":"Feature","properties":{"Id":0,"Territorio":null,"Barrio":"Matta Sur","COD_MZN":"13101171001019"},"geometry":{"type":"Point","coordinates":[-70.641881,-33.458646]}},{"type":"Feature","properties":{"Id":0,"Territorio":null,"Barrio":"Matta Sur","COD_MZN":"13101171001019"},"geometry":{"type":"Point","coordinates":[-70.641819,-33.458954]}},{"type":"Feature","properties":{"Id":0,"Territorio":null,"Barrio":"Matta Sur","COD_MZN":"13101171001019"},"geometry":{"type":"Point","coordinates":[-70.641755,-33.459199]}},{"type":"Feature","properties":{"Id":0,"Territorio":null,"Barrio":"Matta Sur","COD_MZN":"13101171001016"},"geometry":{"type":"Point","coordinates":[-70.640449,-33.458099]}},{"type":"Feature","properties":{"Id":0,"Territorio":null,"Barrio":"Matta Sur","COD_MZN":"13101171001016"},"geometry":{"type":"Point","coordinates":[-70.640326,-33.458567]}},{"type":"Feature","properties":{"Id":0,"Territorio":null,"Barrio":"Matta Sur","COD_MZN":"13101171001012"},"geometry":{"type":"Point","coordinates":[-70.637545,-33.458504]}},{"type":"Feature","properties":{"Id":0,"Territorio":null,"Barrio":"Matta Sur","COD_MZN":"13101171001027"},"geometry":{"type":"Point","coordinates":[-70.637346,-33.45922]}},{"type":"Feature","properties":{"Id":0,"Territorio":null,"Barrio":"Matta Sur","COD_MZN":"13101171001025"},"geometry":{"type":"Point","coordinates":[-70.635659,-33.459672]}},{"type":"Feature","properties":{"Id":0,"Territorio":null,"Barrio":"Bogota","COD_MZN":"13101161002018"},"geometry":{"type":"Point","coordinates":[-70.634471,-33.463213]}},{"type":"Feature","properties":{"Id":0,"Territorio":"Sur Oriente","Barrio":"Sierra Bella","COD_MZN":"13101201001006"},"geometry":{"type":"Point","coordinates":[-70.631171,-33.469187]}},{"type":"Feature","properties":{"Id":0,"Territorio":"Sur Oriente","Barrio":"Sierra Bella","COD_MZN":"13101201001020"},"geometry":{"type":"Point","coordinates":[-70.632052,-33.471013]}},{"type":"Feature","properties":{"Id":0,"Territorio":"Sur Oriente","Barrio":"Sierra Bella","COD_MZN":"13101201003021"},"geometry":{"type":"Point","coordinates":[-70.633309,-33.47148]}},{"type":"Feature","properties":{"Id":0,"Territorio":"Sur Oriente","Barrio":"Sierra Bella","COD_MZN":"13101201003021"},"geometry":{"type":"Point","coordinates":[-70.633007,-33.472127]}},{"type":"Feature","properties":{"Id":0,"Territorio":"Sur Oriente","Barrio":"Sierra Bella","COD_MZN":"13101201003010"},"geometry":{"type":"Point","coordinates":[-70.633332,-33.470934]}},{"type":"Feature","properties":{"Id":0,"Territorio":"Sur Oriente","Barrio":"Sierra Bella","COD_MZN":"13101201003025"},"geometry":{"type":"Point","coordinates":[-70.635799,-33.472376]}}]}