{
"type": "FeatureCollection",
"name": "AMB_POL_JARDINES_CONTRATOS",
"features": [
{ "type": "Feature", "properties": { "Contrato": "Arbolado Sur Oriente", "Proveedor": "Araucaria Paisajismo LTDA", "ITS": "Victor Guerrero", "ID_Mp": "2582-89-LR21" }, "geometry": { "type": "Polygon", "coordinates": [ [ [ -70.635125, -33.437411 ], [ -70.636467, -33.437725 ], [ -70.637867, -33.438626 ], [ -70.640164, -33.44019 ], [ -70.641753, -33.441286 ], [ -70.643454, -33.442287 ], [ -70.645886, -33.442971 ], [ -70.650157, -33.444033 ], [ -70.65249, -33.444649 ], [ -70.660019, -33.446583 ], [ -70.65897, -33.449458 ], [ -70.658418, -33.45214 ], [ -70.657903, -33.453993 ], [ -70.657564, -33.454544 ], [ -70.656785, -33.455837 ], [ -70.656599, -33.458016 ], [ -70.65646, -33.460216 ], [ -70.656171, -33.462691 ], [ -70.656162, -33.463675 ], [ -70.656013, -33.466123 ], [ -70.655998, -33.468027 ], [ -70.655873, -33.469871 ], [ -70.655832, -33.470678 ], [ -70.655772, -33.471409 ], [ -70.655225, -33.472379 ], [ -70.654717, -33.472826 ], [ -70.654049, -33.474534 ], [ -70.653979, -33.475952 ], [ -70.653963, -33.476521 ], [ -70.648209, -33.476734 ], [ -70.64197, -33.476427 ], [ -70.639801, -33.476304 ], [ -70.635037, -33.474455 ], [ -70.632601, -33.473604 ], [ -70.629005, -33.472344 ], [ -70.626706, -33.47143 ], [ -70.626016, -33.469093 ], [ -70.626136, -33.468351 ], [ -70.633105, -33.444344 ], [ -70.635125, -33.437411 ] ] ] } },
{ "type": "Feature", "properties": { "Contrato": "Arbolado Sur Poniente", "Proveedor": "Araucaria Paisajismo LTDA", "ITS": "Andres Fuentealba", "ID_Mp": "2582-89-LR21" }, "geometry": { "type": "Polygon", "coordinates": [ [ [ -70.660019, -33.446583 ], [ -70.665919, -33.447771 ], [ -70.667487, -33.447967 ], [ -70.670248, -33.448801 ], [ -70.677788, -33.450835 ], [ -70.677817, -33.452376 ], [ -70.678205, -33.456998 ], [ -70.678582, -33.462469 ], [ -70.678917, -33.466578 ], [ -70.679046, -33.469016 ], [ -70.679063, -33.470625 ], [ -70.673054, -33.470577 ], [ -70.672946, -33.470578 ], [ -70.672836, -33.474956 ], [ -70.672518, -33.475576 ], [ -70.671638, -33.475965 ], [ -70.664821, -33.475713 ], [ -70.662637, -33.475614 ], [ -70.660171, -33.475739 ], [ -70.657697, -33.475975 ], [ -70.655747, -33.476222 ], [ -70.655328, -33.476201 ], [ -70.654928, -33.475565 ], [ -70.654803, -33.474975 ], [ -70.654877, -33.47397 ], [ -70.655685, -33.472721 ], [ -70.656451, -33.471275 ], [ -70.656811, -33.467923 ], [ -70.656958, -33.46427 ], [ -70.657239, -33.458669 ], [ -70.65698, -33.456805 ], [ -70.657416, -33.455774 ], [ -70.658121, -33.454641 ], [ -70.659612, -33.448477 ], [ -70.660019, -33.446583 ] ] ] } },
{ "type": "Feature", "properties": { "Contrato": "Parque Cerro Santa Lucía", "Proveedor": "Parque Hernan Johnson LTDA", "ITS": "Miguel Bugueño", "ID_Mp": "2582-2-LR22" }, "geometry": { "type": "Polygon", "coordinates": [ [ [ -70.6429, -33.441547 ], [ -70.641824, -33.440858 ], [ -70.642369, -33.440574 ], [ -70.642362, -33.439433 ], [ -70.642513, -33.438893 ], [ -70.642706, -33.438343 ], [ -70.643142, -33.437993 ], [ -70.643224, -33.43797 ], [ -70.643338, -33.437995 ], [ -70.643825, -33.43895 ], [ -70.644395, -33.440083 ], [ -70.644582, -33.440596 ], [ -70.644685, -33.440967 ], [ -70.644483, -33.441451 ], [ -70.644077, -33.442018 ], [ -70.6429, -33.441547 ] ] ] } },
{ "type": "Feature", "properties": { "Contrato": "Parque Forestal, Parque Los Reyes y A.A.", "Proveedor": "Soloverde S.A.", "ITS": "Alejandro Contreras", "ID_Mp": "2582-2-LR22" }, "geometry": { "type": "Polygon", "coordinates": [ [ [ -70.673894, -33.426017 ], [ -70.675214, -33.425557 ], [ -70.677661, -33.424125 ], [ -70.677689, -33.427076 ], [ -70.676909, -33.426831 ], [ -70.675477, -33.42714 ], [ -70.669463, -33.429099 ], [ -70.664547, -33.430679 ], [ -70.663071, -33.430554 ], [ -70.660739, -33.430893 ], [ -70.657502, -33.431902 ], [ -70.653623, -33.432709 ], [ -70.652983, -33.432722 ], [ -70.651863, -33.432822 ], [ -70.651452, -33.433006 ], [ -70.650324, -33.433471 ], [ -70.649372, -33.433694 ], [ -70.64898, -33.433854 ], [ -70.646655, -33.434478 ], [ -70.643605, -33.435878 ], [ -70.640716, -33.436584 ], [ -70.640587, -33.437045 ], [ -70.637644, -33.436881 ], [ -70.635409, -33.436777 ], [ -70.635574, -33.436135 ], [ -70.638821, -33.435395 ], [ -70.642544, -33.434516 ], [ -70.645381, -33.433849 ], [ -70.647798, -33.433248 ], [ -70.648738, -33.433085 ], [ -70.650319, -33.432697 ], [ -70.651521, -33.432452 ], [ -70.652767, -33.432111 ], [ -70.656859, -33.431207 ], [ -70.658954, -33.43071 ], [ -70.660437, -33.430426 ], [ -70.662463, -33.429964 ], [ -70.666541, -33.428661 ], [ -70.67146, -33.426943 ], [ -70.673894, -33.426017 ] ] ] } },
{ "type": "Feature", "properties": { "Contrato": "Parque O'higgins", "Proveedor": "Hidrosym LTDA", "ITS": "Miguel Vaquero", "ID_Mp": "2582-60-LR23" }, "geometry": { "type": "MultiPolygon", "coordinates": [ [ [ [ -70.667393, -33.473849 ], [ -70.667306, -33.473779 ], [ -70.667308, -33.473544 ], [ -70.667392, -33.473468 ], [ -70.668057, -33.473474 ], [ -70.668134, -33.473523 ], [ -70.668201, -33.473624 ], [ -70.668196, -33.473724 ], [ -70.668147, -33.473796 ], [ -70.668059, -33.473852 ], [ -70.667393, -33.473849 ] ] ], [ [ [ -70.65595, -33.473184 ], [ -70.655956, -33.473053 ], [ -70.665398, -33.473547 ], [ -70.665549, -33.473583 ], [ -70.667211, -33.473628 ], [ -70.667212, -33.473678 ], [ -70.666387, -33.473663 ], [ -70.665548, -33.473648 ], [ -70.665377, -33.473703 ], [ -70.65595, -33.473184 ] ] ], [ [ [ -70.659483, -33.473187 ], [ -70.659663, -33.470424 ], [ -70.659806, -33.47044 ], [ -70.659627, -33.473208 ], [ -70.659483, -33.473187 ] ] ], [ [ [ -70.65923, -33.473146 ], [ -70.659421, -33.470424 ], [ -70.659547, -33.470431 ], [ -70.659394, -33.473154 ], [ -70.65923, -33.473146 ] ] ], [ [ [ -70.656694, -33.47026 ], [ -70.656697, -33.470131 ], [ -70.65953, -33.470265 ], [ -70.659515, -33.470398 ], [ -70.656694, -33.47026 ] ] ], [ [ [ -70.656721, -33.470055 ], [ -70.656722, -33.470026 ], [ -70.662971, -33.470366 ], [ -70.663365, -33.470423 ], [ -70.656721, -33.470055 ] ] ], [ [ [ -70.663576, -33.468958 ], [ -70.663686, -33.468908 ], [ -70.663612, -33.470401 ], [ -70.663513, -33.470404 ], [ -70.663576, -33.468958 ] ] ], [ [ [ -70.656688, -33.46995 ], [ -70.656807, -33.468096 ], [ -70.65719, -33.468506 ], [ -70.657234, -33.468692 ], [ -70.657211, -33.46989 ], [ -70.65703, -33.469964 ], [ -70.656688, -33.46995 ] ] ], [ [ [ -70.663629, -33.467296 ], [ -70.663644, -33.467145 ], [ -70.664778, -33.467256 ], [ -70.664785, -33.467369 ], [ -70.663629, -33.467296 ] ] ], [ [ [ -70.663708, -33.465475 ], [ -70.663727, -33.46541 ], [ -70.664853, -33.46551 ], [ -70.664855, -33.465605 ], [ -70.663708, -33.465475 ] ] ], [ [ [ -70.663729, -33.465327 ], [ -70.663748, -33.464836 ], [ -70.663893, -33.464846 ], [ -70.663846, -33.46534 ], [ -70.663729, -33.465327 ] ] ], [ [ [ -70.663858, -33.462203 ], [ -70.663926, -33.461 ], [ -70.664049, -33.461006 ], [ -70.664017, -33.462213 ], [ -70.663858, -33.462203 ] ] ], [ [ [ -70.664015, -33.458757 ], [ -70.664023, -33.458666 ], [ -70.664911, -33.458713 ], [ -70.66491, -33.458787 ], [ -70.664015, -33.458757 ] ] ], [ [ [ -70.657371, -33.459396 ], [ -70.657233, -33.458606 ], [ -70.657243, -33.458554 ], [ -70.657284, -33.458653 ], [ -70.657387, -33.45902 ], [ -70.657453, -33.459395 ], [ -70.657371, -33.459396 ] ] ], [ [ [ -70.657316, -33.46039 ], [ -70.657566, -33.460086 ], [ -70.657563, -33.459919 ], [ -70.657555, -33.459485 ], [ -70.657521, -33.459194 ], [ -70.657453, -33.458909 ], [ -70.657374, -33.458657 ], [ -70.657427, -33.458441 ], [ -70.657577, -33.458258 ], [ -70.657792, -33.458183 ], [ -70.657623, -33.458291 ], [ -70.657501, -33.458469 ], [ -70.657505, -33.458665 ], [ -70.657645, -33.459135 ], [ -70.657671, -33.459898 ], [ -70.657596, -33.460176 ], [ -70.657306, -33.460485 ], [ -70.657316, -33.46039 ] ] ], [ [ [ -70.657295, -33.46997 ], [ -70.657293, -33.468504 ], [ -70.656832, -33.468006 ], [ -70.656881, -33.465554 ], [ -70.657481, -33.464767 ], [ -70.657301, -33.463899 ], [ -70.657233, -33.463213 ], [ -70.657315, -33.461059 ], [ -70.65737, -33.460555 ], [ -70.6578, -33.460137 ], [ -70.657657, -33.458368 ], [ -70.65789, -33.458181 ], [ -70.663801, -33.458591 ], [ -70.663913, -33.458772 ], [ -70.663739, -33.462161 ], [ -70.66328, -33.470152 ], [ -70.663157, -33.470273 ], [ -70.657295, -33.46997 ] ] ], [ [ [ -70.657135, -33.458113 ], [ -70.657562, -33.458117 ], [ -70.657227, -33.458475 ], [ -70.657135, -33.458113 ] ] ], [ [ [ -70.660554, -33.458273 ], [ -70.660462, -33.458194 ], [ -70.660535, -33.457055 ], [ -70.660774, -33.456911 ], [ -70.660975, -33.456919 ], [ -70.66086, -33.458303 ], [ -70.660554, -33.458273 ] ] ], [ [ [ -70.659514, -33.45818 ], [ -70.659463, -33.458135 ], [ -70.659653, -33.456813 ], [ -70.660246, -33.456908 ], [ -70.660168, -33.458072 ], [ -70.660025, -33.458211 ], [ -70.659514, -33.45818 ] ] ], [ [ [ -70.660288, -33.458189 ], [ -70.660338, -33.457051 ], [ -70.660312, -33.456879 ], [ -70.660418, -33.456773 ], [ -70.660494, -33.456886 ], [ -70.660421, -33.457071 ], [ -70.660348, -33.458198 ], [ -70.6603, -33.45822 ], [ -70.660288, -33.458189 ] ] ] ] } },
{ "type": "Feature", "properties": { "Contrato": "Parque Quinta Normal y Paseo Portales", "Proveedor": "Soloverde S.A.", "ITS": "Lorena Fernández", "ID_Mp": "2582-60-LR23" }, "geometry": { "type": "MultiPolygon", "coordinates": [ [ [ [ -70.670712, -33.442605 ], [ -70.67949, -33.443667 ], [ -70.67947, -33.443934 ], [ -70.670484, -33.442896 ], [ -70.670494, -33.442673 ], [ -70.670699, -33.442693 ], [ -70.670712, -33.442605 ] ] ], [ [ [ -70.679677, -33.443767 ], [ -70.680043, -33.438443 ], [ -70.691553, -33.439233 ], [ -70.691436, -33.439632 ], [ -70.691785, -33.444412 ], [ -70.679677, -33.443767 ] ] ] ] } },
{ "type": "Feature", "properties": { "Contrato": "Sector 2", "Proveedor": "Hidrosym LTDA", "ITS": "Cesar Hernández", "ID_Mp": "2582-58-LR22" }, "geometry": { "type": "Polygon", "coordinates": [ [ [ -70.629911, -33.455672 ], [ -70.635262, -33.437197 ], [ -70.636571, -33.43749 ], [ -70.638329, -33.438535 ], [ -70.640788, -33.440436 ], [ -70.642772, -33.441621 ], [ -70.643871, -33.442108 ], [ -70.646157, -33.442712 ], [ -70.64979, -33.443625 ], [ -70.650912, -33.443935 ], [ -70.651813, -33.444028 ], [ -70.652863, -33.444155 ], [ -70.657227, -33.445146 ], [ -70.660856, -33.445995 ], [ -70.660632, -33.447375 ], [ -70.660276, -33.448485 ], [ -70.660073, -33.449119 ], [ -70.659182, -33.451937 ], [ -70.659073, -33.452342 ], [ -70.658459, -33.454629 ], [ -70.657088, -33.456184 ], [ -70.656855, -33.457704 ], [ -70.657139, -33.46064 ], [ -70.655575, -33.46047 ], [ -70.653349, -33.460175 ], [ -70.651038, -33.4598 ], [ -70.645238, -33.458856 ], [ -70.643317, -33.458433 ], [ -70.642963, -33.46094 ], [ -70.64252, -33.464077 ], [ -70.642368, -33.466752 ], [ -70.642144, -33.470706 ], [ -70.641976, -33.475098 ], [ -70.641912, -33.476531 ], [ -70.639537, -33.476219 ], [ -70.637313, -33.475427 ], [ -70.635136, -33.47475 ], [ -70.63257, -33.473963 ], [ -70.628716, -33.472467 ], [ -70.626394, -33.471352 ], [ -70.625022, -33.469843 ], [ -70.625922, -33.469202 ], [ -70.629911, -33.455672 ] ] ] } },
{ "type": "Feature", "properties": { "Contrato": "Sector 3", "Proveedor": "Soc. R. de Pablo y CIA ltda (Phoenix)", "ITS": "Rodrigo Espinoza", "ID_Mp": "2582-2-LR22" }, "geometry": { "type": "Polygon", "coordinates": [ [ [ -70.656855, -33.457704 ], [ -70.657088, -33.456184 ], [ -70.658459, -33.454629 ], [ -70.659073, -33.452342 ], [ -70.660276, -33.448485 ], [ -70.660856, -33.445995 ], [ -70.664636, -33.446944 ], [ -70.677797, -33.450469 ], [ -70.677903, -33.452415 ], [ -70.678135, -33.45621 ], [ -70.678786, -33.46399 ], [ -70.679144, -33.469474 ], [ -70.679654, -33.4704 ], [ -70.679752, -33.470537 ], [ -70.67972, -33.470634 ], [ -70.678251, -33.470649 ], [ -70.676727, -33.470623 ], [ -70.673276, -33.470626 ], [ -70.673315, -33.472875 ], [ -70.673212, -33.474623 ], [ -70.672273, -33.475842 ], [ -70.671556, -33.475842 ], [ -70.664821, -33.475713 ], [ -70.662144, -33.475687 ], [ -70.657004, -33.476138 ], [ -70.650458, -33.476836 ], [ -70.641912, -33.476531 ], [ -70.642368, -33.466752 ], [ -70.642963, -33.46094 ], [ -70.643317, -33.458433 ], [ -70.651038, -33.4598 ], [ -70.657139, -33.46064 ], [ -70.656855, -33.457704 ] ], [ [ -70.663446, -33.470109 ], [ -70.663704, -33.462104 ], [ -70.663913, -33.458772 ], [ -70.663801, -33.458591 ], [ -70.65789, -33.458181 ], [ -70.657657, -33.458368 ], [ -70.6578, -33.460137 ], [ -70.65737, -33.460555 ], [ -70.657315, -33.461059 ], [ -70.657233, -33.463213 ], [ -70.657301, -33.463899 ], [ -70.657481, -33.464767 ], [ -70.656881, -33.465554 ], [ -70.656832, -33.468006 ], [ -70.657293, -33.468504 ], [ -70.657295, -33.470061 ], [ -70.663163, -33.470338 ], [ -70.663446, -33.470109 ] ] ] } }
]
}
