{"type":"FeatureCollection","name":"AMB_POL_PLAZAS","features":[{"type":"Feature","properties":{"OBJECTID_1":1,"OBJECTID":3906,"CUT":13101,"SUP_TOTAL_":1996.8217317,"Nombre":"Plaza Eusebio Lillo","CATEGORIA":"PLAZA"},"geometry":{"type":"Polygon","coordinates":[[[-70.677888,-33.43845],[-70.677895,-33.438379],[-70.677895,-33.438378],[-70.677901,-33.438354],[-70.677901,-33.438354],[-70.677913,-33.438342],[-70.677928,-33.438337],[-70.67795,-33.438335],[-70.677974,-33.438335],[-70.678858,-33.438393],[-70.678869,-33.438396],[-70.67888,-33.438404],[-70.678889,-33.438413],[-70.678894,-33.438427],[-70.678894,-33.438427],[-70.678896,-33.438442],[-70.678896,-33.438442],[-70.678897,-33.438453],[-70.678897,-33.438453],[-70.678838,-33.439164],[-70.678742,-33.43916],[-70.678773,-33.438518],[-70.677975,-33.438456],[-70.677927,-33.438452],[-70.677888,-33.43845]]]}},{"type":"Feature","properties":{"OBJECTID_1":2,"OBJECTID":3909,"CUT":13101,"SUP_TOTAL_":945.138597629,"Nombre":"Plaza Irlanda","CATEGORIA":"PLAZA"},"geometry":{"type":"Polygon","coordinates":[[[-70.663259,-33.434346],[-70.66324,-33.434588],[-70.66324,-33.434588],[-70.663238,-33.434611],[-70.663093,-33.434603],[-70.663089,-33.434603],[-70.663057,-33.434602],[-70.663057,-33.434602],[-70.663057,-33.434602],[-70.662911,-33.434596],[-70.662906,-33.434595],[-70.662902,-33.434592],[-70.662898,-33.434583],[-70.662898,-33.434577],[-70.662898,-33.434577],[-70.662918,-33.434326],[-70.662955,-33.434329],[-70.662987,-33.43433],[-70.663101,-33.434335],[-70.663238,-33.434344],[-70.663259,-33.434346]]]}},{"type":"Feature","properties":{"OBJECTID_1":3,"OBJECTID":3911,"CUT":13101,"SUP_TOTAL_":2841.43879321,"Nombre":"Plaza Jerusalen","CATEGORIA":"PLAZA"},"geometry":{"type":"Polygon","coordinates":[[[-70.657554,-33.432034],[-70.657556,-33.432014],[-70.657572,-33.431983],[-70.657605,-33.431958],[-70.657791,-33.431908],[-70.657793,-33.431908],[-70.657845,-33.431894],[-70.658179,-33.431809],[-70.658372,-33.43176],[-70.658396,-33.431754],[-70.658538,-33.431715],[-70.658683,-33.43167],[-70.658746,-33.431652],[-70.658781,-33.43165],[-70.658839,-33.431652],[-70.658884,-33.431665],[-70.658928,-33.431694],[-70.658961,-33.431747],[-70.658971,-33.431809],[-70.658955,-33.431915],[-70.658942,-33.431928],[-70.658932,-33.431934],[-70.658897,-33.431944],[-70.658696,-33.431958],[-70.658332,-33.431984],[-70.657835,-33.43202],[-70.657785,-33.432023],[-70.657778,-33.432024],[-70.657578,-33.432039],[-70.657578,-33.432039],[-70.657554,-33.432034]]]}},{"type":"Feature","properties":{"OBJECTID_1":4,"OBJECTID":3913,"CUT":13101,"SUP_TOTAL_":1522.0769813,"Nombre":"Plaza Particio Mekis","CATEGORIA":"PLAZA"},"geometry":{"type":"Polygon","coordinates":[[[-70.64699,-33.44038],[-70.64699,-33.440354],[-70.647009,-33.440219],[-70.647901,-33.440307],[-70.647949,-33.440312],[-70.647945,-33.440342],[-70.647934,-33.440408],[-70.647928,-33.440427],[-70.647919,-33.440439],[-70.647905,-33.440449],[-70.647871,-33.440457],[-70.647819,-33.440454],[-70.64699,-33.44038]]]}},{"type":"Feature","properties":{"OBJECTID_1":5,"OBJECTID":3917,"CUT":13101,"SUP_TOTAL_":665.00025298,"Nombre":"Plaza Central de Leche","CATEGORIA":"PLAZA"},"geometry":{"type":"Polygon","coordinates":[[[-70.673461,-33.467657],[-70.673485,-33.467656],[-70.673496,-33.467655],[-70.673542,-33.467656],[-70.673735,-33.467657],[-70.673791,-33.467658],[-70.673812,-33.467658],[-70.673813,-33.467841],[-70.673458,-33.467837],[-70.673461,-33.467657]]]}},{"type":"Feature","properties":{"OBJECTID_1":6,"OBJECTID":3925,"CUT":13101,"SUP_TOTAL_":560.776372157,"Nombre":"Plaza Griselda Hinojosa","CATEGORIA":"PLAZA"},"geometry":{"type":"Polygon","coordinates":[[[-70.660481,-33.441604],[-70.660481,-33.441604],[-70.660466,-33.441599],[-70.660459,-33.441595],[-70.660454,-33.441591],[-70.66045,-33.441586],[-70.660446,-33.441579],[-70.660443,-33.441571],[-70.66044,-33.441548],[-70.660437,-33.441533],[-70.660429,-33.441483],[-70.660429,-33.441483],[-70.660409,-33.441372],[-70.660422,-33.441372],[-70.660442,-33.441372],[-70.660463,-33.441375],[-70.660664,-33.441395],[-70.660671,-33.441396],[-70.660661,-33.441525],[-70.660652,-33.441638],[-70.660481,-33.441604],[-70.660481,-33.441604]]]}},{"type":"Feature","properties":{"OBJECTID_1":7,"OBJECTID":3926,"CUT":13101,"SUP_TOTAL_":3122.99110665,"Nombre":"PLAZA KIEV","CATEGORIA":"PLAZA"},"geometry":{"type":"Polygon","coordinates":[[[-70.660146,-33.445754],[-70.660145,-33.445752],[-70.660145,-33.445745],[-70.660152,-33.445697],[-70.660158,-33.445661],[-70.660385,-33.445711],[-70.660422,-33.445419],[-70.660276,-33.445404],[-70.660345,-33.444819],[-70.66035,-33.444745],[-70.660351,-33.444671],[-70.660348,-33.444604],[-70.660348,-33.444596],[-70.660343,-33.444503],[-70.660349,-33.444524],[-70.660349,-33.444524],[-70.660357,-33.444541],[-70.660391,-33.44461],[-70.660432,-33.444681],[-70.66045,-33.444711],[-70.660453,-33.444717],[-70.660512,-33.444818],[-70.66056,-33.444907],[-70.660575,-33.444934],[-70.660585,-33.444962],[-70.660601,-33.445009],[-70.660627,-33.445081],[-70.660627,-33.445081],[-70.660635,-33.445192],[-70.66064,-33.445251],[-70.660644,-33.445316],[-70.660644,-33.445316],[-70.660595,-33.44571],[-70.660595,-33.44571],[-70.660574,-33.445775],[-70.660533,-33.445805],[-70.660532,-33.445806],[-70.660528,-33.445809],[-70.660497,-33.44581],[-70.660488,-33.445811],[-70.660477,-33.445811],[-70.660446,-33.445806],[-70.660389,-33.445797],[-70.660353,-33.445791],[-70.660343,-33.445789],[-70.660287,-33.445779],[-70.660171,-33.445758],[-70.660169,-33.445758],[-70.660146,-33.445754]]]}},{"type":"Feature","properties":{"OBJECTID_1":8,"OBJECTID":3927,"CUT":13101,"SUP_TOTAL_":2231.89097518,"Nombre":"Plaza Bolsillo Santo Domingo","CATEGORIA":"PLAZA"},"geometry":{"type":"Polygon","coordinates":[[[-70.655517,-33.437181],[-70.655488,-33.43718],[-70.655407,-33.437176],[-70.655046,-33.437152],[-70.65506,-33.437027],[-70.655089,-33.436754],[-70.655092,-33.436726],[-70.655096,-33.436704],[-70.6551,-33.436688],[-70.655533,-33.436739],[-70.655548,-33.436747],[-70.655563,-33.436762],[-70.655568,-33.436774],[-70.655568,-33.436774],[-70.655569,-33.436794],[-70.655569,-33.436794],[-70.655517,-33.437181]]]}},{"type":"Feature","properties":{"OBJECTID_1":9,"OBJECTID":3932,"CUT":13101,"SUP_TOTAL_":486.866432958,"Nombre":"Plaza","CATEGORIA":"PLAZA"},"geometry":{"type":"Polygon","coordinates":[[[-70.644213,-33.451945],[-70.644237,-33.451783],[-70.644237,-33.451783],[-70.644252,-33.451763],[-70.644253,-33.451761],[-70.644255,-33.451761],[-70.644265,-33.45176],[-70.644299,-33.451764],[-70.644489,-33.451788],[-70.644485,-33.451813],[-70.64448,-33.451851],[-70.644458,-33.451978],[-70.644331,-33.451958],[-70.644213,-33.451945]]]}},{"type":"Feature","properties":{"OBJECTID_1":10,"OBJECTID":3933,"CUT":13101,"SUP_TOTAL_":1117.15530869,"Nombre":"Plaza Tierra Santa","CATEGORIA":"PLAZA"},"geometry":{"type":"Polygon","coordinates":[[[-70.645796,-33.463877],[-70.645759,-33.463873],[-70.645706,-33.46387],[-70.645702,-33.46387],[-70.645712,-33.463775],[-70.645713,-33.463767],[-70.645727,-33.463635],[-70.645728,-33.463633],[-70.645345,-33.463589],[-70.645361,-33.463474],[-70.645368,-33.463419],[-70.645368,-33.463407],[-70.645778,-33.463447],[-70.645787,-33.463454],[-70.645805,-33.46347],[-70.645816,-33.463485],[-70.645819,-33.463492],[-70.645822,-33.4635],[-70.645822,-33.4635],[-70.645823,-33.463526],[-70.645823,-33.463526],[-70.645823,-33.463548],[-70.645823,-33.463548],[-70.645796,-33.463877]]]}},{"type":"Feature","properties":{"OBJECTID_1":11,"OBJECTID":3934,"CUT":13101,"SUP_TOTAL_":605.608620642,"Nombre":"Plaza Franklin Lord Cochrane","CATEGORIA":"PLAZA"},"geometry":{"type":"Polygon","coordinates":[[[-70.652258,-33.473454],[-70.652264,-33.473428],[-70.652272,-33.473385],[-70.652274,-33.473375],[-70.652318,-33.473377],[-70.652336,-33.473375],[-70.652382,-33.473366],[-70.652502,-33.473342],[-70.652648,-33.473314],[-70.652649,-33.473305],[-70.65273,-33.47331],[-70.652731,-33.473312],[-70.65272,-33.473427],[-70.652718,-33.47344],[-70.652718,-33.473442],[-70.652715,-33.473485],[-70.65228,-33.47346],[-70.652258,-33.473454]]]}},{"type":"Feature","properties":{"OBJECTID_1":13,"OBJECTID":5306,"CUT":13101,"SUP_TOTAL_":1364.73013729,"Nombre":"Plaza Las Palmas","CATEGORIA":"PLAZA"},"geometry":{"type":"Polygon","coordinates":[[[-70.664799,-33.432117],[-70.664874,-33.432116],[-70.66493,-33.43212],[-70.664956,-33.432127],[-70.664979,-33.432138],[-70.664993,-33.43215],[-70.664997,-33.432153],[-70.665007,-33.432167],[-70.665013,-33.432181],[-70.665013,-33.432181],[-70.665014,-33.432199],[-70.665014,-33.432199],[-70.665014,-33.432206],[-70.665014,-33.432206],[-70.664985,-33.432701],[-70.664985,-33.432701],[-70.664981,-33.432713],[-70.664977,-33.432716],[-70.664974,-33.432719],[-70.66496,-33.432725],[-70.664946,-33.432724],[-70.664904,-33.432724],[-70.664759,-33.432718],[-70.664799,-33.432117]]]}},{"type":"Feature","properties":{"OBJECTID_1":14,"OBJECTID":5307,"CUT":13101,"SUP_TOTAL_":1212.01703081,"Nombre":"Plaza Las Palmas","CATEGORIA":"PLAZA"},"geometry":{"type":"Polygon","coordinates":[[[-70.66472,-33.433307],[-70.664755,-33.432777],[-70.664934,-33.432785],[-70.664955,-33.432788],[-70.664968,-33.432797],[-70.664974,-33.432806],[-70.664974,-33.432806],[-70.664977,-33.43282],[-70.664977,-33.43282],[-70.664967,-33.432965],[-70.664967,-33.432965],[-70.664946,-33.433273],[-70.664943,-33.43328],[-70.664936,-33.43329],[-70.664926,-33.433301],[-70.664916,-33.433306],[-70.664915,-33.433306],[-70.664897,-33.433312],[-70.664884,-33.433312],[-70.664877,-33.433312],[-70.66472,-33.433307]]]}},{"type":"Feature","properties":{"OBJECTID_1":15,"OBJECTID":5308,"CUT":13101,"SUP_TOTAL_":2894.60537707,"Nombre":"Plaza Las Palmas","CATEGORIA":"PLAZA"},"geometry":{"type":"Polygon","coordinates":[[[-70.664626,-33.434703],[-70.664711,-33.433437],[-70.664872,-33.433443],[-70.664892,-33.433447],[-70.664903,-33.433451],[-70.664912,-33.433458],[-70.664916,-33.433461],[-70.66492,-33.433465],[-70.664925,-33.433475],[-70.664925,-33.433475],[-70.664928,-33.433487],[-70.664928,-33.433487],[-70.664927,-33.433507],[-70.664927,-33.433507],[-70.664858,-33.434569],[-70.664858,-33.434569],[-70.664853,-33.434664],[-70.664853,-33.434664],[-70.664851,-33.43468],[-70.664845,-33.434691],[-70.664838,-33.434697],[-70.664827,-33.434702],[-70.664824,-33.434704],[-70.664815,-33.434707],[-70.664795,-33.434708],[-70.664778,-33.43471],[-70.664626,-33.434703]]]}},{"type":"Feature","properties":{"OBJECTID_1":16,"OBJECTID":5309,"CUT":13101,"SUP_TOTAL_":2080.39136414,"Nombre":"Plaza Ecuador","CATEGORIA":"PLAZA"},"geometry":{"type":"Polygon","coordinates":[[[-70.657268,-33.434393],[-70.657127,-33.434389],[-70.656962,-33.434383],[-70.656813,-33.434378],[-70.656813,-33.434378],[-70.656573,-33.434369],[-70.656573,-33.434369],[-70.656573,-33.434369],[-70.656087,-33.434352],[-70.656079,-33.434351],[-70.656071,-33.43435],[-70.656061,-33.434345],[-70.656057,-33.434341],[-70.656053,-33.434336],[-70.656052,-33.434328],[-70.656052,-33.434328],[-70.656052,-33.434231],[-70.656052,-33.434231],[-70.656053,-33.434202],[-70.656053,-33.434202],[-70.656054,-33.434198],[-70.656054,-33.434198],[-70.656056,-33.434196],[-70.656058,-33.434193],[-70.656064,-33.43419],[-70.656069,-33.434188],[-70.656075,-33.434187],[-70.656076,-33.434187],[-70.656078,-33.434187],[-70.656522,-33.434205],[-70.656557,-33.434207],[-70.657264,-33.434239],[-70.657279,-33.43424],[-70.657282,-33.434241],[-70.657289,-33.434242],[-70.6573,-33.434246],[-70.657301,-33.434246],[-70.657312,-33.434254],[-70.657318,-33.434261],[-70.657318,-33.434261],[-70.65732,-33.434269],[-70.65732,-33.434269],[-70.657315,-33.434351],[-70.657315,-33.434351],[-70.657312,-33.434369],[-70.657312,-33.434369],[-70.65731,-33.434376],[-70.657307,-33.434381],[-70.657302,-33.434386],[-70.657296,-33.434389],[-70.657289,-33.434392],[-70.657283,-33.434393],[-70.657277,-33.434393],[-70.657268,-33.434393]]]}},{"type":"Feature","properties":{"OBJECTID_1":17,"OBJECTID":5313,"CUT":13101,"SUP_TOTAL_":2481.13563826,"Nombre":"Plaza Montt Varas","CATEGORIA":"PLAZA"},"geometry":{"type":"Polygon","coordinates":[[[-70.65249,-33.438898],[-70.652511,-33.438767],[-70.652511,-33.438767],[-70.652519,-33.438749],[-70.652536,-33.438733],[-70.652554,-33.438723],[-70.65258,-33.438717],[-70.65261,-33.438717],[-70.653733,-33.438823],[-70.653758,-33.438831],[-70.653772,-33.438841],[-70.653779,-33.438852],[-70.653779,-33.438852],[-70.653782,-33.438862],[-70.653782,-33.438862],[-70.653783,-33.438882],[-70.653783,-33.438882],[-70.653764,-33.439016],[-70.65249,-33.438898]]]}},{"type":"Feature","properties":{"OBJECTID_1":18,"OBJECTID":5314,"CUT":13101,"SUP_TOTAL_":2885.6814152,"Nombre":"Plaza Santa Teresa de Los Andes","CATEGORIA":"PLAZA"},"geometry":{"type":"Polygon","coordinates":[[[-70.658289,-33.438196],[-70.658289,-33.438196],[-70.658297,-33.438182],[-70.658304,-33.438175],[-70.658318,-33.438167],[-70.658334,-33.438161],[-70.658348,-33.438158],[-70.658365,-33.438159],[-70.658898,-33.438214],[-70.658836,-33.438675],[-70.658243,-33.438616],[-70.658289,-33.438196]]]}},{"type":"Feature","properties":{"OBJECTID_1":19,"OBJECTID":5317,"CUT":13101,"SUP_TOTAL_":17346.2659656,"Nombre":"Plaza Brasil","CATEGORIA":"PLAZA"},"geometry":{"type":"Polygon","coordinates":[[[-70.665035,-33.439958],[-70.665105,-33.43996],[-70.665119,-33.43996],[-70.665153,-33.439962],[-70.666622,-33.440128],[-70.666677,-33.440134],[-70.666702,-33.440137],[-70.66671,-33.440139],[-70.666718,-33.440142],[-70.666725,-33.440148],[-70.66673,-33.440153],[-70.666733,-33.440161],[-70.666733,-33.440161],[-70.666734,-33.440171],[-70.666734,-33.440171],[-70.666632,-33.441116],[-70.666632,-33.441116],[-70.66663,-33.44113],[-70.666624,-33.441143],[-70.66662,-33.441151],[-70.666616,-33.441156],[-70.666609,-33.441161],[-70.666601,-33.441164],[-70.666592,-33.441167],[-70.666581,-33.441169],[-70.666565,-33.441169],[-70.666546,-33.441169],[-70.666528,-33.441169],[-70.666508,-33.441165],[-70.666485,-33.441163],[-70.665277,-33.44102],[-70.665218,-33.441013],[-70.665185,-33.441002],[-70.66517,-33.440991],[-70.665169,-33.44099],[-70.665167,-33.440989],[-70.665157,-33.440983],[-70.665149,-33.440957],[-70.665149,-33.440957],[-70.665147,-33.440911],[-70.665147,-33.440911],[-70.665119,-33.440845],[-70.665119,-33.440845],[-70.665078,-33.440479],[-70.665078,-33.440479],[-70.665068,-33.44036],[-70.665068,-33.44036],[-70.665057,-33.440298],[-70.665057,-33.440298],[-70.665041,-33.440227],[-70.665041,-33.440227],[-70.664982,-33.440012],[-70.664982,-33.440012],[-70.664982,-33.440003],[-70.664982,-33.440003],[-70.664983,-33.43999],[-70.664983,-33.43999],[-70.664992,-33.439977],[-70.665003,-33.43997],[-70.665009,-33.439966],[-70.665035,-33.439958]]]}},{"type":"Feature","properties":{"OBJECTID_1":20,"OBJECTID":5326,"CUT":13101,"SUP_TOTAL_":4231.66366772,"Nombre":"Plaza Baden Powell Sur","CATEGORIA":"PLAZA"},"geometry":{"type":"Polygon","coordinates":[[[-70.658849,-33.453513],[-70.658802,-33.45351],[-70.658805,-33.453498],[-70.65881,-33.453481],[-70.65881,-33.453481],[-70.658889,-33.453115],[-70.658889,-33.453115],[-70.658978,-33.452811],[-70.658978,-33.452811],[-70.659013,-33.452759],[-70.659014,-33.452759],[-70.659051,-33.452748],[-70.659082,-33.452739],[-70.659135,-33.452747],[-70.659188,-33.452757],[-70.6593,-33.4528],[-70.659368,-33.452832],[-70.659437,-33.452893],[-70.65948,-33.452967],[-70.659534,-33.453015],[-70.659579,-33.45308],[-70.659557,-33.453127],[-70.65952,-33.453217],[-70.65947,-33.453302],[-70.659418,-33.453364],[-70.659357,-33.453408],[-70.659291,-33.453445],[-70.659206,-33.453484],[-70.659085,-33.453503],[-70.659,-33.453515],[-70.658926,-33.453519],[-70.658849,-33.453513]]]}},{"type":"Feature","properties":{"OBJECTID_1":21,"OBJECTID":5327,"CUT":13101,"SUP_TOTAL_":3507.61365967,"Nombre":"Plaza Juan Gregorio de Las Heras","CATEGORIA":"PLAZA"},"geometry":{"type":"Polygon","coordinates":[[[-70.657855,-33.45322],[-70.657614,-33.453203],[-70.657282,-33.453185],[-70.657105,-33.453175],[-70.65725,-33.453131],[-70.657327,-33.453092],[-70.657389,-33.453045],[-70.657709,-33.452757],[-70.657826,-33.452657],[-70.657884,-33.452629],[-70.657939,-33.452618],[-70.65798,-33.452626],[-70.658029,-33.452638],[-70.658075,-33.452661],[-70.658079,-33.452665],[-70.658108,-33.452691],[-70.658128,-33.452731],[-70.658139,-33.452766],[-70.658151,-33.452805],[-70.658156,-33.452846],[-70.658153,-33.452892],[-70.658148,-33.452936],[-70.658133,-33.452994],[-70.658121,-33.453039],[-70.658106,-33.453086],[-70.658085,-33.453129],[-70.658051,-33.45317],[-70.658019,-33.453194],[-70.658018,-33.453195],[-70.657987,-33.45321],[-70.657927,-33.453224],[-70.657855,-33.45322]]]}},{"type":"Feature","properties":{"OBJECTID_1":22,"OBJECTID":5330,"CUT":13101,"SUP_TOTAL_":3347.35371341,"Nombre":"Plaza Bernardo Leighton","CATEGORIA":"PLAZA"},"geometry":{"type":"Polygon","coordinates":[[[-70.648755,-33.45144],[-70.648702,-33.451426],[-70.648187,-33.451276],[-70.648171,-33.451267],[-70.648157,-33.451254],[-70.648144,-33.451236],[-70.648143,-33.451229],[-70.648139,-33.451216],[-70.648139,-33.451216],[-70.648141,-33.451183],[-70.648141,-33.451183],[-70.648199,-33.450857],[-70.648911,-33.450962],[-70.648821,-33.451413],[-70.648817,-33.451423],[-70.64881,-33.45143],[-70.648798,-33.451437],[-70.648787,-33.45144],[-70.648784,-33.451441],[-70.648772,-33.451442],[-70.648755,-33.45144]]]}},{"type":"Feature","properties":{"OBJECTID_1":23,"OBJECTID":5331,"CUT":13101,"SUP_TOTAL_":910.558580158,"Nombre":"Plaza Stuttgart","CATEGORIA":"PLAZA"},"geometry":{"type":"Polygon","coordinates":[[[-70.643106,-33.450274],[-70.643093,-33.450271],[-70.643079,-33.450265],[-70.643068,-33.450258],[-70.643058,-33.450249],[-70.643054,-33.450242],[-70.64305,-33.450236],[-70.643047,-33.450233],[-70.643045,-33.450222],[-70.643045,-33.450222],[-70.643045,-33.450203],[-70.643045,-33.450203],[-70.643112,-33.450001],[-70.64313,-33.449948],[-70.64313,-33.449948],[-70.643365,-33.450002],[-70.643393,-33.450009],[-70.64332,-33.450303],[-70.643106,-33.450274]]]}},{"type":"Feature","properties":{"OBJECTID_1":24,"OBJECTID":5333,"CUT":13101,"SUP_TOTAL_":1877.08645141,"Nombre":"Plaza Copiapo","CATEGORIA":"PLAZA"},"geometry":{"type":"Polygon","coordinates":[[[-70.652307,-33.456062],[-70.652335,-33.455881],[-70.652335,-33.455881],[-70.652337,-33.455859],[-70.652337,-33.455859],[-70.652342,-33.455844],[-70.652342,-33.455844],[-70.652348,-33.455834],[-70.652355,-33.455826],[-70.652364,-33.455821],[-70.652376,-33.455817],[-70.652387,-33.455817],[-70.652986,-33.455882],[-70.653006,-33.455884],[-70.653022,-33.455888],[-70.653033,-33.455891],[-70.653042,-33.455898],[-70.653047,-33.455906],[-70.653047,-33.455906],[-70.653051,-33.455917],[-70.653051,-33.455917],[-70.653052,-33.455927],[-70.653052,-33.455927],[-70.653022,-33.456144],[-70.652307,-33.456062]]]}},{"type":"Feature","properties":{"OBJECTID_1":25,"OBJECTID":5334,"CUT":13101,"SUP_TOTAL_":5869.93390191,"Nombre":"Plazoleta ex Arsenal de Guerra","CATEGORIA":"PLAZA"},"geometry":{"type":"Polygon","coordinates":[[[-70.657051,-33.456464],[-70.657051,-33.456464],[-70.657068,-33.456395],[-70.657068,-33.456395],[-70.657103,-33.456302],[-70.657154,-33.456199],[-70.657215,-33.45609],[-70.657263,-33.456009],[-70.65731,-33.455942],[-70.657388,-33.455847],[-70.657454,-33.455764],[-70.657602,-33.455609],[-70.65769,-33.455516],[-70.658027,-33.45517],[-70.658041,-33.455164],[-70.658055,-33.455163],[-70.658057,-33.455166],[-70.658062,-33.455172],[-70.658068,-33.455185],[-70.658068,-33.455185],[-70.658053,-33.455244],[-70.658053,-33.455244],[-70.658019,-33.455377],[-70.658019,-33.455377],[-70.657974,-33.455539],[-70.657974,-33.455539],[-70.657954,-33.455605],[-70.657954,-33.455605],[-70.657911,-33.455748],[-70.657911,-33.455748],[-70.657831,-33.456033],[-70.657831,-33.456033],[-70.657775,-33.456197],[-70.657775,-33.456197],[-70.657734,-33.456308],[-70.657708,-33.456364],[-70.657676,-33.456429],[-70.657649,-33.456481],[-70.657641,-33.456495],[-70.657622,-33.456507],[-70.657608,-33.456511],[-70.657508,-33.456496],[-70.65741,-33.456483],[-70.657311,-33.456475],[-70.657236,-33.456472],[-70.657162,-33.456475],[-70.657093,-33.456485],[-70.657053,-33.456492],[-70.657047,-33.456479],[-70.657051,-33.456464]]]}},{"type":"Feature","properties":{"OBJECTID_1":26,"OBJECTID":5335,"CUT":13101,"SUP_TOTAL_":7393.14256557,"Nombre":"Plaza Exposicion con Blanco Encalada","CATEGORIA":"PLAZA"},"geometry":{"type":"Polygon","coordinates":[[[-70.677565,-33.458839],[-70.677519,-33.458835],[-70.677484,-33.458832],[-70.677288,-33.458816],[-70.67727,-33.458814],[-70.677279,-33.458629],[-70.677281,-33.458587],[-70.677212,-33.458585],[-70.676968,-33.458578],[-70.676652,-33.458569],[-70.676599,-33.458561],[-70.676553,-33.458554],[-70.676435,-33.458537],[-70.676398,-33.458532],[-70.676437,-33.458524],[-70.676448,-33.458522],[-70.678114,-33.458196],[-70.678117,-33.458196],[-70.678182,-33.4582],[-70.678242,-33.458218],[-70.678278,-33.458241],[-70.678284,-33.458258],[-70.678289,-33.458272],[-70.678303,-33.458447],[-70.678322,-33.458704],[-70.678322,-33.458762],[-70.678321,-33.45879],[-70.678312,-33.458816],[-70.678307,-33.458834],[-70.678295,-33.458852],[-70.678272,-33.458873],[-70.678248,-33.458884],[-70.678218,-33.458893],[-70.677565,-33.458839]]]}},{"type":"Feature","properties":{"OBJECTID_1":27,"OBJECTID":5336,"CUT":13101,"SUP_TOTAL_":1139.7713787,"Nombre":"Plaza Las Flores","CATEGORIA":"PLAZA"},"geometry":{"type":"Polygon","coordinates":[[[-70.669271,-33.46976],[-70.669242,-33.46976],[-70.669186,-33.46976],[-70.669055,-33.469758],[-70.66897,-33.469757],[-70.668895,-33.469757],[-70.668887,-33.469753],[-70.668882,-33.469745],[-70.668881,-33.469738],[-70.668887,-33.469731],[-70.66893,-33.469698],[-70.66907,-33.469542],[-70.669241,-33.469352],[-70.66928,-33.469376],[-70.669297,-33.469386],[-70.669314,-33.469395],[-70.669337,-33.469405],[-70.669345,-33.469407],[-70.669345,-33.469407],[-70.669344,-33.469409],[-70.669344,-33.469409],[-70.669331,-33.469736],[-70.669318,-33.469751],[-70.669303,-33.469758],[-70.669283,-33.46976],[-70.669271,-33.46976]]]}},{"type":"Feature","properties":{"OBJECTID_1":28,"OBJECTID":5337,"CUT":13101,"SUP_TOTAL_":8828.80375764,"Nombre":"Plaza Jorge Montt","CATEGORIA":"PLAZA"},"geometry":{"type":"Polygon","coordinates":[[[-70.671718,-33.475843],[-70.671692,-33.475842],[-70.671661,-33.475833],[-70.671642,-33.475819],[-70.671633,-33.475795],[-70.671633,-33.475795],[-70.671634,-33.474922],[-70.671634,-33.474922],[-70.671639,-33.474902],[-70.671639,-33.474902],[-70.671654,-33.474886],[-70.67167,-33.474881],[-70.672767,-33.474889],[-70.672789,-33.474892],[-70.672799,-33.474896],[-70.672811,-33.474901],[-70.672822,-33.474921],[-70.672822,-33.474921],[-70.672824,-33.474941],[-70.672782,-33.475078],[-70.672782,-33.475078],[-70.672772,-33.475111],[-70.672772,-33.475111],[-70.672743,-33.475173],[-70.672725,-33.475208],[-70.672625,-33.475382],[-70.672579,-33.475451],[-70.672546,-33.475489],[-70.672506,-33.475529],[-70.672481,-33.47555],[-70.672449,-33.475573],[-70.672408,-33.475595],[-70.672367,-33.475616],[-70.671962,-33.475765],[-70.671728,-33.475844],[-70.671718,-33.475843]]]}},{"type":"Feature","properties":{"OBJECTID_1":29,"OBJECTID":5338,"CUT":13101,"SUP_TOTAL_":3345.79524516,"Nombre":"Plaza Yarur","CATEGORIA":"PLAZA"},"geometry":{"type":"Polygon","coordinates":[[[-70.667395,-33.473844],[-70.667359,-33.47384],[-70.667332,-33.473831],[-70.667306,-33.473819],[-70.667288,-33.473805],[-70.667278,-33.47379],[-70.667273,-33.473774],[-70.667273,-33.473762],[-70.667274,-33.473512],[-70.667276,-33.47349],[-70.667279,-33.47348],[-70.667284,-33.473472],[-70.66729,-33.473465],[-70.667302,-33.473459],[-70.667317,-33.473456],[-70.667334,-33.473455],[-70.667898,-33.473463],[-70.667953,-33.473471],[-70.668005,-33.473485],[-70.668042,-33.473498],[-70.668103,-33.473533],[-70.668135,-33.473562],[-70.668157,-33.473594],[-70.668171,-33.473632],[-70.668176,-33.47368],[-70.668169,-33.473712],[-70.668167,-33.47372],[-70.668152,-33.47375],[-70.668121,-33.473784],[-70.66809,-33.473808],[-70.66805,-33.47383],[-70.668025,-33.473839],[-70.66802,-33.473841],[-70.667995,-33.473847],[-70.667963,-33.473851],[-70.667942,-33.473852],[-70.667395,-33.473844]]]}},{"type":"Feature","properties":{"OBJECTID_1":30,"OBJECTID":5339,"CUT":13101,"SUP_TOTAL_":1657.02529157,"Nombre":"Plaza Pedro Montt","CATEGORIA":"PLAZA"},"geometry":{"type":"Polygon","coordinates":[[[-70.654306,-33.473498],[-70.654306,-33.473498],[-70.65432,-33.473335],[-70.65432,-33.473335],[-70.654328,-33.473227],[-70.654328,-33.473227],[-70.654357,-33.472989],[-70.654357,-33.472989],[-70.654689,-33.472988],[-70.654716,-33.472993],[-70.654725,-33.473003],[-70.654725,-33.473003],[-70.654725,-33.473004],[-70.654726,-33.473018],[-70.654726,-33.473018],[-70.654724,-33.473033],[-70.654519,-33.473419],[-70.654519,-33.473419],[-70.654469,-33.473558],[-70.654289,-33.473627],[-70.654306,-33.473498]]]}},{"type":"Feature","properties":{"OBJECTID_1":31,"OBJECTID":5340,"CUT":13101,"SUP_TOTAL_":9635.01184694,"Nombre":"Plaza Matte","CATEGORIA":"PLAZA"},"geometry":{"type":"Polygon","coordinates":[[[-70.648687,-33.475597],[-70.648466,-33.47559],[-70.648456,-33.475589],[-70.648428,-33.475585],[-70.648412,-33.475581],[-70.648404,-33.475574],[-70.648398,-33.475566],[-70.648396,-33.475557],[-70.648396,-33.475557],[-70.648441,-33.474544],[-70.648441,-33.474544],[-70.648443,-33.474523],[-70.648443,-33.474523],[-70.648446,-33.474508],[-70.648446,-33.474508],[-70.648449,-33.474502],[-70.648457,-33.474494],[-70.64847,-33.474489],[-70.648486,-33.474488],[-70.649284,-33.474533],[-70.649309,-33.474536],[-70.649316,-33.474538],[-70.64932,-33.474539],[-70.649331,-33.474546],[-70.649338,-33.474552],[-70.649343,-33.474559],[-70.649343,-33.474559],[-70.649345,-33.474569],[-70.649345,-33.474569],[-70.649342,-33.474596],[-70.649342,-33.474596],[-70.649337,-33.474646],[-70.649337,-33.474646],[-70.649214,-33.475522],[-70.649214,-33.475522],[-70.64921,-33.475537],[-70.64921,-33.475537],[-70.649206,-33.475554],[-70.649202,-33.475567],[-70.649196,-33.475579],[-70.649188,-33.475587],[-70.64918,-33.475594],[-70.649161,-33.475604],[-70.649149,-33.475607],[-70.649135,-33.47561],[-70.649127,-33.47561],[-70.64912,-33.475611],[-70.648687,-33.475597]]]}},{"type":"Feature","properties":{"OBJECTID_1":32,"OBJECTID":5341,"CUT":13101,"SUP_TOTAL_":8434.49146457,"Nombre":"Plaza Bogotá","CATEGORIA":"PLAZA"},"geometry":{"type":"Polygon","coordinates":[[[-70.633584,-33.468151],[-70.633385,-33.468129],[-70.633376,-33.468125],[-70.633369,-33.46812],[-70.633359,-33.468109],[-70.633356,-33.468097],[-70.633356,-33.468097],[-70.633358,-33.468081],[-70.633358,-33.468081],[-70.633377,-33.468013],[-70.633377,-33.468012],[-70.633635,-33.467035],[-70.633635,-33.467035],[-70.633651,-33.466977],[-70.633651,-33.466977],[-70.633655,-33.466965],[-70.633659,-33.466956],[-70.63367,-33.466943],[-70.633683,-33.466936],[-70.633699,-33.466931],[-70.633715,-33.46693],[-70.633736,-33.466932],[-70.634236,-33.466981],[-70.63426,-33.466988],[-70.634272,-33.466994],[-70.634289,-33.467005],[-70.634298,-33.467019],[-70.634307,-33.467035],[-70.634307,-33.467035],[-70.634309,-33.467055],[-70.634309,-33.467055],[-70.634306,-33.467084],[-70.634306,-33.467084],[-70.634026,-33.46814],[-70.634017,-33.468155],[-70.634013,-33.468159],[-70.634002,-33.468169],[-70.633985,-33.46818],[-70.633976,-33.468184],[-70.633964,-33.468187],[-70.633947,-33.468191],[-70.633584,-33.468151]]]}},{"type":"Feature","properties":{"OBJECTID_1":33,"OBJECTID":5342,"CUT":13101,"SUP_TOTAL_":2759.54075783,"Nombre":"Plaza Gacitua","CATEGORIA":"PLAZA"},"geometry":{"type":"Polygon","coordinates":[[[-70.63717,-33.461867],[-70.637232,-33.461632],[-70.637271,-33.461639],[-70.638315,-33.461837],[-70.638252,-33.462072],[-70.63717,-33.461867]]]}},{"type":"Feature","properties":{"OBJECTID_1":34,"OBJECTID":5347,"CUT":13101,"SUP_TOTAL_":3784.60849859,"Nombre":"Plaza Panamá","CATEGORIA":"PLAZA"},"geometry":{"type":"Polygon","coordinates":[[[-70.66752,-33.434197],[-70.667506,-33.434192],[-70.6675,-33.434186],[-70.667497,-33.434176],[-70.667497,-33.434176],[-70.667536,-33.433779],[-70.667536,-33.433779],[-70.667537,-33.433766],[-70.667537,-33.433766],[-70.667539,-33.433759],[-70.667539,-33.433759],[-70.667543,-33.433752],[-70.667552,-33.433744],[-70.667569,-33.433739],[-70.667587,-33.433737],[-70.668305,-33.433784],[-70.668312,-33.433786],[-70.66832,-33.43379],[-70.668325,-33.433796],[-70.668329,-33.433803],[-70.668329,-33.433803],[-70.66833,-33.433811],[-70.66833,-33.433811],[-70.668327,-33.434186],[-70.668327,-33.434186],[-70.668324,-33.434202],[-70.668313,-33.434216],[-70.668299,-33.434226],[-70.668285,-33.434228],[-70.668271,-33.434228],[-70.66752,-33.434197]]]}},{"type":"Feature","properties":{"OBJECTID_1":35,"OBJECTID":5500,"CUT":13101,"SUP_TOTAL_":771.213422914,"Nombre":"Plaza Huemul","CATEGORIA":"PLAZA"},"geometry":{"type":"Polygon","coordinates":[[[-70.651173,-33.474838],[-70.651186,-33.474679],[-70.651186,-33.474679],[-70.651189,-33.474667],[-70.651194,-33.474659],[-70.651203,-33.474651],[-70.651212,-33.474646],[-70.651222,-33.474643],[-70.651233,-33.474643],[-70.651238,-33.474643],[-70.651543,-33.474662],[-70.651555,-33.474665],[-70.651565,-33.474672],[-70.65157,-33.474678],[-70.65157,-33.474678],[-70.651571,-33.474684],[-70.651571,-33.474684],[-70.651573,-33.474697],[-70.651573,-33.474697],[-70.651559,-33.474856],[-70.651534,-33.474855],[-70.651509,-33.474853],[-70.651248,-33.47484],[-70.651173,-33.474838]]]}},{"type":"Feature","properties":{"OBJECTID_1":36,"OBJECTID":5912,"CUT":13101,"SUP_TOTAL_":2887.36681761,"Nombre":"Plaza Baden Powell","CATEGORIA":"PLAZA"},"geometry":{"type":"Polygon","coordinates":[[[-70.659248,-33.452559],[-70.659074,-33.452523],[-70.659071,-33.452522],[-70.659184,-33.452123],[-70.659206,-33.45205],[-70.659211,-33.452047],[-70.659304,-33.451981],[-70.659396,-33.451953],[-70.65947,-33.451952],[-70.65954,-33.451963],[-70.659572,-33.451972],[-70.659615,-33.451999],[-70.659654,-33.452042],[-70.65968,-33.452124],[-70.659691,-33.452187],[-70.65968,-33.452285],[-70.659652,-33.452355],[-70.659607,-33.452433],[-70.659557,-33.452478],[-70.659489,-33.452519],[-70.659417,-33.452541],[-70.659332,-33.452559],[-70.659248,-33.452559]]]}},{"type":"Feature","properties":{"OBJECTID_1":37,"OBJECTID":5913,"CUT":13101,"SUP_TOTAL_":927.860327602,"Nombre":"Plaza Plaza Baden Powell","CATEGORIA":"PLAZA"},"geometry":{"type":"Polygon","coordinates":[[[-70.659298,-33.451721],[-70.6593,-33.451721],[-70.65984,-33.451846],[-70.659804,-33.451904],[-70.659787,-33.451941],[-70.659768,-33.451994],[-70.659754,-33.452049],[-70.659748,-33.452083],[-70.659729,-33.452072],[-70.659717,-33.452055],[-70.659685,-33.452012],[-70.659645,-33.451965],[-70.659588,-33.451925],[-70.659529,-33.4519],[-70.659446,-33.451889],[-70.659378,-33.451901],[-70.659317,-33.451923],[-70.659257,-33.451944],[-70.659234,-33.451957],[-70.659298,-33.451721]]]}},{"type":"Feature","properties":{"OBJECTID_1":38,"OBJECTID":5914,"CUT":13101,"SUP_TOTAL_":6079.88474932,"Nombre":"Plaza Ercilla","CATEGORIA":"PLAZA"},"geometry":{"type":"Polygon","coordinates":[[[-70.660472,-33.458183],[-70.660472,-33.458183],[-70.660542,-33.457139],[-70.660542,-33.457139],[-70.660557,-33.457084],[-70.660557,-33.457084],[-70.660578,-33.457035],[-70.660637,-33.456978],[-70.660687,-33.456944],[-70.660757,-33.456918],[-70.660816,-33.456906],[-70.660849,-33.456906],[-70.660894,-33.456909],[-70.661025,-33.45692],[-70.661023,-33.456933],[-70.660916,-33.458192],[-70.660795,-33.458184],[-70.660793,-33.458215],[-70.660793,-33.458216],[-70.660792,-33.458232],[-70.660792,-33.458232],[-70.660788,-33.458251],[-70.660785,-33.458256],[-70.660783,-33.458261],[-70.660776,-33.458265],[-70.660763,-33.458265],[-70.660751,-33.458265],[-70.660599,-33.458256],[-70.660557,-33.458253],[-70.660518,-33.458241],[-70.66049,-33.458223],[-70.660478,-33.458205],[-70.660472,-33.458183]]]}},{"type":"Feature","properties":{"OBJECTID_1":39,"OBJECTID":5917,"CUT":13101,"SUP_TOTAL_":6906.47300469,"Nombre":"Plaza Viel","CATEGORIA":"PLAZA"},"geometry":{"type":"Polygon","coordinates":[[[-70.656675,-33.469972],[-70.656674,-33.469951],[-70.656675,-33.469887],[-70.656678,-33.469764],[-70.656683,-33.469597],[-70.656691,-33.469508],[-70.656704,-33.46941],[-70.656721,-33.469262],[-70.656734,-33.469099],[-70.65674,-33.468944],[-70.656757,-33.468897],[-70.656774,-33.468858],[-70.656781,-33.468843],[-70.65682,-33.468798],[-70.656858,-33.468776],[-70.656924,-33.46875],[-70.656952,-33.468749],[-70.657001,-33.468747],[-70.657073,-33.468762],[-70.657095,-33.468774],[-70.657139,-33.46883],[-70.657173,-33.468893],[-70.657215,-33.468994],[-70.657238,-33.469051],[-70.65726,-33.469107],[-70.657272,-33.469157],[-70.657273,-33.469186],[-70.657271,-33.469246],[-70.657273,-33.469378],[-70.657274,-33.469388],[-70.657282,-33.469518],[-70.657289,-33.469616],[-70.657295,-33.469697],[-70.657305,-33.469783],[-70.65732,-33.469875],[-70.657329,-33.469968],[-70.657331,-33.469988],[-70.657172,-33.469986],[-70.657105,-33.469987],[-70.656974,-33.469988],[-70.656888,-33.469988],[-70.656854,-33.469988],[-70.65676,-33.469988],[-70.656703,-33.469988],[-70.656675,-33.469972]]]}},{"type":"Feature","properties":{"OBJECTID_1":40,"OBJECTID":5918,"CUT":13101,"SUP_TOTAL_":2010.49691479,"Nombre":"Plaza Viel","CATEGORIA":"PLAZA"},"geometry":{"type":"Polygon","coordinates":[[[-70.656766,-33.468459],[-70.656785,-33.468163],[-70.656788,-33.46811],[-70.656784,-33.467934],[-70.656791,-33.467949],[-70.656806,-33.467983],[-70.65682,-33.468023],[-70.656864,-33.468107],[-70.656871,-33.468121],[-70.656924,-33.468218],[-70.656993,-33.468304],[-70.657058,-33.468376],[-70.657118,-33.468445],[-70.657124,-33.468459],[-70.65715,-33.468524],[-70.657182,-33.468614],[-70.657203,-33.46872],[-70.657216,-33.46878],[-70.657226,-33.468827],[-70.657229,-33.468886],[-70.657226,-33.468883],[-70.657209,-33.468865],[-70.657175,-33.468817],[-70.657157,-33.468791],[-70.657133,-33.468762],[-70.657133,-33.468762],[-70.657133,-33.468761],[-70.657116,-33.468741],[-70.65709,-33.468719],[-70.656982,-33.468702],[-70.656937,-33.468709],[-70.656875,-33.46872],[-70.656799,-33.468756],[-70.65679,-33.468761],[-70.65676,-33.468775],[-70.65676,-33.468771],[-70.656766,-33.468459]]]}},{"type":"Feature","properties":{"OBJECTID_1":41,"OBJECTID":0,"CUT":0,"SUP_TOTAL_":4005.71255161,"Nombre":"Plaza Balmaceda","CATEGORIA":"PLAZA"},"geometry":{"type":"Polygon","coordinates":[[[-70.678146,-33.427636],[-70.678185,-33.427213],[-70.678201,-33.427039],[-70.678204,-33.427032],[-70.678206,-33.427027],[-70.67821,-33.42702],[-70.678214,-33.427015],[-70.678217,-33.42701],[-70.678221,-33.427006],[-70.678223,-33.427004],[-70.678225,-33.427003],[-70.678228,-33.427],[-70.678231,-33.426999],[-70.678233,-33.426998],[-70.678236,-33.426997],[-70.678239,-33.426996],[-70.678241,-33.426996],[-70.678244,-33.426995],[-70.678246,-33.426995],[-70.678249,-33.426995],[-70.678252,-33.426995],[-70.678254,-33.426995],[-70.678257,-33.426995],[-70.678259,-33.426996],[-70.678262,-33.426996],[-70.678264,-33.426997],[-70.678267,-33.426998],[-70.67827,-33.426999],[-70.67835,-33.427026],[-70.678429,-33.427054],[-70.678508,-33.427083],[-70.678587,-33.427113],[-70.678664,-33.427144],[-70.678741,-33.427177],[-70.678818,-33.427211],[-70.678909,-33.427253],[-70.678963,-33.427275],[-70.679016,-33.427299],[-70.679106,-33.42734],[-70.67911,-33.427342],[-70.679114,-33.427345],[-70.679118,-33.427348],[-70.679122,-33.427352],[-70.679125,-33.427356],[-70.679127,-33.427359],[-70.679129,-33.427363],[-70.679131,-33.427367],[-70.679132,-33.427372],[-70.679133,-33.427376],[-70.679133,-33.427381],[-70.679132,-33.427385],[-70.679131,-33.427389],[-70.67913,-33.427393],[-70.679128,-33.427398],[-70.679126,-33.427401],[-70.679123,-33.427404],[-70.679121,-33.427407],[-70.679118,-33.42741],[-70.679115,-33.427412],[-70.679111,-33.427415],[-70.679107,-33.427417],[-70.679103,-33.427419],[-70.6791,-33.42742],[-70.6788,-33.427511],[-70.678674,-33.427549],[-70.67822,-33.427685],[-70.678214,-33.427687],[-70.678208,-33.427688],[-70.678202,-33.427688],[-70.678196,-33.427688],[-70.67819,-33.427687],[-70.678185,-33.427686],[-70.678179,-33.427684],[-70.678174,-33.427682],[-70.678171,-33.42768],[-70.678167,-33.427679],[-70.678164,-33.427677],[-70.678162,-33.427674],[-70.678159,-33.427672],[-70.678157,-33.42767],[-70.678154,-33.427667],[-70.678153,-33.427665],[-70.678151,-33.427662],[-70.67815,-33.427659],[-70.678149,-33.427657],[-70.678147,-33.427654],[-70.678147,-33.427651],[-70.678146,-33.427647],[-70.678146,-33.427644],[-70.678146,-33.427641],[-70.678146,-33.427636]]]}},{"type":"Feature","properties":{"OBJECTID_1":42,"OBJECTID":0,"CUT":0,"SUP_TOTAL_":4438.23064533,"Nombre":"MEDIA LUNA PRESIDENTE BALMACEDA","CATEGORIA":"PLAZA"},"geometry":{"type":"Polygon","coordinates":[[[-70.660639,-33.430996],[-70.660683,-33.431157],[-70.660663,-33.431229],[-70.660641,-33.431322],[-70.66061,-33.431529],[-70.660572,-33.431865],[-70.660557,-33.431964],[-70.660337,-33.432313],[-70.660193,-33.432184],[-70.659975,-33.432089],[-70.65967,-33.432039],[-70.65962,-33.432016],[-70.660325,-33.432067],[-70.66054,-33.431972],[-70.660544,-33.431937],[-70.660576,-33.431641],[-70.660577,-33.431609],[-70.660575,-33.431583],[-70.66057,-33.431561],[-70.660562,-33.431538],[-70.660555,-33.431524],[-70.660541,-33.431494],[-70.66052,-33.431461],[-70.660502,-33.431443],[-70.660489,-33.431429],[-70.660472,-33.431416],[-70.660454,-33.431401],[-70.660433,-33.431389],[-70.660415,-33.431377],[-70.660385,-33.431366],[-70.660353,-33.431357],[-70.660321,-33.431347],[-70.660293,-33.431341],[-70.660263,-33.431337],[-70.660234,-33.431335],[-70.660197,-33.431336],[-70.660166,-33.431338],[-70.660137,-33.431344],[-70.65988,-33.43141],[-70.659823,-33.431423],[-70.659708,-33.431447],[-70.659684,-33.431453],[-70.659646,-33.431465],[-70.65962,-33.431476],[-70.659598,-33.431489],[-70.659573,-33.431508],[-70.659559,-33.43152],[-70.659547,-33.431532],[-70.659536,-33.431545],[-70.659526,-33.431559],[-70.65952,-33.43157],[-70.659513,-33.431585],[-70.659505,-33.43161],[-70.659502,-33.431624],[-70.6595,-33.431639],[-70.659495,-33.431804],[-70.659494,-33.431815],[-70.659492,-33.431822],[-70.659488,-33.431831],[-70.659476,-33.431849],[-70.659459,-33.431867],[-70.659447,-33.431877],[-70.659437,-33.431882],[-70.659427,-33.431883],[-70.659408,-33.431866],[-70.659393,-33.431852],[-70.65938,-33.431836],[-70.659369,-33.43182],[-70.659358,-33.431799],[-70.659352,-33.431784],[-70.659347,-33.43177],[-70.659337,-33.431724],[-70.659335,-33.431705],[-70.659333,-33.431686],[-70.659334,-33.431654],[-70.659338,-33.431623],[-70.659342,-33.431604],[-70.659347,-33.431585],[-70.659353,-33.431567],[-70.65936,-33.431549],[-70.659375,-33.431519],[-70.659385,-33.431503],[-70.659396,-33.431487],[-70.659416,-33.431462],[-70.65943,-33.431448],[-70.659444,-33.431435],[-70.659459,-33.431422],[-70.659475,-33.431409],[-70.659492,-33.431398],[-70.659509,-33.431387],[-70.659539,-33.431372],[-70.6596,-33.431344],[-70.659662,-33.431317],[-70.659726,-33.431292],[-70.659758,-33.43128],[-70.659992,-33.431198],[-70.660201,-33.431132],[-70.660639,-33.430996]]]}},{"type":"Feature","properties":{"OBJECTID_1":43,"OBJECTID":0,"CUT":0,"SUP_TOTAL_":3276.84998284,"Nombre":"Plaza Jerusalen","CATEGORIA":"PLAZA"},"geometry":{"type":"Polygon","coordinates":[[[-70.657599,-33.432039],[-70.657593,-33.432039],[-70.657589,-33.432037],[-70.657585,-33.432036],[-70.657581,-33.432035],[-70.657578,-33.432033],[-70.657573,-33.43203],[-70.657571,-33.432028],[-70.657569,-33.432027],[-70.657566,-33.432024],[-70.657564,-33.432022],[-70.657563,-33.432019],[-70.657563,-33.432016],[-70.657562,-33.432013],[-70.657562,-33.432011],[-70.657562,-33.432006],[-70.657562,-33.432004],[-70.657563,-33.432002],[-70.657563,-33.431998],[-70.657563,-33.431996],[-70.657564,-33.431995],[-70.657564,-33.431993],[-70.657565,-33.43199],[-70.657566,-33.431987],[-70.657567,-33.431984],[-70.657567,-33.431982],[-70.657568,-33.43198],[-70.657569,-33.431978],[-70.65757,-33.431977],[-70.657571,-33.431975],[-70.657572,-33.431973],[-70.657573,-33.431971],[-70.657574,-33.431969],[-70.657576,-33.431967],[-70.657577,-33.431965],[-70.657579,-33.431963],[-70.65758,-33.431962],[-70.657582,-33.43196],[-70.657583,-33.431959],[-70.657584,-33.431958],[-70.657584,-33.431958],[-70.657586,-33.431955],[-70.657588,-33.431954],[-70.65759,-33.431952],[-70.657591,-33.431951],[-70.657594,-33.431948],[-70.657597,-33.431946],[-70.6576,-33.431944],[-70.657602,-33.431942],[-70.657608,-33.431938],[-70.657613,-33.431935],[-70.657621,-33.43193],[-70.65763,-33.431926],[-70.657636,-33.431923],[-70.657643,-33.431921],[-70.657671,-33.431913],[-70.657696,-33.431907],[-70.657726,-33.431899],[-70.657767,-33.431889],[-70.657803,-33.431879],[-70.657898,-33.431855],[-70.657938,-33.431844],[-70.658009,-33.431826],[-70.658089,-33.431806],[-70.658177,-33.431783],[-70.658503,-33.431699],[-70.65877,-33.431631],[-70.658778,-33.43163],[-70.658792,-33.431628],[-70.658807,-33.431627],[-70.658823,-33.431627],[-70.658837,-33.431628],[-70.658846,-33.431629],[-70.658856,-33.431631],[-70.65887,-33.431633],[-70.65889,-33.431639],[-70.658912,-33.431648],[-70.658934,-33.43166],[-70.658945,-33.431667],[-70.658955,-33.431675],[-70.658965,-33.431685],[-70.658975,-33.431697],[-70.658985,-33.431714],[-70.65899,-33.431726],[-70.658994,-33.431738],[-70.658997,-33.431754],[-70.658998,-33.431768],[-70.658999,-33.431782],[-70.659,-33.431798],[-70.659,-33.431811],[-70.658996,-33.43185],[-70.658993,-33.431871],[-70.65899,-33.431884],[-70.658986,-33.431896],[-70.658982,-33.431905],[-70.658978,-33.431912],[-70.658974,-33.43192],[-70.658972,-33.431923],[-70.658969,-33.431925],[-70.658966,-33.431928],[-70.658963,-33.43193],[-70.658959,-33.431932],[-70.658954,-33.431934],[-70.658949,-33.431936],[-70.658946,-33.431937],[-70.65839,-33.43198],[-70.658235,-33.431991],[-70.6576,-33.432039],[-70.657599,-33.432039]]]}},{"type":"Feature","properties":{"OBJECTID_1":44,"OBJECTID":0,"CUT":0,"SUP_TOTAL_":4150.10913597,"Nombre":"Plaza Venezuela","CATEGORIA":"PLAZA"},"geometry":{"type":"Polygon","coordinates":[[[-70.652851,-33.432219],[-70.652864,-33.432226],[-70.652872,-33.43225],[-70.652886,-33.432294],[-70.652923,-33.432401],[-70.652936,-33.43245],[-70.652942,-33.432479],[-70.652941,-33.432497],[-70.652941,-33.432508],[-70.652938,-33.432521],[-70.652931,-33.432541],[-70.652888,-33.432598],[-70.652831,-33.432642],[-70.65279,-33.432663],[-70.652732,-33.43268],[-70.652587,-33.432708],[-70.652487,-33.432723],[-70.652445,-33.432728],[-70.652392,-33.432735],[-70.65232,-33.432737],[-70.652265,-33.432741],[-70.652233,-33.432741],[-70.652201,-33.43274],[-70.652161,-33.432737],[-70.652123,-33.432735],[-70.652067,-33.432728],[-70.652027,-33.432724],[-70.651985,-33.43272],[-70.651946,-33.432708],[-70.651903,-33.432675],[-70.651883,-33.432657],[-70.65184,-33.43261],[-70.651826,-33.43259],[-70.651808,-33.43256],[-70.651794,-33.432525],[-70.651784,-33.432495],[-70.65178,-33.432485],[-70.651781,-33.432479],[-70.651783,-33.432475],[-70.651788,-33.432471],[-70.651828,-33.432462],[-70.651851,-33.432456],[-70.65282,-33.432227],[-70.652851,-33.432219]]]}},{"type":"Feature","properties":{"OBJECTID_1":45,"OBJECTID":0,"CUT":0,"SUP_TOTAL_":6315.53164646,"Nombre":"Plaza Capitan Arturo Prat","CATEGORIA":"PLAZA"},"geometry":{"type":"Polygon","coordinates":[[[-70.650392,-33.432995],[-70.650545,-33.433295],[-70.650443,-33.433346],[-70.650341,-33.433408],[-70.650238,-33.433472],[-70.65017,-33.433506],[-70.650113,-33.433534],[-70.650017,-33.433567],[-70.649869,-33.433604],[-70.649783,-33.433626],[-70.649679,-33.433652],[-70.649518,-33.433689],[-70.649462,-33.433703],[-70.649417,-33.433711],[-70.649364,-33.433722],[-70.6493,-33.433732],[-70.649244,-33.433743],[-70.649181,-33.433756],[-70.649129,-33.433764],[-70.649103,-33.433766],[-70.649044,-33.433772],[-70.648993,-33.433777],[-70.648964,-33.433698],[-70.648902,-33.433513],[-70.648852,-33.433348],[-70.64885,-33.433341],[-70.64885,-33.433335],[-70.648851,-33.433331],[-70.648854,-33.433327],[-70.64886,-33.433323],[-70.648871,-33.43332],[-70.649094,-33.433265],[-70.649099,-33.433266],[-70.6491,-33.433268],[-70.649101,-33.433272],[-70.649101,-33.433276],[-70.649101,-33.433279],[-70.649097,-33.433282],[-70.649092,-33.433286],[-70.649082,-33.433294],[-70.649072,-33.433301],[-70.649059,-33.433313],[-70.649046,-33.433323],[-70.649035,-33.433334],[-70.649025,-33.433345],[-70.649017,-33.433357],[-70.64901,-33.43337],[-70.649003,-33.433382],[-70.648997,-33.433394],[-70.64899,-33.43341],[-70.648985,-33.43343],[-70.648981,-33.433448],[-70.648979,-33.433464],[-70.648978,-33.433479],[-70.648979,-33.433503],[-70.648981,-33.433522],[-70.648986,-33.433542],[-70.649,-33.433573],[-70.64902,-33.433605],[-70.649039,-33.433628],[-70.649063,-33.43365],[-70.649083,-33.433666],[-70.649107,-33.43368],[-70.64913,-33.433691],[-70.649155,-33.433701],[-70.64919,-33.433711],[-70.649217,-33.433716],[-70.649243,-33.433719],[-70.649269,-33.43372],[-70.649302,-33.433721],[-70.649337,-33.433718],[-70.649379,-33.433711],[-70.649699,-33.433639],[-70.649997,-33.433567],[-70.650103,-33.43353],[-70.650076,-33.433471],[-70.649974,-33.433499],[-70.649753,-33.43355],[-70.649664,-33.43357],[-70.649574,-33.433588],[-70.649413,-33.433623],[-70.649345,-33.433635],[-70.649294,-33.433644],[-70.649272,-33.433646],[-70.64925,-33.433645],[-70.649219,-33.433643],[-70.649189,-33.433637],[-70.649161,-33.43363],[-70.649141,-33.43362],[-70.649128,-33.43361],[-70.649117,-33.433601],[-70.649105,-33.433588],[-70.649095,-33.433575],[-70.649084,-33.43356],[-70.649077,-33.433543],[-70.64907,-33.433527],[-70.649067,-33.433518],[-70.649066,-33.433506],[-70.649064,-33.433497],[-70.649064,-33.433487],[-70.649064,-33.433478],[-70.649064,-33.43347],[-70.649065,-33.433458],[-70.649067,-33.433443],[-70.64907,-33.433433],[-70.649073,-33.43342],[-70.64908,-33.433407],[-70.649087,-33.433395],[-70.649098,-33.433379],[-70.649113,-33.433364],[-70.649126,-33.433349],[-70.649144,-33.433336],[-70.64916,-33.433326],[-70.649177,-33.433317],[-70.649208,-33.433305],[-70.649235,-33.433296],[-70.649317,-33.433275],[-70.649459,-33.433234],[-70.649658,-33.433171],[-70.649881,-33.433112],[-70.650162,-33.433047],[-70.650392,-33.432995]]]}},{"type":"Feature","properties":{"OBJECTID_1":46,"OBJECTID":0,"CUT":0,"SUP_TOTAL_":1462.13883588,"Nombre":"Plaza Investigaciones de Chile","CATEGORIA":"PLAZA"},"geometry":{"type":"Polygon","coordinates":[[[-70.656031,-33.432979],[-70.656273,-33.43299],[-70.656551,-33.433001],[-70.656551,-33.433006],[-70.656898,-33.433022],[-70.656898,-33.433018],[-70.657175,-33.433029],[-70.657404,-33.433038],[-70.6574,-33.433127],[-70.657375,-33.433145],[-70.656053,-33.433083],[-70.656032,-33.433054],[-70.656031,-33.432979]]]}},{"type":"Feature","properties":{"OBJECTID_1":47,"OBJECTID":0,"CUT":0,"SUP_TOTAL_":285.818139882,"Nombre":"Plaza Investigaciones de Chile","CATEGORIA":"PLAZA"},"geometry":{"type":"Polygon","coordinates":[[[-70.656675,-33.433247],[-70.656671,-33.433298],[-70.656136,-33.433275],[-70.656137,-33.433222],[-70.656675,-33.433247]]]}},{"type":"Feature","properties":{"OBJECTID_1":48,"OBJECTID":0,"CUT":0,"SUP_TOTAL_":287.243153495,"Nombre":"Plaza Investigaciones de Chile","CATEGORIA":"PLAZA"},"geometry":{"type":"Polygon","coordinates":[[[-70.65736,-33.433288],[-70.657359,-33.433324],[-70.656825,-33.433303],[-70.656829,-33.433248],[-70.657164,-33.433259],[-70.65736,-33.433288]]]}},{"type":"Feature","properties":{"OBJECTID_1":49,"OBJECTID":0,"CUT":0,"SUP_TOTAL_":2985.94107146,"Nombre":"Plaza Oscar Castro","CATEGORIA":"PLAZA"},"geometry":{"type":"Polygon","coordinates":[[[-70.648656,-33.433418],[-70.648668,-33.433423],[-70.648678,-33.43343],[-70.648686,-33.433436],[-70.648695,-33.433445],[-70.648789,-33.433732],[-70.64879,-33.43374],[-70.64879,-33.433746],[-70.648788,-33.433754],[-70.648785,-33.433763],[-70.648778,-33.433771],[-70.648769,-33.433778],[-70.648759,-33.433783],[-70.64875,-33.433787],[-70.64796,-33.433968],[-70.647948,-33.433971],[-70.647936,-33.43397],[-70.647927,-33.433968],[-70.647911,-33.433963],[-70.647903,-33.433958],[-70.647896,-33.433953],[-70.64789,-33.433947],[-70.647886,-33.433939],[-70.647882,-33.433932],[-70.64788,-33.433922],[-70.647881,-33.433912],[-70.647885,-33.433898],[-70.648045,-33.433618],[-70.648057,-33.433603],[-70.648065,-33.433597],[-70.648069,-33.433594],[-70.648076,-33.43359],[-70.648093,-33.433584],[-70.648101,-33.433583],[-70.648108,-33.433583],[-70.648116,-33.433583],[-70.648124,-33.433585],[-70.648222,-33.433617],[-70.648242,-33.433621],[-70.648258,-33.433622],[-70.648278,-33.43362],[-70.648353,-33.433606],[-70.648493,-33.43357],[-70.648481,-33.43354],[-70.648275,-33.433589],[-70.64826,-33.433589],[-70.648245,-33.433588],[-70.648228,-33.433584],[-70.648137,-33.433551],[-70.648135,-33.43355],[-70.648133,-33.433547],[-70.648133,-33.433544],[-70.648135,-33.433541],[-70.648139,-33.433539],[-70.648625,-33.433419],[-70.648636,-33.433417],[-70.648643,-33.433418],[-70.648646,-33.433417],[-70.648656,-33.433418]]]}},{"type":"Feature","properties":{"OBJECTID_1":50,"OBJECTID":0,"CUT":0,"SUP_TOTAL_":649.152200186,"Nombre":"Plaza Corregidor Zañartu","CATEGORIA":"PLAZA"},"geometry":{"type":"Polygon","coordinates":[[[-70.648068,-33.434561],[-70.647849,-33.434565],[-70.647849,-33.434545],[-70.647846,-33.43452],[-70.647835,-33.434415],[-70.647829,-33.434345],[-70.647819,-33.434254],[-70.647816,-33.434255],[-70.647815,-33.434249],[-70.64779,-33.434235],[-70.647925,-33.434198],[-70.64794,-33.43434],[-70.648025,-33.434333],[-70.648038,-33.434332],[-70.648039,-33.434341],[-70.648052,-33.434425],[-70.648068,-33.434561]]]}},{"type":"Feature","properties":{"OBJECTID_1":51,"OBJECTID":0,"CUT":0,"SUP_TOTAL_":1421.76798986,"Nombre":"Plaza Bombero Martir","CATEGORIA":"PLAZA"},"geometry":{"type":"Polygon","coordinates":[[[-70.644807,-33.435368],[-70.644824,-33.435361],[-70.645063,-33.43525],[-70.645592,-33.435007],[-70.645859,-33.434884],[-70.645865,-33.434881],[-70.645871,-33.434878],[-70.64588,-33.434875],[-70.645888,-33.434873],[-70.645894,-33.434875],[-70.645899,-33.434879],[-70.645894,-33.434894],[-70.645881,-33.434903],[-70.645158,-33.435317],[-70.644846,-33.435496],[-70.644605,-33.435632],[-70.644595,-33.435639],[-70.644588,-33.435642],[-70.644584,-33.435643],[-70.644578,-33.435645],[-70.644573,-33.435646],[-70.644564,-33.435647],[-70.644557,-33.435647],[-70.644548,-33.435643],[-70.644546,-33.43564],[-70.644543,-33.435637],[-70.644541,-33.435634],[-70.64454,-33.43563],[-70.64454,-33.435622],[-70.644548,-33.435578],[-70.644557,-33.435514],[-70.644557,-33.435512],[-70.644558,-33.435511],[-70.644559,-33.435509],[-70.644559,-33.435508],[-70.64456,-33.435506],[-70.644561,-33.435505],[-70.644561,-33.435503],[-70.644562,-33.435502],[-70.644563,-33.4355],[-70.644564,-33.435499],[-70.644565,-33.435498],[-70.644566,-33.435496],[-70.644566,-33.435495],[-70.644567,-33.435493],[-70.644568,-33.435492],[-70.644569,-33.435491],[-70.64457,-33.435489],[-70.644572,-33.435488],[-70.644573,-33.435487],[-70.644574,-33.435485],[-70.644575,-33.435484],[-70.644576,-33.435483],[-70.644577,-33.435482],[-70.644578,-33.43548],[-70.64458,-33.435479],[-70.644581,-33.435478],[-70.644582,-33.435477],[-70.644584,-33.435476],[-70.644585,-33.435475],[-70.644586,-33.435474],[-70.644588,-33.435472],[-70.644589,-33.435471],[-70.64459,-33.43547],[-70.644592,-33.435469],[-70.644593,-33.435468],[-70.644595,-33.435467],[-70.644596,-33.435466],[-70.644598,-33.435465],[-70.644599,-33.435465],[-70.644601,-33.435464],[-70.644603,-33.435463],[-70.644604,-33.435462],[-70.644606,-33.435461],[-70.644607,-33.43546],[-70.644609,-33.43546],[-70.644611,-33.435459],[-70.644612,-33.435458],[-70.644614,-33.435457],[-70.644616,-33.435457],[-70.644807,-33.435368]]]}},{"type":"Feature","properties":{"OBJECTID_1":52,"OBJECTID":0,"CUT":0,"SUP_TOTAL_":7754.68748327,"Nombre":"Plaza Yungay","CATEGORIA":"PLAZA"},"geometry":{"type":"Polygon","coordinates":[[[-70.674443,-33.437062],[-70.674444,-33.437063],[-70.674452,-33.43707],[-70.674459,-33.437078],[-70.674467,-33.437087],[-70.674468,-33.43709],[-70.674469,-33.437108],[-70.674437,-33.437447],[-70.674396,-33.437937],[-70.674393,-33.437944],[-70.674391,-33.43795],[-70.67439,-33.437952],[-70.674389,-33.437953],[-70.674387,-33.437955],[-70.674385,-33.437956],[-70.674349,-33.437979],[-70.674346,-33.437983],[-70.674341,-33.437986],[-70.674337,-33.437988],[-70.674333,-33.43799],[-70.674329,-33.437991],[-70.674324,-33.437991],[-70.67432,-33.437991],[-70.673689,-33.437953],[-70.673607,-33.437903],[-70.673681,-33.437051],[-70.673683,-33.437045],[-70.673742,-33.436992],[-70.67412,-33.437015],[-70.674272,-33.437024],[-70.674404,-33.437036],[-70.674407,-33.437036],[-70.67441,-33.437037],[-70.674417,-33.437042],[-70.674428,-33.43705],[-70.674436,-33.437056],[-70.674443,-33.437062]]]}},{"type":"Feature","properties":{"OBJECTID_1":53,"OBJECTID":0,"CUT":0,"SUP_TOTAL_":665.757216452,"Nombre":"Plaza SantaAna","CATEGORIA":"PLAZA"},"geometry":{"type":"Polygon","coordinates":[[[-70.658496,-33.438014],[-70.658492,-33.438035],[-70.658324,-33.438022],[-70.658358,-33.437753],[-70.658647,-33.437775],[-70.658623,-33.437933],[-70.658529,-33.437923],[-70.658529,-33.437919],[-70.65851,-33.437918],[-70.658496,-33.438014]]]}},{"type":"Feature","properties":{"OBJECTID_1":54,"OBJECTID":0,"CUT":0,"SUP_TOTAL_":13713.6743938,"Nombre":"Plaza de la Constitucion","CATEGORIA":"PLAZA"},"geometry":{"type":"Polygon","coordinates":[[[-70.654543,-33.442231],[-70.65341,-33.442126],[-70.653403,-33.442124],[-70.653398,-33.442122],[-70.653395,-33.44212],[-70.653406,-33.442048],[-70.653391,-33.442046],[-70.653463,-33.441613],[-70.653541,-33.441137],[-70.653541,-33.441136],[-70.653541,-33.441135],[-70.653541,-33.441134],[-70.653541,-33.441133],[-70.653541,-33.441132],[-70.653542,-33.44113],[-70.653542,-33.441129],[-70.653542,-33.441129],[-70.653543,-33.441128],[-70.653543,-33.441127],[-70.653543,-33.441126],[-70.653544,-33.441125],[-70.653544,-33.441124],[-70.653544,-33.441123],[-70.653545,-33.441122],[-70.653545,-33.441121],[-70.653546,-33.441121],[-70.653546,-33.44112],[-70.653546,-33.441119],[-70.653547,-33.441118],[-70.653547,-33.441117],[-70.653548,-33.441116],[-70.653548,-33.441116],[-70.653549,-33.441115],[-70.65355,-33.441114],[-70.65355,-33.441113],[-70.653551,-33.441112],[-70.653551,-33.441112],[-70.653552,-33.441111],[-70.653553,-33.44111],[-70.653553,-33.441109],[-70.653554,-33.441109],[-70.653555,-33.441108],[-70.653555,-33.441107],[-70.653556,-33.441106],[-70.653557,-33.441106],[-70.653557,-33.441105],[-70.653558,-33.441104],[-70.653559,-33.441104],[-70.65356,-33.441103],[-70.653561,-33.441102],[-70.653561,-33.441102],[-70.653562,-33.441101],[-70.653563,-33.441101],[-70.653564,-33.4411],[-70.653565,-33.441099],[-70.653566,-33.441099],[-70.653567,-33.441098],[-70.653567,-33.441098],[-70.653568,-33.441097],[-70.653569,-33.441097],[-70.65357,-33.441096],[-70.653571,-33.441096],[-70.653572,-33.441095],[-70.653573,-33.441095],[-70.653574,-33.441094],[-70.653575,-33.441094],[-70.653576,-33.441093],[-70.653577,-33.441093],[-70.653578,-33.441093],[-70.653579,-33.441092],[-70.65358,-33.441092],[-70.653581,-33.441092],[-70.653582,-33.441091],[-70.653583,-33.441091],[-70.653584,-33.441091],[-70.653585,-33.44109],[-70.653586,-33.44109],[-70.653587,-33.44109],[-70.653588,-33.44109],[-70.653589,-33.441089],[-70.653591,-33.441089],[-70.653592,-33.441089],[-70.653593,-33.441089],[-70.653594,-33.441089],[-70.653595,-33.441089],[-70.653596,-33.441088],[-70.653597,-33.441088],[-70.653598,-33.441088],[-70.653599,-33.441088],[-70.6536,-33.441088],[-70.653601,-33.441088],[-70.653603,-33.441088],[-70.653604,-33.441088],[-70.653605,-33.441088],[-70.653606,-33.441088],[-70.653607,-33.441088],[-70.653608,-33.441088],[-70.653609,-33.441088],[-70.65361,-33.441088],[-70.653611,-33.441088],[-70.653613,-33.441088],[-70.653617,-33.441089],[-70.653622,-33.441089],[-70.653628,-33.44109],[-70.653629,-33.44109],[-70.65363,-33.44109],[-70.654301,-33.441157],[-70.654785,-33.441205],[-70.654786,-33.441205],[-70.654788,-33.441205],[-70.654789,-33.441206],[-70.65479,-33.441206],[-70.654792,-33.441206],[-70.654797,-33.441207],[-70.654811,-33.441211],[-70.654819,-33.441214],[-70.654829,-33.441221],[-70.654837,-33.441228],[-70.654843,-33.441235],[-70.654847,-33.441244],[-70.65485,-33.441254],[-70.65485,-33.441267],[-70.654822,-33.441382],[-70.654717,-33.441785],[-70.654627,-33.44209],[-70.654634,-33.442091],[-70.654605,-33.442203],[-70.654603,-33.44221],[-70.654598,-33.442218],[-70.65459,-33.442225],[-70.65458,-33.44223],[-70.654571,-33.442232],[-70.654562,-33.442232],[-70.654543,-33.442231]]]}},{"type":"Feature","properties":{"OBJECTID_1":55,"OBJECTID":0,"CUT":0,"SUP_TOTAL_":301.8292373,"Nombre":"Plaza Pacull","CATEGORIA":"PLAZA"},"geometry":{"type":"Polygon","coordinates":[[[-70.655373,-33.443599],[-70.655373,-33.4436],[-70.655372,-33.443601],[-70.65534,-33.443759],[-70.655141,-33.443723],[-70.655162,-33.443649],[-70.655171,-33.443633],[-70.655181,-33.443621],[-70.655193,-33.44361],[-70.655208,-33.443601],[-70.655225,-33.443595],[-70.655245,-33.443589],[-70.655266,-33.443586],[-70.655285,-33.443585],[-70.655373,-33.443599]]]}},{"type":"Feature","properties":{"OBJECTID_1":56,"OBJECTID":0,"CUT":0,"SUP_TOTAL_":4240.00003036,"Nombre":"Plaza Manuel Rodriguez","CATEGORIA":"PLAZA"},"geometry":{"type":"Polygon","coordinates":[[[-70.665291,-33.451163],[-70.665302,-33.451164],[-70.665477,-33.451171],[-70.665492,-33.451172],[-70.665519,-33.451177],[-70.665551,-33.451185],[-70.665579,-33.451197],[-70.665582,-33.451199],[-70.665586,-33.451201],[-70.665589,-33.451202],[-70.665592,-33.451204],[-70.665595,-33.451206],[-70.665599,-33.451208],[-70.665602,-33.45121],[-70.665605,-33.451212],[-70.665608,-33.451214],[-70.665611,-33.451216],[-70.665614,-33.451218],[-70.665617,-33.45122],[-70.66562,-33.451223],[-70.665622,-33.451225],[-70.665625,-33.451227],[-70.665628,-33.45123],[-70.665631,-33.451232],[-70.665633,-33.451234],[-70.665636,-33.451237],[-70.665638,-33.451239],[-70.665641,-33.451242],[-70.665643,-33.451245],[-70.665646,-33.451247],[-70.665648,-33.45125],[-70.66565,-33.451252],[-70.665652,-33.451255],[-70.665654,-33.451258],[-70.665657,-33.451261],[-70.665659,-33.451264],[-70.66566,-33.451266],[-70.665662,-33.451269],[-70.665664,-33.451272],[-70.665666,-33.451275],[-70.665668,-33.451278],[-70.665669,-33.451281],[-70.665671,-33.451284],[-70.665673,-33.451287],[-70.665674,-33.45129],[-70.665675,-33.451293],[-70.665677,-33.451296],[-70.665678,-33.451299],[-70.665679,-33.451302],[-70.66568,-33.451305],[-70.665681,-33.451309],[-70.665683,-33.451314],[-70.665685,-33.451319],[-70.665686,-33.451324],[-70.665687,-33.451328],[-70.665688,-33.451333],[-70.665689,-33.451338],[-70.66569,-33.451343],[-70.665691,-33.451348],[-70.665691,-33.451353],[-70.665692,-33.451358],[-70.665692,-33.451363],[-70.665693,-33.451368],[-70.665693,-33.451373],[-70.665693,-33.451377],[-70.665693,-33.451382],[-70.665693,-33.451387],[-70.665693,-33.451392],[-70.665693,-33.451397],[-70.665692,-33.451402],[-70.665692,-33.451407],[-70.665691,-33.451412],[-70.66569,-33.451417],[-70.66569,-33.451422],[-70.665689,-33.451427],[-70.665688,-33.451432],[-70.665687,-33.451436],[-70.665686,-33.451442],[-70.665683,-33.451493],[-70.665681,-33.451521],[-70.665675,-33.451629],[-70.665673,-33.451666],[-70.665672,-33.451687],[-70.665667,-33.451701],[-70.665667,-33.451701],[-70.665667,-33.451702],[-70.665667,-33.451702],[-70.665667,-33.451702],[-70.665667,-33.451702],[-70.665666,-33.451703],[-70.665666,-33.451703],[-70.665666,-33.451703],[-70.665666,-33.451703],[-70.665666,-33.451704],[-70.665666,-33.451704],[-70.665666,-33.451704],[-70.665666,-33.451705],[-70.665665,-33.451705],[-70.665665,-33.451705],[-70.665665,-33.451705],[-70.665665,-33.451706],[-70.665665,-33.451706],[-70.665665,-33.451706],[-70.665665,-33.451706],[-70.665664,-33.451707],[-70.665664,-33.451707],[-70.665664,-33.451707],[-70.665664,-33.451707],[-70.665664,-33.451708],[-70.665663,-33.451708],[-70.665663,-33.451708],[-70.665663,-33.451708],[-70.665663,-33.451708],[-70.665663,-33.451709],[-70.665662,-33.451709],[-70.665662,-33.451709],[-70.665662,-33.451709],[-70.665662,-33.45171],[-70.665661,-33.45171],[-70.665661,-33.45171],[-70.665661,-33.45171],[-70.665661,-33.45171],[-70.66566,-33.451711],[-70.66566,-33.451711],[-70.66566,-33.451711],[-70.66566,-33.451711],[-70.665659,-33.451711],[-70.665659,-33.451711],[-70.665659,-33.451712],[-70.665658,-33.451712],[-70.665658,-33.451712],[-70.665658,-33.451712],[-70.665658,-33.451712],[-70.665657,-33.451712],[-70.665657,-33.451713],[-70.665657,-33.451713],[-70.665656,-33.451713],[-70.665656,-33.451713],[-70.665656,-33.451713],[-70.665655,-33.451713],[-70.665655,-33.451713],[-70.665655,-33.451713],[-70.665654,-33.451713],[-70.665654,-33.451714],[-70.665654,-33.451714],[-70.665654,-33.451714],[-70.665653,-33.451714],[-70.665653,-33.451714],[-70.665653,-33.451714],[-70.665652,-33.451714],[-70.665652,-33.451714],[-70.665652,-33.451714],[-70.665651,-33.451714],[-70.665651,-33.451714],[-70.66565,-33.451714],[-70.66565,-33.451714],[-70.66565,-33.451714],[-70.665649,-33.451714],[-70.665649,-33.451715],[-70.665648,-33.451715],[-70.665645,-33.451714],[-70.665642,-33.451714],[-70.665639,-33.451714],[-70.665636,-33.451714],[-70.665633,-33.451713],[-70.66563,-33.451713],[-70.665627,-33.451712],[-70.665624,-33.451712],[-70.665621,-33.451711],[-70.665618,-33.451711],[-70.665615,-33.45171],[-70.665612,-33.45171],[-70.665609,-33.451709],[-70.665606,-33.451708],[-70.665603,-33.451707],[-70.6656,-33.451706],[-70.665595,-33.451705],[-70.665292,-33.451638],[-70.665265,-33.451632],[-70.66524,-33.451626],[-70.664976,-33.451566],[-70.664952,-33.451561],[-70.664869,-33.451543],[-70.664822,-33.451493],[-70.66479,-33.451436],[-70.664751,-33.451365],[-70.66476,-33.451255],[-70.664769,-33.451153],[-70.66477,-33.451151],[-70.664771,-33.451149],[-70.664774,-33.451146],[-70.664778,-33.451144],[-70.664782,-33.451143],[-70.664786,-33.451143],[-70.664805,-33.451143],[-70.664892,-33.451147],[-70.665231,-33.451161],[-70.665291,-33.451163]]]}},{"type":"Feature","properties":{"OBJECTID_1":57,"OBJECTID":0,"CUT":0,"SUP_TOTAL_":3925.5514098,"Nombre":"Plaza Las Heras","CATEGORIA":"PLAZA"},"geometry":{"type":"Polygon","coordinates":[[[-70.65674,-33.453082],[-70.656035,-33.453015],[-70.656018,-33.453005],[-70.656007,-33.452995],[-70.656002,-33.452987],[-70.655999,-33.452972],[-70.656081,-33.452588],[-70.656092,-33.452564],[-70.656104,-33.45255],[-70.65612,-33.452545],[-70.656835,-33.452632],[-70.656869,-33.452641],[-70.656887,-33.452661],[-70.656892,-33.452675],[-70.656894,-33.45269],[-70.656825,-33.453031],[-70.656807,-33.453063],[-70.656779,-33.453077],[-70.65674,-33.453082]]]}},{"type":"Feature","properties":{"OBJECTID_1":58,"OBJECTID":0,"CUT":0,"SUP_TOTAL_":5977.19540571,"Nombre":"Plaza Ercilla","CATEGORIA":"PLAZA"},"geometry":{"type":"Polygon","coordinates":[[[-70.659973,-33.458144],[-70.659922,-33.458143],[-70.659495,-33.458119],[-70.659714,-33.456943],[-70.659719,-33.45692],[-70.659725,-33.456906],[-70.659734,-33.456898],[-70.659745,-33.456895],[-70.660026,-33.456928],[-70.660126,-33.457035],[-70.660043,-33.458069],[-70.660038,-33.458104],[-70.660024,-33.45813],[-70.660007,-33.458139],[-70.659991,-33.458143],[-70.659973,-33.458144]]]}},{"type":"Feature","properties":{"OBJECTID_1":59,"OBJECTID":0,"CUT":0,"SUP_TOTAL_":5036.91399556,"Nombre":"Plaza Arauco","CATEGORIA":"PLAZA"},"geometry":{"type":"Polygon","coordinates":[[[-70.670205,-33.468347],[-70.670181,-33.469319],[-70.670178,-33.469329],[-70.670171,-33.469337],[-70.670161,-33.469342],[-70.670148,-33.469343],[-70.669442,-33.469332],[-70.669348,-33.469273],[-70.669947,-33.468628],[-70.66983,-33.46855],[-70.670046,-33.468323],[-70.670029,-33.468312],[-70.670075,-33.468263],[-70.670205,-33.468347]]]}},{"type":"Feature","properties":{"OBJECTID_1":60,"OBJECTID":0,"CUT":0,"SUP_TOTAL_":4723.5523038,"Nombre":"Plaza Melipilla","CATEGORIA":"PLAZA"},"geometry":{"type":"Polygon","coordinates":[[[-70.679691,-33.470612],[-70.679617,-33.470612],[-70.679606,-33.470609],[-70.679564,-33.470581],[-70.679172,-33.470576],[-70.679157,-33.470572],[-70.679147,-33.470567],[-70.679136,-33.470558],[-70.679127,-33.470545],[-70.679122,-33.470527],[-70.679068,-33.469687],[-70.679065,-33.469643],[-70.679067,-33.469624],[-70.679072,-33.469611],[-70.679079,-33.4696],[-70.679093,-33.469587],[-70.679111,-33.469576],[-70.679133,-33.469569],[-70.679159,-33.469568],[-70.67918,-33.469572],[-70.679196,-33.469579],[-70.679215,-33.469591],[-70.679226,-33.469605],[-70.679804,-33.470447],[-70.67982,-33.470471],[-70.679826,-33.470494],[-70.679827,-33.470507],[-70.679825,-33.470526],[-70.679807,-33.470563],[-70.67979,-33.470581],[-70.679766,-33.470597],[-70.67975,-33.470603],[-70.679723,-33.47061],[-70.679691,-33.470612]]]}},{"type":"Feature","properties":{"OBJECTID_1":61,"OBJECTID":0,"CUT":0,"SUP_TOTAL_":1192.1942444,"Nombre":"Plaza Maimonides","CATEGORIA":"PLAZA"},"geometry":{"type":"Polygon","coordinates":[[[-70.633896,-33.44798],[-70.633909,-33.447941],[-70.634015,-33.447966],[-70.634204,-33.44801],[-70.634352,-33.448045],[-70.634273,-33.448293],[-70.634094,-33.448248],[-70.633979,-33.448218],[-70.633842,-33.448188],[-70.633877,-33.448049],[-70.633896,-33.44798]]]}},{"type":"Feature","properties":{"OBJECTID_1":62,"OBJECTID":0,"CUT":0,"SUP_TOTAL_":1906.93460677,"Nombre":"Plaza Matadero","CATEGORIA":"PLAZA"},"geometry":{"type":"Polygon","coordinates":[[[-70.645386,-33.474474],[-70.645381,-33.474492],[-70.645376,-33.474501],[-70.644907,-33.474484],[-70.644903,-33.474479],[-70.644894,-33.474461],[-70.644914,-33.474119],[-70.644921,-33.474112],[-70.644927,-33.474109],[-70.644945,-33.474107],[-70.645383,-33.474133],[-70.645394,-33.474136],[-70.645402,-33.474139],[-70.645415,-33.474171],[-70.645415,-33.474179],[-70.645386,-33.474474]]]}},{"type":"Feature","properties":{"OBJECTID_1":63,"OBJECTID":0,"CUT":0,"SUP_TOTAL_":1087.27550132,"Nombre":"Plaza SN","CATEGORIA":"PLAZA"},"geometry":{"type":"Polygon","coordinates":[[[-70.643348,-33.475888],[-70.643352,-33.475705],[-70.64337,-33.475446],[-70.643456,-33.475452],[-70.643613,-33.475454],[-70.643603,-33.475575],[-70.643581,-33.475781],[-70.643573,-33.475902],[-70.64347,-33.475901],[-70.643348,-33.475888]]]}},{"type":"Feature","properties":{"OBJECTID_1":64,"OBJECTID":0,"CUT":0,"SUP_TOTAL_":12628.0321946,"Nombre":"Plaza de Armas","CATEGORIA":"PLAZA"},"geometry":{"type":"Polygon","coordinates":[[[-70.651021,-33.438383],[-70.651019,-33.438389],[-70.651017,-33.438393],[-70.651014,-33.438396],[-70.65101,-33.4384],[-70.651005,-33.438403],[-70.650998,-33.438404],[-70.650993,-33.438405],[-70.650987,-33.438406],[-70.649831,-33.438297],[-70.649825,-33.438295],[-70.64982,-33.438292],[-70.649816,-33.438289],[-70.649812,-33.438286],[-70.649809,-33.438282],[-70.649807,-33.438278],[-70.649805,-33.438274],[-70.649804,-33.438268],[-70.649962,-33.437311],[-70.649963,-33.437306],[-70.649966,-33.437302],[-70.649969,-33.437298],[-70.649974,-33.437295],[-70.649978,-33.437293],[-70.649984,-33.437291],[-70.64999,-33.437289],[-70.649996,-33.437289],[-70.651126,-33.437407],[-70.651131,-33.437408],[-70.651136,-33.43741],[-70.651141,-33.437413],[-70.651145,-33.437417],[-70.651148,-33.43742],[-70.651149,-33.437423],[-70.651151,-33.437428],[-70.651151,-33.437429],[-70.651152,-33.437435],[-70.651021,-33.438383]]]}},{"type":"Feature","properties":{"OBJECTID_1":65,"OBJECTID":0,"CUT":0,"SUP_TOTAL_":347.584734231,"Nombre":"Plaza Merced","CATEGORIA":"PLAZA"},"geometry":{"type":"Polygon","coordinates":[[[-70.647219,-33.438164],[-70.647186,-33.43837],[-70.647115,-33.438363],[-70.647043,-33.438355],[-70.647026,-33.438353],[-70.647053,-33.438164],[-70.647077,-33.438149],[-70.647219,-33.438164]]]}},{"type":"Feature","properties":{"OBJECTID_1":66,"OBJECTID":0,"CUT":0,"SUP_TOTAL_":2454.18161922,"Nombre":"Plaza Carabineros de Chile","CATEGORIA":"PLAZA"},"geometry":{"type":"Polygon","coordinates":[[[-70.637749,-33.438597],[-70.638007,-33.438773],[-70.637663,-33.439309],[-70.637651,-33.439299],[-70.637632,-33.439272],[-70.637618,-33.439251],[-70.637608,-33.43924],[-70.637595,-33.439228],[-70.637586,-33.439216],[-70.637581,-33.439212],[-70.637575,-33.439207],[-70.637565,-33.4392],[-70.637551,-33.439189],[-70.637522,-33.439176],[-70.637515,-33.439173],[-70.637486,-33.439161],[-70.637457,-33.439152],[-70.637416,-33.43914],[-70.637403,-33.439138],[-70.637343,-33.439124],[-70.637322,-33.439118],[-70.637262,-33.439097],[-70.637749,-33.438597]]]}},{"type":"Feature","properties":{"OBJECTID_1":67,"OBJECTID":0,"CUT":0,"SUP_TOTAL_":418.238780434,"Nombre":"Plaza Vera Cruz","CATEGORIA":"PLAZA"},"geometry":{"type":"Polygon","coordinates":[[[-70.641059,-33.438686],[-70.641075,-33.438907],[-70.640907,-33.438923],[-70.6409,-33.438906],[-70.640897,-33.438907],[-70.640889,-33.438889],[-70.640893,-33.438888],[-70.640887,-33.43887],[-70.64089,-33.43887],[-70.640887,-33.438851],[-70.640884,-33.438851],[-70.640881,-33.438832],[-70.640885,-33.438832],[-70.640882,-33.438813],[-70.640879,-33.438813],[-70.640879,-33.438795],[-70.640882,-33.438795],[-70.640881,-33.438776],[-70.640878,-33.438775],[-70.640878,-33.438774],[-70.640888,-33.438773],[-70.640881,-33.438709],[-70.64088,-33.4387],[-70.641059,-33.438686]]]}},{"type":"Feature","properties":{"OBJECTID_1":68,"OBJECTID":0,"CUT":0,"SUP_TOTAL_":4707.83514794,"Nombre":"Plaza Benjamin Vicuña Mackenna","CATEGORIA":"PLAZA"},"geometry":{"type":"Polygon","coordinates":[[[-70.644232,-33.442094],[-70.644263,-33.442045],[-70.644275,-33.442028],[-70.644457,-33.441739],[-70.644578,-33.441548],[-70.644604,-33.441522],[-70.644634,-33.441499],[-70.644662,-33.441481],[-70.644687,-33.441469],[-70.644706,-33.441461],[-70.644733,-33.441455],[-70.644759,-33.441451],[-70.644797,-33.441448],[-70.644905,-33.441462],[-70.645046,-33.441488],[-70.64506,-33.441494],[-70.645072,-33.4415],[-70.645082,-33.441506],[-70.645087,-33.441512],[-70.645089,-33.441518],[-70.645093,-33.441547],[-70.644958,-33.4422],[-70.644955,-33.442214],[-70.644947,-33.442229],[-70.644939,-33.442237],[-70.644931,-33.442243],[-70.644921,-33.44225],[-70.644907,-33.442259],[-70.644893,-33.442266],[-70.644881,-33.442268],[-70.64487,-33.442271],[-70.644852,-33.442272],[-70.644823,-33.442266],[-70.644257,-33.442102],[-70.644232,-33.442094]]]}},{"type":"Feature","properties":{"OBJECTID_1":69,"OBJECTID":0,"CUT":0,"SUP_TOTAL_":7557.25381406,"Nombre":"Plaza de la Ciudadania Norte","CATEGORIA":"PLAZA"},"geometry":{"type":"Polygon","coordinates":[[[-70.65414,-33.444257],[-70.653148,-33.444038],[-70.653269,-33.443379],[-70.654275,-33.443491],[-70.65414,-33.444257]]]}},{"type":"Feature","properties":{"OBJECTID_1":70,"OBJECTID":0,"CUT":0,"SUP_TOTAL_":10007.5080373,"Nombre":"Plaza Ciudadania Sur","CATEGORIA":"PLAZA"},"geometry":{"type":"Polygon","coordinates":[[[-70.653793,-33.44581],[-70.653562,-33.445779],[-70.65355,-33.445838],[-70.653481,-33.445829],[-70.653458,-33.445945],[-70.653443,-33.446017],[-70.65342,-33.446133],[-70.65304,-33.446073],[-70.653062,-33.445959],[-70.653063,-33.445959],[-70.653077,-33.445889],[-70.653076,-33.445889],[-70.653097,-33.445774],[-70.653029,-33.445765],[-70.653039,-33.44571],[-70.652808,-33.445679],[-70.652964,-33.44488],[-70.652977,-33.444871],[-70.652986,-33.444869],[-70.653166,-33.444836],[-70.653182,-33.444839],[-70.653784,-33.444987],[-70.653807,-33.444998],[-70.653902,-33.445097],[-70.653906,-33.445107],[-70.653906,-33.445118],[-70.653793,-33.44581]]]}},{"type":"Feature","properties":{"OBJECTID_1":71,"OBJECTID":0,"CUT":0,"SUP_TOTAL_":688.324882873,"Nombre":"Plaza San Isidro con Curico","CATEGORIA":"PLAZA"},"geometry":{"type":"Polygon","coordinates":[[[-70.644202,-33.445857],[-70.644356,-33.44589],[-70.644402,-33.445899],[-70.644439,-33.445907],[-70.64452,-33.445923],[-70.644557,-33.445932],[-70.644518,-33.446065],[-70.644482,-33.446056],[-70.644477,-33.446056],[-70.644455,-33.446057],[-70.644421,-33.446061],[-70.644176,-33.446102],[-70.64417,-33.446102],[-70.644165,-33.446102],[-70.64416,-33.446102],[-70.644157,-33.4461],[-70.644155,-33.446098],[-70.644153,-33.446095],[-70.644153,-33.446091],[-70.644153,-33.446088],[-70.644173,-33.445991],[-70.644202,-33.445857]]]}},{"type":"Feature","properties":{"OBJECTID_1":72,"OBJECTID":0,"CUT":0,"SUP_TOTAL_":1651.88853012,"Nombre":"Plaza de Los Artesanos","CATEGORIA":"PLAZA"},"geometry":{"type":"Polygon","coordinates":[[[-70.638282,-33.447351],[-70.637692,-33.447209],[-70.637765,-33.446989],[-70.638056,-33.447057],[-70.638081,-33.446981],[-70.638381,-33.447057],[-70.638282,-33.447351]],[[-70.63832,-33.447221],[-70.63824,-33.447201],[-70.638238,-33.447196],[-70.638231,-33.447198],[-70.638234,-33.447203],[-70.63823,-33.447214],[-70.638226,-33.447213],[-70.638226,-33.44721],[-70.638222,-33.447208],[-70.63821,-33.447239],[-70.638215,-33.447241],[-70.638216,-33.447238],[-70.638221,-33.447239],[-70.638218,-33.447248],[-70.638212,-33.447251],[-70.638215,-33.447256],[-70.638221,-33.447253],[-70.638302,-33.447274],[-70.63832,-33.447221]]]}},{"type":"Feature","properties":{"OBJECTID_1":73,"OBJECTID":0,"CUT":0,"SUP_TOTAL_":4254.22592931,"Nombre":"Plaza de Los Niños","CATEGORIA":"PLAZA"},"geometry":{"type":"Polygon","coordinates":[[[-70.659433,-33.447953],[-70.659465,-33.447832],[-70.65958,-33.447442],[-70.659691,-33.447459],[-70.659734,-33.447465],[-70.6598,-33.447476],[-70.659807,-33.447489],[-70.659813,-33.447501],[-70.659823,-33.447522],[-70.659827,-33.447533],[-70.659829,-33.447542],[-70.65983,-33.447552],[-70.65983,-33.44756],[-70.65983,-33.447567],[-70.65983,-33.447575],[-70.659829,-33.447581],[-70.659828,-33.44759],[-70.659823,-33.447618],[-70.659788,-33.447732],[-70.659396,-33.449041],[-70.659393,-33.449047],[-70.659385,-33.449073],[-70.659295,-33.449045],[-70.659265,-33.449032],[-70.65926,-33.449009],[-70.659254,-33.448987],[-70.65925,-33.448967],[-70.659242,-33.448924],[-70.659239,-33.448897],[-70.659302,-33.448577],[-70.659303,-33.448537],[-70.659303,-33.448523],[-70.659301,-33.448495],[-70.659298,-33.448459],[-70.659296,-33.448445],[-70.659295,-33.448414],[-70.659299,-33.448387],[-70.659415,-33.448004],[-70.659418,-33.448002],[-70.659433,-33.447953]]]}},{"type":"Feature","properties":{"OBJECTID_1":74,"OBJECTID":0,"CUT":0,"SUP_TOTAL_":2868.37663446,"Nombre":"Plaza San Isidro","CATEGORIA":"PLAZA"},"geometry":{"type":"Polygon","coordinates":[[[-70.643514,-33.448181],[-70.643504,-33.448227],[-70.643336,-33.448936],[-70.643024,-33.448886],[-70.642976,-33.448878],[-70.642996,-33.448801],[-70.643014,-33.448726],[-70.643032,-33.448655],[-70.643058,-33.448552],[-70.643173,-33.448117],[-70.643227,-33.448127],[-70.64332,-33.448145],[-70.643514,-33.448181]]]}},{"type":"Feature","properties":{"OBJECTID_1":75,"OBJECTID":0,"CUT":0,"SUP_TOTAL_":617.573464024,"Nombre":"Plaza Freire","CATEGORIA":"PLAZA"},"geometry":{"type":"Polygon","coordinates":[[[-70.636432,-33.449416],[-70.636646,-33.449456],[-70.636569,-33.44973],[-70.636367,-33.449687],[-70.636386,-33.449596],[-70.636432,-33.449416]]]}},{"type":"Feature","properties":{"OBJECTID_1":76,"OBJECTID":0,"CUT":0,"SUP_TOTAL_":254.828638239,"Nombre":"Plaza Delgado Rosa","CATEGORIA":"PLAZA"},"geometry":{"type":"Polygon","coordinates":[[[-70.656562,-33.450395],[-70.656588,-33.450425],[-70.656638,-33.450431],[-70.656728,-33.450442],[-70.656829,-33.450455],[-70.656991,-33.450476],[-70.65699,-33.450481],[-70.656537,-33.450525],[-70.656562,-33.450395]]]}},{"type":"Feature","properties":{"OBJECTID_1":77,"OBJECTID":0,"CUT":0,"SUP_TOTAL_":2564.68389616,"Nombre":"Plaza Carlos Pezoa Veliz  (ex libreros)","CATEGORIA":"PLAZA"},"geometry":{"type":"Polygon","coordinates":[[[-70.650375,-33.45122],[-70.650314,-33.451652],[-70.650307,-33.451699],[-70.650272,-33.451721],[-70.650019,-33.451659],[-70.649775,-33.4515],[-70.649825,-33.451168],[-70.650375,-33.45122]]]}},{"type":"Feature","properties":{"OBJECTID_1":78,"OBJECTID":0,"CUT":0,"SUP_TOTAL_":1528.22190109,"Nombre":"Plaza Zenteno","CATEGORIA":"PLAZA"},"geometry":{"type":"Polygon","coordinates":[[[-70.651842,-33.455484],[-70.651837,-33.455514],[-70.65181,-33.455654],[-70.651374,-33.455605],[-70.651347,-33.455576],[-70.651388,-33.455295],[-70.651811,-33.455338],[-70.651866,-33.455344],[-70.651842,-33.455484]]]}},{"type":"Feature","properties":{"OBJECTID_1":79,"OBJECTID":0,"CUT":0,"SUP_TOTAL_":263.121921406,"Nombre":"Plaza de Bolsillo Morande","CATEGORIA":"PLAZA"},"geometry":{"type":"Polygon","coordinates":[[[-70.653135,-33.442451],[-70.65312,-33.442569],[-70.652908,-33.442551],[-70.652928,-33.442429],[-70.653135,-33.442451]]]}},{"type":"Feature","properties":{"OBJECTID_1":80,"OBJECTID":0,"CUT":0,"SUP_TOTAL_":407.288693912,"Nombre":"Plaza San Pablo","CATEGORIA":"PLAZA"},"geometry":{"type":"Polygon","coordinates":[[[-70.656754,-33.433851],[-70.656741,-33.433986],[-70.656392,-33.433978],[-70.656392,-33.433949],[-70.656461,-33.433949],[-70.656467,-33.433851],[-70.656754,-33.433851]]]}},{"type":"Feature","properties":{"OBJECTID_1":82,"OBJECTID":0,"CUT":0,"SUP_TOTAL_":964.656631702,"Nombre":"Plaza de los Perros","CATEGORIA":"PLAZA"},"geometry":{"type":"Polygon","coordinates":[[[-70.634678,-33.44812],[-70.634835,-33.448157],[-70.634769,-33.448404],[-70.634413,-33.448321],[-70.634469,-33.448111],[-70.634524,-33.448076],[-70.634678,-33.44812]]]}},{"type":"Feature","properties":{"OBJECTID_1":83,"OBJECTID":0,"CUT":0,"SUP_TOTAL_":372.642560213,"Nombre":"Plaza Libertad de Prensa","CATEGORIA":"PLAZA"},"geometry":{"type":"Polygon","coordinates":[[[-70.665988,-33.445415],[-70.665944,-33.445578],[-70.665739,-33.445538],[-70.665777,-33.44537],[-70.665988,-33.445415]]]}},{"type":"Feature","properties":{"OBJECTID_1":84,"OBJECTID":0,"CUT":0,"SUP_TOTAL_":692.574110098,"Nombre":"Plaza Condominio Mapocho Bulnes","CATEGORIA":"PLAZA"},"geometry":{"type":"Polygon","coordinates":[[[-70.672577,-33.431285],[-70.672568,-33.431382],[-70.671863,-33.431328],[-70.671885,-33.431235],[-70.672577,-33.431285]]]}},{"type":"Feature","properties":{"OBJECTID_1":85,"OBJECTID":0,"CUT":0,"SUP_TOTAL_":210.407558796,"Nombre":"Plaza Hermandad Chileno Peruana","CATEGORIA":"PLAZA"},"geometry":{"type":"Polygon","coordinates":[[[-70.655883,-33.434108],[-70.65588,-33.434327],[-70.655788,-33.434326],[-70.65579,-33.434105],[-70.655883,-33.434108]]]}},{"type":"Feature","properties":{"OBJECTID_1":86,"OBJECTID":0,"CUT":0,"SUP_TOTAL_":2957.43251826,"Nombre":"Plaza de los Abastos","CATEGORIA":"PLAZA"},"geometry":{"type":"Polygon","coordinates":[[[-70.650534,-33.432968],[-70.650644,-33.432898],[-70.651346,-33.43275],[-70.651435,-33.432786],[-70.651506,-33.432888],[-70.651519,-33.432973],[-70.651401,-33.433049],[-70.650656,-33.433243],[-70.650534,-33.432968]]]}},{"type":"Feature","properties":{"OBJECTID_1":87,"OBJECTID":0,"CUT":0,"SUP_TOTAL_":338.262865354,"Nombre":"Plaza Juan Infante","CATEGORIA":"PLAZA"},"geometry":{"type":"Polygon","coordinates":[[[-70.650396,-33.436684],[-70.650379,-33.436765],[-70.650456,-33.43678],[-70.650448,-33.436821],[-70.650159,-33.436793],[-70.650175,-33.436655],[-70.650396,-33.436684]]]}},{"type":"Feature","properties":{"OBJECTID_1":88,"OBJECTID":0,"CUT":0,"SUP_TOTAL_":458.630131135,"Nombre":"Plaza Club Hipico","CATEGORIA":"PLAZA"},"geometry":{"type":"Polygon","coordinates":[[[-70.664791,-33.47219],[-70.664788,-33.472451],[-70.664785,-33.473452],[-70.664753,-33.473453],[-70.664752,-33.472181],[-70.664752,-33.47217],[-70.664756,-33.472159],[-70.664768,-33.472157],[-70.664784,-33.472161],[-70.664786,-33.472167],[-70.664789,-33.472178],[-70.664791,-33.47219]]]}}]}