{"type":"FeatureCollection","name":"AMB_POL_AREA_LIBRE_HUMO","features":[{"type":"Feature","properties":{"OBJECTID":1,"Shape_Leng":289.13247165,"Shape_Area":6633.59002209,"Dist":20},"geometry":{"type":"Polygon","coordinates":[[[-70.639348,-33.435924],[-70.639364,-33.435905],[-70.639375,-33.435893],[-70.639382,-33.435886],[-70.639395,-33.435873],[-70.639407,-33.435863],[-70.63941,-33.43586],[-70.639425,-33.435848],[-70.639434,-33.435841],[-70.639443,-33.435834],[-70.639455,-33.435826],[-70.639464,-33.43582],[-70.639471,-33.435816],[-70.639496,-33.435801],[-70.639508,-33.435795],[-70.639534,-33.435782],[-70.639541,-33.435779],[-70.639546,-33.435778],[-70.639576,-33.435763],[-70.639608,-33.435751],[-70.639642,-33.435745],[-70.639677,-33.435742],[-70.639821,-33.435743],[-70.639846,-33.435745],[-70.639872,-33.435749],[-70.639897,-33.435755],[-70.639903,-33.435757],[-70.63991,-33.435759],[-70.639917,-33.435761],[-70.639926,-33.435764],[-70.639942,-33.435769],[-70.639958,-33.435774],[-70.63997,-33.435779],[-70.639987,-33.435787],[-70.640001,-33.435793],[-70.640008,-33.435796],[-70.640034,-33.435808],[-70.640057,-33.435822],[-70.640136,-33.43588],[-70.640157,-33.435899],[-70.640176,-33.43592],[-70.640191,-33.435942],[-70.640194,-33.435946],[-70.640202,-33.435955],[-70.640216,-33.435977],[-70.640219,-33.435984],[-70.640226,-33.435996],[-70.640233,-33.43601],[-70.640236,-33.436016],[-70.640242,-33.436032],[-70.640245,-33.43604],[-70.640254,-33.436069],[-70.640257,-33.436081],[-70.640259,-33.436092],[-70.640263,-33.436113],[-70.640264,-33.436123],[-70.640265,-33.436138],[-70.640266,-33.436149],[-70.640266,-33.436155],[-70.640265,-33.436182],[-70.640262,-33.436206],[-70.640257,-33.436235],[-70.64025,-33.436261],[-70.640238,-33.436291],[-70.640236,-33.436295],[-70.640229,-33.43631],[-70.640213,-33.436341],[-70.640205,-33.436355],[-70.640195,-33.436367],[-70.640171,-33.436398],[-70.640159,-33.436412],[-70.640148,-33.436422],[-70.640126,-33.436442],[-70.640113,-33.436453],[-70.640091,-33.436469],[-70.640068,-33.436483],[-70.640042,-33.436494],[-70.639955,-33.436525],[-70.639922,-33.436534],[-70.639918,-33.436535],[-70.639898,-33.436541],[-70.639883,-33.436544],[-70.639845,-33.436552],[-70.639837,-33.436553],[-70.639814,-33.436556],[-70.639776,-33.436559],[-70.639761,-33.436559],[-70.639744,-33.436559],[-70.639705,-33.436557],[-70.639685,-33.436555],[-70.639674,-33.436553],[-70.639636,-33.436547],[-70.63961,-33.436541],[-70.639602,-33.436538],[-70.63956,-33.436524],[-70.639533,-33.436514],[-70.639528,-33.436511],[-70.639488,-33.436491],[-70.639463,-33.436476],[-70.639459,-33.436474],[-70.639424,-33.436449],[-70.6394,-33.436429],[-70.63937,-33.436398],[-70.639349,-33.436374],[-70.639326,-33.436341],[-70.63931,-33.436314],[-70.639307,-33.436303],[-70.639294,-33.436282],[-70.639285,-33.436259],[-70.639279,-33.436236],[-70.63927,-33.436185],[-70.639269,-33.436177],[-70.639267,-33.436155],[-70.639269,-33.436134],[-70.63927,-33.436122],[-70.63927,-33.436105],[-70.639272,-33.436088],[-70.639277,-33.436067],[-70.639279,-33.436054],[-70.639288,-33.436027],[-70.639298,-33.436002],[-70.639309,-33.435981],[-70.639319,-33.435965],[-70.639323,-33.435958],[-70.63933,-33.435947],[-70.639335,-33.43594],[-70.639339,-33.435935],[-70.639348,-33.435924]]]}},{"type":"Feature","properties":{"OBJECTID":2,"Shape_Leng":286.431385282,"Shape_Area":6033.85321768,"Dist":20},"geometry":{"type":"Polygon","coordinates":[[[-70.64181,-33.435047],[-70.641828,-33.435043],[-70.641832,-33.435043],[-70.641841,-33.435041],[-70.641851,-33.435035],[-70.641861,-33.435031],[-70.641872,-33.435028],[-70.641883,-33.435026],[-70.641958,-33.435012],[-70.642086,-33.434982],[-70.642119,-33.434972],[-70.642154,-33.434967],[-70.64219,-33.434967],[-70.642225,-33.434972],[-70.642259,-33.434982],[-70.64229,-33.434996],[-70.642318,-33.435014],[-70.642342,-33.435035],[-70.642362,-33.43506],[-70.642376,-33.435087],[-70.642402,-33.43515],[-70.642409,-33.435169],[-70.642411,-33.435175],[-70.642446,-33.435299],[-70.642452,-33.435308],[-70.642471,-33.43535],[-70.642478,-33.435368],[-70.642485,-33.435389],[-70.642491,-33.435419],[-70.642491,-33.43545],[-70.642485,-33.435481],[-70.642473,-33.43551],[-70.642455,-33.435537],[-70.642432,-33.435561],[-70.642404,-33.435581],[-70.642373,-33.435598],[-70.642338,-33.435609],[-70.64229,-33.435621],[-70.642275,-33.435624],[-70.642264,-33.435634],[-70.642257,-33.43564],[-70.642251,-33.435645],[-70.642239,-33.435654],[-70.642222,-33.435665],[-70.642214,-33.43567],[-70.642207,-33.435674],[-70.642194,-33.435682],[-70.642175,-33.43569],[-70.642164,-33.435695],[-70.642159,-33.435697],[-70.642143,-33.435702],[-70.642124,-33.435707],[-70.642108,-33.435711],[-70.642092,-33.435714],[-70.642081,-33.435716],[-70.642073,-33.435717],[-70.642063,-33.435718],[-70.642052,-33.435719],[-70.642035,-33.435719],[-70.642021,-33.435719],[-70.642011,-33.435719],[-70.642005,-33.435718],[-70.641998,-33.435718],[-70.641981,-33.435716],[-70.641972,-33.435715],[-70.641965,-33.435714],[-70.641953,-33.435711],[-70.641941,-33.435709],[-70.641925,-33.435704],[-70.641912,-33.435708],[-70.64186,-33.43572],[-70.641827,-33.435725],[-70.641792,-33.435726],[-70.641758,-33.435722],[-70.641725,-33.435714],[-70.641694,-33.435702],[-70.641666,-33.435685],[-70.641641,-33.435665],[-70.641621,-33.435642],[-70.641605,-33.435616],[-70.641594,-33.435589],[-70.64159,-33.435577],[-70.641582,-33.435546],[-70.641579,-33.435537],[-70.641575,-33.435512],[-70.641574,-33.435493],[-70.641561,-33.435446],[-70.641552,-33.435416],[-70.641532,-33.435391],[-70.641517,-33.435364],[-70.641507,-33.435334],[-70.641504,-33.435304],[-70.641507,-33.435274],[-70.641517,-33.435228],[-70.641518,-33.435222],[-70.641522,-33.435195],[-70.64153,-33.435166],[-70.641545,-33.435138],[-70.641564,-33.435112],[-70.641589,-33.43509],[-70.641618,-33.435072],[-70.64165,-33.435058],[-70.641684,-33.435048],[-70.64172,-33.435044],[-70.641756,-33.435045],[-70.641792,-33.435051],[-70.64181,-33.435047]]]}}]}