{"type":"FeatureCollection","name":"AMB_POL_ZONAS_MANEJO_PARQUE_FORESTAL","features":[{"type":"Feature","properties":{"OBJECTID":1,"Shape_Leng":2551.26499855,"Shape_Area":100609.79594,"Zona":"103","Part_L":null},"geometry":{"type":"Polygon","coordinates":[[[-70.645313,-33.433387],[-70.645657,-33.433305],[-70.64585,-33.43326],[-70.645957,-33.433234],[-70.64623,-33.43317],[-70.646897,-33.433012],[-70.647302,-33.432917],[-70.647468,-33.432877],[-70.64776,-33.432809],[-70.647774,-33.432854],[-70.647794,-33.432854],[-70.647809,-33.432859],[-70.647819,-33.432861],[-70.647831,-33.432865],[-70.647841,-33.432872],[-70.647853,-33.432882],[-70.647861,-33.432892],[-70.647868,-33.432904],[-70.647874,-33.432917],[-70.647876,-33.432931],[-70.647934,-33.433233],[-70.647938,-33.433252],[-70.647941,-33.433267],[-70.647943,-33.433278],[-70.647946,-33.433296],[-70.647947,-33.433306],[-70.647948,-33.433317],[-70.647946,-33.433326],[-70.647899,-33.433578],[-70.647896,-33.433589],[-70.647893,-33.433589],[-70.64789,-33.433589],[-70.647821,-33.433605],[-70.647699,-33.433634],[-70.647416,-33.4337],[-70.647141,-33.433764],[-70.646696,-33.433868],[-70.646537,-33.433904],[-70.646471,-33.43392],[-70.646437,-33.433928],[-70.646151,-33.433996],[-70.645983,-33.434035],[-70.645688,-33.434103],[-70.645231,-33.434208],[-70.64285,-33.434753],[-70.642605,-33.434816],[-70.638094,-33.435871],[-70.637525,-33.436004],[-70.636924,-33.436144],[-70.636439,-33.436257],[-70.6364,-33.436266],[-70.636225,-33.436307],[-70.636129,-33.436329],[-70.636054,-33.436346],[-70.635783,-33.436409],[-70.635727,-33.43626],[-70.635726,-33.436258],[-70.635721,-33.436239],[-70.635699,-33.436182],[-70.635663,-33.43619],[-70.635639,-33.436196],[-70.635632,-33.436197],[-70.635629,-33.436198],[-70.635626,-33.436198],[-70.635625,-33.436198],[-70.635622,-33.436198],[-70.63562,-33.436198],[-70.635616,-33.436197],[-70.635613,-33.436195],[-70.635611,-33.436193],[-70.635609,-33.436191],[-70.635608,-33.436189],[-70.6356,-33.436168],[-70.635592,-33.436141],[-70.635588,-33.436134],[-70.635585,-33.436135],[-70.635581,-33.436135],[-70.635578,-33.436136],[-70.635574,-33.436137],[-70.635568,-33.436138],[-70.635555,-33.43614],[-70.635543,-33.436141],[-70.635535,-33.436142],[-70.635526,-33.436142],[-70.63552,-33.43614],[-70.635516,-33.436139],[-70.635506,-33.436136],[-70.635497,-33.436124],[-70.635487,-33.436124],[-70.635485,-33.43608],[-70.635482,-33.435859],[-70.635482,-33.435809],[-70.635489,-33.435809],[-70.635496,-33.435795],[-70.635508,-33.435784],[-70.635519,-33.435775],[-70.635529,-33.43577],[-70.635543,-33.435766],[-70.635564,-33.435762],[-70.63556,-33.435751],[-70.635645,-33.435737],[-70.635636,-33.435701],[-70.635619,-33.435643],[-70.635665,-33.435641],[-70.635799,-33.435611],[-70.636192,-33.435523],[-70.637218,-33.435288],[-70.638288,-33.43504],[-70.638789,-33.434925],[-70.639425,-33.434778],[-70.640643,-33.434494],[-70.641242,-33.434349],[-70.641446,-33.4343],[-70.641699,-33.434238],[-70.64232,-33.434088],[-70.642765,-33.433981],[-70.64298,-33.433932],[-70.643188,-33.433884],[-70.643868,-33.433728],[-70.645313,-33.433387]]]}},{"type":"Feature","properties":{"OBJECTID":2,"Shape_Leng":2681.48432091,"Shape_Area":97322.8493675,"Zona":"101","Part_L":null},"geometry":{"type":"Polygon","coordinates":[[[-70.642605,-33.434816],[-70.64285,-33.434753],[-70.645231,-33.434208],[-70.645688,-33.434103],[-70.645983,-33.434035],[-70.646151,-33.433996],[-70.646437,-33.433928],[-70.646471,-33.43392],[-70.646537,-33.433904],[-70.646696,-33.433868],[-70.647141,-33.433764],[-70.647416,-33.4337],[-70.647699,-33.433634],[-70.647821,-33.433605],[-70.64789,-33.433589],[-70.647893,-33.433589],[-70.647896,-33.433589],[-70.647898,-33.433591],[-70.647899,-33.433593],[-70.6479,-33.433593],[-70.6479,-33.433594],[-70.647901,-33.433597],[-70.6479,-33.433598],[-70.647899,-33.433601],[-70.647887,-33.433618],[-70.647869,-33.433647],[-70.647818,-33.433738],[-70.64773,-33.433893],[-70.647687,-33.433968],[-70.647671,-33.433995],[-70.64756,-33.434171],[-70.647413,-33.434205],[-70.647203,-33.434254],[-70.647155,-33.434265],[-70.647005,-33.43431],[-70.646833,-33.434374],[-70.645999,-33.434768],[-70.645065,-33.435192],[-70.644904,-33.435265],[-70.64343,-33.435955],[-70.643262,-33.435997],[-70.642228,-33.436234],[-70.640617,-33.436604],[-70.640439,-33.436822],[-70.640173,-33.436844],[-70.639349,-33.43686],[-70.639151,-33.436859],[-70.639149,-33.436798],[-70.639146,-33.436736],[-70.639096,-33.436736],[-70.638998,-33.436736],[-70.638677,-33.436736],[-70.638448,-33.436738],[-70.638388,-33.436737],[-70.638316,-33.436737],[-70.638051,-33.436738],[-70.637887,-33.436738],[-70.637705,-33.436738],[-70.637637,-33.436737],[-70.637631,-33.436735],[-70.637627,-33.436729],[-70.637627,-33.436722],[-70.637625,-33.436701],[-70.637623,-33.436687],[-70.637626,-33.436677],[-70.63764,-33.436669],[-70.637658,-33.43666],[-70.637674,-33.436652],[-70.637688,-33.436641],[-70.637702,-33.436629],[-70.637717,-33.436614],[-70.63773,-33.436599],[-70.637742,-33.436584],[-70.637754,-33.436567],[-70.637762,-33.43655],[-70.637768,-33.436532],[-70.637772,-33.43651],[-70.637774,-33.436492],[-70.637776,-33.436478],[-70.637779,-33.436469],[-70.637772,-33.436431],[-70.637767,-33.436401],[-70.637762,-33.436396],[-70.637757,-33.436386],[-70.637752,-33.436379],[-70.637748,-33.436371],[-70.637741,-33.43636],[-70.637736,-33.436352],[-70.63773,-33.436344],[-70.637721,-33.436333],[-70.637708,-33.436319],[-70.637699,-33.436311],[-70.637684,-33.436299],[-70.637672,-33.436291],[-70.637656,-33.436281],[-70.637644,-33.436274],[-70.637629,-33.436267],[-70.637618,-33.436262],[-70.637608,-33.436258],[-70.637598,-33.436254],[-70.637587,-33.436251],[-70.637576,-33.436249],[-70.637566,-33.436245],[-70.637561,-33.43624],[-70.63756,-33.436232],[-70.637562,-33.436222],[-70.637564,-33.436214],[-70.637566,-33.436207],[-70.637568,-33.436199],[-70.637569,-33.43619],[-70.637572,-33.436184],[-70.637525,-33.436004],[-70.638094,-33.435871],[-70.642605,-33.434816]],[[-70.64341,-33.43591],[-70.643636,-33.435807],[-70.643866,-33.435704],[-70.644015,-33.435634],[-70.645073,-33.435144],[-70.645078,-33.435109],[-70.645078,-33.435095],[-70.645078,-33.435072],[-70.645079,-33.435036],[-70.645075,-33.435001],[-70.645064,-33.434959],[-70.645051,-33.434932],[-70.645031,-33.434898],[-70.645021,-33.434878],[-70.644994,-33.434845],[-70.64495,-33.434845],[-70.644893,-33.434844],[-70.644803,-33.434842],[-70.644714,-33.434838],[-70.644498,-33.434835],[-70.644435,-33.434834],[-70.643949,-33.434823],[-70.643808,-33.43482],[-70.643708,-33.434829],[-70.643682,-33.434834],[-70.643568,-33.434857],[-70.643428,-33.434886],[-70.643372,-33.434897],[-70.643336,-33.434905],[-70.643318,-33.43491],[-70.6433,-33.434917],[-70.643277,-33.434928],[-70.643255,-33.434942],[-70.643236,-33.434958],[-70.643222,-33.434973],[-70.643209,-33.434989],[-70.643191,-33.434991],[-70.643175,-33.434996],[-70.643159,-33.435003],[-70.643145,-33.435014],[-70.643137,-33.435024],[-70.64313,-33.435035],[-70.643127,-33.435046],[-70.643125,-33.435058],[-70.643098,-33.435064],[-70.643042,-33.435081],[-70.643067,-33.435174],[-70.643248,-33.435692],[-70.643296,-33.435783],[-70.643352,-33.435889],[-70.64337,-33.435915],[-70.64341,-33.43591]]]}},{"type":"Feature","properties":{"OBJECTID":3,"Shape_Leng":6451.87674394,"Shape_Area":167683.448082,"Zona":"106","Part_L":null},"geometry":{"type":"MultiPolygon","coordinates":[[[[-70.635301,-33.436813],[-70.63573,-33.436853],[-70.636102,-33.436862],[-70.636549,-33.436854],[-70.636462,-33.437302],[-70.635292,-33.437063],[-70.635301,-33.436813]]],[[[-70.646833,-33.434374],[-70.647005,-33.43431],[-70.647155,-33.434265],[-70.647203,-33.434254],[-70.647413,-33.434205],[-70.64756,-33.434171],[-70.647582,-33.434166],[-70.648296,-33.434003],[-70.648682,-33.433915],[-70.64875,-33.4339],[-70.650101,-33.433576],[-70.650261,-33.433519],[-70.650413,-33.433435],[-70.650406,-33.433528],[-70.650381,-33.433868],[-70.650357,-33.434192],[-70.650298,-33.434597],[-70.649497,-33.434616],[-70.648558,-33.434613],[-70.647544,-33.434637],[-70.64664,-33.434753],[-70.646473,-33.43478],[-70.646481,-33.435125],[-70.646339,-33.435148],[-70.646294,-33.435184],[-70.646229,-33.435522],[-70.646208,-33.435638],[-70.64588,-33.435611],[-70.644938,-33.435503],[-70.643656,-33.436284],[-70.643435,-33.436407],[-70.643417,-33.436351],[-70.643262,-33.435997],[-70.64343,-33.435955],[-70.644904,-33.435265],[-70.645065,-33.435192],[-70.645999,-33.434768],[-70.646833,-33.434374]]],[[[-70.651787,-33.433087],[-70.652131,-33.432956],[-70.65282,-33.43293],[-70.65326,-33.432872],[-70.654709,-33.432539],[-70.654634,-33.433195],[-70.653143,-33.433135],[-70.653133,-33.43344],[-70.652047,-33.433432],[-70.652033,-33.433736],[-70.652228,-33.433745],[-70.652208,-33.433989],[-70.651949,-33.433979],[-70.651923,-33.434214],[-70.651921,-33.434251],[-70.651679,-33.434231],[-70.651787,-33.433087]]],[[[-70.637601,-33.434855],[-70.638676,-33.434646],[-70.639243,-33.434503],[-70.641074,-33.433875],[-70.642295,-33.433504],[-70.64287,-33.433358],[-70.647042,-33.432457],[-70.64784,-33.432186],[-70.648322,-33.431905],[-70.648625,-33.431793],[-70.649699,-33.431639],[-70.651334,-33.43124],[-70.653099,-33.430824],[-70.653011,-33.431109],[-70.652987,-33.431165],[-70.652958,-33.431216],[-70.652923,-33.431269],[-70.652887,-33.431322],[-70.65286,-33.431383],[-70.652846,-33.431432],[-70.652838,-33.431481],[-70.652839,-33.431542],[-70.652842,-33.431593],[-70.652851,-33.431648],[-70.651961,-33.431845],[-70.651247,-33.432007],[-70.650221,-33.432245],[-70.648948,-33.432533],[-70.648602,-33.432611],[-70.648339,-33.432673],[-70.64776,-33.432809],[-70.647468,-33.432877],[-70.647302,-33.432917],[-70.646897,-33.433012],[-70.64623,-33.43317],[-70.645957,-33.433234],[-70.64585,-33.43326],[-70.645657,-33.433305],[-70.645313,-33.433387],[-70.643868,-33.433728],[-70.643188,-33.433884],[-70.64298,-33.433932],[-70.642765,-33.433981],[-70.64232,-33.434088],[-70.641699,-33.434238],[-70.641446,-33.4343],[-70.641242,-33.434349],[-70.640643,-33.434494],[-70.639425,-33.434778],[-70.638789,-33.434925],[-70.638288,-33.43504],[-70.637218,-33.435288],[-70.636192,-33.435523],[-70.635799,-33.435611],[-70.635665,-33.435641],[-70.635619,-33.435643],[-70.635422,-33.435652],[-70.635554,-33.434834],[-70.635637,-33.43484],[-70.636692,-33.434882],[-70.637601,-33.434855]]]]}},{"type":"Feature","properties":{"OBJECTID":4,"Shape_Leng":503.697296455,"Shape_Area":14138.5763007,"Zona":"102","Part_L":null},"geometry":{"type":"Polygon","coordinates":[[[-70.643352,-33.435889],[-70.643296,-33.435783],[-70.643248,-33.435692],[-70.643067,-33.435174],[-70.643042,-33.435081],[-70.643098,-33.435064],[-70.643125,-33.435058],[-70.643127,-33.435046],[-70.64313,-33.435035],[-70.643137,-33.435024],[-70.643145,-33.435014],[-70.643159,-33.435003],[-70.643175,-33.434996],[-70.643191,-33.434991],[-70.643209,-33.434989],[-70.643222,-33.434973],[-70.643236,-33.434958],[-70.643255,-33.434942],[-70.643277,-33.434928],[-70.6433,-33.434917],[-70.643318,-33.43491],[-70.643336,-33.434905],[-70.643372,-33.434897],[-70.643428,-33.434886],[-70.643568,-33.434857],[-70.643682,-33.434834],[-70.643708,-33.434829],[-70.643808,-33.43482],[-70.643949,-33.434823],[-70.644435,-33.434834],[-70.644498,-33.434835],[-70.644714,-33.434838],[-70.644803,-33.434842],[-70.644893,-33.434844],[-70.64495,-33.434845],[-70.644994,-33.434845],[-70.645021,-33.434878],[-70.645031,-33.434898],[-70.645051,-33.434932],[-70.645064,-33.434959],[-70.645075,-33.435001],[-70.645079,-33.435036],[-70.645078,-33.435072],[-70.645078,-33.435095],[-70.645078,-33.435109],[-70.645073,-33.435144],[-70.644015,-33.435634],[-70.643866,-33.435704],[-70.643636,-33.435807],[-70.64341,-33.43591],[-70.64337,-33.435915],[-70.643352,-33.435889]]]}},{"type":"Feature","properties":{"OBJECTID":5,"Shape_Leng":2284.70395396,"Shape_Area":130080.627047,"Zona":"105","Part_L":null},"geometry":{"type":"Polygon","coordinates":[[[-70.653099,-33.430824],[-70.653672,-33.43071],[-70.653888,-33.43141],[-70.65397,-33.431392],[-70.655997,-33.430924],[-70.656098,-33.431261],[-70.656186,-33.431549],[-70.656369,-33.432157],[-70.654709,-33.432539],[-70.65326,-33.432872],[-70.65282,-33.43293],[-70.652131,-33.432956],[-70.651787,-33.433087],[-70.651679,-33.434231],[-70.650357,-33.434192],[-70.650381,-33.433868],[-70.650406,-33.433528],[-70.650413,-33.433435],[-70.650261,-33.433519],[-70.650101,-33.433576],[-70.64875,-33.4339],[-70.648682,-33.433915],[-70.648296,-33.434003],[-70.647582,-33.434166],[-70.64756,-33.434171],[-70.647671,-33.433995],[-70.647687,-33.433968],[-70.64773,-33.433893],[-70.647818,-33.433738],[-70.647869,-33.433647],[-70.647887,-33.433618],[-70.647899,-33.433601],[-70.6479,-33.433598],[-70.647901,-33.433597],[-70.6479,-33.433594],[-70.6479,-33.433593],[-70.647899,-33.433593],[-70.647898,-33.433591],[-70.647896,-33.433589],[-70.647899,-33.433578],[-70.647946,-33.433326],[-70.647948,-33.433317],[-70.647947,-33.433306],[-70.647946,-33.433296],[-70.647943,-33.433278],[-70.647941,-33.433267],[-70.647938,-33.433252],[-70.647934,-33.433233],[-70.647876,-33.432931],[-70.647874,-33.432917],[-70.647868,-33.432904],[-70.647861,-33.432892],[-70.647853,-33.432882],[-70.647841,-33.432872],[-70.647831,-33.432865],[-70.647819,-33.432861],[-70.647809,-33.432859],[-70.647794,-33.432854],[-70.647774,-33.432854],[-70.64776,-33.432809],[-70.648339,-33.432673],[-70.648602,-33.432611],[-70.648948,-33.432533],[-70.650221,-33.432245],[-70.651247,-33.432007],[-70.651961,-33.431845],[-70.652851,-33.431648],[-70.652842,-33.431593],[-70.652839,-33.431542],[-70.652838,-33.431481],[-70.652846,-33.431432],[-70.65286,-33.431383],[-70.652887,-33.431322],[-70.652923,-33.431269],[-70.652958,-33.431216],[-70.652987,-33.431165],[-70.653011,-33.431109],[-70.653099,-33.430824]]]}},{"type":"Feature","properties":{"OBJECTID":6,"Shape_Leng":1042.94483572,"Shape_Area":18031.7607524,"Zona":"104","Part_L":null},"geometry":{"type":"Polygon","coordinates":[[[-70.635392,-33.435946],[-70.635418,-33.435691],[-70.635422,-33.435652],[-70.635619,-33.435643],[-70.635636,-33.435701],[-70.635645,-33.435737],[-70.63556,-33.435751],[-70.635564,-33.435762],[-70.635543,-33.435766],[-70.635529,-33.43577],[-70.635519,-33.435775],[-70.635508,-33.435784],[-70.635496,-33.435795],[-70.635489,-33.435809],[-70.635482,-33.435809],[-70.635485,-33.43608],[-70.635487,-33.436124],[-70.635497,-33.436124],[-70.635506,-33.436136],[-70.635516,-33.436139],[-70.63552,-33.43614],[-70.635526,-33.436142],[-70.635535,-33.436142],[-70.635543,-33.436141],[-70.635555,-33.43614],[-70.635568,-33.436138],[-70.635574,-33.436137],[-70.635578,-33.436136],[-70.635581,-33.436135],[-70.635585,-33.436135],[-70.635588,-33.436134],[-70.635592,-33.436141],[-70.6356,-33.436168],[-70.635608,-33.436189],[-70.635609,-33.436191],[-70.635611,-33.436193],[-70.635613,-33.436195],[-70.635616,-33.436197],[-70.63562,-33.436198],[-70.635622,-33.436198],[-70.635625,-33.436198],[-70.635626,-33.436198],[-70.635629,-33.436198],[-70.635632,-33.436197],[-70.635639,-33.436196],[-70.635663,-33.43619],[-70.635699,-33.436182],[-70.635726,-33.436257],[-70.635726,-33.436258],[-70.635783,-33.436409],[-70.636054,-33.436346],[-70.636129,-33.436329],[-70.636225,-33.436307],[-70.6364,-33.436266],[-70.636439,-33.436257],[-70.636773,-33.436179],[-70.637114,-33.436099],[-70.637525,-33.436004],[-70.637525,-33.436004],[-70.637572,-33.436184],[-70.637569,-33.43619],[-70.637568,-33.436199],[-70.637566,-33.436207],[-70.637564,-33.436214],[-70.637562,-33.436222],[-70.63756,-33.436232],[-70.637561,-33.43624],[-70.637566,-33.436245],[-70.637576,-33.436249],[-70.637587,-33.436251],[-70.637598,-33.436254],[-70.637608,-33.436258],[-70.637618,-33.436262],[-70.637629,-33.436267],[-70.637644,-33.436274],[-70.637656,-33.436281],[-70.637672,-33.436291],[-70.637684,-33.436299],[-70.637699,-33.436311],[-70.637708,-33.436319],[-70.637721,-33.436333],[-70.63773,-33.436344],[-70.637736,-33.436352],[-70.637741,-33.43636],[-70.637748,-33.436371],[-70.637752,-33.436379],[-70.637757,-33.436386],[-70.637762,-33.436396],[-70.637767,-33.436401],[-70.637772,-33.436431],[-70.637779,-33.436469],[-70.637776,-33.436478],[-70.637774,-33.436492],[-70.637772,-33.43651],[-70.637768,-33.436532],[-70.637762,-33.43655],[-70.637754,-33.436567],[-70.637742,-33.436584],[-70.63773,-33.436599],[-70.637717,-33.436614],[-70.637702,-33.436629],[-70.637688,-33.436641],[-70.637674,-33.436652],[-70.637658,-33.43666],[-70.63764,-33.436669],[-70.637626,-33.436677],[-70.637623,-33.436687],[-70.637625,-33.436701],[-70.637627,-33.436722],[-70.637627,-33.436729],[-70.637631,-33.436735],[-70.637637,-33.436737],[-70.637705,-33.436738],[-70.637887,-33.436738],[-70.638051,-33.436738],[-70.638316,-33.436737],[-70.638388,-33.436737],[-70.638448,-33.436738],[-70.638677,-33.436736],[-70.638998,-33.436736],[-70.639096,-33.436736],[-70.639146,-33.436736],[-70.639151,-33.436798],[-70.639149,-33.436798],[-70.639151,-33.436859],[-70.638245,-33.436855],[-70.638054,-33.436854],[-70.636858,-33.436848],[-70.636549,-33.436854],[-70.636102,-33.436862],[-70.63573,-33.436853],[-70.635301,-33.436813],[-70.635306,-33.436794],[-70.635394,-33.436425],[-70.635399,-33.436401],[-70.635397,-33.436277],[-70.635396,-33.436169],[-70.635392,-33.435946]]]}}]}