{"type":"FeatureCollection","name":"AMB_POL_DIA_RECICLAJE_SECTOR","features":[{"type":"Feature","properties":{"Id":0,"Ruta":"SABADO","PesoTon":17471.0},"geometry":{"type":"Polygon","coordinates":[[[-70.648597,-33.432601],[-70.648552,-33.432697],[-70.648688,-33.433119],[-70.648813,-33.433262],[-70.648642,-33.433273],[-70.647732,-33.433547],[-70.647866,-33.433678],[-70.647887,-33.433779],[-70.647803,-33.43395],[-70.647698,-33.434126],[-70.647606,-33.434225],[-70.646562,-33.440852],[-70.646256,-33.442734],[-70.646228,-33.442918],[-70.645295,-33.4427],[-70.643813,-33.442247],[-70.642681,-33.441725],[-70.640795,-33.440444],[-70.638266,-33.438676],[-70.636761,-33.437747],[-70.636188,-33.43756],[-70.635167,-33.437092],[-70.635377,-33.435695],[-70.648597,-33.432601]]]}},{"type":"Feature","properties":{"Id":0,"Ruta":"SABADO","PesoTon":17471.0},"geometry":{"type":"Polygon","coordinates":[[[-70.678013,-33.450493],[-70.677843,-33.450827],[-70.678348,-33.458118],[-70.676146,-33.458642],[-70.673865,-33.458415],[-70.672139,-33.458391],[-70.66494,-33.457126],[-70.66497,-33.458575],[-70.656768,-33.458041],[-70.657051,-33.456464],[-70.657813,-33.454899],[-70.658131,-33.454338],[-70.660245,-33.447409],[-70.660761,-33.446346],[-70.660661,-33.44595],[-70.665555,-33.447102],[-70.671617,-33.448766],[-70.678013,-33.450493]]]}},{"type":"Feature","properties":{"Id":0,"Ruta":"MIERCOLES","PesoTon":66589.0},"geometry":{"type":"Polygon","coordinates":[[[-70.68015,-33.437631],[-70.68012,-33.438443],[-70.691627,-33.439246],[-70.691834,-33.444477],[-70.679642,-33.443847],[-70.679021,-33.450727],[-70.669845,-33.44829],[-70.66467,-33.446887],[-70.660661,-33.445945],[-70.660971,-33.444549],[-70.660991,-33.444059],[-70.660878,-33.443623],[-70.660723,-33.442958],[-70.660415,-33.441747],[-70.66199,-33.44187],[-70.663484,-33.442006],[-70.665084,-33.44216],[-70.666468,-33.442306],[-70.667965,-33.442546],[-70.668208,-33.441462],[-70.668476,-33.440287],[-70.668547,-33.439157],[-70.668664,-33.43802],[-70.668696,-33.437649],[-70.668784,-33.436638],[-70.673327,-33.436952],[-70.680209,-33.43741],[-70.68015,-33.437631]]]}},{"type":"Feature","properties":{"Id":0,"Ruta":"MIERCOLES","PesoTon":66589.0},"geometry":{"type":"Polygon","coordinates":[[[-70.656816,-33.460557],[-70.652526,-33.459988],[-70.650695,-33.45976],[-70.649126,-33.459582],[-70.647269,-33.459174],[-70.645322,-33.458771],[-70.645661,-33.457356],[-70.646256,-33.454934],[-70.646502,-33.453712],[-70.646726,-33.452038],[-70.646854,-33.450889],[-70.646961,-33.450917],[-70.648848,-33.451503],[-70.650385,-33.451882],[-70.652823,-33.452481],[-70.655093,-33.453011],[-70.656896,-33.453192],[-70.658115,-33.453263],[-70.658428,-33.453301],[-70.658027,-33.454576],[-70.656924,-33.45618],[-70.6567,-33.457595],[-70.656675,-33.458168],[-70.656816,-33.460557]]]}},{"type":"Feature","properties":{"Id":0,"Ruta":"LUNES","PesoTon":66465.0},"geometry":{"type":"Polygon","coordinates":[[[-70.680209,-33.43741],[-70.668784,-33.436638],[-70.668696,-33.437649],[-70.668664,-33.43802],[-70.668547,-33.439157],[-70.668476,-33.440287],[-70.668208,-33.441462],[-70.667965,-33.442546],[-70.666468,-33.442306],[-70.665084,-33.44216],[-70.663484,-33.442006],[-70.660415,-33.441747],[-70.660723,-33.442958],[-70.660998,-33.444179],[-70.66096,-33.444599],[-70.660661,-33.445945],[-70.660604,-33.446518],[-70.660295,-33.446448],[-70.656475,-33.44554],[-70.655434,-33.445279],[-70.65407,-33.444955],[-70.652949,-33.444624],[-70.652677,-33.444548],[-70.652145,-33.4444],[-70.65114,-33.444104],[-70.650365,-33.443922],[-70.647968,-33.443265],[-70.646232,-33.442888],[-70.647027,-33.438083],[-70.647606,-33.434225],[-70.647738,-33.434058],[-70.647877,-33.433825],[-70.647886,-33.433725],[-70.647732,-33.433547],[-70.648656,-33.433418],[-70.648597,-33.432601],[-70.650238,-33.432256],[-70.651663,-33.431918],[-70.654995,-33.431173],[-70.657671,-33.430525],[-70.66002,-33.429916],[-70.66059,-33.429586],[-70.661515,-33.429214],[-70.662562,-33.428959],[-70.663328,-33.428849],[-70.664351,-33.428501],[-70.668486,-33.427031],[-70.671308,-33.426081],[-70.671795,-33.427898],[-70.671775,-33.428325],[-70.673265,-33.427841],[-70.675935,-33.426955],[-70.676625,-33.426648],[-70.677062,-33.426592],[-70.67751,-33.426645],[-70.678909,-33.427253],[-70.679601,-33.42763],[-70.680259,-33.428359],[-70.680599,-33.429011],[-70.680723,-33.429808],[-70.680643,-33.430997],[-70.680559,-33.432281],[-70.680592,-33.432942],[-70.680547,-33.433751],[-70.680462,-33.434552],[-70.680276,-33.435837],[-70.680209,-33.43741]]]}},{"type":"Feature","properties":{"Id":0,"Ruta":"MARTES","PesoTon":75149.0},"geometry":{"type":"Polygon","coordinates":[[[-70.678355,-33.458221],[-70.679081,-33.469491],[-70.679787,-33.470678],[-70.672945,-33.470627],[-70.672898,-33.474758],[-70.672664,-33.475388],[-70.672447,-33.475611],[-70.671773,-33.476007],[-70.671691,-33.476234],[-70.671573,-33.476651],[-70.671593,-33.475834],[-70.664813,-33.47571],[-70.664776,-33.475926],[-70.661849,-33.47615],[-70.658688,-33.476261],[-70.65473,-33.476499],[-70.654336,-33.475392],[-70.654284,-33.474438],[-70.654385,-33.473895],[-70.654605,-33.473327],[-70.654944,-33.472775],[-70.655717,-33.471681],[-70.656086,-33.471188],[-70.656171,-33.470969],[-70.656256,-33.47],[-70.656312,-33.468899],[-70.656816,-33.460557],[-70.656778,-33.459239],[-70.656676,-33.458032],[-70.657065,-33.458065],[-70.659388,-33.458212],[-70.662784,-33.458432],[-70.663825,-33.4585],[-70.66497,-33.458575],[-70.664939,-33.457125],[-70.666485,-33.457393],[-70.668339,-33.457711],[-70.672131,-33.458382],[-70.673596,-33.458497],[-70.674856,-33.45857],[-70.676146,-33.458642],[-70.677905,-33.458208],[-70.678355,-33.458221]]]}},{"type":"Feature","properties":{"Id":0,"Ruta":"MARTES","PesoTon":75149.0},"geometry":{"type":"Polygon","coordinates":[[[-70.660604,-33.446518],[-70.659505,-33.44965],[-70.658428,-33.453301],[-70.656896,-33.453192],[-70.655922,-33.453102],[-70.655093,-33.453011],[-70.654251,-33.452835],[-70.652823,-33.452481],[-70.650385,-33.451882],[-70.648848,-33.451503],[-70.648095,-33.451281],[-70.646854,-33.450889],[-70.647043,-33.448508],[-70.64707,-33.446713],[-70.647083,-33.445487],[-70.647095,-33.444612],[-70.647106,-33.443076],[-70.647968,-33.443265],[-70.64903,-33.443591],[-70.649736,-33.443772],[-70.652338,-33.444454],[-70.65326,-33.444682],[-70.656652,-33.445584],[-70.659266,-33.446218],[-70.660604,-33.446518]]]}},{"type":"Feature","properties":{"Id":0,"Ruta":"JUEVES","PesoTon":51430.0},"geometry":{"type":"Polygon","coordinates":[[[-70.6567,-33.460555],[-70.656149,-33.470093],[-70.656111,-33.470952],[-70.655807,-33.471541],[-70.655088,-33.47258],[-70.654498,-33.473569],[-70.654152,-33.474803],[-70.654667,-33.476346],[-70.65404,-33.476526],[-70.64986,-33.476666],[-70.648297,-33.476723],[-70.648149,-33.476731],[-70.648183,-33.476496],[-70.646412,-33.476448],[-70.644979,-33.476512],[-70.641971,-33.476375],[-70.642268,-33.469124],[-70.642681,-33.463095],[-70.643154,-33.458401],[-70.645322,-33.458771],[-70.646203,-33.458936],[-70.647269,-33.459174],[-70.649126,-33.459582],[-70.650695,-33.45976],[-70.652526,-33.459988],[-70.6567,-33.460555]]]}},{"type":"Feature","properties":{"Id":0,"Ruta":"JUEVES","PesoTon":51430.0},"geometry":{"type":"Polygon","coordinates":[[[-70.647106,-33.443076],[-70.647043,-33.448508],[-70.646854,-33.450889],[-70.642985,-33.450303],[-70.640322,-33.449508],[-70.636691,-33.448582],[-70.632164,-33.447384],[-70.633884,-33.442109],[-70.635313,-33.437326],[-70.636401,-33.437617],[-70.637721,-33.43834],[-70.639821,-33.439791],[-70.641914,-33.441208],[-70.642681,-33.441725],[-70.644205,-33.442373],[-70.645039,-33.44263],[-70.647106,-33.443076]]]}},{"type":"Feature","properties":{"Id":0,"Ruta":"VIERNES","PesoTon":58057.0},"geometry":{"type":"Polygon","coordinates":[[[-70.641971,-33.476375],[-70.640448,-33.476267],[-70.63896,-33.475916],[-70.636484,-33.474969],[-70.634433,-33.474224],[-70.630853,-33.472936],[-70.628557,-33.472141],[-70.626708,-33.471512],[-70.625108,-33.46961],[-70.625519,-33.469373],[-70.626459,-33.467391],[-70.629841,-33.455655],[-70.630411,-33.453859],[-70.632334,-33.447414],[-70.639039,-33.449196],[-70.640322,-33.449508],[-70.641565,-33.449879],[-70.642985,-33.450303],[-70.644422,-33.450499],[-70.646854,-33.450889],[-70.646726,-33.452038],[-70.646502,-33.453712],[-70.646275,-33.454863],[-70.645939,-33.456234],[-70.645661,-33.457356],[-70.645322,-33.458771],[-70.643269,-33.458351],[-70.643154,-33.458401],[-70.641971,-33.476375]]]}}]}