{"type":"FeatureCollection","name":"AMB_POL_PARQUE_SIEDU_INE17","features":[{"type":"Feature","properties":{"OBJECTID":259,"CUT":13101,"REGION":"METROPOLITANA DE SANTIAGO","PROVINCIA":"SANTIAGO","COMUNA":"SANTIAGO","AREA_C":"URBANO","COD_URBANO":131011,"URBANO_CEN":"SANTIAGO","TIPO_EP":"PARQUE","SUP_TOTAL_":609056.629256,"Shape_Leng":0.0432922989293,"Shape_Area":5.90844456104e-05},"geometry":{"type":"Polygon","coordinates":[[[-70.659241,-33.458401],[-70.659247,-33.458326],[-70.660085,-33.458372],[-70.660088,-33.458375],[-70.660092,-33.458381],[-70.660092,-33.458381],[-70.660094,-33.458391],[-70.660094,-33.458391],[-70.660085,-33.458586],[-70.660484,-33.458598],[-70.660492,-33.458451],[-70.660492,-33.458451],[-70.660493,-33.458435],[-70.660493,-33.458435],[-70.660498,-33.45842],[-70.660498,-33.45842],[-70.660505,-33.458408],[-70.660515,-33.4584],[-70.660529,-33.458396],[-70.660544,-33.458396],[-70.660564,-33.458396],[-70.661043,-33.458427],[-70.661057,-33.458428],[-70.661071,-33.458515],[-70.661068,-33.458599],[-70.661063,-33.45871],[-70.661412,-33.459071],[-70.661439,-33.45958],[-70.661605,-33.459853],[-70.661591,-33.459879],[-70.661582,-33.459907],[-70.66158,-33.459936],[-70.661582,-33.459965],[-70.661591,-33.459993],[-70.661605,-33.460019],[-70.661624,-33.460043],[-70.661648,-33.460064],[-70.661675,-33.460082],[-70.661706,-33.460095],[-70.661739,-33.460104],[-70.661861,-33.460333],[-70.662389,-33.46098],[-70.66242,-33.461054],[-70.662446,-33.46113],[-70.662467,-33.461207],[-70.662477,-33.461233],[-70.662472,-33.461239],[-70.66229,-33.46127],[-70.661996,-33.461332],[-70.661249,-33.461556],[-70.66117,-33.462206],[-70.661043,-33.463965],[-70.661501,-33.464001],[-70.662163,-33.464161],[-70.662283,-33.464186],[-70.66232,-33.464196],[-70.662358,-33.464133],[-70.662373,-33.464105],[-70.662439,-33.463978],[-70.662532,-33.463749],[-70.662586,-33.46359],[-70.662617,-33.463513],[-70.662648,-33.4634],[-70.662668,-33.463299],[-70.662687,-33.463179],[-70.66355,-33.463254],[-70.663629,-33.463261],[-70.66366,-33.463261],[-70.663633,-33.463863],[-70.663631,-33.463901],[-70.663621,-33.464133],[-70.663621,-33.464133],[-70.663602,-33.464561],[-70.663522,-33.466369],[-70.663496,-33.466936],[-70.66349,-33.467074],[-70.663355,-33.470116],[-70.663355,-33.470116],[-70.66335,-33.470151],[-70.66335,-33.470151],[-70.663344,-33.470176],[-70.663344,-33.470176],[-70.663339,-33.470196],[-70.663334,-33.47021],[-70.663322,-33.470231],[-70.663307,-33.470251],[-70.663282,-33.470273],[-70.66326,-33.470288],[-70.663242,-33.470297],[-70.663205,-33.470309],[-70.66316,-33.470321],[-70.663104,-33.470325],[-70.663081,-33.470325],[-70.663068,-33.470325],[-70.662803,-33.470309],[-70.660401,-33.470167],[-70.659896,-33.470138],[-70.659786,-33.470131],[-70.659766,-33.470126],[-70.65975,-33.470117],[-70.659737,-33.470104],[-70.65973,-33.470091],[-70.659729,-33.470091],[-70.659729,-33.470091],[-70.659726,-33.47008],[-70.659726,-33.47008],[-70.659725,-33.470069],[-70.659725,-33.470068],[-70.659725,-33.47006],[-70.659725,-33.47006],[-70.659725,-33.470046],[-70.659725,-33.470046],[-70.659725,-33.470027],[-70.659725,-33.470027],[-70.659737,-33.469847],[-70.659737,-33.469847],[-70.659738,-33.469834],[-70.659607,-33.469829],[-70.659607,-33.469829],[-70.659607,-33.469838],[-70.659607,-33.469838],[-70.659591,-33.470061],[-70.659591,-33.470061],[-70.659591,-33.470067],[-70.659591,-33.470067],[-70.65959,-33.470074],[-70.65959,-33.470074],[-70.659588,-33.470084],[-70.659587,-33.470084],[-70.659587,-33.470085],[-70.65958,-33.470094],[-70.659572,-33.470101],[-70.659559,-33.470107],[-70.659543,-33.470111],[-70.659524,-33.470114],[-70.659502,-33.470115],[-70.657575,-33.470002],[-70.657387,-33.46999],[-70.657385,-33.469972],[-70.657377,-33.469872],[-70.657377,-33.469872],[-70.657361,-33.46978],[-70.657361,-33.46978],[-70.657351,-33.469695],[-70.657351,-33.469695],[-70.657345,-33.469614],[-70.657345,-33.469614],[-70.657338,-33.469515],[-70.657338,-33.469515],[-70.657329,-33.469375],[-70.657329,-33.469375],[-70.657327,-33.469243],[-70.657327,-33.469243],[-70.657328,-33.469157],[-70.657328,-33.469157],[-70.657324,-33.469088],[-70.657324,-33.469088],[-70.657295,-33.468769],[-70.657293,-33.468751],[-70.657282,-33.468635],[-70.657282,-33.468635],[-70.657274,-33.468617],[-70.657186,-33.468429],[-70.657178,-33.46842],[-70.657024,-33.468245],[-70.65699,-33.468189],[-70.656876,-33.468007],[-70.656802,-33.467826],[-70.656798,-33.467744],[-70.656798,-33.467744],[-70.656798,-33.467744],[-70.65683,-33.467744],[-70.656851,-33.467745],[-70.656887,-33.467746],[-70.656914,-33.467748],[-70.656934,-33.467749],[-70.657276,-33.467765],[-70.658197,-33.46781],[-70.658239,-33.46646],[-70.657097,-33.466432],[-70.656979,-33.466429],[-70.656929,-33.466428],[-70.65692,-33.466428],[-70.656898,-33.466428],[-70.65689,-33.466428],[-70.656851,-33.46643],[-70.656826,-33.466431],[-70.656814,-33.466367],[-70.656814,-33.466367],[-70.656817,-33.466261],[-70.656817,-33.46626],[-70.65683,-33.466069],[-70.65683,-33.466069],[-70.65683,-33.46601],[-70.65683,-33.46601],[-70.65683,-33.465932],[-70.65683,-33.465932],[-70.656826,-33.465791],[-70.656826,-33.465791],[-70.656842,-33.465596],[-70.656842,-33.465596],[-70.656847,-33.465443],[-70.656847,-33.465443],[-70.656869,-33.465257],[-70.656869,-33.465257],[-70.656879,-33.4652],[-70.6569,-33.465077],[-70.6569,-33.465077],[-70.656932,-33.46469],[-70.656932,-33.46469],[-70.656932,-33.464688],[-70.656932,-33.464688],[-70.656969,-33.464322],[-70.656969,-33.464322],[-70.656989,-33.464222],[-70.656989,-33.464222],[-70.657024,-33.464074],[-70.657024,-33.464074],[-70.657054,-33.463941],[-70.657054,-33.463941],[-70.657085,-33.463814],[-70.657085,-33.463814],[-70.657119,-33.463485],[-70.657119,-33.463485],[-70.657174,-33.46316],[-70.657174,-33.46316],[-70.657213,-33.462731],[-70.657213,-33.462731],[-70.657264,-33.462214],[-70.657264,-33.462214],[-70.657308,-33.461772],[-70.657308,-33.461772],[-70.657319,-33.461536],[-70.657319,-33.461536],[-70.657319,-33.461268],[-70.657319,-33.461268],[-70.657331,-33.460957],[-70.657331,-33.460957],[-70.657449,-33.460862],[-70.657475,-33.460823],[-70.657498,-33.460797],[-70.65756,-33.460772],[-70.657602,-33.460752],[-70.657639,-33.460738],[-70.657681,-33.460727],[-70.657713,-33.460716],[-70.657715,-33.460715],[-70.657743,-33.460707],[-70.657769,-33.460701],[-70.657796,-33.460715],[-70.657811,-33.460724],[-70.657827,-33.460736],[-70.657862,-33.460763],[-70.657885,-33.460786],[-70.657916,-33.460809],[-70.657964,-33.46082],[-70.658012,-33.460831],[-70.658034,-33.460842],[-70.658057,-33.460871],[-70.658088,-33.460888],[-70.658102,-33.460899],[-70.65813,-33.460912],[-70.658164,-33.460936],[-70.658196,-33.460944],[-70.658229,-33.460944],[-70.658283,-33.460936],[-70.658323,-33.460919],[-70.658365,-33.460899],[-70.658413,-33.460868],[-70.658461,-33.460834],[-70.658487,-33.460794],[-70.658512,-33.460744],[-70.658523,-33.460707],[-70.658526,-33.460664],[-70.658521,-33.460611],[-70.658512,-33.460568],[-70.658492,-33.460529],[-70.65847,-33.460498],[-70.658424,-33.460455],[-70.658345,-33.460407],[-70.658297,-33.460385],[-70.658269,-33.460379],[-70.658225,-33.460389],[-70.658209,-33.460387],[-70.658185,-33.460388],[-70.658077,-33.460334],[-70.658037,-33.460311],[-70.657981,-33.460311],[-70.657921,-33.460305],[-70.65789,-33.460308],[-70.657882,-33.460308],[-70.657839,-33.460308],[-70.657811,-33.4603],[-70.657786,-33.460252],[-70.65776,-33.460226],[-70.657757,-33.460184],[-70.657758,-33.459934],[-70.657948,-33.459877],[-70.658015,-33.459857],[-70.658097,-33.459806],[-70.65841,-33.45961],[-70.658928,-33.459286],[-70.659082,-33.459095],[-70.659157,-33.458926],[-70.659209,-33.458775],[-70.659241,-33.458401]]]}},{"type":"Feature","properties":{"OBJECTID":260,"CUT":13101,"REGION":"METROPOLITANA DE SANTIAGO","PROVINCIA":"SANTIAGO","COMUNA":"SANTIAGO","AREA_C":"URBANO","COD_URBANO":131011,"URBANO_CEN":"SANTIAGO","TIPO_EP":"PARQUE","SUP_TOTAL_":12735.5448771,"Shape_Leng":0.0136526931771,"Shape_Area":1.23564257125e-06},"geometry":{"type":"Polygon","coordinates":[[[-70.664884,-33.475917],[-70.664879,-33.475914],[-70.664875,-33.475907],[-70.664876,-33.475793],[-70.664876,-33.475793],[-70.664877,-33.475781],[-70.664877,-33.475781],[-70.664877,-33.475771],[-70.664877,-33.475771],[-70.66488,-33.475764],[-70.66488,-33.475764],[-70.664883,-33.475757],[-70.66489,-33.47575],[-70.664899,-33.475745],[-70.664905,-33.475743],[-70.664919,-33.475741],[-70.66672,-33.475775],[-70.669799,-33.475832],[-70.671509,-33.475867],[-70.671525,-33.475872],[-70.671539,-33.475881],[-70.671548,-33.475894],[-70.671548,-33.475894],[-70.671553,-33.47591],[-70.671553,-33.47591],[-70.67155,-33.47602],[-70.671539,-33.476038],[-70.671535,-33.47604],[-70.671523,-33.476046],[-70.671501,-33.47605],[-70.67146,-33.476051],[-70.670508,-33.476034],[-70.670158,-33.47603],[-70.669614,-33.476017],[-70.669175,-33.476009],[-70.668859,-33.476002],[-70.668268,-33.475992],[-70.668215,-33.475991],[-70.667916,-33.475986],[-70.667674,-33.47598],[-70.666838,-33.47596],[-70.666495,-33.475951],[-70.665784,-33.475938],[-70.665442,-33.475931],[-70.664919,-33.475918],[-70.664895,-33.475919],[-70.664893,-33.475918],[-70.664884,-33.475917]]]}},{"type":"Feature","properties":{"OBJECTID":291,"CUT":13101,"REGION":"METROPOLITANA DE SANTIAGO","PROVINCIA":"SANTIAGO","COMUNA":"SANTIAGO","AREA_C":"URBANO","COD_URBANO":131011,"URBANO_CEN":"SANTIAGO","TIPO_EP":"PARQUE","SUP_TOTAL_":3265.80361711,"Shape_Leng":0.00317985181869,"Shape_Area":3.16705057904e-07},"geometry":{"type":"Polygon","coordinates":[[[-70.648129,-33.433525],[-70.648131,-33.433523],[-70.648141,-33.43352],[-70.648172,-33.433513],[-70.648632,-33.433391],[-70.648653,-33.433389],[-70.64867,-33.433399],[-70.648681,-33.433412],[-70.648688,-33.433428],[-70.648691,-33.433435],[-70.64878,-33.433745],[-70.648782,-33.433764],[-70.64878,-33.433783],[-70.648775,-33.433795],[-70.648767,-33.433798],[-70.648759,-33.433802],[-70.648731,-33.43381],[-70.648458,-33.433871],[-70.647985,-33.433976],[-70.647947,-33.433985],[-70.647924,-33.433981],[-70.647901,-33.433962],[-70.647893,-33.433949],[-70.647884,-33.433926],[-70.647884,-33.433909],[-70.647887,-33.433882],[-70.647945,-33.433781],[-70.647966,-33.433744],[-70.648016,-33.433648],[-70.648037,-33.433606],[-70.648039,-33.433605],[-70.64807,-33.433574],[-70.64807,-33.433574],[-70.64807,-33.433574],[-70.648077,-33.433573],[-70.648086,-33.433571],[-70.648088,-33.433571],[-70.648099,-33.433569],[-70.6481,-33.433569],[-70.648107,-33.433569],[-70.648125,-33.433569],[-70.648139,-33.433573],[-70.648171,-33.433585],[-70.648188,-33.433592],[-70.648199,-33.433596],[-70.648211,-33.433599],[-70.648238,-33.433605],[-70.648265,-33.433607],[-70.648324,-33.433598],[-70.648339,-33.433595],[-70.648484,-33.433565],[-70.648497,-33.433562],[-70.648495,-33.433553],[-70.648489,-33.433536],[-70.648486,-33.433526],[-70.648486,-33.433526],[-70.648287,-33.433571],[-70.648271,-33.433572],[-70.648238,-33.43357],[-70.64822,-33.433566],[-70.648213,-33.433564],[-70.648183,-33.433556],[-70.648145,-33.433541],[-70.648143,-33.433541],[-70.648131,-33.433535],[-70.648126,-33.433532],[-70.648126,-33.433532],[-70.648129,-33.433525]]]}},{"type":"Feature","properties":{"OBJECTID":292,"CUT":13101,"REGION":"METROPOLITANA DE SANTIAGO","PROVINCIA":"SANTIAGO","COMUNA":"SANTIAGO","AREA_C":"URBANO","COD_URBANO":131011,"URBANO_CEN":"SANTIAGO","TIPO_EP":"PARQUE","SUP_TOTAL_":11513.4273024,"Shape_Leng":0.00535763090178,"Shape_Area":1.11654091427e-06},"geometry":{"type":"Polygon","coordinates":[[[-70.645991,-33.434715],[-70.645981,-33.434715],[-70.645973,-33.434714],[-70.645962,-33.434711],[-70.645947,-33.434703],[-70.645909,-33.434681],[-70.645864,-33.434653],[-70.64577,-33.434587],[-70.645721,-33.434552],[-70.645696,-33.434528],[-70.645624,-33.434399],[-70.645528,-33.434183],[-70.645528,-33.434183],[-70.645526,-33.434175],[-70.645526,-33.434172],[-70.645526,-33.434172],[-70.645525,-33.434168],[-70.645525,-33.434168],[-70.64553,-33.434155],[-70.64553,-33.434155],[-70.645534,-33.434149],[-70.645535,-33.434147],[-70.645543,-33.434141],[-70.645544,-33.43414],[-70.645561,-33.434135],[-70.647557,-33.433679],[-70.647589,-33.433672],[-70.647727,-33.433643],[-70.647734,-33.433644],[-70.647757,-33.433647],[-70.647767,-33.433651],[-70.647779,-33.433657],[-70.647787,-33.433661],[-70.647794,-33.433666],[-70.6478,-33.433671],[-70.64781,-33.43368],[-70.647815,-33.433685],[-70.647825,-33.433702],[-70.64783,-33.433714],[-70.64783,-33.433714],[-70.647833,-33.433726],[-70.647833,-33.433726],[-70.647834,-33.43373],[-70.647835,-33.433737],[-70.647835,-33.433737],[-70.647835,-33.433747],[-70.647835,-33.433747],[-70.647835,-33.433758],[-70.647835,-33.433758],[-70.647834,-33.43377],[-70.647834,-33.43377],[-70.647834,-33.433783],[-70.647834,-33.433783],[-70.647834,-33.43379],[-70.647834,-33.43379],[-70.647834,-33.43379],[-70.647833,-33.43379],[-70.64783,-33.433803],[-70.647826,-33.433813],[-70.647821,-33.433822],[-70.647816,-33.433831],[-70.647695,-33.434018],[-70.647679,-33.434036],[-70.647666,-33.43405],[-70.647653,-33.434057],[-70.647644,-33.434064],[-70.647623,-33.434078],[-70.647615,-33.434082],[-70.647597,-33.434088],[-70.647583,-33.434091],[-70.647551,-33.4341],[-70.647261,-33.434171],[-70.64717,-33.434194],[-70.647119,-33.434207],[-70.647111,-33.43421],[-70.647092,-33.434216],[-70.647059,-33.43423],[-70.647038,-33.43424],[-70.647015,-33.434251],[-70.646904,-33.434304],[-70.646889,-33.434312],[-70.646589,-33.434455],[-70.64623,-33.434625],[-70.646055,-33.434703],[-70.646042,-33.434708],[-70.646024,-33.434713],[-70.646011,-33.434715],[-70.646004,-33.434715],[-70.645997,-33.434715],[-70.645991,-33.434715]]]}},{"type":"Feature","properties":{"OBJECTID":293,"CUT":13101,"REGION":"METROPOLITANA DE SANTIAGO","PROVINCIA":"SANTIAGO","COMUNA":"SANTIAGO","AREA_C":"URBANO","COD_URBANO":131011,"URBANO_CEN":"SANTIAGO","TIPO_EP":"PARQUE","SUP_TOTAL_":26813.2743896,"Shape_Leng":0.0072029604607,"Shape_Area":2.60029776351e-06},"geometry":{"type":"Polygon","coordinates":[[[-70.643391,-33.43592],[-70.643372,-33.435913],[-70.643364,-33.435908],[-70.643361,-33.435905],[-70.643358,-33.435901],[-70.643337,-33.43586],[-70.643314,-33.435815],[-70.643258,-33.435709],[-70.643258,-33.435709],[-70.643213,-33.435589],[-70.643213,-33.435589],[-70.643158,-33.435437],[-70.643158,-33.435437],[-70.643119,-33.435311],[-70.643108,-33.435276],[-70.643108,-33.435276],[-70.642966,-33.434812],[-70.642955,-33.434777],[-70.642955,-33.434777],[-70.642953,-33.43476],[-70.642953,-33.43476],[-70.642953,-33.434752],[-70.642953,-33.434752],[-70.642956,-33.434745],[-70.642957,-33.434743],[-70.642966,-33.434735],[-70.642975,-33.434733],[-70.642981,-33.434731],[-70.645069,-33.434248],[-70.645375,-33.434177],[-70.645385,-33.434178],[-70.645387,-33.434179],[-70.645399,-33.434182],[-70.645417,-33.434194],[-70.64542,-33.434198],[-70.645423,-33.434203],[-70.645428,-33.434213],[-70.64546,-33.434293],[-70.645573,-33.434576],[-70.645586,-33.434592],[-70.645586,-33.434593],[-70.645591,-33.434599],[-70.645625,-33.43464],[-70.645703,-33.434695],[-70.645763,-33.434731],[-70.645776,-33.43474],[-70.645795,-33.434758],[-70.645798,-33.434761],[-70.645799,-33.434762],[-70.645799,-33.434762],[-70.645801,-33.434776],[-70.645801,-33.434776],[-70.645796,-33.434793],[-70.645776,-33.434815],[-70.645726,-33.434853],[-70.64513,-33.435126],[-70.643954,-33.435665],[-70.643597,-33.435829],[-70.643411,-33.435914],[-70.643397,-33.43592],[-70.643391,-33.43592]]]}},{"type":"Feature","properties":{"OBJECTID":294,"CUT":13101,"REGION":"METROPOLITANA DE SANTIAGO","PROVINCIA":"SANTIAGO","COMUNA":"SANTIAGO","AREA_C":"URBANO","COD_URBANO":131011,"URBANO_CEN":"SANTIAGO","TIPO_EP":"PARQUE","SUP_TOTAL_":49494.4231496,"Shape_Leng":0.0100512469343,"Shape_Area":4.79993518521e-06},"geometry":{"type":"Polygon","coordinates":[[[-70.639475,-33.436806],[-70.639455,-33.436804],[-70.639434,-33.436799],[-70.639417,-33.436791],[-70.639407,-33.436782],[-70.639402,-33.436775],[-70.639393,-33.436764],[-70.639381,-33.436742],[-70.63937,-33.436697],[-70.63937,-33.436697],[-70.639347,-33.436632],[-70.639347,-33.436631],[-70.639334,-33.436587],[-70.639101,-33.435746],[-70.639101,-33.435746],[-70.639096,-33.435718],[-70.639096,-33.435718],[-70.639096,-33.435703],[-70.639096,-33.435703],[-70.639104,-33.435682],[-70.639111,-33.435671],[-70.639117,-33.435663],[-70.639123,-33.435655],[-70.639123,-33.435655],[-70.639134,-33.435649],[-70.639139,-33.435647],[-70.639156,-33.43564],[-70.639169,-33.435638],[-70.639587,-33.435539],[-70.642618,-33.434822],[-70.642652,-33.434812],[-70.642672,-33.434811],[-70.642695,-33.434812],[-70.642705,-33.434815],[-70.64271,-33.434817],[-70.642717,-33.434822],[-70.642723,-33.434827],[-70.642724,-33.434829],[-70.642728,-33.434838],[-70.642757,-33.434912],[-70.642837,-33.43514],[-70.642837,-33.43514],[-70.642872,-33.435253],[-70.642872,-33.435253],[-70.642924,-33.435413],[-70.642924,-33.435413],[-70.642962,-33.435533],[-70.642962,-33.435533],[-70.642995,-33.435629],[-70.642995,-33.435629],[-70.643013,-33.435681],[-70.643013,-33.435681],[-70.643027,-33.43573],[-70.643027,-33.43573],[-70.643085,-33.435916],[-70.643085,-33.435916],[-70.643092,-33.435948],[-70.643092,-33.435948],[-70.643092,-33.435964],[-70.643092,-33.435964],[-70.643092,-33.435973],[-70.643092,-33.435973],[-70.643091,-33.435981],[-70.643087,-33.435989],[-70.643084,-33.435994],[-70.64308,-33.435998],[-70.643073,-33.436004],[-70.643055,-33.436013],[-70.642906,-33.436048],[-70.642641,-33.436108],[-70.64074,-33.436546],[-70.640617,-33.436571],[-70.640589,-33.43658],[-70.640568,-33.436591],[-70.640548,-33.436608],[-70.640532,-33.43663],[-70.64052,-33.436659],[-70.64052,-33.436659],[-70.640517,-33.436679],[-70.640517,-33.436679],[-70.640518,-33.436701],[-70.640518,-33.436701],[-70.640526,-33.436774],[-70.640526,-33.436774],[-70.640525,-33.436789],[-70.640521,-33.436798],[-70.640517,-33.436801],[-70.640516,-33.436802],[-70.640503,-33.436806],[-70.640292,-33.436806],[-70.639525,-33.436811],[-70.639475,-33.436806]]]}},{"type":"Feature","properties":{"OBJECTID":295,"CUT":13101,"REGION":"METROPOLITANA DE SANTIAGO","PROVINCIA":"SANTIAGO","COMUNA":"SANTIAGO","AREA_C":"URBANO","COD_URBANO":131011,"URBANO_CEN":"SANTIAGO","TIPO_EP":"PARQUE","SUP_TOTAL_":27301.4741454,"Shape_Leng":0.00867722193491,"Shape_Area":2.64770077284e-06},"geometry":{"type":"Polygon","coordinates":[[[-70.635668,-33.436811],[-70.635617,-33.436806],[-70.635546,-33.436799],[-70.635459,-33.436791],[-70.635452,-33.436791],[-70.635438,-33.436784],[-70.635432,-33.436769],[-70.635432,-33.436769],[-70.635432,-33.436762],[-70.635432,-33.436762],[-70.635432,-33.436755],[-70.635432,-33.436755],[-70.635438,-33.436741],[-70.635438,-33.436741],[-70.635444,-33.436723],[-70.635444,-33.436723],[-70.635456,-33.436681],[-70.635456,-33.436681],[-70.635476,-33.436596],[-70.635476,-33.436595],[-70.635494,-33.436512],[-70.635494,-33.436512],[-70.635504,-33.436496],[-70.635507,-33.436492],[-70.635513,-33.436487],[-70.635529,-33.436479],[-70.635537,-33.436476],[-70.635585,-33.436467],[-70.635624,-33.436458],[-70.636645,-33.436226],[-70.638791,-33.435717],[-70.638835,-33.435706],[-70.638859,-33.435706],[-70.638874,-33.435706],[-70.638875,-33.435706],[-70.638875,-33.435706],[-70.638889,-33.435713],[-70.638899,-33.435717],[-70.638917,-33.435735],[-70.638933,-33.435773],[-70.638933,-33.435773],[-70.638982,-33.435962],[-70.639169,-33.436678],[-70.639193,-33.436768],[-70.639193,-33.436768],[-70.639193,-33.436784],[-70.639193,-33.436784],[-70.639191,-33.436795],[-70.639184,-33.436805],[-70.639178,-33.436809],[-70.639088,-33.43681],[-70.638793,-33.436811],[-70.637842,-33.436817],[-70.63764,-33.436813],[-70.636767,-33.436819],[-70.636614,-33.43682],[-70.636526,-33.436822],[-70.636436,-33.436824],[-70.63592,-33.436826],[-70.635836,-33.436822],[-70.635787,-33.43682],[-70.63571,-33.436815],[-70.635668,-33.436811]]]}},{"type":"Feature","properties":{"OBJECTID":296,"CUT":13101,"REGION":"METROPOLITANA DE SANTIAGO","PROVINCIA":"SANTIAGO","COMUNA":"SANTIAGO","AREA_C":"URBANO","COD_URBANO":131011,"URBANO_CEN":"SANTIAGO","TIPO_EP":"PARQUE","SUP_TOTAL_":69798.1105803,"Shape_Leng":0.0128240467205,"Shape_Area":6.7692784081e-06},"geometry":{"type":"Polygon","coordinates":[[[-70.64239,-33.440433],[-70.64239,-33.440433],[-70.64239,-33.440314],[-70.64239,-33.440314],[-70.642384,-33.440042],[-70.642384,-33.440042],[-70.642382,-33.439614],[-70.642382,-33.439614],[-70.642382,-33.439571],[-70.642382,-33.439571],[-70.642384,-33.439533],[-70.642384,-33.439533],[-70.642392,-33.439487],[-70.642392,-33.439487],[-70.642399,-33.439448],[-70.642399,-33.439448],[-70.642552,-33.438874],[-70.642552,-33.438874],[-70.642635,-33.438584],[-70.642635,-33.438584],[-70.642653,-33.438532],[-70.642653,-33.438532],[-70.642667,-33.438492],[-70.642681,-33.43846],[-70.642703,-33.43842],[-70.642718,-33.438398],[-70.642728,-33.438385],[-70.64277,-33.438336],[-70.642837,-33.438266],[-70.643162,-33.437981],[-70.643198,-33.43796],[-70.643215,-33.437952],[-70.643235,-33.437948],[-70.643259,-33.437948],[-70.643284,-33.43795],[-70.643306,-33.437957],[-70.643319,-33.437961],[-70.643339,-33.43798],[-70.643366,-33.43803],[-70.643645,-33.438562],[-70.643655,-33.438581],[-70.644217,-33.43964],[-70.644638,-33.44047],[-70.644638,-33.44047],[-70.644696,-33.440628],[-70.644696,-33.440628],[-70.644711,-33.440692],[-70.644711,-33.440692],[-70.644728,-33.440772],[-70.644728,-33.440772],[-70.644727,-33.44079],[-70.644727,-33.44079],[-70.644727,-33.440821],[-70.644727,-33.440821],[-70.644716,-33.440962],[-70.644716,-33.440962],[-70.6447,-33.441018],[-70.6447,-33.441018],[-70.644668,-33.441164],[-70.644655,-33.441189],[-70.644637,-33.441231],[-70.644623,-33.441258],[-70.644598,-33.441316],[-70.644586,-33.441336],[-70.644563,-33.441375],[-70.644559,-33.441382],[-70.644538,-33.441416],[-70.644139,-33.442058],[-70.644113,-33.442114],[-70.644073,-33.442102],[-70.643706,-33.441965],[-70.643646,-33.441943],[-70.643384,-33.441832],[-70.64317,-33.441745],[-70.643095,-33.441713],[-70.642952,-33.441639],[-70.64273,-33.441513],[-70.642173,-33.441133],[-70.641837,-33.4409],[-70.64182,-33.440889],[-70.64182,-33.440884],[-70.64182,-33.440884],[-70.641821,-33.440882],[-70.641821,-33.440882],[-70.641821,-33.44088],[-70.641848,-33.440869],[-70.641864,-33.440862],[-70.641877,-33.440858],[-70.641894,-33.44085],[-70.641951,-33.440803],[-70.641962,-33.440794],[-70.642053,-33.440711],[-70.642199,-33.440574],[-70.642239,-33.440538],[-70.642265,-33.440511],[-70.642283,-33.440477],[-70.642296,-33.440433],[-70.642296,-33.440433],[-70.642304,-33.440385],[-70.642304,-33.440385],[-70.642304,-33.44036],[-70.642304,-33.44036],[-70.642301,-33.439722],[-70.642301,-33.439722],[-70.642302,-33.439571],[-70.642302,-33.439571],[-70.642302,-33.439564],[-70.642302,-33.439564],[-70.642305,-33.43956],[-70.64231,-33.43956],[-70.642315,-33.439563],[-70.642328,-33.439643],[-70.642328,-33.439643],[-70.64234,-33.440346],[-70.64234,-33.440346],[-70.64234,-33.440383],[-70.64234,-33.440383],[-70.642339,-33.440409],[-70.642339,-33.440409],[-70.642331,-33.440487],[-70.642331,-33.440487],[-70.642327,-33.440533],[-70.642379,-33.440542],[-70.64239,-33.440433]]]}},{"type":"Feature","properties":{"OBJECTID":297,"CUT":13101,"REGION":"METROPOLITANA DE SANTIAGO","PROVINCIA":"SANTIAGO","COMUNA":"SANTIAGO","AREA_C":"URBANO","COD_URBANO":131011,"URBANO_CEN":"SANTIAGO","TIPO_EP":"PARQUE","SUP_TOTAL_":408225.952352,"Shape_Leng":0.030668639533,"Shape_Area":3.95906449536e-05},"geometry":{"type":"Polygon","coordinates":[[[-70.680395,-33.44053],[-70.680396,-33.440466],[-70.680396,-33.440466],[-70.680085,-33.440445],[-70.680072,-33.440443],[-70.680062,-33.44044],[-70.680046,-33.440434],[-70.680034,-33.440428],[-70.680025,-33.440421],[-70.68002,-33.440415],[-70.680014,-33.440408],[-70.68001,-33.440399],[-70.680007,-33.440394],[-70.680003,-33.440384],[-70.680003,-33.440384],[-70.680002,-33.440379],[-70.680002,-33.440379],[-70.680002,-33.440366],[-70.680002,-33.440366],[-70.680001,-33.440326],[-70.680001,-33.440308],[-70.680001,-33.440308],[-70.680157,-33.438517],[-70.680157,-33.438517],[-70.680163,-33.438505],[-70.680177,-33.43849],[-70.680187,-33.438486],[-70.680198,-33.438482],[-70.680211,-33.438481],[-70.680589,-33.438504],[-70.682019,-33.438598],[-70.682941,-33.438658],[-70.684101,-33.438739],[-70.684969,-33.438798],[-70.685439,-33.438829],[-70.686252,-33.438883],[-70.687265,-33.438951],[-70.687303,-33.439465],[-70.687647,-33.444067],[-70.687658,-33.444218],[-70.687657,-33.444218],[-70.687621,-33.444216],[-70.687412,-33.444206],[-70.68445,-33.444061],[-70.684426,-33.444059],[-70.68441,-33.444056],[-70.684389,-33.444049],[-70.684372,-33.444041],[-70.684355,-33.444032],[-70.684337,-33.444019],[-70.684331,-33.444013],[-70.68432,-33.444004],[-70.684308,-33.44399],[-70.684302,-33.443983],[-70.684298,-33.443976],[-70.684293,-33.443966],[-70.684289,-33.443951],[-70.684289,-33.443951],[-70.684288,-33.443935],[-70.684288,-33.443935],[-70.684288,-33.44392],[-70.684288,-33.443916],[-70.684288,-33.443916],[-70.684425,-33.441847],[-70.684422,-33.441847],[-70.684364,-33.441844],[-70.684264,-33.441838],[-70.684259,-33.441838],[-70.684141,-33.443819],[-70.684141,-33.44382],[-70.684137,-33.443842],[-70.684137,-33.443842],[-70.684123,-33.443903],[-70.684118,-33.443927],[-70.684118,-33.443927],[-70.684115,-33.443937],[-70.684115,-33.443937],[-70.68411,-33.443955],[-70.68411,-33.443955],[-70.684106,-33.443966],[-70.684099,-33.443978],[-70.684094,-33.443986],[-70.684087,-33.443994],[-70.68408,-33.444002],[-70.684072,-33.444009],[-70.684062,-33.444016],[-70.684056,-33.444021],[-70.684046,-33.444027],[-70.684035,-33.444033],[-70.684025,-33.444037],[-70.684011,-33.444039],[-70.683982,-33.44404],[-70.683801,-33.444032],[-70.683109,-33.443998],[-70.682429,-33.443964],[-70.681019,-33.443897],[-70.680883,-33.44389],[-70.680797,-33.443886],[-70.680603,-33.443876],[-70.680502,-33.44387],[-70.680429,-33.443865],[-70.680342,-33.443855],[-70.680227,-33.443841],[-70.679869,-33.443797],[-70.679821,-33.443785],[-70.679802,-33.443778],[-70.679784,-33.443771],[-70.679771,-33.443765],[-70.679759,-33.443756],[-70.679749,-33.44375],[-70.679741,-33.443742],[-70.679734,-33.443735],[-70.67972,-33.443715],[-70.679712,-33.443694],[-70.679712,-33.443694],[-70.679711,-33.443679],[-70.679711,-33.443679],[-70.679711,-33.443657],[-70.679711,-33.443657],[-70.679738,-33.443331],[-70.679738,-33.443331],[-70.679807,-33.442514],[-70.679807,-33.442514],[-70.679814,-33.442442],[-70.679814,-33.442442],[-70.679819,-33.442409],[-70.679837,-33.442279],[-70.679837,-33.442279],[-70.679843,-33.442236],[-70.679863,-33.442104],[-70.679863,-33.442104],[-70.679874,-33.442009],[-70.679874,-33.442009],[-70.679879,-33.441936],[-70.679879,-33.441936],[-70.679881,-33.441928],[-70.679881,-33.441928],[-70.679881,-33.441878],[-70.679881,-33.441878],[-70.67988,-33.441807],[-70.67988,-33.441796],[-70.67988,-33.441796],[-70.679877,-33.441719],[-70.679877,-33.441719],[-70.679968,-33.440651],[-70.679968,-33.440651],[-70.679974,-33.440624],[-70.679974,-33.440624],[-70.679979,-33.440609],[-70.679984,-33.440599],[-70.679987,-33.440595],[-70.679991,-33.440589],[-70.679997,-33.440582],[-70.680009,-33.440572],[-70.680018,-33.440567],[-70.680026,-33.440564],[-70.680039,-33.440561],[-70.680053,-33.440561],[-70.680394,-33.440581],[-70.680395,-33.44053]]]}},{"type":"Feature","properties":{"OBJECTID":298,"CUT":13101,"REGION":"METROPOLITANA DE SANTIAGO","PROVINCIA":"SANTIAGO","COMUNA":"SANTIAGO","AREA_C":"URBANO","COD_URBANO":131011,"URBANO_CEN":"SANTIAGO","TIPO_EP":"PARQUE","SUP_TOTAL_":25752.8776676,"Shape_Leng":0.00637201655112,"Shape_Area":2.49762606186e-06},"geometry":{"type":"Polygon","coordinates":[[[-70.636545,-33.441007],[-70.636626,-33.44087],[-70.637194,-33.439895],[-70.637507,-33.439359],[-70.637526,-33.439386],[-70.637537,-33.439403],[-70.637552,-33.439423],[-70.637566,-33.439442],[-70.637584,-33.439461],[-70.637627,-33.4395],[-70.637647,-33.439514],[-70.637804,-33.439617],[-70.637904,-33.439688],[-70.637988,-33.439749],[-70.638291,-33.439984],[-70.638332,-33.440019],[-70.638344,-33.440031],[-70.638359,-33.440051],[-70.638393,-33.440125],[-70.638401,-33.440144],[-70.638401,-33.440144],[-70.638408,-33.440169],[-70.638408,-33.440169],[-70.638416,-33.44021],[-70.638416,-33.44021],[-70.63842,-33.44023],[-70.63842,-33.44023],[-70.63842,-33.44026],[-70.63842,-33.44026],[-70.63842,-33.440278],[-70.63842,-33.440278],[-70.63842,-33.440309],[-70.63842,-33.440309],[-70.638418,-33.440342],[-70.638418,-33.440342],[-70.638415,-33.440369],[-70.638415,-33.440369],[-70.638412,-33.440391],[-70.638412,-33.440391],[-70.638398,-33.440452],[-70.638362,-33.440603],[-70.638333,-33.440727],[-70.638333,-33.440727],[-70.63831,-33.440822],[-70.638143,-33.441516],[-70.638052,-33.44169],[-70.636545,-33.441007]]]}},{"type":"Feature","properties":{"OBJECTID":303,"CUT":13101,"REGION":"METROPOLITANA DE SANTIAGO","PROVINCIA":"SANTIAGO","COMUNA":"SANTIAGO","AREA_C":"URBANO","COD_URBANO":131011,"URBANO_CEN":"SANTIAGO","TIPO_EP":"PARQUE","SUP_TOTAL_":1181.30754245,"Shape_Leng":0.00187155460773,"Shape_Area":1.14575327237e-07},"geometry":{"type":"Polygon","coordinates":[[[-70.666797,-33.447712],[-70.666697,-33.447695],[-70.66653,-33.447666],[-70.666495,-33.447661],[-70.666468,-33.447656],[-70.666469,-33.447655],[-70.666479,-33.447647],[-70.666484,-33.447643],[-70.666495,-33.447636],[-70.666515,-33.447616],[-70.666533,-33.447588],[-70.666543,-33.447565],[-70.666548,-33.44753],[-70.666548,-33.447502],[-70.666545,-33.447475],[-70.666543,-33.44746],[-70.666601,-33.447478],[-70.667151,-33.447647],[-70.667156,-33.447648],[-70.667184,-33.447657],[-70.667273,-33.447684],[-70.667272,-33.447685],[-70.66727,-33.447687],[-70.667259,-33.447695],[-70.667245,-33.44771],[-70.667234,-33.447725],[-70.667232,-33.447727],[-70.667225,-33.447739],[-70.667225,-33.447739],[-70.667219,-33.447755],[-70.667218,-33.447769],[-70.667219,-33.447784],[-70.666797,-33.447712]]]}},{"type":"Feature","properties":{"OBJECTID":304,"CUT":13101,"REGION":"METROPOLITANA DE SANTIAGO","PROVINCIA":"SANTIAGO","COMUNA":"SANTIAGO","AREA_C":"URBANO","COD_URBANO":131011,"URBANO_CEN":"SANTIAGO","TIPO_EP":"PARQUE","SUP_TOTAL_":5010.02287447,"Shape_Leng":0.00393965415176,"Shape_Area":4.8592187075e-07},"geometry":{"type":"Polygon","coordinates":[[[-70.666325,-33.44763],[-70.666316,-33.44763],[-70.666305,-33.447628],[-70.66584,-33.447543],[-70.665798,-33.447535],[-70.665765,-33.447529],[-70.665553,-33.44749],[-70.664956,-33.44738],[-70.664881,-33.447366],[-70.664854,-33.447359],[-70.664832,-33.44735],[-70.664824,-33.447344],[-70.664817,-33.447339],[-70.664811,-33.447329],[-70.664806,-33.44732],[-70.664804,-33.447313],[-70.664803,-33.447312],[-70.6648,-33.447298],[-70.664735,-33.447016],[-70.664736,-33.447006],[-70.664739,-33.447],[-70.664744,-33.446997],[-70.66475,-33.446995],[-70.664758,-33.446995],[-70.66499,-33.447053],[-70.665546,-33.447192],[-70.665591,-33.447204],[-70.665647,-33.447218],[-70.66616,-33.447346],[-70.666215,-33.44736],[-70.666315,-33.447385],[-70.666333,-33.447391],[-70.666378,-33.447406],[-70.666418,-33.447424],[-70.666419,-33.447424],[-70.666443,-33.447442],[-70.666455,-33.44746],[-70.666459,-33.447467],[-70.666466,-33.447498],[-70.666466,-33.447521],[-70.666464,-33.447543],[-70.666453,-33.447567],[-70.666438,-33.447589],[-70.666414,-33.44761],[-70.666392,-33.447622],[-70.66636,-33.447629],[-70.666336,-33.44763],[-70.666325,-33.44763]]]}},{"type":"Feature","properties":{"OBJECTID":305,"CUT":13101,"REGION":"METROPOLITANA DE SANTIAGO","PROVINCIA":"SANTIAGO","COMUNA":"SANTIAGO","AREA_C":"URBANO","COD_URBANO":131011,"URBANO_CEN":"SANTIAGO","TIPO_EP":"PARQUE","SUP_TOTAL_":7573.04470464,"Shape_Leng":0.00463893709756,"Shape_Area":7.3450671246e-07},"geometry":{"type":"Polygon","coordinates":[[[-70.664594,-33.447307],[-70.664589,-33.447307],[-70.664577,-33.447305],[-70.664267,-33.447244],[-70.663967,-33.447184],[-70.663868,-33.447165],[-70.663821,-33.447156],[-70.663398,-33.447056],[-70.663034,-33.44697],[-70.66272,-33.446896],[-70.662704,-33.446892],[-70.662675,-33.446883],[-70.662653,-33.446867],[-70.662645,-33.446862],[-70.662643,-33.446861],[-70.662635,-33.446849],[-70.662634,-33.446846],[-70.662628,-33.446838],[-70.662621,-33.446822],[-70.662621,-33.446804],[-70.662623,-33.446788],[-70.662625,-33.446774],[-70.662686,-33.446555],[-70.662696,-33.446538],[-70.662707,-33.446527],[-70.662716,-33.446521],[-70.66273,-33.446519],[-70.662733,-33.446519],[-70.66274,-33.446519],[-70.662805,-33.446534],[-70.663189,-33.446622],[-70.663553,-33.446706],[-70.663595,-33.446716],[-70.663998,-33.446809],[-70.664352,-33.44689],[-70.664473,-33.446918],[-70.664499,-33.446925],[-70.664518,-33.446929],[-70.664535,-33.44694],[-70.664541,-33.446949],[-70.664542,-33.446954],[-70.664543,-33.446959],[-70.664624,-33.447284],[-70.664622,-33.447295],[-70.664617,-33.4473],[-70.664607,-33.447305],[-70.664598,-33.447307],[-70.664594,-33.447307]]]}},{"type":"Feature","properties":{"OBJECTID":306,"CUT":13101,"REGION":"METROPOLITANA DE SANTIAGO","PROVINCIA":"SANTIAGO","COMUNA":"SANTIAGO","AREA_C":"URBANO","COD_URBANO":131011,"URBANO_CEN":"SANTIAGO","TIPO_EP":"PARQUE","SUP_TOTAL_":3109.85722975,"Shape_Leng":0.00223490859532,"Shape_Area":3.01623099039e-07},"geometry":{"type":"Polygon","coordinates":[[[-70.662412,-33.446851],[-70.662341,-33.446835],[-70.662318,-33.44683],[-70.662112,-33.446785],[-70.661775,-33.44671],[-70.661742,-33.446699],[-70.661735,-33.446694],[-70.661724,-33.446685],[-70.661723,-33.446683],[-70.661717,-33.446668],[-70.661716,-33.446652],[-70.661716,-33.44664],[-70.661734,-33.446563],[-70.661779,-33.446374],[-70.661791,-33.446342],[-70.661811,-33.446322],[-70.661826,-33.446315],[-70.661845,-33.446313],[-70.66186,-33.446315],[-70.661919,-33.446329],[-70.66243,-33.44645],[-70.662457,-33.446456],[-70.66249,-33.446466],[-70.662509,-33.446475],[-70.662516,-33.446478],[-70.66252,-33.446484],[-70.662527,-33.446491],[-70.662531,-33.446503],[-70.662531,-33.446513],[-70.662451,-33.446828],[-70.662444,-33.446841],[-70.662437,-33.446848],[-70.662427,-33.446852],[-70.662412,-33.446851]]]}},{"type":"Feature","properties":{"OBJECTID":307,"CUT":13101,"REGION":"METROPOLITANA DE SANTIAGO","PROVINCIA":"SANTIAGO","COMUNA":"SANTIAGO","AREA_C":"URBANO","COD_URBANO":131011,"URBANO_CEN":"SANTIAGO","TIPO_EP":"PARQUE","SUP_TOTAL_":2819.96189211,"Shape_Leng":0.00247056713712,"Shape_Area":2.73505742333e-07},"geometry":{"type":"Polygon","coordinates":[[[-70.660761,-33.446346],[-70.660796,-33.446094],[-70.660807,-33.446077],[-70.660825,-33.446077],[-70.660918,-33.446099],[-70.661368,-33.446207],[-70.661408,-33.446216],[-70.661493,-33.446236],[-70.661572,-33.446256],[-70.661591,-33.446276],[-70.661599,-33.446285],[-70.661602,-33.446305],[-70.66161,-33.446342],[-70.661552,-33.44657],[-70.661501,-33.44662],[-70.66147,-33.446649],[-70.661451,-33.446645],[-70.661369,-33.446523],[-70.661341,-33.446516],[-70.661171,-33.446476],[-70.660907,-33.446414],[-70.660881,-33.446407],[-70.660823,-33.44645],[-70.660809,-33.44646],[-70.660776,-33.446485],[-70.660774,-33.446486],[-70.660748,-33.446481],[-70.660761,-33.446346]]]}},{"type":"Feature","properties":{"OBJECTID":308,"CUT":13101,"REGION":"METROPOLITANA DE SANTIAGO","PROVINCIA":"SANTIAGO","COMUNA":"SANTIAGO","AREA_C":"URBANO","COD_URBANO":131011,"URBANO_CEN":"SANTIAGO","TIPO_EP":"PARQUE","SUP_TOTAL_":6480.97748752,"Shape_Leng":0.00376829563953,"Shape_Area":6.28583273777e-07},"geometry":{"type":"Polygon","coordinates":[[[-70.65995,-33.446289],[-70.659209,-33.446118],[-70.659177,-33.446111],[-70.658663,-33.445993],[-70.658598,-33.445978],[-70.658581,-33.44597],[-70.658576,-33.445965],[-70.658567,-33.445955],[-70.658559,-33.445939],[-70.658559,-33.445924],[-70.658559,-33.445918],[-70.658564,-33.445901],[-70.658589,-33.445824],[-70.658639,-33.445667],[-70.658648,-33.445651],[-70.658662,-33.445633],[-70.658687,-33.445612],[-70.658711,-33.445601],[-70.658735,-33.445593],[-70.658739,-33.445592],[-70.65877,-33.445591],[-70.658798,-33.445592],[-70.658841,-33.445601],[-70.66002,-33.445872],[-70.660115,-33.445893],[-70.660112,-33.445907],[-70.660025,-33.446306],[-70.65995,-33.446289]]]}},{"type":"Feature","properties":{"OBJECTID":309,"CUT":13101,"REGION":"METROPOLITANA DE SANTIAGO","PROVINCIA":"SANTIAGO","COMUNA":"SANTIAGO","AREA_C":"URBANO","COD_URBANO":131011,"URBANO_CEN":"SANTIAGO","TIPO_EP":"PARQUE","SUP_TOTAL_":4630.81143802,"Shape_Leng":0.00289876605802,"Shape_Area":4.49135962125e-07},"geometry":{"type":"Polygon","coordinates":[[[-70.658336,-33.445922],[-70.658335,-33.445921],[-70.658247,-33.445902],[-70.658154,-33.44588],[-70.658089,-33.445864],[-70.657541,-33.445731],[-70.657458,-33.445711],[-70.657432,-33.445704],[-70.65742,-33.445699],[-70.657416,-33.445696],[-70.65741,-33.445692],[-70.657399,-33.445682],[-70.657388,-33.445669],[-70.657382,-33.445656],[-70.657382,-33.445648],[-70.657386,-33.445618],[-70.657425,-33.445349],[-70.65743,-33.445332],[-70.657435,-33.445321],[-70.657439,-33.445317],[-70.657445,-33.445311],[-70.657469,-33.445298],[-70.657478,-33.445296],[-70.657488,-33.445295],[-70.657506,-33.445295],[-70.657557,-33.445307],[-70.657731,-33.445348],[-70.65847,-33.445523],[-70.658487,-33.445531],[-70.65849,-33.445533],[-70.658497,-33.445537],[-70.658498,-33.445538],[-70.658505,-33.445546],[-70.658507,-33.445549],[-70.658509,-33.445553],[-70.658511,-33.445565],[-70.658511,-33.445566],[-70.65851,-33.445579],[-70.658407,-33.445891],[-70.6584,-33.445903],[-70.65839,-33.445911],[-70.658378,-33.445918],[-70.658366,-33.445922],[-70.658365,-33.445922],[-70.658353,-33.445923],[-70.658336,-33.445922]]]}},{"type":"Feature","properties":{"OBJECTID":310,"CUT":13101,"REGION":"METROPOLITANA DE SANTIAGO","PROVINCIA":"SANTIAGO","COMUNA":"SANTIAGO","AREA_C":"URBANO","COD_URBANO":131011,"URBANO_CEN":"SANTIAGO","TIPO_EP":"PARQUE","SUP_TOTAL_":6100.77456251,"Shape_Leng":0.00427345089874,"Shape_Area":5.91702690852e-07},"geometry":{"type":"Polygon","coordinates":[[[-70.65566,-33.445251],[-70.65563,-33.445243],[-70.655605,-33.445231],[-70.655584,-33.445213],[-70.655582,-33.445211],[-70.655572,-33.445198],[-70.655563,-33.445175],[-70.65556,-33.445158],[-70.655622,-33.444953],[-70.65563,-33.444936],[-70.655647,-33.444917],[-70.655669,-33.4449],[-70.655687,-33.44489],[-70.655703,-33.444886],[-70.65571,-33.444884],[-70.655736,-33.444885],[-70.656575,-33.445078],[-70.656578,-33.445083],[-70.656597,-33.445117],[-70.656668,-33.445241],[-70.656687,-33.44526],[-70.657079,-33.445352],[-70.657112,-33.445208],[-70.657113,-33.445202],[-70.657206,-33.445223],[-70.657241,-33.445237],[-70.657241,-33.445237],[-70.657255,-33.445247],[-70.657261,-33.445252],[-70.657271,-33.445262],[-70.657276,-33.445272],[-70.657278,-33.445291],[-70.657249,-33.445533],[-70.657246,-33.445559],[-70.657236,-33.445581],[-70.657214,-33.445606],[-70.657193,-33.44562],[-70.657177,-33.445626],[-70.657169,-33.44563],[-70.657144,-33.44563],[-70.657016,-33.4456],[-70.656978,-33.445591],[-70.656889,-33.445568],[-70.65566,-33.445251]]]}},{"type":"Feature","properties":{"OBJECTID":311,"CUT":13101,"REGION":"METROPOLITANA DE SANTIAGO","PROVINCIA":"SANTIAGO","COMUNA":"SANTIAGO","AREA_C":"URBANO","COD_URBANO":131011,"URBANO_CEN":"SANTIAGO","TIPO_EP":"PARQUE","SUP_TOTAL_":4215.59896312,"Shape_Leng":0.00312268053398,"Shape_Area":4.08862613106e-07},"geometry":{"type":"Polygon","coordinates":[[[-70.655278,-33.445138],[-70.654279,-33.444886],[-70.654218,-33.444871],[-70.654187,-33.444859],[-70.654175,-33.44485],[-70.65417,-33.444847],[-70.654168,-33.444828],[-70.654221,-33.444612],[-70.654232,-33.444588],[-70.654241,-33.444578],[-70.654258,-33.44457],[-70.654268,-33.44457],[-70.654289,-33.444571],[-70.654317,-33.444575],[-70.655429,-33.444834],[-70.655448,-33.444839],[-70.655459,-33.444845],[-70.65547,-33.444855],[-70.65547,-33.444856],[-70.655475,-33.444863],[-70.655477,-33.444866],[-70.655481,-33.444875],[-70.65548,-33.444887],[-70.655401,-33.445132],[-70.655394,-33.445144],[-70.655384,-33.445151],[-70.655372,-33.445156],[-70.655355,-33.445157],[-70.655278,-33.445138]]]}},{"type":"Feature","properties":{"OBJECTID":312,"CUT":13101,"REGION":"METROPOLITANA DE SANTIAGO","PROVINCIA":"SANTIAGO","COMUNA":"SANTIAGO","AREA_C":"URBANO","COD_URBANO":131011,"URBANO_CEN":"SANTIAGO","TIPO_EP":"PARQUE","SUP_TOTAL_":2554.5856706,"Shape_Leng":0.00248667463669,"Shape_Area":2.47764076689e-07},"geometry":{"type":"Polygon","coordinates":[[[-70.653888,-33.444786],[-70.653377,-33.444659],[-70.653356,-33.444653],[-70.653325,-33.444645],[-70.653153,-33.444605],[-70.653107,-33.444589],[-70.653089,-33.444568],[-70.653088,-33.444564],[-70.653086,-33.44455],[-70.653128,-33.44438],[-70.653131,-33.444366],[-70.653149,-33.444364],[-70.6541,-33.44458],[-70.654121,-33.444602],[-70.654121,-33.444604],[-70.654124,-33.444638],[-70.654094,-33.444798],[-70.654093,-33.4448],[-70.654078,-33.444822],[-70.654051,-33.444825],[-70.653888,-33.444786]]]}},{"type":"Feature","properties":{"OBJECTID":313,"CUT":13101,"REGION":"METROPOLITANA DE SANTIAGO","PROVINCIA":"SANTIAGO","COMUNA":"SANTIAGO","AREA_C":"URBANO","COD_URBANO":131011,"URBANO_CEN":"SANTIAGO","TIPO_EP":"PARQUE","SUP_TOTAL_":2617.7050616,"Shape_Leng":0.00299263212714,"Shape_Area":2.53884972412e-07},"geometry":{"type":"Polygon","coordinates":[[[-70.652857,-33.444497],[-70.652841,-33.444493],[-70.652657,-33.444444],[-70.652069,-33.444293],[-70.651639,-33.444173],[-70.651614,-33.444165],[-70.651612,-33.444165],[-70.651612,-33.444165],[-70.651616,-33.444144],[-70.651634,-33.444049],[-70.651642,-33.444007],[-70.651643,-33.444007],[-70.651699,-33.444014],[-70.651751,-33.444026],[-70.65197,-33.444076],[-70.652898,-33.444289],[-70.652912,-33.444292],[-70.652917,-33.444296],[-70.652921,-33.444301],[-70.652921,-33.444301],[-70.652924,-33.444307],[-70.652926,-33.444315],[-70.652925,-33.444326],[-70.652897,-33.444476],[-70.652894,-33.444485],[-70.652887,-33.444491],[-70.65288,-33.444496],[-70.652869,-33.444498],[-70.652857,-33.444497]]]}},{"type":"Feature","properties":{"OBJECTID":314,"CUT":13101,"REGION":"METROPOLITANA DE SANTIAGO","PROVINCIA":"SANTIAGO","COMUNA":"SANTIAGO","AREA_C":"URBANO","COD_URBANO":131011,"URBANO_CEN":"SANTIAGO","TIPO_EP":"PARQUE","SUP_TOTAL_":2513.492378,"Shape_Leng":0.00565369322075,"Shape_Area":2.4377662033e-07},"geometry":{"type":"Polygon","coordinates":[[[-70.651608,-33.444163],[-70.651555,-33.444148],[-70.651538,-33.444142],[-70.651485,-33.444122],[-70.651364,-33.444083],[-70.65134,-33.444076],[-70.65127,-33.444052],[-70.651222,-33.44404],[-70.651056,-33.443999],[-70.650645,-33.443903],[-70.650633,-33.4439],[-70.649796,-33.443703],[-70.649509,-33.443636],[-70.649459,-33.443624],[-70.649325,-33.443587],[-70.649082,-33.443519],[-70.648988,-33.443493],[-70.648976,-33.44349],[-70.649007,-33.443424],[-70.649023,-33.443428],[-70.64932,-33.443501],[-70.649471,-33.443539],[-70.649536,-33.443556],[-70.649552,-33.44356],[-70.649692,-33.443592],[-70.65069,-33.443825],[-70.650696,-33.443827],[-70.650737,-33.443836],[-70.650759,-33.443841],[-70.651071,-33.443914],[-70.651237,-33.443947],[-70.651333,-33.443964],[-70.651528,-33.443994],[-70.651602,-33.444002],[-70.651635,-33.444006],[-70.651639,-33.444007],[-70.651641,-33.444007],[-70.651636,-33.444033],[-70.651633,-33.444049],[-70.651619,-33.444118],[-70.651611,-33.444164],[-70.651608,-33.444163]]]}},{"type":"Feature","properties":{"OBJECTID":315,"CUT":13101,"REGION":"METROPOLITANA DE SANTIAGO","PROVINCIA":"SANTIAGO","COMUNA":"SANTIAGO","AREA_C":"URBANO","COD_URBANO":131011,"URBANO_CEN":"SANTIAGO","TIPO_EP":"PARQUE","SUP_TOTAL_":6476.19020008,"Shape_Leng":0.00716689151081,"Shape_Area":6.28034794171e-07},"geometry":{"type":"Polygon","coordinates":[[[-70.6355,-33.436247],[-70.635478,-33.436224],[-70.635453,-33.436199],[-70.635453,-33.436197],[-70.635456,-33.436131],[-70.635808,-33.436045],[-70.636235,-33.435941],[-70.636577,-33.435857],[-70.636744,-33.435826],[-70.6368,-33.435816],[-70.636904,-33.435795],[-70.637116,-33.435753],[-70.637761,-33.435581],[-70.63807,-33.435497],[-70.638195,-33.435488],[-70.638371,-33.435435],[-70.638594,-33.435381],[-70.638695,-33.435367],[-70.638781,-33.435331],[-70.638795,-33.435378],[-70.638807,-33.435415],[-70.638821,-33.435461],[-70.638826,-33.435477],[-70.638814,-33.435524],[-70.638686,-33.43556],[-70.635649,-33.436268],[-70.635569,-33.436274],[-70.6355,-33.436247]]]}},{"type":"Feature","properties":{"OBJECTID":316,"CUT":13101,"REGION":"METROPOLITANA DE SANTIAGO","PROVINCIA":"SANTIAGO","COMUNA":"SANTIAGO","AREA_C":"URBANO","COD_URBANO":131011,"URBANO_CEN":"SANTIAGO","TIPO_EP":"PARQUE","SUP_TOTAL_":6271.83666338,"Shape_Leng":0.00759454206683,"Shape_Area":6.0821368364e-07},"geometry":{"type":"Polygon","coordinates":[[[-70.642569,-33.434481],[-70.642622,-33.434463],[-70.642624,-33.434493],[-70.642625,-33.434508],[-70.642626,-33.434521],[-70.642628,-33.434545],[-70.642631,-33.434591],[-70.642583,-33.434639],[-70.639782,-33.43529],[-70.639738,-33.435299],[-70.639243,-33.435403],[-70.639151,-33.435418],[-70.639092,-33.435409],[-70.639062,-33.435382],[-70.63905,-33.435344],[-70.639043,-33.435321],[-70.639035,-33.435296],[-70.639083,-33.435284],[-70.639222,-33.435246],[-70.639437,-33.435204],[-70.639669,-33.435136],[-70.639856,-33.435085],[-70.640082,-33.435037],[-70.640403,-33.434969],[-70.640665,-33.43491],[-70.641148,-33.434792],[-70.641168,-33.434788],[-70.641489,-33.434722],[-70.641896,-33.434627],[-70.642081,-33.434606],[-70.642256,-33.434562],[-70.642399,-33.434514],[-70.642429,-33.43452],[-70.642569,-33.434481]]]}},{"type":"Feature","properties":{"OBJECTID":317,"CUT":13101,"REGION":"METROPOLITANA DE SANTIAGO","PROVINCIA":"SANTIAGO","COMUNA":"SANTIAGO","AREA_C":"URBANO","COD_URBANO":131011,"URBANO_CEN":"SANTIAGO","TIPO_EP":"PARQUE","SUP_TOTAL_":4141.9418802,"Shape_Leng":0.00516447555529,"Shape_Area":4.01671383276e-07},"geometry":{"type":"Polygon","coordinates":[[[-70.64305,-33.434513],[-70.643002,-33.434494],[-70.642978,-33.434478],[-70.642973,-33.434475],[-70.642965,-33.434448],[-70.642955,-33.434418],[-70.642935,-33.434355],[-70.64308,-33.434309],[-70.643261,-33.434269],[-70.643333,-33.434258],[-70.643493,-33.434243],[-70.643563,-33.434216],[-70.64376,-33.434203],[-70.643912,-33.434186],[-70.644095,-33.434117],[-70.644289,-33.434075],[-70.64451,-33.434037],[-70.644852,-33.433948],[-70.64509,-33.433892],[-70.645324,-33.433845],[-70.645332,-33.433872],[-70.645337,-33.433888],[-70.645359,-33.433961],[-70.645349,-33.433974],[-70.645334,-33.43398],[-70.645277,-33.433995],[-70.645195,-33.434024],[-70.644995,-33.434072],[-70.644416,-33.434212],[-70.643143,-33.434507],[-70.643088,-33.434517],[-70.64305,-33.434513]]]}},{"type":"Feature","properties":{"OBJECTID":318,"CUT":13101,"REGION":"METROPOLITANA DE SANTIAGO","PROVINCIA":"SANTIAGO","COMUNA":"SANTIAGO","AREA_C":"URBANO","COD_URBANO":131011,"URBANO_CEN":"SANTIAGO","TIPO_EP":"PARQUE","SUP_TOTAL_":4050.06705597,"Shape_Leng":0.00523969398416,"Shape_Area":3.9275842992e-07},"geometry":{"type":"Polygon","coordinates":[[[-70.645499,-33.433946],[-70.645474,-33.433859],[-70.645461,-33.433813],[-70.645722,-33.43375],[-70.645833,-33.433729],[-70.645973,-33.433702],[-70.64612,-33.433672],[-70.646601,-33.433548],[-70.646879,-33.433497],[-70.647266,-33.433384],[-70.647603,-33.433318],[-70.647766,-33.43327],[-70.647858,-33.433261],[-70.647897,-33.433256],[-70.647905,-33.433255],[-70.647905,-33.433269],[-70.647905,-33.433285],[-70.647904,-33.433312],[-70.647904,-33.43332],[-70.647903,-33.433341],[-70.647879,-33.433373],[-70.647831,-33.433424],[-70.647643,-33.43347],[-70.646474,-33.433744],[-70.645608,-33.433948],[-70.645585,-33.433951],[-70.645539,-33.433957],[-70.645499,-33.433946]]]}},{"type":"Feature","properties":{"OBJECTID":319,"CUT":13101,"REGION":"METROPOLITANA DE SANTIAGO","PROVINCIA":"SANTIAGO","COMUNA":"SANTIAGO","AREA_C":"URBANO","COD_URBANO":131011,"URBANO_CEN":"SANTIAGO","TIPO_EP":"PARQUE","SUP_TOTAL_":164445.267698,"Shape_Leng":0.0408818385313,"Shape_Area":1.59464085912e-05},"geometry":{"type":"Polygon","coordinates":[[[-70.66114,-33.430383],[-70.661421,-33.430296],[-70.661603,-33.430253],[-70.661937,-33.430158],[-70.661974,-33.430148],[-70.662129,-33.430108],[-70.662809,-33.429901],[-70.663325,-33.429737],[-70.664407,-33.429369],[-70.664911,-33.429196],[-70.66603,-33.428837],[-70.666691,-33.428615],[-70.667078,-33.428488],[-70.667752,-33.428259],[-70.668636,-33.427947],[-70.669304,-33.427727],[-70.669996,-33.427489],[-70.670429,-33.427344],[-70.671056,-33.427115],[-70.67135,-33.427004],[-70.67149,-33.426955],[-70.671514,-33.427041],[-70.671547,-33.427158],[-70.671633,-33.427448],[-70.671635,-33.42746],[-70.671638,-33.427468],[-70.671638,-33.427468],[-70.671645,-33.427498],[-70.671649,-33.427511],[-70.671649,-33.427511],[-70.671698,-33.427727],[-70.671698,-33.427728],[-70.671728,-33.427912],[-70.671738,-33.428],[-70.671738,-33.428106],[-70.671738,-33.428107],[-70.67173,-33.428168],[-70.67173,-33.428168],[-70.671719,-33.428205],[-70.671713,-33.428215],[-70.671692,-33.428249],[-70.671689,-33.428252],[-70.671665,-33.428272],[-70.671632,-33.42829],[-70.671589,-33.428314],[-70.671324,-33.428404],[-70.671139,-33.428466],[-70.670833,-33.428568],[-70.67036,-33.428725],[-70.670277,-33.428752],[-70.670256,-33.428762],[-70.670219,-33.42878],[-70.670166,-33.428813],[-70.670157,-33.428819],[-70.670101,-33.428843],[-70.669507,-33.429039],[-70.669281,-33.429114],[-70.668366,-33.429415],[-70.667372,-33.429744],[-70.667118,-33.429828],[-70.666784,-33.429938],[-70.665995,-33.430199],[-70.665043,-33.430504],[-70.664776,-33.43057],[-70.664518,-33.430618],[-70.664338,-33.430637],[-70.664097,-33.430652],[-70.663953,-33.430652],[-70.663781,-33.430644],[-70.663637,-33.430633],[-70.66349,-33.430614],[-70.663448,-33.430609],[-70.663393,-33.430599],[-70.663278,-33.430579],[-70.663222,-33.430571],[-70.663055,-33.430545],[-70.662988,-33.430533],[-70.662792,-33.430513],[-70.662737,-33.430507],[-70.662695,-33.430506],[-70.662522,-33.4305],[-70.662347,-33.430497],[-70.662304,-33.430498],[-70.662252,-33.430499],[-70.66225,-33.430499],[-70.662186,-33.430501],[-70.662119,-33.430497],[-70.662042,-33.430503],[-70.661854,-33.430525],[-70.661764,-33.430539],[-70.661677,-33.430553],[-70.661448,-33.430602],[-70.661316,-33.43063],[-70.661294,-33.430581],[-70.661145,-33.430629],[-70.661145,-33.43063],[-70.661122,-33.430637],[-70.661026,-33.430671],[-70.660746,-33.43076],[-70.660628,-33.430793],[-70.66064,-33.430835],[-70.66064,-33.430837],[-70.660583,-33.43086],[-70.660546,-33.430875],[-70.660543,-33.430876],[-70.660535,-33.430879],[-70.660525,-33.430883],[-70.660493,-33.430896],[-70.660261,-33.430971],[-70.660155,-33.431001],[-70.660143,-33.431004],[-70.660138,-33.431006],[-70.66011,-33.431014],[-70.660054,-33.43103],[-70.660001,-33.431047],[-70.659974,-33.431055],[-70.659897,-33.43108],[-70.659878,-33.431086],[-70.659851,-33.431095],[-70.659718,-33.43114],[-70.659705,-33.431144],[-70.659519,-33.431208],[-70.659421,-33.431243],[-70.659397,-33.431252],[-70.659384,-33.431256],[-70.659193,-33.431326],[-70.659164,-33.431336],[-70.659048,-33.431374],[-70.658897,-33.431424],[-70.658772,-33.431476],[-70.658767,-33.431478],[-70.658717,-33.431499],[-70.658706,-33.431503],[-70.65856,-33.431548],[-70.658417,-33.431598],[-70.658395,-33.431604],[-70.658288,-33.43163],[-70.658287,-33.43163],[-70.658194,-33.431656],[-70.658132,-33.431673],[-70.658071,-33.43169],[-70.658016,-33.431705],[-70.657919,-33.431732],[-70.657891,-33.43174],[-70.657879,-33.431743],[-70.65787,-33.431746],[-70.657744,-33.431776],[-70.657738,-33.431778],[-70.657577,-33.431816],[-70.65757,-33.431818],[-70.657564,-33.43182],[-70.65753,-33.431828],[-70.657515,-33.431831],[-70.657503,-33.431834],[-70.657503,-33.431834],[-70.657503,-33.431834],[-70.657497,-33.431836],[-70.657497,-33.431836],[-70.657497,-33.431836],[-70.657489,-33.431838],[-70.657482,-33.431839],[-70.657477,-33.431841],[-70.657453,-33.431846],[-70.657385,-33.431863],[-70.657336,-33.431875],[-70.657334,-33.431875],[-70.657278,-33.431889],[-70.657266,-33.431892],[-70.657093,-33.431934],[-70.657063,-33.431941],[-70.657049,-33.431944],[-70.657042,-33.431946],[-70.657028,-33.43195],[-70.65694,-33.431971],[-70.656875,-33.431987],[-70.656851,-33.431993],[-70.656392,-33.432108],[-70.656323,-33.432123],[-70.656256,-33.431916],[-70.655409,-33.432135],[-70.655323,-33.431876],[-70.655262,-33.431692],[-70.655262,-33.431692],[-70.655262,-33.431692],[-70.653163,-33.432197],[-70.653157,-33.432184],[-70.653125,-33.432111],[-70.653125,-33.432111],[-70.653116,-33.432078],[-70.653111,-33.432062],[-70.653128,-33.432058],[-70.657499,-33.431057],[-70.657506,-33.431055],[-70.65758,-33.431038],[-70.659056,-33.430694],[-70.65911,-33.430691],[-70.659134,-33.430687],[-70.659185,-33.43068],[-70.659273,-33.430665],[-70.659338,-33.430651],[-70.659395,-33.430638],[-70.659406,-33.430636],[-70.659465,-33.430625],[-70.659534,-33.430617],[-70.659586,-33.43061],[-70.659639,-33.430601],[-70.659662,-33.430597],[-70.659704,-33.430589],[-70.659772,-33.430572],[-70.659832,-33.430559],[-70.659897,-33.430543],[-70.65996,-33.430527],[-70.66003,-33.430507],[-70.660103,-33.430488],[-70.660167,-33.430472],[-70.660222,-33.430454],[-70.660265,-33.43044],[-70.660315,-33.430423],[-70.66033,-33.430418],[-70.660472,-33.430378],[-70.660474,-33.430377],[-70.660483,-33.430375],[-70.660486,-33.430374],[-70.660486,-33.430374],[-70.660486,-33.430374],[-70.660486,-33.430375],[-70.660487,-33.430375],[-70.660488,-33.430379],[-70.660488,-33.430379],[-70.660489,-33.430385],[-70.660496,-33.430416],[-70.660496,-33.430416],[-70.660521,-33.430483],[-70.660531,-33.430511],[-70.660541,-33.430538],[-70.660549,-33.430561],[-70.660573,-33.430626],[-70.660573,-33.430626],[-70.660587,-33.430666],[-70.660599,-33.430702],[-70.660723,-33.43066],[-70.660999,-33.430575],[-70.661095,-33.430546],[-70.661116,-33.43054],[-70.661117,-33.43054],[-70.661189,-33.430519],[-70.66114,-33.430383]]]}},{"type":"Feature","properties":{"OBJECTID":425,"CUT":13101,"REGION":"METROPOLITANA DE SANTIAGO","PROVINCIA":"SANTIAGO","COMUNA":"SANTIAGO","AREA_C":"URBANO","COD_URBANO":131011,"URBANO_CEN":"SANTIAGO","TIPO_EP":"PARQUE","SUP_TOTAL_":2862.92313784,"Shape_Leng":0.00246879444538,"Shape_Area":2.776609966e-07},"geometry":{"type":"Polygon","coordinates":[[[-70.679304,-33.443934],[-70.678882,-33.443886],[-70.678566,-33.44385],[-70.67854,-33.443844],[-70.678531,-33.44384],[-70.678527,-33.443838],[-70.678518,-33.443831],[-70.678514,-33.443827],[-70.678507,-33.443819],[-70.678504,-33.443813],[-70.678501,-33.443808],[-70.6785,-33.443801],[-70.6785,-33.443801],[-70.6785,-33.443781],[-70.6785,-33.443781],[-70.678516,-33.443602],[-70.678516,-33.443602],[-70.67852,-33.443583],[-70.67852,-33.443583],[-70.678524,-33.443577],[-70.678531,-33.443572],[-70.678532,-33.443572],[-70.678535,-33.44357],[-70.678543,-33.443567],[-70.678556,-33.443565],[-70.678589,-33.443568],[-70.678752,-33.443587],[-70.679436,-33.44367],[-70.679482,-33.443675],[-70.679492,-33.443679],[-70.679498,-33.443682],[-70.679505,-33.443687],[-70.679509,-33.443696],[-70.679509,-33.443696],[-70.67951,-33.443708],[-70.67951,-33.443708],[-70.679493,-33.443884],[-70.679493,-33.443884],[-70.67949,-33.443896],[-70.679485,-33.443908],[-70.679482,-33.443914],[-70.679482,-33.443915],[-70.679474,-33.443923],[-70.679464,-33.443931],[-70.679453,-33.443937],[-70.679429,-33.443943],[-70.679399,-33.443945],[-70.679304,-33.443934]]]}},{"type":"Feature","properties":{"OBJECTID":426,"CUT":13101,"REGION":"METROPOLITANA DE SANTIAGO","PROVINCIA":"SANTIAGO","COMUNA":"SANTIAGO","AREA_C":"URBANO","COD_URBANO":131011,"URBANO_CEN":"SANTIAGO","TIPO_EP":"PARQUE","SUP_TOTAL_":2892.49392045,"Shape_Leng":0.00251415708365,"Shape_Area":2.80528654942e-07},"geometry":{"type":"Polygon","coordinates":[[[-70.678376,-33.443836],[-70.677467,-33.443731],[-70.677449,-33.443727],[-70.677438,-33.443722],[-70.677428,-33.443711],[-70.677424,-33.4437],[-70.677424,-33.4437],[-70.677423,-33.44369],[-70.677423,-33.44369],[-70.677423,-33.443681],[-70.677423,-33.443681],[-70.677442,-33.443475],[-70.677442,-33.443475],[-70.677446,-33.443467],[-70.677451,-33.443461],[-70.677455,-33.443459],[-70.677457,-33.443457],[-70.677464,-33.443454],[-70.677474,-33.443452],[-70.677478,-33.443452],[-70.678405,-33.443557],[-70.678421,-33.443561],[-70.67843,-33.443565],[-70.67843,-33.443566],[-70.678437,-33.443571],[-70.678442,-33.44358],[-70.678442,-33.44358],[-70.678444,-33.443588],[-70.678444,-33.443588],[-70.678425,-33.443795],[-70.678425,-33.443795],[-70.678422,-33.443811],[-70.678422,-33.443811],[-70.678419,-33.443821],[-70.678416,-33.443826],[-70.678413,-33.44383],[-70.678408,-33.443833],[-70.678403,-33.443835],[-70.678396,-33.443836],[-70.67839,-33.443837],[-70.678376,-33.443836]]]}},{"type":"Feature","properties":{"OBJECTID":427,"CUT":13101,"REGION":"METROPOLITANA DE SANTIAGO","PROVINCIA":"SANTIAGO","COMUNA":"SANTIAGO","AREA_C":"URBANO","COD_URBANO":131011,"URBANO_CEN":"SANTIAGO","TIPO_EP":"PARQUE","SUP_TOTAL_":2768.01755033,"Shape_Leng":0.00243448033651,"Shape_Area":2.68456105171e-07},"geometry":{"type":"Polygon","coordinates":[[[-70.677307,-33.443712],[-70.677296,-33.443711],[-70.677281,-33.44371],[-70.676718,-33.443645],[-70.676663,-33.443638],[-70.676468,-33.443616],[-70.676447,-33.443613],[-70.676443,-33.443612],[-70.676424,-33.443609],[-70.676409,-33.443604],[-70.676399,-33.443597],[-70.676391,-33.443587],[-70.676385,-33.443575],[-70.676385,-33.443575],[-70.676382,-33.443563],[-70.676382,-33.443563],[-70.676381,-33.443553],[-70.676381,-33.443553],[-70.676383,-33.443541],[-70.676383,-33.443541],[-70.676398,-33.443362],[-70.676398,-33.443362],[-70.676401,-33.443354],[-70.676404,-33.443349],[-70.676408,-33.443344],[-70.676409,-33.443343],[-70.676416,-33.443339],[-70.676425,-33.443336],[-70.676435,-33.443335],[-70.676446,-33.443335],[-70.676916,-33.443388],[-70.677335,-33.443436],[-70.677347,-33.443439],[-70.677357,-33.443444],[-70.677363,-33.443449],[-70.677363,-33.443449],[-70.677367,-33.443455],[-70.677367,-33.443455],[-70.677368,-33.443464],[-70.677368,-33.443464],[-70.677368,-33.443466],[-70.677347,-33.443685],[-70.67734,-33.443696],[-70.677339,-33.443699],[-70.677329,-33.443708],[-70.677316,-33.443712],[-70.677307,-33.443712]]]}},{"type":"Feature","properties":{"OBJECTID":428,"CUT":13101,"REGION":"METROPOLITANA DE SANTIAGO","PROVINCIA":"SANTIAGO","COMUNA":"SANTIAGO","AREA_C":"URBANO","COD_URBANO":131011,"URBANO_CEN":"SANTIAGO","TIPO_EP":"PARQUE","SUP_TOTAL_":2559.3988607,"Shape_Leng":0.00229522391045,"Shape_Area":2.48223134952e-07},"geometry":{"type":"Polygon","coordinates":[[[-70.676255,-33.443592],[-70.676233,-33.443589],[-70.675439,-33.443499],[-70.675429,-33.443496],[-70.675422,-33.443494],[-70.675416,-33.443491],[-70.675409,-33.443483],[-70.675405,-33.443476],[-70.675404,-33.44346],[-70.675404,-33.44346],[-70.675424,-33.443256],[-70.675426,-33.443246],[-70.675426,-33.443246],[-70.675431,-33.443239],[-70.675431,-33.443239],[-70.675431,-33.443239],[-70.675436,-33.443235],[-70.675441,-33.44323],[-70.675445,-33.443228],[-70.675448,-33.443227],[-70.675454,-33.443225],[-70.675463,-33.443224],[-70.676289,-33.443318],[-70.676295,-33.443319],[-70.676303,-33.443323],[-70.676309,-33.443328],[-70.676313,-33.443334],[-70.676314,-33.443334],[-70.676318,-33.44334],[-70.67632,-33.443346],[-70.67632,-33.443346],[-70.676322,-33.443357],[-70.676322,-33.443357],[-70.676305,-33.443551],[-70.676305,-33.443551],[-70.676303,-33.443562],[-70.676303,-33.443562],[-70.676299,-33.44357],[-70.676294,-33.443579],[-70.676287,-33.443587],[-70.676279,-33.44359],[-70.676265,-33.443592],[-70.676255,-33.443592]]]}},{"type":"Feature","properties":{"OBJECTID":429,"CUT":13101,"REGION":"METROPOLITANA DE SANTIAGO","PROVINCIA":"SANTIAGO","COMUNA":"SANTIAGO","AREA_C":"URBANO","COD_URBANO":131011,"URBANO_CEN":"SANTIAGO","TIPO_EP":"PARQUE","SUP_TOTAL_":3789.48496162,"Shape_Leng":0.00317431273868,"Shape_Area":3.67522152455e-07},"geometry":{"type":"Polygon","coordinates":[[[-70.675257,-33.443477],[-70.674059,-33.443341],[-70.674032,-33.443334],[-70.674012,-33.443324],[-70.673997,-33.443309],[-70.673991,-33.443298],[-70.673991,-33.443288],[-70.673991,-33.443288],[-70.673992,-33.443272],[-70.673992,-33.443272],[-70.67401,-33.443078],[-70.67401,-33.443078],[-70.674011,-33.443073],[-70.674011,-33.443073],[-70.674012,-33.443071],[-70.674013,-33.443069],[-70.674014,-33.443068],[-70.674016,-33.443066],[-70.67402,-33.443064],[-70.674025,-33.443063],[-70.674032,-33.443062],[-70.674327,-33.443096],[-70.675328,-33.443209],[-70.675334,-33.44321],[-70.67534,-33.443213],[-70.675344,-33.443216],[-70.675347,-33.443219],[-70.675347,-33.443219],[-70.675348,-33.443223],[-70.675348,-33.443225],[-70.675348,-33.443225],[-70.675349,-33.443229],[-70.675349,-33.443229],[-70.67533,-33.443426],[-70.67533,-33.443426],[-70.675324,-33.443445],[-70.675316,-33.443456],[-70.675301,-33.443469],[-70.675299,-33.44347],[-70.675284,-33.443477],[-70.675275,-33.443478],[-70.675257,-33.443477]]]}},{"type":"Feature","properties":{"OBJECTID":430,"CUT":13101,"REGION":"METROPOLITANA DE SANTIAGO","PROVINCIA":"SANTIAGO","COMUNA":"SANTIAGO","AREA_C":"URBANO","COD_URBANO":131011,"URBANO_CEN":"SANTIAGO","TIPO_EP":"PARQUE","SUP_TOTAL_":2287.03661139,"Shape_Leng":0.00213267495323,"Shape_Area":2.21807753814e-07},"geometry":{"type":"Polygon","coordinates":[[[-70.673574,-33.443284],[-70.673133,-33.443233],[-70.673124,-33.443232],[-70.673117,-33.44323],[-70.673111,-33.443227],[-70.673105,-33.443223],[-70.673102,-33.443218],[-70.6731,-33.443213],[-70.6731,-33.443213],[-70.673099,-33.443207],[-70.673099,-33.443207],[-70.673099,-33.4432],[-70.673099,-33.4432],[-70.6731,-33.443193],[-70.6731,-33.443193],[-70.673119,-33.442992],[-70.673119,-33.442992],[-70.67312,-33.442978],[-70.67312,-33.442978],[-70.673123,-33.442971],[-70.673123,-33.442971],[-70.673124,-33.442969],[-70.673127,-33.442966],[-70.673131,-33.442963],[-70.673136,-33.442962],[-70.673141,-33.442961],[-70.673148,-33.442962],[-70.673163,-33.442963],[-70.673569,-33.44301],[-70.673906,-33.443048],[-70.673915,-33.44305],[-70.673923,-33.443054],[-70.673928,-33.443058],[-70.673929,-33.443059],[-70.673932,-33.443064],[-70.673932,-33.443064],[-70.673933,-33.443072],[-70.673933,-33.443072],[-70.673913,-33.443292],[-70.673913,-33.443292],[-70.673909,-33.4433],[-70.673902,-33.443307],[-70.673895,-33.443312],[-70.673882,-33.443317],[-70.673868,-33.443318],[-70.673574,-33.443284]]]}},{"type":"Feature","properties":{"OBJECTID":431,"CUT":13101,"REGION":"METROPOLITANA DE SANTIAGO","PROVINCIA":"SANTIAGO","COMUNA":"SANTIAGO","AREA_C":"URBANO","COD_URBANO":131011,"URBANO_CEN":"SANTIAGO","TIPO_EP":"PARQUE","SUP_TOTAL_":2290.78732486,"Shape_Leng":0.00212962771851,"Shape_Area":2.22171410825e-07},"geometry":{"type":"Polygon","coordinates":[[[-70.672975,-33.443215],[-70.672249,-33.443132],[-70.672237,-33.44313],[-70.67223,-33.443129],[-70.672216,-33.44312],[-70.672208,-33.44311],[-70.672206,-33.443103],[-70.672206,-33.443103],[-70.672203,-33.443092],[-70.672203,-33.443092],[-70.672203,-33.443086],[-70.672203,-33.443086],[-70.67222,-33.442891],[-70.67222,-33.442891],[-70.672224,-33.442876],[-70.672224,-33.442876],[-70.672228,-33.442871],[-70.67223,-33.44287],[-70.672232,-33.442868],[-70.67224,-33.442864],[-70.672252,-33.442861],[-70.672265,-33.442861],[-70.672276,-33.442862],[-70.672281,-33.442863],[-70.673013,-33.442946],[-70.673022,-33.442949],[-70.673027,-33.442951],[-70.673032,-33.442953],[-70.673037,-33.44296],[-70.673038,-33.44296],[-70.673038,-33.44296],[-70.67304,-33.442969],[-70.67304,-33.442969],[-70.673019,-33.443181],[-70.673019,-33.443181],[-70.673018,-33.443188],[-70.673016,-33.443195],[-70.673009,-33.443207],[-70.673,-33.443213],[-70.672987,-33.443215],[-70.672975,-33.443215]]]}},{"type":"Feature","properties":{"OBJECTID":432,"CUT":13101,"REGION":"METROPOLITANA DE SANTIAGO","PROVINCIA":"SANTIAGO","COMUNA":"SANTIAGO","AREA_C":"URBANO","COD_URBANO":131011,"URBANO_CEN":"SANTIAGO","TIPO_EP":"PARQUE","SUP_TOTAL_":2137.12023273,"Shape_Leng":0.00207675971643,"Shape_Area":2.07267955686e-07},"geometry":{"type":"Polygon","coordinates":[[[-70.672061,-33.443106],[-70.6719,-33.443088],[-70.671348,-33.443024],[-70.671326,-33.443016],[-70.671317,-33.443006],[-70.671312,-33.442993],[-70.671312,-33.442993],[-70.671311,-33.44298],[-70.671311,-33.44298],[-70.671312,-33.442969],[-70.671312,-33.442969],[-70.671315,-33.442948],[-70.671315,-33.442948],[-70.67133,-33.442794],[-70.671332,-33.44279],[-70.671338,-33.442784],[-70.671347,-33.442779],[-70.671361,-33.442774],[-70.671364,-33.442773],[-70.671371,-33.442773],[-70.671943,-33.442835],[-70.672086,-33.442851],[-70.672106,-33.442856],[-70.672119,-33.442864],[-70.672123,-33.442866],[-70.672129,-33.442871],[-70.672134,-33.442878],[-70.672142,-33.442899],[-70.672143,-33.442909],[-70.672127,-33.443081],[-70.672127,-33.443081],[-70.672123,-33.443092],[-70.672116,-33.4431],[-70.672105,-33.443105],[-70.672093,-33.443107],[-70.67208,-33.443108],[-70.672061,-33.443106]]]}},{"type":"Feature","properties":{"OBJECTID":433,"CUT":13101,"REGION":"METROPOLITANA DE SANTIAGO","PROVINCIA":"SANTIAGO","COMUNA":"SANTIAGO","AREA_C":"URBANO","COD_URBANO":131011,"URBANO_CEN":"SANTIAGO","TIPO_EP":"PARQUE","SUP_TOTAL_":1279.94620645,"Shape_Leng":0.00144663979694,"Shape_Area":1.24135093542e-07},"geometry":{"type":"Polygon","coordinates":[[[-70.671165,-33.443003],[-70.671155,-33.443002],[-70.670743,-33.442955],[-70.670745,-33.442943],[-70.670783,-33.442705],[-70.670854,-33.442709],[-70.671052,-33.44273],[-70.671221,-33.442746],[-70.671234,-33.442747],[-70.671239,-33.442749],[-70.671246,-33.442755],[-70.671251,-33.442763],[-70.671252,-33.442768],[-70.671253,-33.44278],[-70.671235,-33.442974],[-70.671231,-33.44298],[-70.671227,-33.442984],[-70.67122,-33.44299],[-70.671212,-33.442996],[-70.6712,-33.443001],[-70.671186,-33.443003],[-70.671175,-33.443003],[-70.671165,-33.443003]]]}},{"type":"Feature","properties":{"OBJECTID":434,"CUT":13101,"REGION":"METROPOLITANA DE SANTIAGO","PROVINCIA":"SANTIAGO","COMUNA":"SANTIAGO","AREA_C":"URBANO","COD_URBANO":131011,"URBANO_CEN":"SANTIAGO","TIPO_EP":"PARQUE","SUP_TOTAL_":18545.6697653,"Shape_Leng":0.00570348799005,"Shape_Area":1.79885970199e-06},"geometry":{"type":"Polygon","coordinates":[[[-70.654368,-33.452601],[-70.654317,-33.452593],[-70.65439,-33.451913],[-70.65439,-33.451913],[-70.654405,-33.451831],[-70.654405,-33.451831],[-70.654423,-33.451724],[-70.654423,-33.451724],[-70.654432,-33.451655],[-70.654515,-33.451666],[-70.65604,-33.451873],[-70.656145,-33.451887],[-70.655916,-33.452942],[-70.655916,-33.452942],[-70.655907,-33.452981],[-70.655907,-33.452981],[-70.655898,-33.453006],[-70.655882,-33.453026],[-70.655879,-33.453027],[-70.655856,-33.453038],[-70.655823,-33.453044],[-70.655777,-33.453043],[-70.655618,-33.453027],[-70.655451,-33.453009],[-70.655277,-33.452986],[-70.655172,-33.452972],[-70.655169,-33.452972],[-70.655162,-33.452969],[-70.655157,-33.452965],[-70.655146,-33.452952],[-70.655145,-33.452947],[-70.655145,-33.452947],[-70.655184,-33.452742],[-70.655187,-33.452729],[-70.655114,-33.452722],[-70.655114,-33.452722],[-70.654368,-33.452601]]]}},{"type":"Feature","properties":{"OBJECTID":435,"CUT":13101,"REGION":"METROPOLITANA DE SANTIAGO","PROVINCIA":"SANTIAGO","COMUNA":"SANTIAGO","AREA_C":"URBANO","COD_URBANO":131011,"URBANO_CEN":"SANTIAGO","TIPO_EP":"PARQUE","SUP_TOTAL_":14411.5499629,"Shape_Leng":0.00474429722694,"Shape_Area":1.39786191211e-06},"geometry":{"type":"Polygon","coordinates":[[[-70.654112,-33.452749],[-70.65294,-33.452455],[-70.652917,-33.452444],[-70.652895,-33.452427],[-70.65289,-33.45242],[-70.652881,-33.452409],[-70.652875,-33.452389],[-70.652875,-33.452389],[-70.652876,-33.45237],[-70.652876,-33.45237],[-70.65301,-33.451533],[-70.653065,-33.451528],[-70.653697,-33.4516],[-70.654331,-33.45164],[-70.65436,-33.451648],[-70.654346,-33.451724],[-70.654346,-33.451724],[-70.654332,-33.45182],[-70.654332,-33.45182],[-70.654315,-33.451936],[-70.654315,-33.451936],[-70.654304,-33.452015],[-70.654304,-33.452015],[-70.654296,-33.45209],[-70.654296,-33.45209],[-70.65423,-33.452703],[-70.65423,-33.452703],[-70.654221,-33.452736],[-70.654205,-33.45275],[-70.654189,-33.452758],[-70.654158,-33.452759],[-70.654112,-33.452749]]]}},{"type":"Feature","properties":{"OBJECTID":436,"CUT":13101,"REGION":"METROPOLITANA DE SANTIAGO","PROVINCIA":"SANTIAGO","COMUNA":"SANTIAGO","AREA_C":"URBANO","COD_URBANO":131011,"URBANO_CEN":"SANTIAGO","TIPO_EP":"PARQUE","SUP_TOTAL_":19937.5573253,"Shape_Leng":0.00629703454574,"Shape_Area":1.93385648547e-06},"geometry":{"type":"Polygon","coordinates":[[[-70.652684,-33.452397],[-70.652672,-33.452394],[-70.652659,-33.452392],[-70.652642,-33.452388],[-70.652627,-33.452384],[-70.651996,-33.452228],[-70.650526,-33.451864],[-70.650512,-33.45186],[-70.650503,-33.451855],[-70.650498,-33.451851],[-70.650497,-33.451851],[-70.650489,-33.451845],[-70.650482,-33.451837],[-70.650476,-33.451827],[-70.650473,-33.451818],[-70.650473,-33.451818],[-70.650473,-33.451807],[-70.650473,-33.451807],[-70.650473,-33.451795],[-70.650473,-33.451795],[-70.650474,-33.451779],[-70.650474,-33.451779],[-70.650476,-33.451769],[-70.650476,-33.451769],[-70.650478,-33.451753],[-70.650478,-33.451753],[-70.650479,-33.451743],[-70.650479,-33.451743],[-70.650547,-33.451267],[-70.650547,-33.451267],[-70.65055,-33.451248],[-70.65055,-33.451248],[-70.650555,-33.451232],[-70.650565,-33.451223],[-70.650574,-33.451217],[-70.650584,-33.451213],[-70.650591,-33.45121],[-70.650598,-33.451209],[-70.650608,-33.451208],[-70.650616,-33.451208],[-70.650637,-33.451209],[-70.650653,-33.451209],[-70.650667,-33.451211],[-70.650684,-33.451212],[-70.650701,-33.451214],[-70.651851,-33.451353],[-70.652009,-33.45137],[-70.652034,-33.451373],[-70.652477,-33.45142],[-70.65249,-33.451421],[-70.652839,-33.45146],[-70.652876,-33.451464],[-70.652898,-33.451471],[-70.652912,-33.45148],[-70.65292,-33.451489],[-70.652926,-33.4515],[-70.652929,-33.451506],[-70.652929,-33.451506],[-70.652933,-33.451517],[-70.652933,-33.451517],[-70.652935,-33.451523],[-70.652935,-33.451523],[-70.652936,-33.451533],[-70.652936,-33.451534],[-70.652936,-33.451545],[-70.652936,-33.451545],[-70.652935,-33.451557],[-70.652935,-33.451557],[-70.652932,-33.451577],[-70.652932,-33.451577],[-70.652929,-33.451601],[-70.652929,-33.451601],[-70.652808,-33.452329],[-70.652808,-33.452329],[-70.652802,-33.452354],[-70.652796,-33.452363],[-70.652788,-33.452373],[-70.652781,-33.45238],[-70.652777,-33.452383],[-70.652775,-33.452385],[-70.652769,-33.452387],[-70.652762,-33.45239],[-70.652748,-33.452395],[-70.652731,-33.452399],[-70.652717,-33.452399],[-70.6527,-33.452399],[-70.652684,-33.452397]]]}}]}