{"type":"FeatureCollection","name":"AMB_POL_PLAZOLETA","features":[{"type":"Feature","properties":{"OBJECTID_1":1,"CUT":13101,"COMUNA":"SANTIAGO","SUP_TOTAL_":779.477272306,"Nombre":"Plazoleta Yungay Libertad","CATEGORIA":"PLAZOLETA"},"geometry":{"type":"Polygon","coordinates":[[[-70.675291,-33.429279],[-70.675293,-33.429259],[-70.675293,-33.429259],[-70.675295,-33.429232],[-70.675295,-33.429232],[-70.675299,-33.429201],[-70.675299,-33.429201],[-70.675302,-33.429193],[-70.675306,-33.429186],[-70.675314,-33.429174],[-70.675327,-33.429166],[-70.675342,-33.429162],[-70.675365,-33.429162],[-70.675371,-33.429162],[-70.675379,-33.429162],[-70.675934,-33.429195],[-70.675924,-33.429315],[-70.675835,-33.429308],[-70.675323,-33.42928],[-70.675291,-33.429279]]]}},{"type":"Feature","properties":{"OBJECTID_1":2,"CUT":13101,"COMUNA":"SANTIAGO","SUP_TOTAL_":1189.47346587,"Nombre":"Plazoleta Libertad","CATEGORIA":"PLAZOLETA"},"geometry":{"type":"Polygon","coordinates":[[[-70.674212,-33.440059],[-70.674169,-33.440059],[-70.674099,-33.440059],[-70.673828,-33.44005],[-70.673851,-33.439795],[-70.673853,-33.439782],[-70.673861,-33.439737],[-70.674211,-33.439771],[-70.674224,-33.439778],[-70.674234,-33.439793],[-70.674234,-33.439793],[-70.674234,-33.439824],[-70.674234,-33.439824],[-70.674212,-33.440059]]]}},{"type":"Feature","properties":{"OBJECTID_1":3,"CUT":13101,"COMUNA":"SANTIAGO","SUP_TOTAL_":767.732845396,"Nombre":"Plazoleta General Bulnes Huerfanos","CATEGORIA":"PLAZOLETA"},"geometry":{"type":"Polygon","coordinates":[[[-70.670078,-33.441748],[-70.670078,-33.441748],[-70.670085,-33.441711],[-70.670085,-33.441711],[-70.670091,-33.441702],[-70.670099,-33.441692],[-70.670107,-33.441686],[-70.670117,-33.441683],[-70.670128,-33.441681],[-70.670138,-33.441681],[-70.67015,-33.441682],[-70.670288,-33.4417],[-70.670281,-33.441744],[-70.670279,-33.441759],[-70.670267,-33.441841],[-70.670177,-33.441832],[-70.67011,-33.442267],[-70.670045,-33.442257],[-70.67001,-33.442252],[-70.670078,-33.441748]]]}},{"type":"Feature","properties":{"OBJECTID_1":4,"CUT":13101,"COMUNA":"SANTIAGO","SUP_TOTAL_":717.710130113,"Nombre":"Plazoleta Curico con Santa Rosa","CATEGORIA":"PLAZOLETA"},"geometry":{"type":"Polygon","coordinates":[[[-70.644721,-33.44613],[-70.644727,-33.446101],[-70.644739,-33.44604],[-70.644746,-33.446012],[-70.645201,-33.446108],[-70.645258,-33.446118],[-70.645298,-33.446125],[-70.645271,-33.446224],[-70.645266,-33.446235],[-70.645261,-33.446243],[-70.645255,-33.446246],[-70.645246,-33.446247],[-70.64524,-33.446247],[-70.644768,-33.44614],[-70.644721,-33.44613]]]}},{"type":"Feature","properties":{"OBJECTID_1":5,"CUT":13101,"COMUNA":"SANTIAGO","SUP_TOTAL_":1553.8552265,"Nombre":"Plazoleta Pedro Montt","CATEGORIA":"PLAZOLETA"},"geometry":{"type":"Polygon","coordinates":[[[-70.654258,-33.473325],[-70.654173,-33.47332],[-70.65403,-33.473312],[-70.653915,-33.473337],[-70.653857,-33.473225],[-70.653855,-33.473226],[-70.653804,-33.473148],[-70.653867,-33.473088],[-70.653907,-33.473043],[-70.653908,-33.473],[-70.653908,-33.472964],[-70.653908,-33.472932],[-70.654092,-33.472943],[-70.654193,-33.472956],[-70.654264,-33.472965],[-70.654284,-33.472984],[-70.654292,-33.472991],[-70.654283,-33.47303],[-70.654283,-33.47303],[-70.654258,-33.473325]]]}},{"type":"Feature","properties":{"OBJECTID_1":6,"CUT":13101,"COMUNA":"SANTIAGO","SUP_TOTAL_":573.542558534,"Nombre":"Plazoleta Melipilla Norte","CATEGORIA":"PLAZOLETA"},"geometry":{"type":"Polygon","coordinates":[[[-70.679051,-33.468903],[-70.679041,-33.468904],[-70.679025,-33.468905],[-70.678907,-33.46872],[-70.678895,-33.468552],[-70.678891,-33.468492],[-70.678886,-33.468427],[-70.678974,-33.468425],[-70.679012,-33.468424],[-70.679027,-33.468423],[-70.679051,-33.468903]]]}},{"type":"Feature","properties":{"OBJECTID_1":7,"CUT":13101,"COMUNA":"SANTIAGO","SUP_TOTAL_":673.369949553,"Nombre":"Plazoleta Carmen Marin","CATEGORIA":"PLAZOLETA"},"geometry":{"type":"Polygon","coordinates":[[[-70.641583,-33.447335],[-70.641586,-33.447324],[-70.641594,-33.447292],[-70.641601,-33.447265],[-70.641608,-33.447236],[-70.641913,-33.447292],[-70.642155,-33.447336],[-70.642196,-33.447343],[-70.642244,-33.447356],[-70.642228,-33.447422],[-70.642221,-33.447432],[-70.642212,-33.447438],[-70.642203,-33.447442],[-70.642197,-33.447443],[-70.642186,-33.447444],[-70.642175,-33.447443],[-70.642162,-33.447441],[-70.641583,-33.447335]]]}},{"type":"Feature","properties":{"OBJECTID_1":8,"CUT":13101,"COMUNA":"SANTIAGO","SUP_TOTAL_":660.631508894,"Nombre":"Plazoleta Franklin Chiloe","CATEGORIA":"PLAZOLETA"},"geometry":{"type":"Polygon","coordinates":[[[-70.645271,-33.472889],[-70.645304,-33.472888],[-70.645357,-33.472887],[-70.645624,-33.472902],[-70.645624,-33.472904],[-70.645621,-33.472961],[-70.645613,-33.473079],[-70.645612,-33.473089],[-70.645339,-33.473071],[-70.645329,-33.47307],[-70.64531,-33.473065],[-70.645301,-33.473062],[-70.645289,-33.473056],[-70.645281,-33.473047],[-70.645274,-33.47304],[-70.645268,-33.473024],[-70.645268,-33.473024],[-70.645267,-33.473],[-70.645267,-33.473],[-70.645271,-33.472889]]]}},{"type":"Feature","properties":{"OBJECTID_1":9,"CUT":13101,"COMUNA":"SANTIAGO","SUP_TOTAL_":269.666554295,"Nombre":"Plazoleta Agustinas","CATEGORIA":"PLAZOLETA"},"geometry":{"type":"Polygon","coordinates":[[[-70.657985,-33.441418],[-70.657977,-33.441414],[-70.657969,-33.441408],[-70.657959,-33.441396],[-70.657954,-33.441384],[-70.657954,-33.441384],[-70.657951,-33.441359],[-70.657951,-33.441359],[-70.657967,-33.441236],[-70.658031,-33.441255],[-70.658078,-33.44128],[-70.658124,-33.441337],[-70.658133,-33.441377],[-70.658136,-33.441431],[-70.657985,-33.441418]]]}},{"type":"Feature","properties":{"OBJECTID_1":10,"CUT":13101,"COMUNA":"SANTIAGO","SUP_TOTAL_":662.43443086,"Nombre":"Plazoleta Agustinas","CATEGORIA":"PLAZOLETA"},"geometry":{"type":"Polygon","coordinates":[[[-70.657785,-33.441258],[-70.657815,-33.441239],[-70.657847,-33.441229],[-70.65788,-33.441232],[-70.657866,-33.441355],[-70.657866,-33.441355],[-70.657859,-33.441379],[-70.657847,-33.441392],[-70.657828,-33.441402],[-70.657803,-33.441408],[-70.657263,-33.441354],[-70.657276,-33.441259],[-70.657768,-33.441308],[-70.657785,-33.441258]]]}},{"type":"Feature","properties":{"OBJECTID_1":11,"CUT":13101,"COMUNA":"SANTIAGO","SUP_TOTAL_":1116.52539929,"Nombre":"Plazoleta lado sur calle Alberto Herrera","CATEGORIA":"PLAZOLETA"},"geometry":{"type":"Polygon","coordinates":[[[-70.659826,-33.432138],[-70.659993,-33.432174],[-70.660148,-33.432226],[-70.660314,-33.432358],[-70.660219,-33.432569],[-70.659965,-33.432363],[-70.659668,-33.432121],[-70.659826,-33.432138]]]}},{"type":"Feature","properties":{"OBJECTID_1":12,"CUT":13101,"COMUNA":"SANTIAGO","SUP_TOTAL_":165.604717234,"Nombre":"Plazoleta Rosas Teatinos","CATEGORIA":"PLAZOLETA"},"geometry":{"type":"Polygon","coordinates":[[[-70.655692,-33.435776],[-70.655581,-33.435768],[-70.655603,-33.435621],[-70.655713,-33.435635],[-70.655692,-33.435776]]]}},{"type":"Feature","properties":{"OBJECTID_1":13,"CUT":13101,"COMUNA":"SANTIAGO","SUP_TOTAL_":157.323992326,"Nombre":"Plazoleta Rosas Teatinos","CATEGORIA":"PLAZOLETA"},"geometry":{"type":"Polygon","coordinates":[[[-70.656009,-33.435657],[-70.655989,-33.435799],[-70.655882,-33.435791],[-70.655896,-33.435675],[-70.655931,-33.435649],[-70.656009,-33.435657]]]}},{"type":"Feature","properties":{"OBJECTID_1":14,"CUT":13101,"COMUNA":"SANTIAGO","SUP_TOTAL_":338.643230069,"Nombre":"Plazoleta Santo Domingo","CATEGORIA":"PLAZOLETA"},"geometry":{"type":"Polygon","coordinates":[[[-70.650083,-33.43623],[-70.650096,-33.436133],[-70.650127,-33.436118],[-70.650386,-33.436148],[-70.650382,-33.43618],[-70.650369,-33.43626],[-70.650083,-33.43623]]]}},{"type":"Feature","properties":{"OBJECTID_1":15,"CUT":13101,"COMUNA":"SANTIAGO","SUP_TOTAL_":170.378648138,"Nombre":"Plazoleta Esperanza Rosas","CATEGORIA":"PLAZOLETA"},"geometry":{"type":"Polygon","coordinates":[[[-70.676148,-33.437289],[-70.676033,-33.437283],[-70.676001,-33.437281],[-70.67601,-33.437179],[-70.676031,-33.437165],[-70.676047,-33.437166],[-70.676148,-33.437172],[-70.676148,-33.437228],[-70.676148,-33.437281],[-70.676148,-33.437289]]]}},{"type":"Feature","properties":{"OBJECTID_1":16,"CUT":13101,"COMUNA":"SANTIAGO","SUP_TOTAL_":217.906416209,"Nombre":"Plazoleta Matucana Santo Domingo","CATEGORIA":"PLAZOLETA"},"geometry":{"type":"Polygon","coordinates":[[[-70.679952,-33.438219],[-70.679938,-33.43834],[-70.679922,-33.438351],[-70.67978,-33.438342],[-70.67978,-33.438334],[-70.679781,-33.43833],[-70.679784,-33.438299],[-70.679791,-33.438209],[-70.679952,-33.438219]]]}},{"type":"Feature","properties":{"OBJECTID_1":17,"CUT":13101,"COMUNA":"SANTIAGO","SUP_TOTAL_":150.683634624,"Nombre":"Plazoleta Agustinas","CATEGORIA":"PLAZOLETA"},"geometry":{"type":"Polygon","coordinates":[[[-70.657439,-33.441469],[-70.657598,-33.441486],[-70.657584,-33.441576],[-70.657425,-33.441559],[-70.657439,-33.441469]]]}},{"type":"Feature","properties":{"OBJECTID_1":18,"CUT":13101,"COMUNA":"SANTIAGO","SUP_TOTAL_":236.839460462,"Nombre":"Plazoleta Agustinas","CATEGORIA":"PLAZOLETA"},"geometry":{"type":"Polygon","coordinates":[[[-70.657602,-33.44149],[-70.6578,-33.441519],[-70.657781,-33.44167],[-70.657775,-33.441667],[-70.657771,-33.441666],[-70.657768,-33.441665],[-70.657762,-33.441662],[-70.657756,-33.441659],[-70.657749,-33.441656],[-70.657744,-33.441654],[-70.65774,-33.441651],[-70.657736,-33.441649],[-70.657732,-33.441647],[-70.657728,-33.441644],[-70.657724,-33.441642],[-70.65772,-33.44164],[-70.657716,-33.441637],[-70.657712,-33.441635],[-70.657705,-33.441629],[-70.657701,-33.441627],[-70.657698,-33.441624],[-70.657694,-33.441621],[-70.657691,-33.441618],[-70.657687,-33.441615],[-70.657686,-33.441614],[-70.657684,-33.441612],[-70.657681,-33.44161],[-70.657681,-33.441609],[-70.657677,-33.441606],[-70.657671,-33.4416],[-70.657668,-33.441596],[-70.657665,-33.441593],[-70.657664,-33.441591],[-70.657663,-33.441588],[-70.657588,-33.441581],[-70.657602,-33.44149]]]}},{"type":"Feature","properties":{"OBJECTID_1":19,"CUT":13101,"COMUNA":"SANTIAGO","SUP_TOTAL_":195.769979167,"Nombre":"Plazoleta Agustinas","CATEGORIA":"PLAZOLETA"},"geometry":{"type":"Polygon","coordinates":[[[-70.657919,-33.44168],[-70.657942,-33.441527],[-70.658129,-33.44154],[-70.658119,-33.441557],[-70.658107,-33.441572],[-70.658087,-33.441593],[-70.658065,-33.441611],[-70.658046,-33.441627],[-70.65802,-33.441644],[-70.657993,-33.441658],[-70.657963,-33.441669],[-70.657942,-33.441675],[-70.657919,-33.44168]]]}},{"type":"Feature","properties":{"OBJECTID_1":20,"CUT":13101,"COMUNA":"SANTIAGO","SUP_TOTAL_":485.472616518,"Nombre":"Plazoleta Guardia Marina Sur","CATEGORIA":"PLAZOLETA"},"geometry":{"type":"Polygon","coordinates":[[[-70.660705,-33.441798],[-70.6607,-33.44183],[-70.66066,-33.442117],[-70.660658,-33.442117],[-70.660633,-33.442114],[-70.660633,-33.442116],[-70.660624,-33.442208],[-70.660616,-33.442284],[-70.660524,-33.441871],[-70.660529,-33.441851],[-70.660541,-33.441832],[-70.660554,-33.441821],[-70.660567,-33.441811],[-70.660588,-33.441801],[-70.660623,-33.441795],[-70.660655,-33.441794],[-70.660705,-33.441798]]]}},{"type":"Feature","properties":{"OBJECTID_1":21,"CUT":13101,"COMUNA":"SANTIAGO","SUP_TOTAL_":457.879360682,"Nombre":"Los Retamos Oriente","CATEGORIA":"PLAZOLETA"},"geometry":{"type":"Polygon","coordinates":[[[-70.668928,-33.474315],[-70.669031,-33.474376],[-70.669036,-33.474386],[-70.669035,-33.474396],[-70.66902,-33.474417],[-70.668993,-33.474463],[-70.668962,-33.474521],[-70.668943,-33.47457],[-70.66892,-33.474639],[-70.668907,-33.474713],[-70.668908,-33.474746],[-70.668883,-33.474745],[-70.668862,-33.474744],[-70.668843,-33.474738],[-70.668836,-33.474734],[-70.668827,-33.474729],[-70.66882,-33.474723],[-70.668814,-33.474718],[-70.668808,-33.474711],[-70.668803,-33.474705],[-70.668795,-33.47469],[-70.668792,-33.474677],[-70.668791,-33.474666],[-70.668791,-33.474655],[-70.668793,-33.474642],[-70.668795,-33.474631],[-70.668798,-33.474618],[-70.668802,-33.474608],[-70.668808,-33.474596],[-70.668813,-33.474585],[-70.668814,-33.474583],[-70.668815,-33.474581],[-70.668815,-33.474579],[-70.668816,-33.474577],[-70.668817,-33.474576],[-70.668818,-33.474574],[-70.668819,-33.474572],[-70.66882,-33.47457],[-70.668821,-33.474568],[-70.668822,-33.474566],[-70.668822,-33.474564],[-70.668823,-33.474562],[-70.668824,-33.47456],[-70.668825,-33.474558],[-70.668826,-33.474556],[-70.668827,-33.474554],[-70.668828,-33.474552],[-70.668829,-33.47455],[-70.668829,-33.474548],[-70.66883,-33.474546],[-70.668831,-33.474545],[-70.668832,-33.474543],[-70.668833,-33.474541],[-70.668834,-33.474539],[-70.668835,-33.474537],[-70.668836,-33.474535],[-70.668836,-33.474533],[-70.668837,-33.474531],[-70.668838,-33.474529],[-70.668839,-33.474527],[-70.66884,-33.474525],[-70.668841,-33.474523],[-70.668842,-33.474521],[-70.668843,-33.474519],[-70.668843,-33.474517],[-70.668844,-33.474516],[-70.668845,-33.474514],[-70.66885,-33.474503],[-70.668856,-33.474493],[-70.668858,-33.474492],[-70.668859,-33.47449],[-70.66886,-33.474488],[-70.668861,-33.474486],[-70.668863,-33.474484],[-70.668864,-33.474483],[-70.668865,-33.474481],[-70.668866,-33.474479],[-70.668867,-33.474477],[-70.668869,-33.474475],[-70.66887,-33.474474],[-70.668871,-33.474472],[-70.668872,-33.47447],[-70.668873,-33.474468],[-70.668875,-33.474466],[-70.668876,-33.474465],[-70.668877,-33.474463],[-70.668878,-33.474461],[-70.66888,-33.474459],[-70.668881,-33.474457],[-70.668882,-33.474456],[-70.668883,-33.474454],[-70.668884,-33.474452],[-70.668886,-33.47445],[-70.668887,-33.474448],[-70.668888,-33.474447],[-70.668889,-33.474445],[-70.66889,-33.474443],[-70.668892,-33.474441],[-70.668893,-33.474439],[-70.668894,-33.474438],[-70.668895,-33.474436],[-70.668897,-33.474434],[-70.668898,-33.474432],[-70.668899,-33.47443],[-70.6689,-33.474429],[-70.668906,-33.47442],[-70.668914,-33.474412],[-70.668915,-33.47441],[-70.668916,-33.474409],[-70.668938,-33.474386],[-70.668947,-33.474371],[-70.66895,-33.474363],[-70.66895,-33.474351],[-70.668948,-33.474341],[-70.668946,-33.474337],[-70.668943,-33.474331],[-70.668938,-33.474325],[-70.668937,-33.474323],[-70.668928,-33.474315]]]}},{"type":"Feature","properties":{"OBJECTID_1":22,"CUT":13101,"COMUNA":"SANTIAGO","SUP_TOTAL_":330.341990845,"Nombre":"Plazoleta Londres","CATEGORIA":"PLAZOLETA"},"geometry":{"type":"Polygon","coordinates":[[[-70.648373,-33.444976],[-70.648385,-33.444981],[-70.648384,-33.444982],[-70.648421,-33.444997],[-70.648421,-33.444998],[-70.648436,-33.445004],[-70.648436,-33.445004],[-70.648452,-33.445011],[-70.648452,-33.44501],[-70.648506,-33.445097],[-70.648415,-33.445185],[-70.648286,-33.445152],[-70.648246,-33.445107],[-70.648373,-33.444976]]]}},{"type":"Feature","properties":{"OBJECTID_1":23,"CUT":13101,"COMUNA":"SANTIAGO","SUP_TOTAL_":663.505367511,"Nombre":"Plazoleta Lira","CATEGORIA":"PLAZOLETA"},"geometry":{"type":"Polygon","coordinates":[[[-70.639005,-33.448818],[-70.638938,-33.449022],[-70.638932,-33.44903],[-70.638927,-33.449034],[-70.638915,-33.449039],[-70.638895,-33.449041],[-70.638879,-33.44904],[-70.638867,-33.449039],[-70.638843,-33.449034],[-70.638539,-33.44895],[-70.638634,-33.448889],[-70.638716,-33.448854],[-70.638808,-33.448827],[-70.638906,-33.448815],[-70.639005,-33.448818]]]}},{"type":"Feature","properties":{"OBJECTID_1":24,"CUT":13101,"COMUNA":"SANTIAGO","SUP_TOTAL_":417.30541791,"Nombre":"Plazoleta","CATEGORIA":"PLAZOLETA"},"geometry":{"type":"Polygon","coordinates":[[[-70.65008,-33.455453],[-70.649929,-33.455435],[-70.649968,-33.455163],[-70.649969,-33.455168],[-70.649971,-33.455171],[-70.649975,-33.455175],[-70.649978,-33.455177],[-70.649981,-33.455179],[-70.649985,-33.45518],[-70.649989,-33.455181],[-70.650119,-33.455189],[-70.650108,-33.455275],[-70.65008,-33.455453]]]}},{"type":"Feature","properties":{"OBJECTID_1":25,"CUT":13101,"COMUNA":"SANTIAGO","SUP_TOTAL_":3868.51454918,"Nombre":"SN Metro","CATEGORIA":"PLAZOLETA"},"geometry":{"type":"Polygon","coordinates":[[[-70.649445,-33.475955],[-70.649471,-33.475825],[-70.649878,-33.475854],[-70.649868,-33.475972],[-70.649866,-33.475972],[-70.649865,-33.475973],[-70.649864,-33.475974],[-70.649816,-33.476577],[-70.649258,-33.476599],[-70.649196,-33.476388],[-70.649213,-33.476296],[-70.649367,-33.476318],[-70.649445,-33.475955]]]}},{"type":"Feature","properties":{"OBJECTID_1":26,"CUT":13101,"COMUNA":"SANTIAGO","SUP_TOTAL_":679.259428968,"Nombre":"Plazoleta Yungay Esperanza","CATEGORIA":"PLAZOLETA"},"geometry":{"type":"Polygon","coordinates":[[[-70.676001,-33.429196],[-70.676596,-33.429229],[-70.676581,-33.429336],[-70.67599,-33.429311],[-70.676001,-33.429196]]]}},{"type":"Feature","properties":{"OBJECTID_1":27,"CUT":13101,"COMUNA":"SANTIAGO","SUP_TOTAL_":129.524383791,"Nombre":"Plazoleta Stadium","CATEGORIA":"PLAZOLETA"},"geometry":{"type":"Polygon","coordinates":[[[-70.670836,-33.428934],[-70.67088,-33.429039],[-70.67073,-33.429051],[-70.670737,-33.428961],[-70.670836,-33.428934]]]}},{"type":"Feature","properties":{"OBJECTID_1":28,"CUT":13101,"COMUNA":"SANTIAGO","SUP_TOTAL_":493.567064706,"Nombre":"Plazoleta Tucapel Jimenez","CATEGORIA":"PLAZOLETA"},"geometry":{"type":"Polygon","coordinates":[[[-70.658898,-33.443636],[-70.658866,-33.443787],[-70.658728,-33.443689],[-70.658703,-33.443596],[-70.658724,-33.443505],[-70.658729,-33.443469],[-70.658915,-33.443479],[-70.658898,-33.443636]]]}},{"type":"Feature","properties":{"OBJECTID_1":29,"CUT":13101,"COMUNA":"SANTIAGO","SUP_TOTAL_":1991.47400025,"Nombre":"Plazoleta Mercado Central","CATEGORIA":"PLAZOLETA"},"geometry":{"type":"Polygon","coordinates":[[[-70.651588,-33.433183],[-70.651578,-33.433392],[-70.651433,-33.433394],[-70.651429,-33.433476],[-70.651342,-33.433477],[-70.651336,-33.433455],[-70.651328,-33.433444],[-70.650742,-33.433425],[-70.650725,-33.433527],[-70.650481,-33.433533],[-70.6505,-33.433447],[-70.650662,-33.433377],[-70.650903,-33.433292],[-70.651187,-33.433223],[-70.651451,-33.433182],[-70.651588,-33.433183]]]}},{"type":"Feature","properties":{"OBJECTID_1":30,"CUT":13101,"COMUNA":"SANTIAGO","SUP_TOTAL_":109.927430725,"Nombre":"Plazoleta Mac Iver Santo Domingo","CATEGORIA":"PLAZOLETA"},"geometry":{"type":"Polygon","coordinates":[[[-70.646977,-33.435644],[-70.646975,-33.435702],[-70.646787,-33.435683],[-70.646796,-33.435626],[-70.646977,-33.435644]]]}},{"type":"Feature","properties":{"OBJECTID_1":31,"CUT":13101,"COMUNA":"SANTIAGO","SUP_TOTAL_":263.99717627,"Nombre":"Plazoleta Merced con Mac Iver","CATEGORIA":"PLAZOLETA"},"geometry":{"type":"Polygon","coordinates":[[[-70.647308,-33.437879],[-70.647289,-33.438032],[-70.647119,-33.438007],[-70.647142,-33.43786],[-70.647308,-33.437879]]]}},{"type":"Feature","properties":{"OBJECTID_1":32,"CUT":13101,"COMUNA":"SANTIAGO","SUP_TOTAL_":63.4198141472,"Nombre":"Plazoleta Merced con Mac Iver","CATEGORIA":"PLAZOLETA"},"geometry":{"type":"Polygon","coordinates":[[[-70.646986,-33.437846],[-70.647029,-33.437849],[-70.64701,-33.437983],[-70.646962,-33.437978],[-70.646986,-33.437846]]]}},{"type":"Feature","properties":{"OBJECTID_1":33,"CUT":13101,"COMUNA":"SANTIAGO","SUP_TOTAL_":284.408381557,"Nombre":"Plazoleta Diagonal Paraguay Marcoleta","CATEGORIA":"PLAZOLETA"},"geometry":{"type":"Polygon","coordinates":[[[-70.641875,-33.442901],[-70.641953,-33.443049],[-70.641546,-33.442986],[-70.641875,-33.442901]]]}},{"type":"Feature","properties":{"OBJECTID_1":34,"CUT":13101,"COMUNA":"SANTIAGO","SUP_TOTAL_":739.103747826,"Nombre":"Plazoleta Leonardo Da Vinci","CATEGORIA":"PLAZOLETA"},"geometry":{"type":"Polygon","coordinates":[[[-70.636334,-33.442698],[-70.636113,-33.443193],[-70.635966,-33.443185],[-70.636212,-33.442672],[-70.636334,-33.442698]]]}},{"type":"Feature","properties":{"OBJECTID_1":35,"CUT":13101,"COMUNA":"SANTIAGO","SUP_TOTAL_":639.263846245,"Nombre":"Plazoleta Diez de Julio  General Urrutia","CATEGORIA":"PLAZOLETA"},"geometry":{"type":"Polygon","coordinates":[[[-70.637479,-33.451781],[-70.637448,-33.451912],[-70.637003,-33.451841],[-70.63703,-33.451703],[-70.637479,-33.451781]]]}},{"type":"Feature","properties":{"OBJECTID_1":36,"CUT":13101,"COMUNA":"SANTIAGO","SUP_TOTAL_":156.191255231,"Nombre":"Plazoleta Chiloe Ñuble","CATEGORIA":"PLAZOLETA"},"geometry":{"type":"Polygon","coordinates":[[[-70.645209,-33.471973],[-70.645202,-33.472205],[-70.645135,-33.47221],[-70.645148,-33.471969],[-70.645209,-33.471973]]]}},{"type":"Feature","properties":{"OBJECTID_1":37,"CUT":13101,"COMUNA":"SANTIAGO","SUP_TOTAL_":475.309031261,"Nombre":"Plazoleta Gremio de los Peluqueros","CATEGORIA":"PLAZOLETA"},"geometry":{"type":"Polygon","coordinates":[[[-70.643806,-33.471117],[-70.6438,-33.471206],[-70.643498,-33.471203],[-70.643432,-33.471238],[-70.643362,-33.471156],[-70.643372,-33.471068],[-70.643415,-33.471047],[-70.643509,-33.471112],[-70.643806,-33.471117]]]}},{"type":"Feature","properties":{"OBJECTID_1":38,"CUT":13101,"COMUNA":"SANTIAGO","SUP_TOTAL_":97.8895004743,"Nombre":"Plazoleta Gral Gana San Francisco","CATEGORIA":"PLAZOLETA"},"geometry":{"type":"Polygon","coordinates":[[[-70.643841,-33.470415],[-70.643832,-33.470514],[-70.643732,-33.470503],[-70.643747,-33.470409],[-70.643841,-33.470415]]]}},{"type":"Feature","properties":{"OBJECTID_1":39,"CUT":13101,"COMUNA":"SANTIAGO","SUP_TOTAL_":80.9855891326,"Nombre":"Plazoleta Chiloe Arauco","CATEGORIA":"PLAZOLETA"},"geometry":{"type":"Polygon","coordinates":[[[-70.644055,-33.46939],[-70.64404,-33.469657],[-70.644013,-33.469653],[-70.644023,-33.469389],[-70.644055,-33.46939]]]}},{"type":"Feature","properties":{"OBJECTID_1":40,"CUT":13101,"COMUNA":"SANTIAGO","SUP_TOTAL_":285.914252569,"Nombre":"Plazoleta Franklin Cuevas","CATEGORIA":"PLAZOLETA"},"geometry":{"type":"Polygon","coordinates":[[[-70.630988,-33.471853],[-70.630972,-33.471908],[-70.63052,-33.47182],[-70.630539,-33.471758],[-70.630988,-33.471853]]]}}]}