{
"type": "FeatureCollection",
"name": "INS_POL_TERRENOS_FISCALES_MBN_2026",
"features": [
{ "type": "Feature", "properties": { "NOMBRE": "GENERAL MACKENNA 1370 COMUNA SANTIAGO", "ID_INSTITU": 42455.0, "URB_RUR": "URBANO", "ROL_SII": "ROL SII SANTIAGO 256-1", "SUP_M2": 2196.0, "SUP_HA": 0.0 }, "geometry": { "type": "Polygon", "coordinates": [ [ [ -70.6574445, -33.4332052 ], [ -70.6573922, -33.4335807 ], [ -70.6568496, -33.4335614 ], [ -70.656853, -33.4331872 ], [ -70.6574445, -33.4332052 ] ] ] } },
{ "type": "Feature", "properties": { "NOMBRE": "MERCED 343 COMUNA SANTIAGO", "ID_INSTITU": 36459.0, "URB_RUR": "URBANO", "ROL_SII": "ROL SII SANTIAGO 148-45", "SUP_M2": 275.0, "SUP_HA": 0.0 }, "geometry": { "type": "Polygon", "coordinates": [ [ [ -70.6421218, -33.4372988 ], [ -70.6420049, -33.4372636 ], [ -70.6420304, -33.4370761 ], [ -70.6421629, -33.437056 ], [ -70.6421218, -33.4372988 ] ] ] } },
{ "type": "Feature", "properties": { "NOMBRE": "MONEDA 1155 COMUNA SANTIAGO", "ID_INSTITU": 303615.0, "URB_RUR": "URBANO", "ROL_SII": "ROL SII SANTIAGO 82-139", "SUP_M2": 664.46, "SUP_HA": 0.0 }, "geometry": { "type": "Polygon", "coordinates": [ [ [ -70.6526895, -33.4418629 ], [ -70.6530034, -33.4418885 ], [ -70.6529695, -33.4420968 ], [ -70.6526618, -33.4420644 ], [ -70.6526895, -33.4418629 ] ] ] } },
{ "type": "Feature", "properties": { "NOMBRE": "MARINA DE GAETE 755 COMUNA SANTIAGO", "ID_INSTITU": 36441.0, "URB_RUR": "URBANO", "ROL_SII": "ROL SII SANTIAGO SUR 3018-14", "SUP_M2": 197.2, "SUP_HA": 0.0 }, "geometry": { "type": "Polygon", "coordinates": [ [ [ -70.6440151, -33.4605522 ], [ -70.6439969, -33.4607074 ], [ -70.6438679, -33.4606969 ], [ -70.6438872, -33.460539 ], [ -70.6440151, -33.4605522 ] ] ] } },
{ "type": "Feature", "properties": { "NOMBRE": "LIRA 1652 COMUNA SANTIAGO", "ID_INSTITU": 36401.0, "URB_RUR": "URBANO", "ROL_SII": "ROL SII SANTIAGO 3416-20", "SUP_M2": 162.03, "SUP_HA": 0.0 }, "geometry": { "type": "Polygon", "coordinates": [ [ [ -70.6337166, -33.4662596 ], [ -70.6336975, -33.4663341 ], [ -70.6334918, -33.4663008 ], [ -70.6335093, -33.4662277 ], [ -70.6337166, -33.4662596 ] ] ] } },
{ "type": "Feature", "properties": { "NOMBRE": "MATUCANA 573 COMUNA SANTIAGO", "ID_INSTITU": 230640.0, "URB_RUR": "URBANO", "ROL_SII": "ROL SII SANTIAGO OESTE 278-28", "SUP_M2": 6278.5, "SUP_HA": 0.0 }, "geometry": { "type": "Polygon", "coordinates": [ [ [ -70.6798865, -33.4386139 ], [ -70.6798523, -33.4392637 ], [ -70.6789249, -33.4392114 ], [ -70.6789847, -33.4385568 ], [ -70.6798865, -33.4386139 ] ] ] } },
{ "type": "Feature", "properties": { "NOMBRE": "MORANDE 107 COMUNA SANTIAGO", "ID_INSTITU": 36489.0, "URB_RUR": "URBANO", "ROL_SII": "ROL SII SANTIAGO 82-75", "SUP_M2": 6951.0, "SUP_HA": 0.0 }, "geometry": { "type": "Polygon", "coordinates": [ [ [ -70.6529883, -33.4420869 ], [ -70.6530177, -33.4418603 ], [ -70.6533134, -33.4418858 ], [ -70.6532788, -33.4421181 ], [ -70.6529883, -33.4420869 ] ] ] } },
{ "type": "Feature", "properties": { "NOMBRE": "HUERFANOS 620 - 628 ESTACIONAMIENTO 246 COMUNA SANTIAGO", "ID_INSTITU": 333811.0, "URB_RUR": "URBANO", "ROL_SII": "ROL SII SANTIAGO 97-510", "SUP_M2": 14.8, "SUP_HA": 0.0 }, "geometry": { "type": "Polygon", "coordinates": [ [ [ -70.6459628, -33.439179 ], [ -70.6459394, -33.4393282 ], [ -70.645723, -33.4393045 ], [ -70.6457484, -33.4391524 ], [ -70.6459628, -33.439179 ] ] ] } },
{ "type": "Feature", "properties": { "NOMBRE": "JOSE VICTORINO LASTARRIA 46 COMUNA SANTIAGO", "ID_INSTITU": 36389.0, "URB_RUR": "URBANO", "ROL_SII": "ROL SII SANTIAGO 13-76", "SUP_M2": 174.77, "SUP_HA": 0.0 }, "geometry": { "type": "Polygon", "coordinates": [ [ [ -70.6412701, -33.4397992 ], [ -70.6413974, -33.4398701 ], [ -70.6413195, -33.4399471 ], [ -70.6412036, -33.4398666 ], [ -70.6412701, -33.4397992 ] ] ] } },
{ "type": "Feature", "properties": { "NOMBRE": "TEATINOS 28 TEATINOS 40 COMUNA SANTIAGO", "ID_INSTITU": 42915.0, "URB_RUR": "URBANO", "ROL_SII": "ROL SII SANTIAGO 35-58", "SUP_M2": 11913.0, "SUP_HA": 0.0 }, "geometry": { "type": "Polygon", "coordinates": [ [ [ -70.6549095, -33.4435355 ], [ -70.6548829, -33.4436639 ], [ -70.6547286, -33.4436471 ], [ -70.6547136, -33.4437257 ], [ -70.6545283, -33.4437005 ], [ -70.6545708, -33.4434783 ], [ -70.6549095, -33.4435355 ] ] ] } },
{ "type": "Feature", "properties": { "NOMBRE": "COQUIMBO 1410 COMUNA SANTIAGO", "ID_INSTITU": 36261.0, "URB_RUR": "URBANO", "ROL_SII": "ROL SII SANTIAGO SUR 2886-33", "SUP_M2": 144.0, "SUP_HA": 0.0 }, "geometry": { "type": "Polygon", "coordinates": [ [ [ -70.6540098, -33.4577439 ], [ -70.6539765, -33.4579645 ], [ -70.6539118, -33.4579549 ], [ -70.6539442, -33.457731 ], [ -70.6540098, -33.4577439 ] ] ] } },
{ "type": "Feature", "properties": { "NOMBRE": "BERNARDO OHIGGINS 1449 EDIFICIO STGO DOWNTOWN SIETE O TORRE SIETE COMUNA SANTIAGO", "ID_INSTITU": 1002689.0, "URB_RUR": "URBANO", "ROL_SII": "ROL SII SANTIAGO 44-920, ROL SII SANTIAGO 44-921, ROL SII SANTIAGO 44-922, ROL SII SANTIAGO 44-923, ROL SII SANTIAGO 44-924, ROL SII SANTIAGO 44-925,", "SUP_M2": 6482.5, "SUP_HA": 0.0 }, "geometry": { "type": "Polygon", "coordinates": [ [ [ -70.656748, -33.4440148 ], [ -70.6565603, -33.4439919 ], [ -70.656632, -33.4435415 ], [ -70.6568218, -33.4435626 ], [ -70.656748, -33.4440148 ] ] ] } },
{ "type": "Feature", "properties": { "NOMBRE": "MATUCANA 501 - 573 COMUNA SANTIAGO", "ID_INSTITU": 48501.0, "URB_RUR": "URBANO", "ROL_SII": "ROL SII SANTIAGO OESTE 278-28", "SUP_M2": 8766.3, "SUP_HA": 0.0 }, "geometry": { "type": "Polygon", "coordinates": [ [ [ -70.6797287, -33.4402193 ], [ -70.6788696, -33.4401302 ], [ -70.6788462, -33.4400973 ], [ -70.6789231, -33.4392223 ], [ -70.6798393, -33.4392841 ], [ -70.6797606, -33.4401979 ], [ -70.6797287, -33.4402193 ] ] ] } },
{ "type": "Feature", "properties": { "NOMBRE": "HUERFANOS 620 - 628 OFICINA 72 PISO 7 Y MEDIO COMUNA SANTIAGO", "ID_INSTITU": 42641.0, "URB_RUR": "URBANO", "ROL_SII": "ROL SII SANTIAGO 97-256", "SUP_M2": 215.77, "SUP_HA": 0.0 }, "geometry": { "type": "Polygon", "coordinates": [ [ [ -70.6459552, -33.4391795 ], [ -70.6459371, -33.4393284 ], [ -70.6457322, -33.4393022 ], [ -70.6457553, -33.4391529 ], [ -70.6459552, -33.4391795 ] ] ] } },
{ "type": "Feature", "properties": { "NOMBRE": "CARMEN 508 COMUNA SANTIAGO", "ID_INSTITU": 185502.0, "URB_RUR": "URBANO", "ROL_SII": "ROL SII SANTIAGO 621-20", "SUP_M2": 400.0, "SUP_HA": 0.0 }, "geometry": { "type": "Polygon", "coordinates": [ [ [ -70.6410645, -33.4497767 ], [ -70.641481, -33.4498921 ], [ -70.6414752, -33.4499089 ], [ -70.6414255, -33.4500563 ], [ -70.6410593, -33.4497804 ], [ -70.6410645, -33.4497767 ] ] ] } },
{ "type": "Feature", "properties": { "NOMBRE": "SANTA ROSA 460 COMUNA SANTIAGO", "ID_INSTITU": 36660.0, "URB_RUR": "URBANO", "ROL_SII": "ROL SII SANTIAGO 593-22", "SUP_M2": 884.5, "SUP_HA": 0.0 }, "geometry": { "type": "Polygon", "coordinates": [ [ [ -70.6444212, -33.4501055 ], [ -70.6443938, -33.4502341 ], [ -70.6437574, -33.4501152 ], [ -70.6437922, -33.4499846 ], [ -70.6444212, -33.4501055 ] ] ] } },
{ "type": "Feature", "properties": { "NOMBRE": "PORTUGAL 645 COMUNA SANTIAGO", "ID_INSTITU": 36545.0, "URB_RUR": "URBANO", "ROL_SII": "ROL SII SANTIAGO 676-4", "SUP_M2": 221.0, "SUP_HA": 0.0 }, "geometry": { "type": "Polygon", "coordinates": [ [ [ -70.6351489, -33.4503012 ], [ -70.6351281, -33.4503787 ], [ -70.6348646, -33.4503295 ], [ -70.6348872, -33.4502525 ], [ -70.6351489, -33.4503012 ] ] ] } },
{ "type": "Feature", "properties": { "NOMBRE": "HUERFANOS 620 - 628 ESTACIONAMIENTO 242 COMUNA SANTIAGO", "ID_INSTITU": 333807.0, "URB_RUR": "URBANO", "ROL_SII": "ROL SII SANTIAGO 97-506", "SUP_M2": 13.12, "SUP_HA": 0.0 }, "geometry": { "type": "Polygon", "coordinates": [ [ [ -70.6459628, -33.439179 ], [ -70.6459394, -33.4393282 ], [ -70.645723, -33.4393045 ], [ -70.6457484, -33.4391524 ], [ -70.6459628, -33.439179 ] ] ] } },
{ "type": "Feature", "properties": { "NOMBRE": "VERGARA 24 DEPARTAMENTO 809 COMUNA SANTIAGO", "ID_INSTITU": 36725.0, "URB_RUR": "URBANO", "ROL_SII": "ROL SII SANTIAGO 401-103", "SUP_M2": 54.7, "SUP_HA": 0.0 }, "geometry": { "type": "Polygon", "coordinates": [ [ [ -70.662214, -33.4471342 ], [ -70.6622042, -33.4472153 ], [ -70.6621356, -33.4472083 ], [ -70.662148, -33.4471276 ], [ -70.662214, -33.4471342 ] ] ] } },
{ "type": "Feature", "properties": { "NOMBRE": "MANUEL DE AMATT 2940 COMUNA SANTIAGO", "ID_INSTITU": 36420.0, "URB_RUR": "URBANO", "ROL_SII": "ROL SII SANTIAGO OESTE 1357-1", "SUP_M2": 10111.8, "SUP_HA": 0.0 }, "geometry": { "type": "Polygon", "coordinates": [ [ [ -70.6741732, -33.4685043 ], [ -70.6741487, -33.4693464 ], [ -70.6741108, -33.469382 ], [ -70.6731116, -33.4693684 ], [ -70.6730481, -33.4693242 ], [ -70.6730699, -33.4684692 ], [ -70.6731061, -33.4684425 ], [ -70.6741261, -33.468458 ], [ -70.6741732, -33.4685043 ] ] ] } },
{ "type": "Feature", "properties": { "NOMBRE": "ROMERO 3226 COMUNA SANTIAGO", "ID_INSTITU": 36592.0, "URB_RUR": "URBANO", "ROL_SII": "ROL SII SANTIAGO OESTE 478-33", "SUP_M2": 1064.0, "SUP_HA": 0.0 }, "geometry": { "type": "Polygon", "coordinates": [ [ [ -70.6785893, -33.4483915 ], [ -70.678557, -33.4487916 ], [ -70.6784064, -33.4487813 ], [ -70.6784156, -33.4486928 ], [ -70.6781221, -33.4486685 ], [ -70.678142, -33.448362 ], [ -70.6785893, -33.4483915 ] ] ] } },
{ "type": "Feature", "properties": { "NOMBRE": "SANTA ELENA 905 COMUNA SANTIAGO", "ID_INSTITU": 36646.0, "URB_RUR": "URBANO", "ROL_SII": "ROL SII SANTIAGO SUR 2833-2", "SUP_M2": 182.0, "SUP_HA": 0.0 }, "geometry": { "type": "Polygon", "coordinates": [ [ [ -70.6319522, -33.4536779 ], [ -70.632215, -33.4537292 ], [ -70.6321973, -33.4537907 ], [ -70.631936, -33.4537394 ], [ -70.6319522, -33.4536779 ] ] ] } },
{ "type": "Feature", "properties": { "NOMBRE": "SAN CAMILO 959 COMUNA SANTIAGO", "ID_INSTITU": 36611.0, "URB_RUR": "URBANO", "ROL_SII": "ROL SII SANTIAGO SUR 2835-9", "SUP_M2": 525.4, "SUP_HA": 0.0 }, "geometry": { "type": "Polygon", "coordinates": [ [ [ -70.6330097, -33.4546624 ], [ -70.6326394, -33.454588 ], [ -70.6326698, -33.454458 ], [ -70.6330425, -33.4545333 ], [ -70.6330097, -33.4546624 ] ] ] } },
{ "type": "Feature", "properties": { "NOMBRE": "HUERFANOS 620 - 628 ESTACIONAMIENTO 244 COMUNA SANTIAGO", "ID_INSTITU": 42646.0, "URB_RUR": "URBANO", "ROL_SII": "ROL SII SANTIAGO 97-508", "SUP_M2": 14.28, "SUP_HA": 0.0 }, "geometry": { "type": "Polygon", "coordinates": [ [ [ -70.6459628, -33.439179 ], [ -70.6459394, -33.4393282 ], [ -70.645723, -33.4393045 ], [ -70.6457484, -33.4391524 ], [ -70.6459628, -33.439179 ] ] ] } },
{ "type": "Feature", "properties": { "NOMBRE": "ROBERTO ESPINOZA 1270 AL 1272 - 1256 AL 1260 COMUNA SANTIAGO", "ID_INSTITU": 36583.0, "URB_RUR": "URBANO", "ROL_SII": "ROL SII SANTIAGO SUR 3085-9, ROL SII SANTIAGO SUR 3085-10, ROL SII SANTIAGO SUR 3085-25", "SUP_M2": 2776.78, "SUP_HA": 0.0 }, "geometry": { "type": "Polygon", "coordinates": [ [ [ -70.6521812, -33.4619458 ], [ -70.6521016, -33.4625409 ], [ -70.6518245, -33.4625205 ], [ -70.6518393, -33.4623876 ], [ -70.6517362, -33.4623815 ], [ -70.6517501, -33.4622508 ], [ -70.6513855, -33.4622386 ], [ -70.6514002, -33.4621116 ], [ -70.6517662, -33.4621238 ], [ -70.6517959, -33.4619374 ], [ -70.6521812, -33.4619458 ] ] ] } },
{ "type": "Feature", "properties": { "NOMBRE": "ISMAEL VALDES VERGARA 820 DEPARTAMENTO 32 COMUNA SANTIAGO", "ID_INSTITU": 36380.0, "URB_RUR": "URBANO", "ROL_SII": "ROL SII SANTIAGO 227-146", "SUP_M2": 52.8, "SUP_HA": 0.0 }, "geometry": { "type": "Polygon", "coordinates": [ [ [ -70.6492599, -33.4339089 ], [ -70.6492502, -33.4339112 ], [ -70.649271, -33.433969 ], [ -70.649203, -33.4339869 ], [ -70.6491842, -33.4339163 ], [ -70.6492572, -33.4338981 ], [ -70.6492599, -33.4339089 ] ] ] } },
{ "type": "Feature", "properties": { "NOMBRE": "JOSE MIGUEL DE LA BARRA 650 COMUNA SANTIAGO", "ID_INSTITU": 42920.0, "URB_RUR": "URBANO", "ROL_SII": "ROL SII SANTIAGO 198-2", "SUP_M2": 3800.0, "SUP_HA": 0.0 }, "geometry": { "type": "Polygon", "coordinates": [ [ [ -70.6440469, -33.4352477 ], [ -70.6440982, -33.4353857 ], [ -70.6440493, -33.4353981 ], [ -70.6440505, -33.4354236 ], [ -70.6440375, -33.4354502 ], [ -70.6440198, -33.4354679 ], [ -70.6439951, -33.4354826 ], [ -70.6439668, -33.4354934 ], [ -70.6439291, -33.4354983 ], [ -70.643902, -33.4354944 ], [ -70.6438738, -33.4354836 ], [ -70.6438549, -33.4354629 ], [ -70.6438172, -33.4354718 ], [ -70.6438314, -33.4355229 ], [ -70.6438302, -33.4355435 ], [ -70.6438196, -33.4355573 ], [ -70.6438055, -33.4355691 ], [ -70.6437831, -33.4355829 ], [ -70.6434017, -33.4356657 ], [ -70.6433826, -33.4356703 ], [ -70.6433508, -33.4356654 ], [ -70.6433296, -33.4356615 ], [ -70.6433178, -33.4356477 ], [ -70.6433108, -33.43563 ], [ -70.6432558, -33.4354514 ], [ -70.6431656, -33.4354705 ], [ -70.6431152, -33.4353187 ], [ -70.6432038, -33.4352957 ], [ -70.6431442, -33.4351146 ], [ -70.643158, -33.4350738 ], [ -70.6431931, -33.4350534 ], [ -70.6433733, -33.4350144 ], [ -70.6435808, -33.4349664 ], [ -70.643605, -33.4349658 ], [ -70.6436235, -33.4349698 ], [ -70.6436476, -33.4349792 ], [ -70.6436654, -33.4349953 ], [ -70.6436871, -33.4350538 ], [ -70.6437113, -33.4350491 ], [ -70.6437137, -33.4350377 ], [ -70.6437241, -33.4350081 ], [ -70.6437451, -33.4349873 ], [ -70.6437797, -33.4349691 ], [ -70.6438175, -33.4349611 ], [ -70.6438473, -33.4349622 ], [ -70.6438848, -33.4349723 ], [ -70.6439153, -33.4349929 ], [ -70.6439298, -33.4350196 ], [ -70.6439676, -33.4350148 ], [ -70.6439998, -33.4351071 ], [ -70.6440469, -33.4352477 ], [ -70.6440469, -33.4352477 ] ] ] } },
{ "type": "Feature", "properties": { "NOMBRE": "MORANDE 450 Y 482 Y CATEDRAL 1236 AL 1252 COMUNA SANTIAGO", "ID_INSTITU": 303226.0, "URB_RUR": "URBANO", "ROL_SII": "ROL SII SANTIAGO 161-150, ROL SII SANTIAGO 161-151, ROL SII SANTIAGO 161-152, ROL SII SANTIAGO 161-153", "SUP_M2": 2554.2, "SUP_HA": 0.0 }, "geometry": { "type": "Polygon", "coordinates": [ [ [ -70.6547116, -33.4380192 ], [ -70.6545059, -33.4379988 ], [ -70.6544631, -33.4382486 ], [ -70.654009, -33.4382027 ], [ -70.6540864, -33.4377201 ], [ -70.6547462, -33.4377948 ], [ -70.6547116, -33.4380192 ], [ -70.6547116, -33.4380192 ] ] ] } },
{ "type": "Feature", "properties": { "NOMBRE": "HUERFANOS 620 - 628 OFICINA 82 PISO 8 Y MEDIO COMUNA SANTIAGO", "ID_INSTITU": 42643.0, "URB_RUR": "URBANO", "ROL_SII": "ROL SII SANTIAGO 97-258", "SUP_M2": 215.77, "SUP_HA": 0.0 }, "geometry": { "type": "Polygon", "coordinates": [ [ [ -70.6459628, -33.439179 ], [ -70.6459394, -33.4393282 ], [ -70.645723, -33.4393045 ], [ -70.6457484, -33.4391524 ], [ -70.6459628, -33.439179 ] ] ] } },
{ "type": "Feature", "properties": { "NOMBRE": "REPUBLICA 97 COMUNA SANTIAGO", "ID_INSTITU": 36572.0, "URB_RUR": "URBANO", "ROL_SII": "ROL SII SANTIAGO OESTE 556-8", "SUP_M2": 1096.0, "SUP_HA": 0.0 }, "geometry": { "type": "Polygon", "coordinates": [ [ [ -70.6687344, -33.4498914 ], [ -70.6686884, -33.4500737 ], [ -70.6681177, -33.4499438 ], [ -70.6681633, -33.4497803 ], [ -70.6687344, -33.4498914 ] ] ] } },
{ "type": "Feature", "properties": { "NOMBRE": "ESPANA 520 AL 524 COMUNA SANTIAGO", "ID_INSTITU": 36320.0, "URB_RUR": "URBANO", "ROL_SII": "ROL SII SANTIAGO OESTE 855-21", "SUP_M2": 893.27, "SUP_HA": 0.0 }, "geometry": { "type": "Polygon", "coordinates": [ [ [ -70.6683715, -33.4552906 ], [ -70.6684146, -33.4551278 ], [ -70.6687695, -33.4551833 ], [ -70.6687272, -33.4553476 ], [ -70.6683715, -33.4552906 ] ] ] } },
{ "type": "Feature", "properties": { "NOMBRE": "RENACA 11 COMUNA SANTIAGO", "ID_INSTITU": 747585.0, "URB_RUR": "URBANO", "ROL_SII": "ROL SII SANTIAGO 303-63", "SUP_M2": 434.58, "SUP_HA": 0.0 }, "geometry": { "type": "Polygon", "coordinates": [ [ [ -70.6356029, -33.4379724 ], [ -70.635225, -33.4378941 ], [ -70.6352853, -33.437672 ], [ -70.6356677, -33.4377559 ], [ -70.6356029, -33.4379724 ], [ -70.6356029, -33.4379724 ] ] ] } },
{ "type": "Feature", "properties": { "NOMBRE": "BERNARDO OHIGGINS 232 BERNARDO OHIGGINS 280 CHAPA A COMUNA SANTIAGO", "ID_INSTITU": 304838.0, "URB_RUR": "URBANO", "ROL_SII": "ROL SII SANTIAGO 1086-32, ROL SII SANTIAGO 1086-33, ROL SII SANTIAGO 1086-34, ROL SII SANTIAGO 1086-35, ROL SII SANTIAGO 1086-36, ROL SII SANTIAGO 108", "SUP_M2": 412.97, "SUP_HA": 0.0 }, "geometry": { "type": "Polygon", "coordinates": [ [ [ -70.6388446, -33.4394541 ], [ -70.6384156, -33.4391628 ], [ -70.6384722, -33.4391065 ], [ -70.6384724, -33.4391067 ], [ -70.638898, -33.4393978 ], [ -70.638898, -33.4393979 ], [ -70.6388446, -33.4394541 ], [ -70.6388446, -33.4394541 ] ] ] } },
{ "type": "Feature", "properties": { "NOMBRE": "TEATINOS 78 COMUNA SANTIAGO", "ID_INSTITU": 42608.0, "URB_RUR": "URBANO", "ROL_SII": "ROL SII SANTIAGO 36-8", "SUP_M2": 1832.0, "SUP_HA": 0.0 }, "geometry": { "type": "Polygon", "coordinates": [ [ [ -70.6546979, -33.4430941 ], [ -70.6548018, -33.4431069 ], [ -70.6547848, -33.4432242 ], [ -70.6546932, -33.4432138 ], [ -70.6546844, -33.4432676 ], [ -70.654664, -33.4432649 ], [ -70.6546667, -33.4432558 ], [ -70.6545416, -33.4432352 ], [ -70.6545805, -33.4429822 ], [ -70.6547168, -33.442996 ], [ -70.6546979, -33.4430941 ], [ -70.6546979, -33.4430941 ] ] ] } },
{ "type": "Feature", "properties": { "NOMBRE": "MONEDA 1326 LOTE A COMUNA SANTIAGO", "ID_INSTITU": 303901.0, "URB_RUR": "URBANO", "ROL_SII": "ROL SII SANTIAGO 36-10", "SUP_M2": 2999.18, "SUP_HA": 0.0 }, "geometry": { "type": "Polygon", "coordinates": [ [ [ -70.6552405, -33.442731 ], [ -70.6552972, -33.4427399 ], [ -70.6552165, -33.4430741 ], [ -70.6547168, -33.4430138 ], [ -70.6547196, -33.4429956 ], [ -70.6545668, -33.4429804 ], [ -70.6546662, -33.4423995 ], [ -70.6546751, -33.4423879 ], [ -70.6546933, -33.4423772 ], [ -70.6547112, -33.442375 ], [ -70.6553104, -33.4424294 ], [ -70.6552405, -33.442731 ], [ -70.6552405, -33.442731 ] ] ] } },
{ "type": "Feature", "properties": { "NOMBRE": "AHUMADA 48 COMUNA SANTIAGO", "ID_INSTITU": 871445.0, "URB_RUR": "URBANO", "ROL_SII": "ROL SII SANTIAGO 29-162", "SUP_M2": 3767.6, "SUP_HA": 0.0 }, "geometry": { "type": "Polygon", "coordinates": [ [ [ -70.6505735, -33.4430544 ], [ -70.6504962, -33.4430536 ], [ -70.6505209, -33.4429011 ], [ -70.6505969, -33.442903 ], [ -70.6505735, -33.4430544 ], [ -70.6505735, -33.4430544 ] ] ] } },
{ "type": "Feature", "properties": { "NOMBRE": "BERNARDO OHIGGINS 448 COMUNA SANTIAGO", "ID_INSTITU": 36130.0, "URB_RUR": "URBANO", "ROL_SII": "ROL SII SANTIAGO 322-34", "SUP_M2": 241.5, "SUP_HA": 0.0 }, "geometry": { "type": "Polygon", "coordinates": [ [ [ -70.6425778, -33.441869 ], [ -70.6424997, -33.4419994 ], [ -70.6423452, -33.4419215 ], [ -70.6424233, -33.4417892 ], [ -70.6425778, -33.441869 ] ] ] } },
{ "type": "Feature", "properties": { "NOMBRE": "SANTA ROSA 1710 COMUNA SANTIAGO", "ID_INSTITU": 36658.0, "URB_RUR": "URBANO", "ROL_SII": "ROL SII SANTIAGO SUR 3456-8", "SUP_M2": 1586.7, "SUP_HA": 0.0 }, "geometry": { "type": "Polygon", "coordinates": [ [ [ -70.642226, -33.4679488 ], [ -70.6422482, -33.4679684 ], [ -70.642233, -33.468162 ], [ -70.6415504, -33.4680952 ], [ -70.6415684, -33.4678912 ], [ -70.642226, -33.4679488 ] ] ] } },
{ "type": "Feature", "properties": { "NOMBRE": "SANTA ROSA 342 - 346 COMUNA SANTIAGO", "ID_INSTITU": 36659.0, "URB_RUR": "URBANO", "ROL_SII": "ROL SII SANTIAGO 522-24", "SUP_M2": 1070.0, "SUP_HA": 0.0 }, "geometry": { "type": "Polygon", "coordinates": [ [ [ -70.6445403, -33.4486687 ], [ -70.6445109, -33.4488813 ], [ -70.6441, -33.4488185 ], [ -70.644121, -33.4487233 ], [ -70.6439368, -33.4486927 ], [ -70.643969, -33.4485761 ], [ -70.6445403, -33.4486687 ] ] ] } },
{ "type": "Feature", "properties": { "NOMBRE": "MAC IVER 283 COMUNA SANTIAGO", "ID_INSTITU": 36414.0, "URB_RUR": "URBANO", "ROL_SII": "ROL SII SANTIAGO 97-97", "SUP_M2": 309.29, "SUP_HA": 0.0 }, "geometry": { "type": "Polygon", "coordinates": [ [ [ -70.6467016, -33.4394435 ], [ -70.646551, -33.4394204 ], [ -70.6465605, -33.4393699 ], [ -70.6465087, -33.4393603 ], [ -70.6465258, -33.4392565 ], [ -70.6467224, -33.4392807 ], [ -70.6467016, -33.4394435 ] ] ] } },
{ "type": "Feature", "properties": { "NOMBRE": "CATEDRAL 1183 COMUNA SANTIAGO", "ID_INSTITU": 36201.0, "URB_RUR": "URBANO", "ROL_SII": "ROL SII SANTIAGO 187-5", "SUP_M2": 1853.16, "SUP_HA": 0.0 }, "geometry": { "type": "Polygon", "coordinates": [ [ [ -70.6540376, -33.4370069 ], [ -70.654017, -33.4371468 ], [ -70.6539547, -33.4375763 ], [ -70.653633, -33.4375448 ], [ -70.6537068, -33.4370333 ], [ -70.6539362, -33.4370562 ], [ -70.6539447, -33.4369989 ], [ -70.6540376, -33.4370069 ] ] ] } },
{ "type": "Feature", "properties": { "NOMBRE": "NUEVA DE VALDES 925 - 927 - 935 COMUNA SANTIAGO", "ID_INSTITU": 36511.0, "URB_RUR": "URBANO", "ROL_SII": "ROL SII SANTIAGO SUR 2866-4", "SUP_M2": 1203.93, "SUP_HA": 0.0 }, "geometry": { "type": "Polygon", "coordinates": [ [ [ -70.6452534, -33.4564243 ], [ -70.6452046, -33.4566837 ], [ -70.6447667, -33.4566252 ], [ -70.6448182, -33.4563673 ], [ -70.6452534, -33.4564243 ] ] ] } },
{ "type": "Feature", "properties": { "NOMBRE": "SANTA LUCIA 162 COMUNA SANTIAGO", "ID_INSTITU": 36653.0, "URB_RUR": "URBANO", "ROL_SII": "ROL SII SANTIAGO 69-63", "SUP_M2": 132.0, "SUP_HA": 0.0 }, "geometry": { "type": "Polygon", "coordinates": [ [ [ -70.6449092, -33.4405889 ], [ -70.6449092, -33.4406341 ], [ -70.6449903, -33.4406332 ], [ -70.6449851, -33.4406784 ], [ -70.6448084, -33.4406712 ], [ -70.6447946, -33.4406134 ], [ -70.6449092, -33.4405889 ] ] ] } },
{ "type": "Feature", "properties": { "NOMBRE": "MONEDA 1610 COMUNA SANTIAGO", "ID_INSTITU": 36470.0, "URB_RUR": "URBANO", "ROL_SII": "ROL SII SANTIAGO 49-10", "SUP_M2": 585.0, "SUP_HA": 0.0 }, "geometry": { "type": "Polygon", "coordinates": [ [ [ -70.6592659, -33.4428349 ], [ -70.6592381, -33.4430267 ], [ -70.6593448, -33.4430372 ], [ -70.6593363, -33.4430971 ], [ -70.659069, -33.4430699 ], [ -70.6591074, -33.4428322 ], [ -70.6591224, -33.4428213 ], [ -70.6592659, -33.4428349 ] ] ] } },
{ "type": "Feature", "properties": { "NOMBRE": "MONEDA 1741 DEPARTAMENTO 22 COMUNA SANTIAGO", "ID_INSTITU": 947200.0, "URB_RUR": "URBANO", "ROL_SII": "ROL SII SANTIAGO 90-36", "SUP_M2": 52.5, "SUP_HA": 0.0 }, "geometry": { "type": "Polygon", "coordinates": [ [ [ -70.661014, -33.4426725 ], [ -70.6609609, -33.4426683 ], [ -70.6609723, -33.4425741 ], [ -70.6610244, -33.4425789 ], [ -70.661014, -33.4426725 ], [ -70.661014, -33.4426725 ] ] ] } },
{ "type": "Feature", "properties": { "NOMBRE": "HUERFANOS 1376 ANTES HUERFANOS 1350 AL 1372 PISO 11 COMUNA SANTIAGO", "ID_INSTITU": 42633.0, "URB_RUR": "URBANO", "ROL_SII": "ROL SII SANTIAGO 109-745", "SUP_M2": 485.0, "SUP_HA": 0.0 }, "geometry": { "type": "Polygon", "coordinates": [ [ [ -70.6562875, -33.4401918 ], [ -70.6562593, -33.4403357 ], [ -70.6559324, -33.4402934 ], [ -70.6559613, -33.4401566 ], [ -70.6562875, -33.4401918 ] ] ] } },
{ "type": "Feature", "properties": { "NOMBRE": "PORTALES 3145 AL 3149 COMUNA SANTIAGO", "ID_INSTITU": 36534.0, "URB_RUR": "URBANO", "ROL_SII": "ROL SII SANTIAGO OESTE 341-3", "SUP_M2": 197.0, "SUP_HA": 0.0 }, "geometry": { "type": "Polygon", "coordinates": [ [ [ -70.6779828, -33.4432352 ], [ -70.6779975, -33.4433685 ], [ -70.6779912, -33.4433685 ], [ -70.6779848, -33.4434288 ], [ -70.6778965, -33.4434234 ], [ -70.6778975, -33.4432265 ], [ -70.6779828, -33.4432352 ] ] ] } },
{ "type": "Feature", "properties": { "NOMBRE": "COMPANIA 1288 COMUNA SANTIAGO", "ID_INSTITU": 36241.0, "URB_RUR": "URBANO", "ROL_SII": "ROL SII SANTIAGO 136-13", "SUP_M2": 843.29, "SUP_HA": 0.0 }, "geometry": { "type": "Polygon", "coordinates": [ [ [ -70.6552843, -33.4390074 ], [ -70.6552582, -33.4392085 ], [ -70.654909, -33.4391754 ], [ -70.6549153, -33.4391183 ], [ -70.6549267, -33.4391198 ], [ -70.6549474, -33.4389545 ], [ -70.6552532, -33.4389758 ], [ -70.6552843, -33.4390074 ] ] ] } },
{ "type": "Feature", "properties": { "NOMBRE": "PLAZA DE LA CIUDADANIA COMUNA SANTIAGO", "ID_INSTITU": 36531.0, "URB_RUR": "URBANO", "ROL_SII": "ROL SII SANTIAGO 51-1, ROL SII SANTIAGO 51-2", "SUP_M2": 23973.93, "SUP_HA": 0.0 }, "geometry": { "type": "Polygon", "coordinates": [ [ [ -70.6541504, -33.4443351 ], [ -70.6531243, -33.4440911 ], [ -70.6532499, -33.443377 ], [ -70.6533391, -33.4433854 ], [ -70.6533636, -33.4432801 ], [ -70.6543296, -33.4433949 ], [ -70.6541504, -33.4443351 ], [ -70.6541504, -33.4443351 ] ] ] } },
{ "type": "Feature", "properties": { "NOMBRE": "COQUIMBO 609 COMUNA SANTIAGO", "ID_INSTITU": 36262.0, "URB_RUR": "URBANO", "ROL_SII": "ROL SII SANTIAGO SUR 2793-14", "SUP_M2": 232.0, "SUP_HA": 0.0 }, "geometry": { "type": "Polygon", "coordinates": [ [ [ -70.6419387, -33.4554091 ], [ -70.6418555, -33.4553943 ], [ -70.6419195, -33.4551464 ], [ -70.6420015, -33.4551612 ], [ -70.6419387, -33.4554091 ] ] ] } },
{ "type": "Feature", "properties": { "NOMBRE": "CLUB HIPICO 489 COMUNA SANTIAGO", "ID_INSTITU": 36239.0, "URB_RUR": "URBANO", "ROL_SII": "ROL SII SANTIAGO OESTE 821-16", "SUP_M2": 90.0, "SUP_HA": 0.0 }, "geometry": { "type": "Polygon", "coordinates": [ [ [ -70.6652338, -33.4538856 ], [ -70.6651354, -33.4538838 ], [ -70.6651382, -33.4537901 ], [ -70.6652355, -33.4537917 ], [ -70.6652338, -33.4538856 ] ] ] } },
{ "type": "Feature", "properties": { "NOMBRE": "ESPANA 32 AL 44 DEPARTAMENTO 44 COMUNA SANTIAGO", "ID_INSTITU": 36318.0, "URB_RUR": "URBANO", "ROL_SII": "ROL SII SANTIAGO OESTE 558-49", "SUP_M2": 64.0, "SUP_HA": 0.0 }, "geometry": { "type": "Polygon", "coordinates": [ [ [ -70.669831, -33.4492894 ], [ -70.6698699, -33.4493533 ], [ -70.6698567, -33.4493596 ], [ -70.6698818, -33.4494009 ], [ -70.6698669, -33.4494081 ], [ -70.669859, -33.4493978 ], [ -70.6698316, -33.4494083 ], [ -70.6697751, -33.4493128 ], [ -70.669831, -33.4492894 ] ] ] } },
{ "type": "Feature", "properties": { "NOMBRE": "SAN FRANCISCO 1140 - 1152 COMUNA SANTIAGO", "ID_INSTITU": 36618.0, "URB_RUR": "URBANO", "ROL_SII": "ROL SII SANTIAGO SUR 3018-43", "SUP_M2": 8133.28, "SUP_HA": 0.0 }, "geometry": { "type": "Polygon", "coordinates": [ [ [ -70.6450297, -33.4597929 ], [ -70.6449442, -33.4605423 ], [ -70.6442015, -33.4604855 ], [ -70.6441703, -33.4607252 ], [ -70.644089, -33.4607187 ], [ -70.6441189, -33.4604783 ], [ -70.6440251, -33.4604729 ], [ -70.6441261, -33.4596569 ], [ -70.6442652, -33.4596737 ], [ -70.6442806, -33.4595656 ], [ -70.6450297, -33.4597929 ] ] ] } },
{ "type": "Feature", "properties": { "NOMBRE": "MATURANA 428 DEPARTAMENTO B COMUNA SANTIAGO", "ID_INSTITU": 36456.0, "URB_RUR": "URBANO", "ROL_SII": "ROL SII SANTIAGO OESTE 291-44", "SUP_M2": 75.73, "SUP_HA": 0.0 }, "geometry": { "type": "Polygon", "coordinates": [ [ [ -70.6671272, -33.4397568 ], [ -70.6671115, -33.4399035 ], [ -70.6669128, -33.4398884 ], [ -70.6669285, -33.4397427 ], [ -70.6671272, -33.4397568 ] ] ] } },
{ "type": "Feature", "properties": { "NOMBRE": "MARINA DE GAETE 972 ESQUINA CHILOE 1201 COMUNA SANTIAGO", "ID_INSTITU": 411638.0, "URB_RUR": "URBANO", "ROL_SII": "ROL SII SANTIAGO SUR 3080-19", "SUP_M2": 776.0, "SUP_HA": 0.0 }, "geometry": { "type": "Polygon", "coordinates": [ [ [ -70.6466231, -33.4611982 ], [ -70.6461636, -33.4611825 ], [ -70.6461702, -33.4610473 ], [ -70.6462005, -33.4610234 ], [ -70.6466414, -33.4610532 ], [ -70.6466231, -33.4611982 ] ] ] } },
{ "type": "Feature", "properties": { "NOMBRE": "CASTILLO 2238 COMUNA SANTIAGO", "ID_INSTITU": 36197.0, "URB_RUR": "URBANO", "ROL_SII": "ROL SII SANTIAGO OESTE 42-37", "SUP_M2": 75.0, "SUP_HA": 0.0 }, "geometry": { "type": "Polygon", "coordinates": [ [ [ -70.6684053, -33.4306764 ], [ -70.6684572, -33.4306776 ], [ -70.6684517, -33.4308193 ], [ -70.668402, -33.4308186 ], [ -70.6684053, -33.4306764 ] ] ] } },
{ "type": "Feature", "properties": { "NOMBRE": "CATEDRAL 1155 AL 1165 COMUNA SANTIAGO", "ID_INSTITU": 303594.0, "URB_RUR": "URBANO", "ROL_SII": "ROL SII SANTIAGO 187-4", "SUP_M2": 848.5, "SUP_HA": 0.0 }, "geometry": { "type": "Polygon", "coordinates": [ [ [ -70.6537058, -33.437006 ], [ -70.6536288, -33.4375183 ], [ -70.6534681, -33.4375099 ], [ -70.6535397, -33.436995 ], [ -70.6537058, -33.437006 ] ] ] } },
{ "type": "Feature", "properties": { "NOMBRE": "SAN IGNACIO 1012 COMUNA SANTIAGO", "ID_INSTITU": 671307.0, "URB_RUR": "URBANO", "ROL_SII": "ROL SII SANTIAGO SUR 2889-63", "SUP_M2": 27.0, "SUP_HA": 0.0 }, "geometry": { "type": "Polygon", "coordinates": [ [ [ -70.6552251, -33.4589184 ], [ -70.6551779, -33.4589178 ], [ -70.65518, -33.4588628 ], [ -70.6552271, -33.4588623 ], [ -70.6552251, -33.4589184 ] ] ] } },
{ "type": "Feature", "properties": { "NOMBRE": "JUAN ANTONIO RIOS 6 COMUNA SANTIAGO", "ID_INSTITU": 36392.0, "URB_RUR": "URBANO", "ROL_SII": "ROL SII SANTIAGO 331-110", "SUP_M2": 712.0, "SUP_HA": 0.0 }, "geometry": { "type": "Polygon", "coordinates": [ [ [ -70.6462985, -33.4432629 ], [ -70.6463651, -33.4430244 ], [ -70.6466479, -33.4430987 ], [ -70.646589, -33.4433283 ], [ -70.6462985, -33.4432629 ] ] ] } },
{ "type": "Feature", "properties": { "NOMBRE": "SANTO DOMINGO 3320 - 3324 COMUNA SANTIAGO", "ID_INSTITU": 42450.0, "URB_RUR": "URBANO", "ROL_SII": "ROL SII SANTIAGO OESTE 280-20", "SUP_M2": 1795.4, "SUP_HA": 0.0 }, "geometry": { "type": "Polygon", "coordinates": [ [ [ -70.6812768, -33.4388631 ], [ -70.680644, -33.4388199 ], [ -70.680644, -33.4385775 ], [ -70.6812767, -33.4386181 ], [ -70.6812768, -33.4388631 ] ] ] } },
{ "type": "Feature", "properties": { "NOMBRE": "HUERFANOS 1515 COMUNA SANTIAGO", "ID_INSTITU": 335509.0, "URB_RUR": "URBANO", "ROL_SII": "ROL SII SANTIAGO 140-1", "SUP_M2": 2088.0, "SUP_HA": 0.0 }, "geometry": { "type": "Polygon", "coordinates": [ [ [ -70.6584476, -33.4403205 ], [ -70.6580075, -33.4402777 ], [ -70.6580895, -33.4397476 ], [ -70.6585177, -33.4397857 ], [ -70.6584476, -33.4403205 ] ] ] } },
{ "type": "Feature", "properties": { "NOMBRE": "ZENTENO 242 COMUNA SANTIAGO", "ID_INSTITU": 36350.0, "URB_RUR": "URBANO", "ROL_SII": "ROL SII SANTIAGO 482-1", "SUP_M2": 3890.0, "SUP_HA": 0.0 }, "geometry": { "type": "Polygon", "coordinates": [ [ [ -70.6522354, -33.4486291 ], [ -70.6521637, -33.4489297 ], [ -70.6520861, -33.4489438 ], [ -70.6520556, -33.4490551 ], [ -70.6516386, -33.4489699 ], [ -70.6516941, -33.4487264 ], [ -70.6516275, -33.4487126 ], [ -70.6516849, -33.4485113 ], [ -70.6522354, -33.4486291 ] ] ] } },
{ "type": "Feature", "properties": { "NOMBRE": "MONEDA 1040 COMUNA SANTIAGO", "ID_INSTITU": 36467.0, "URB_RUR": "URBANO", "ROL_SII": "ROL SII SANTIAGO 32-65", "SUP_M2": 2164.0, "SUP_HA": 0.0 }, "geometry": { "type": "Polygon", "coordinates": [ [ [ -70.6512281, -33.4423805 ], [ -70.6510116, -33.4423638 ], [ -70.6510414, -33.4419914 ], [ -70.6512731, -33.4420075 ], [ -70.6512281, -33.4423805 ] ] ] } },
{ "type": "Feature", "properties": { "NOMBRE": "MONEDA 1624 COMUNA SANTIAGO", "ID_INSTITU": 36471.0, "URB_RUR": "URBANO", "ROL_SII": "ROL SII SANTIAGO 49-12", "SUP_M2": 211.6, "SUP_HA": 0.0 }, "geometry": { "type": "Polygon", "coordinates": [ [ [ -70.6594394, -33.4428585 ], [ -70.659404, -33.4431038 ], [ -70.6593363, -33.4430972 ], [ -70.6593665, -33.4428859 ], [ -70.6593446, -33.4428838 ], [ -70.6593491, -33.4428504 ], [ -70.6594394, -33.4428585 ] ] ] } },
{ "type": "Feature", "properties": { "NOMBRE": "BOMBERO SALAS 1351 COMUNA SANTIAGO", "ID_INSTITU": 36138.0, "URB_RUR": "URBANO", "ROL_SII": "ROL SII SANTIAGO 86-2", "SUP_M2": 384.56, "SUP_HA": 0.0 }, "geometry": { "type": "Polygon", "coordinates": [ [ [ -70.655558, -33.44157 ], [ -70.6556975, -33.4415894 ], [ -70.6556595, -33.441816 ], [ -70.6555147, -33.4417957 ], [ -70.655558, -33.44157 ] ] ] } },
{ "type": "Feature", "properties": { "NOMBRE": "SANTA ROSA 1189 COMUNA SANTIAGO", "ID_INSTITU": 36656.0, "URB_RUR": "URBANO", "ROL_SII": "ROL SII SANTIAGO SUR 3018-6", "SUP_M2": 1421.88, "SUP_HA": 0.0 }, "geometry": { "type": "Polygon", "coordinates": [ [ [ -70.6440335, -33.4604064 ], [ -70.644015, -33.4605522 ], [ -70.6431099, -33.4604584 ], [ -70.6431297, -33.4603187 ], [ -70.6440335, -33.4604064 ] ] ] } },
{ "type": "Feature", "properties": { "NOMBRE": "VIEL 1978 COMUNA SANTIAGO", "ID_INSTITU": 36737.0, "URB_RUR": "URBANO", "ROL_SII": "ROL SII SANTIAGO SUR 3776-38", "SUP_M2": 180.0, "SUP_HA": 0.0 }, "geometry": { "type": "Polygon", "coordinates": [ [ [ -70.6550326, -33.4725212 ], [ -70.6549755, -33.4726178 ], [ -70.6548139, -33.4726109 ], [ -70.65482, -33.4725154 ], [ -70.6550326, -33.4725212 ] ] ] } },
{ "type": "Feature", "properties": { "NOMBRE": "AGUSTINAS 2450 COMUNA SANTIAGO", "ID_INSTITU": 895900.0, "URB_RUR": "URBANO", "ROL_SII": "ROL SII SANTIAGO OESTE 378-21", "SUP_M2": 5542.0, "SUP_HA": 0.0 }, "geometry": { "type": "Polygon", "coordinates": [ [ [ -70.6705274, -33.4441985 ], [ -70.6701172, -33.4441403 ], [ -70.6703041, -33.4430318 ], [ -70.6708406, -33.443094 ], [ -70.6707422, -33.4436485 ], [ -70.6706529, -33.4436349 ], [ -70.6705274, -33.4441985 ], [ -70.6705274, -33.4441985 ] ] ] } },
{ "type": "Feature", "properties": { "NOMBRE": "JOSE MIGUEL CARRERA 88, 90, 92, 94, 96, 98 Y 100 COMUNA SANTIAGO", "ID_INSTITU": 687186.0, "URB_RUR": "URBANO", "ROL_SII": "ROL SII SANTIAGO 405-35", "SUP_M2": 1791.8, "SUP_HA": 0.0 }, "geometry": { "type": "Polygon", "coordinates": [ [ [ -70.6627335, -33.4488454 ], [ -70.6628872, -33.4488555 ], [ -70.6629113, -33.4485489 ], [ -70.6634314, -33.4485793 ], [ -70.6633943, -33.4490553 ], [ -70.6627162, -33.4489964 ], [ -70.6627335, -33.4488454 ] ] ] } },
{ "type": "Feature", "properties": { "NOMBRE": "ARTEMIO GUTIERREZ 1136 COMUNA SANTIAGO", "ID_INSTITU": 36036.0, "URB_RUR": "URBANO", "ROL_SII": "ROL SII SANTIAGO SUR 3011-2", "SUP_M2": 4370.5, "SUP_HA": 0.0 }, "geometry": { "type": "Polygon", "coordinates": [ [ [ -70.6376772, -33.4576626 ], [ -70.6375344, -33.4581931 ], [ -70.6371675, -33.4581197 ], [ -70.6372737, -33.4577153 ], [ -70.6370081, -33.4576654 ], [ -70.637038, -33.4575407 ], [ -70.6376772, -33.4576626 ] ] ] } },
{ "type": "Feature", "properties": { "NOMBRE": "AMUNATEGUI 123 - 131 - 145 COMUNA SANTIAGO", "ID_INSTITU": 42614.0, "URB_RUR": "URBANO", "ROL_SII": "ROL SII SANTIAGO 85-4", "SUP_M2": 900.0, "SUP_HA": 0.0 }, "geometry": { "type": "Polygon", "coordinates": [ [ [ -70.6559251, -33.4421142 ], [ -70.6560443, -33.4421239 ], [ -70.6560047, -33.4423039 ], [ -70.6558045, -33.4422831 ], [ -70.6558273, -33.4421838 ], [ -70.6559161, -33.4421934 ], [ -70.6559251, -33.4421142 ] ] ] } },
{ "type": "Feature", "properties": { "NOMBRE": "SAN ANTONIO 427 PISO 6 COMUNA SANTIAGO", "ID_INSTITU": 42640.0, "URB_RUR": "URBANO", "ROL_SII": "ROL SII SANTIAGO 154-69", "SUP_M2": 4054.0, "SUP_HA": 0.0 }, "geometry": { "type": "Polygon", "coordinates": [ [ [ -70.6482387, -33.4380491 ], [ -70.6482173, -33.4380591 ], [ -70.6480249, -33.4380424 ], [ -70.6480369, -33.4379677 ], [ -70.648089, -33.4379721 ], [ -70.6481826, -33.4375506 ], [ -70.6483429, -33.4375718 ], [ -70.6482387, -33.4380491 ], [ -70.6482387, -33.4380491 ] ] ] } },
{ "type": "Feature", "properties": { "NOMBRE": "EYZAGUIRRE 1085 DEPARTAMENTO 202 COMUNA SANTIAGO", "ID_INSTITU": 671335.0, "URB_RUR": "URBANO", "ROL_SII": "ROL SII SANTIAGO 634-54", "SUP_M2": 54.0, "SUP_HA": 0.0 }, "geometry": { "type": "Polygon", "coordinates": [ [ [ -70.6499492, -33.4526064 ], [ -70.6498953, -33.452596 ], [ -70.6499176, -33.4525005 ], [ -70.6499713, -33.4525106 ], [ -70.6499492, -33.4526064 ] ] ] } },
{ "type": "Feature", "properties": { "NOMBRE": "SAN ANTONIO 418 DEPARTAMENTO 206 COMUNA SANTIAGO", "ID_INSTITU": 36603.0, "URB_RUR": "URBANO", "ROL_SII": "ROL SII SANTIAGO 156-26", "SUP_M2": 88.0, "SUP_HA": 0.0 }, "geometry": { "type": "Polygon", "coordinates": [ [ [ -70.6486052, -33.4380186 ], [ -70.6486052, -33.4380186 ], [ -70.6485929, -33.438095 ], [ -70.6484812, -33.4380866 ], [ -70.6484958, -33.4380102 ], [ -70.6486052, -33.4380186 ] ] ] } },
{ "type": "Feature", "properties": { "NOMBRE": "BEAUCHEFF 1621 - 1637 COMUNA SANTIAGO", "ID_INSTITU": 36056.0, "URB_RUR": "URBANO", "ROL_SII": "ROL SII SANTIAGO SUR 3502-1", "SUP_M2": 5982.0, "SUP_HA": 0.0 }, "geometry": { "type": "Polygon", "coordinates": [ [ [ -70.6647939, -33.4688766 ], [ -70.6647939, -33.4691038 ], [ -70.6637001, -33.4690822 ], [ -70.6637256, -33.4683903 ], [ -70.6639792, -33.4683974 ], [ -70.6639724, -33.4686571 ], [ -70.6645797, -33.468674 ], [ -70.6645776, -33.4688689 ], [ -70.6647939, -33.4688766 ] ] ] } },
{ "type": "Feature", "properties": { "NOMBRE": "LONDRES 40 COMUNA SANTIAGO", "ID_INSTITU": 36405.0, "URB_RUR": "URBANO", "ROL_SII": "ROL SII SANTIAGO 335-60", "SUP_M2": 268.0, "SUP_HA": 0.0 }, "geometry": { "type": "Polygon", "coordinates": [ [ [ -70.6481608, -33.4443349 ], [ -70.6480593, -33.4444286 ], [ -70.6479405, -33.4444263 ], [ -70.6479405, -33.4443365 ], [ -70.6480604, -33.4442373 ], [ -70.6481608, -33.4443349 ] ] ] } },
{ "type": "Feature", "properties": { "NOMBRE": "REPUBLICA 301 REPUBLICA 331 COMUNA SANTIAGO", "ID_INSTITU": 36569.0, "URB_RUR": "URBANO", "ROL_SII": "ROL SII SANTIAGO OESTE 796-1, ROL SII SANTIAGO OESTE 796-2", "SUP_M2": 1820.15, "SUP_HA": 0.0 }, "geometry": { "type": "Polygon", "coordinates": [ [ [ -70.6681034, -33.4524252 ], [ -70.6680676, -33.452606 ], [ -70.668025, -33.4525992 ], [ -70.6680046, -33.4526987 ], [ -70.6679354, -33.4526876 ], [ -70.6679211, -33.4527636 ], [ -70.6675733, -33.4527067 ], [ -70.6676478, -33.4523512 ], [ -70.6676896, -33.4523303 ], [ -70.6681034, -33.4524252 ] ] ] } },
{ "type": "Feature", "properties": { "NOMBRE": "BERNARDO OHIGGINS 651 COMUNA SANTIAGO", "ID_INSTITU": 36131.0, "URB_RUR": "URBANO", "ROL_SII": "ROL SII SANTIAGO 18-1, ROL SII SANTIAGO 18-2, ROL SII SANTIAGO 18-3", "SUP_M2": 11301.0, "SUP_HA": 0.0 }, "geometry": { "type": "Polygon", "coordinates": [ [ [ -70.6460944, -33.442612 ], [ -70.6450465, -33.4423831 ], [ -70.6450346, -33.442368 ], [ -70.6450348, -33.4423504 ], [ -70.6451604, -33.4415957 ], [ -70.6451723, -33.4415866 ], [ -70.6451869, -33.4415845 ], [ -70.6462516, -33.4417039 ], [ -70.6462679, -33.4417108 ], [ -70.6462786, -33.441726 ], [ -70.6461244, -33.4425921 ], [ -70.6461124, -33.4426058 ], [ -70.6460944, -33.442612 ] ] ] } },
{ "type": "Feature", "properties": { "NOMBRE": "TEATINOS 251 DEPARTAMENTO 602 COMUNA SANTIAGO", "ID_INSTITU": 36703.0, "URB_RUR": "URBANO", "ROL_SII": "ROL SII SANTIAGO 107-124", "SUP_M2": 200.0, "SUP_HA": 0.0 }, "geometry": { "type": "Polygon", "coordinates": [ [ [ -70.6548981, -33.4407688 ], [ -70.6548285, -33.4407576 ], [ -70.6548334, -33.4407365 ], [ -70.6548049, -33.4407324 ], [ -70.6548081, -33.4407141 ], [ -70.6547645, -33.440708 ], [ -70.6547726, -33.440666 ], [ -70.6547778, -33.4406613 ], [ -70.6547853, -33.4406588 ], [ -70.6547914, -33.4406588 ], [ -70.6548085, -33.4405934 ], [ -70.6549325, -33.4406107 ], [ -70.6548981, -33.4407688 ], [ -70.6548981, -33.4407688 ] ] ] } },
{ "type": "Feature", "properties": { "NOMBRE": "DIECIOCHO 164 COMUNA SANTIAGO", "ID_INSTITU": 912202.0, "URB_RUR": "URBANO", "ROL_SII": "ROL SII SANTIAGO 493-8, ROL SII SANTIAGO 493-13", "SUP_M2": 990.45, "SUP_HA": 0.0 }, "geometry": { "type": "Polygon", "coordinates": [ [ [ -70.6577969, -33.4485126 ], [ -70.657758, -33.4486971 ], [ -70.6572488, -33.4486247 ], [ -70.6572907, -33.4484421 ], [ -70.6577969, -33.4485126 ] ] ] } },
{ "type": "Feature", "properties": { "NOMBRE": "ESMERALDA 611 COMUNA SANTIAGO", "ID_INSTITU": 36313.0, "URB_RUR": "URBANO", "ROL_SII": "ROL SII SANTIAGO 223-1", "SUP_M2": 330.0, "SUP_HA": 0.0 }, "geometry": { "type": "Polygon", "coordinates": [ [ [ -70.6467877, -33.4344721 ], [ -70.6468585, -33.4346227 ], [ -70.6465354, -33.4346715 ], [ -70.6465058, -33.4346737 ], [ -70.6464863, -33.4346671 ], [ -70.6464793, -33.4346506 ], [ -70.6464842, -33.4346395 ], [ -70.6464955, -33.4346285 ], [ -70.6465145, -33.4346152 ], [ -70.6467877, -33.4344721 ] ] ] } },
{ "type": "Feature", "properties": { "NOMBRE": "ALMIRANTE BARROSO 23 COMUNA SANTIAGO", "ID_INSTITU": 36016.0, "URB_RUR": "URBANO", "ROL_SII": "ROL SII SANTIAGO 57-11", "SUP_M2": 250.0, "SUP_HA": 0.0 }, "geometry": { "type": "Polygon", "coordinates": [ [ [ -70.6615026, -33.4453601 ], [ -70.6614903, -33.4454704 ], [ -70.6612473, -33.4454287 ], [ -70.6612605, -33.4453483 ], [ -70.6615026, -33.4453601 ] ] ] } },
{ "type": "Feature", "properties": { "NOMBRE": "CHACABUCO 430 COMUNA SANTIAGO", "ID_INSTITU": 364420.0, "URB_RUR": "URBANO", "ROL_SII": "ROL SII SANTIAGO OESTE 308-2", "SUP_M2": 2347.5, "SUP_HA": 0.0 }, "geometry": { "type": "Polygon", "coordinates": [ [ [ -70.6790365, -33.4414122 ], [ -70.6787693, -33.4413801 ], [ -70.6787431, -33.4413491 ], [ -70.6787938, -33.4406375 ], [ -70.6791022, -33.4406713 ], [ -70.6790365, -33.4414122 ], [ -70.6790365, -33.4414122 ] ] ] } },
{ "type": "Feature", "properties": { "NOMBRE": "ALLENDE PADIN 2146 COMUNA SANTIAGO", "ID_INSTITU": 36015.0, "URB_RUR": "URBANO", "ROL_SII": "ROL SII SANTIAGO SUR 3504-15", "SUP_M2": 145.25, "SUP_HA": 0.0 }, "geometry": { "type": "Polygon", "coordinates": [ [ [ -70.6641504, -33.4693195 ], [ -70.6641491, -33.4694762 ], [ -70.6640597, -33.469474 ], [ -70.6640636, -33.4693174 ], [ -70.6641504, -33.4693195 ] ] ] } },
{ "type": "Feature", "properties": { "NOMBRE": "BEAUCHEFF 1521-1525 COMUNA SANTIAGO", "ID_INSTITU": 36055.0, "URB_RUR": "URBANO", "ROL_SII": "ROL SII SANTIAGO SUR 3502-16", "SUP_M2": 3590.0, "SUP_HA": 0.0 }, "geometry": { "type": "Polygon", "coordinates": [ [ [ -70.6643, -33.4673254 ], [ -70.6642714, -33.4680311 ], [ -70.6637549, -33.4680096 ], [ -70.6637823, -33.4673053 ], [ -70.6643, -33.4673254 ] ] ] } },
{ "type": "Feature", "properties": { "NOMBRE": "BERNARDO OHIGGINS 1642 LOTE A Y ALONSO OVALLE 1637 LOTE B COMUNA SANTIAGO", "ID_INSTITU": 556792.0, "URB_RUR": "URBANO", "ROL_SII": "ROL SII SANTIAGO 393-7", "SUP_M2": 2487.5, "SUP_HA": 0.0 }, "geometry": { "type": "Polygon", "coordinates": [ [ [ -70.6592325, -33.4473147 ], [ -70.6589696, -33.4472705 ], [ -70.6592366, -33.4464033 ], [ -70.6595035, -33.4464594 ], [ -70.6592325, -33.4473147 ] ] ] } },
{ "type": "Feature", "properties": { "NOMBRE": "SAN IGNACIO 163 COMUNA SANTIAGO", "ID_INSTITU": 42625.0, "URB_RUR": "URBANO", "ROL_SII": "ROL SII SANTIAGO 493-13", "SUP_M2": 346.5, "SUP_HA": 0.0 }, "geometry": { "type": "Polygon", "coordinates": [ [ [ -70.6571963, -33.4485149 ], [ -70.6568997, -33.4484795 ], [ -70.6569152, -33.44839 ], [ -70.6572195, -33.4484238 ], [ -70.6571963, -33.4485149 ], [ -70.6571963, -33.4485149 ] ] ] } },
{ "type": "Feature", "properties": { "NOMBRE": "MORANDE 83 COMUNA SANTIAGO", "ID_INSTITU": 42607.0, "URB_RUR": "URBANO", "ROL_SII": "ROL SII SANTIAGO 33-155", "SUP_M2": 337.55, "SUP_HA": 0.0 }, "geometry": { "type": "Polygon", "coordinates": [ [ [ -70.6532092, -33.4426199 ], [ -70.6529452, -33.4425842 ], [ -70.6529778, -33.4424704 ], [ -70.6532389, -33.4424916 ], [ -70.6532092, -33.4426199 ] ] ] } },
{ "type": "Feature", "properties": { "NOMBRE": "MONEDA 1190 COMUNA SANTIAGO", "ID_INSTITU": 42606.0, "URB_RUR": "URBANO", "ROL_SII": "ROL SII SANTIAGO 33-3", "SUP_M2": 775.94, "SUP_HA": 0.0 }, "geometry": { "type": "Polygon", "coordinates": [ [ [ -70.6530178, -33.4422444 ], [ -70.6533168, -33.4422631 ], [ -70.6533452, -33.4422852 ], [ -70.653305, -33.4424931 ], [ -70.652976, -33.442467 ], [ -70.6530178, -33.4422444 ] ] ] } },
{ "type": "Feature", "properties": { "NOMBRE": "MORANDE 45 - 59 - 71 COMUNA SANTIAGO", "ID_INSTITU": 36493.0, "URB_RUR": "URBANO", "ROL_SII": "ROL SII SANTIAGO 33-2", "SUP_M2": 4496.0, "SUP_HA": 0.0 }, "geometry": { "type": "Polygon", "coordinates": [ [ [ -70.6529384, -33.4425916 ], [ -70.6533034, -33.4426426 ], [ -70.6531661, -33.4434607 ], [ -70.6525701, -33.4433576 ], [ -70.652631, -33.4429655 ], [ -70.6527261, -33.4429757 ], [ -70.6527633, -33.4427346 ], [ -70.6529143, -33.4427552 ], [ -70.6529384, -33.4425916 ] ] ] } },
{ "type": "Feature", "properties": { "NOMBRE": "AGUSTINAS 1442 DEPARTAMENTO 604 COMUNA SANTIAGO", "ID_INSTITU": 304553.0, "URB_RUR": "URBANO", "ROL_SII": "ROL SII SANTIAGO 87-83", "SUP_M2": 55.0, "SUP_HA": 0.0 }, "geometry": { "type": "Polygon", "coordinates": [ [ [ -70.6571257, -33.4415001 ], [ -70.657119, -33.4415596 ], [ -70.6570324, -33.4415534 ], [ -70.6570358, -33.4414936 ], [ -70.6571257, -33.4415001 ] ] ] } },
{ "type": "Feature", "properties": { "NOMBRE": "AGUSTINAS 1442 DEPARTAMENTO 608 COMUNA SANTIAGO", "ID_INSTITU": 304554.0, "URB_RUR": "URBANO", "ROL_SII": "ROL SII SANTIAGO 87-87", "SUP_M2": 61.0, "SUP_HA": 0.0 }, "geometry": { "type": "Polygon", "coordinates": [ [ [ -70.6570304, -33.441489 ], [ -70.6570248, -33.4415545 ], [ -70.6569328, -33.4415475 ], [ -70.6569417, -33.4414828 ], [ -70.6570304, -33.441489 ] ] ] } },
{ "type": "Feature", "properties": { "NOMBRE": "AGUSTINAS 1442 DEPARTAMENTO 708 COMUNA SANTIAGO", "ID_INSTITU": 304555.0, "URB_RUR": "URBANO", "ROL_SII": "ROL SII SANTIAGO 87-95", "SUP_M2": 61.0, "SUP_HA": 0.0 }, "geometry": { "type": "Polygon", "coordinates": [ [ [ -70.657022, -33.441615 ], [ -70.6569245, -33.4416116 ], [ -70.6569324, -33.4415493 ], [ -70.6570279, -33.4415563 ], [ -70.657022, -33.441615 ] ] ] } },
{ "type": "Feature", "properties": { "NOMBRE": "HUERFANOS 620 - 628 OFICINA 81 PISO 8 COMUNA SANTIAGO", "ID_INSTITU": 42642.0, "URB_RUR": "URBANO", "ROL_SII": "ROL SII SANTIAGO 97-257", "SUP_M2": 309.47, "SUP_HA": 0.0 }, "geometry": { "type": "Polygon", "coordinates": [ [ [ -70.6459483, -33.4391798 ], [ -70.6459235, -33.4393465 ], [ -70.6458453, -33.4393385 ], [ -70.6458371, -33.4393908 ], [ -70.6457785, -33.4393852 ], [ -70.645786, -33.4393329 ], [ -70.6457116, -33.4393253 ], [ -70.6457194, -33.4392733 ], [ -70.6457299, -33.4392743 ], [ -70.6457462, -33.4391596 ], [ -70.6459483, -33.4391798 ] ] ] } },
{ "type": "Feature", "properties": { "NOMBRE": "HUERFANOS 620 - 628 ESTACIONAMIENTO 243 COMUNA SANTIAGO", "ID_INSTITU": 42645.0, "URB_RUR": "URBANO", "ROL_SII": "ROL SII SANTIAGO 97-507", "SUP_M2": 14.8, "SUP_HA": 0.0 }, "geometry": { "type": "Polygon", "coordinates": [ [ [ -70.6459628, -33.439179 ], [ -70.6459394, -33.4393282 ], [ -70.645723, -33.4393045 ], [ -70.6457484, -33.4391524 ], [ -70.6459628, -33.439179 ] ] ] } },
{ "type": "Feature", "properties": { "NOMBRE": "DIECIOCHO 133 - 135 COMUNA SANTIAGO", "ID_INSTITU": 36284.0, "URB_RUR": "URBANO", "ROL_SII": "ROL SII SANTIAGO 448-4", "SUP_M2": 1230.0, "SUP_HA": 0.0 }, "geometry": { "type": "Polygon", "coordinates": [ [ [ -70.6588492, -33.448021 ], [ -70.6588255, -33.4481789 ], [ -70.6580728, -33.4480768 ], [ -70.658105, -33.4479192 ], [ -70.6588492, -33.448021 ] ] ] } },
{ "type": "Feature", "properties": { "NOMBRE": "BALMACEDA 1301 COMUNA SANTIAGO", "ID_INSTITU": 36045.0, "URB_RUR": "URBANO", "ROL_SII": "ROL SII SANTIAGO 276-1", "SUP_M2": 876.64, "SUP_HA": 0.0 }, "geometry": { "type": "Polygon", "coordinates": [ [ [ -70.6562596, -33.4319912 ], [ -70.6563126, -33.4321394 ], [ -70.6555376, -33.432322 ], [ -70.6554856, -33.4321741 ], [ -70.6562596, -33.4319912 ] ] ] } },
{ "type": "Feature", "properties": { "NOMBRE": "JOSE MIGUEL CARRERA 311 COMUNA SANTIAGO", "ID_INSTITU": 36385.0, "URB_RUR": "URBANO", "ROL_SII": "ROL SII SANTIAGO 513-1", "SUP_M2": 857.0, "SUP_HA": 0.0 }, "geometry": { "type": "Polygon", "coordinates": [ [ [ -70.6633381, -33.4513534 ], [ -70.6636475, -33.4514211 ], [ -70.6636249, -33.4515501 ], [ -70.6637456, -33.4515728 ], [ -70.6637366, -33.4516276 ], [ -70.6632789, -33.4515577 ], [ -70.6633068, -33.4513668 ], [ -70.6633381, -33.4513534 ] ] ] } },
{ "type": "Feature", "properties": { "NOMBRE": "PORTALES 2807 - 2805 - 2803 COMUNA SANTIAGO", "ID_INSTITU": 36533.0, "URB_RUR": "URBANO", "ROL_SII": "ROL SII SANTIAGO OESTE 338-1", "SUP_M2": 605.0, "SUP_HA": 0.0 }, "geometry": { "type": "Polygon", "coordinates": [ [ [ -70.6742731, -33.4427317 ], [ -70.6742407, -33.4430188 ], [ -70.6740494, -33.4430017 ], [ -70.674019, -33.4429694 ], [ -70.6740382, -33.4427145 ], [ -70.6742731, -33.4427317 ] ] ] } },
{ "type": "Feature", "properties": { "NOMBRE": "SANTIAGUILLO 1432 COMUNA SANTIAGO", "ID_INSTITU": 36674.0, "URB_RUR": "URBANO", "ROL_SII": "ROL SII SANTIAGO SUR 3087-17", "SUP_M2": 111.6, "SUP_HA": 0.0 }, "geometry": { "type": "Polygon", "coordinates": [ [ [ -70.653955, -33.4613864 ], [ -70.6539496, -33.4615259 ], [ -70.6538709, -33.4615244 ], [ -70.6538763, -33.4613856 ], [ -70.653955, -33.4613864 ] ] ] } },
{ "type": "Feature", "properties": { "NOMBRE": "ROGELIO UGARTE 1479 COMUNA SANTIAGO", "ID_INSTITU": 304329.0, "URB_RUR": "URBANO", "ROL_SII": "ROL SII SANTIAGO SUR 3163-6", "SUP_M2": 88.0, "SUP_HA": 0.0 }, "geometry": { "type": "Polygon", "coordinates": [ [ [ -70.6334162, -33.4634297 ], [ -70.6334276, -33.4633884 ], [ -70.633651, -33.46343 ], [ -70.6336374, -33.463475 ], [ -70.6334162, -33.4634297 ] ] ] } },
{ "type": "Feature", "properties": { "NOMBRE": "MONEDA 1202- 1298 ENTRE TEATINOS Y MORANDE COMUNA SANTIAGO", "ID_INSTITU": 42905.0, "URB_RUR": "URBANO", "ROL_SII": "ROL SII SANTIAGO 34-1", "SUP_M2": 10965.0, "SUP_HA": 0.0 }, "geometry": { "type": "Polygon", "coordinates": [ [ [ -70.6545082, -33.4423992 ], [ -70.6543444, -33.4433873 ], [ -70.6532172, -33.4432474 ], [ -70.6533965, -33.4422753 ], [ -70.6545082, -33.4423992 ] ] ] } },
{ "type": "Feature", "properties": { "NOMBRE": "HUERFANOS 620 - 628 OFICINA 71 PISO 7 COMUNA SANTIAGO", "ID_INSTITU": 333802.0, "URB_RUR": "URBANO", "ROL_SII": "ROL SII SANTIAGO 97-255", "SUP_M2": 265.58, "SUP_HA": 0.0 }, "geometry": { "type": "Polygon", "coordinates": [ [ [ -70.6459628, -33.439179 ], [ -70.6459394, -33.4393282 ], [ -70.645723, -33.4393045 ], [ -70.6457484, -33.4391524 ], [ -70.6459628, -33.439179 ] ] ] } },
{ "type": "Feature", "properties": { "NOMBRE": "CATEDRAL 2213 - 2219 COMUNA SANTIAGO", "ID_INSTITU": 36204.0, "URB_RUR": "URBANO", "ROL_SII": "ROL SII SANTIAGO OESTE 265-2", "SUP_M2": 404.0, "SUP_HA": 0.0 }, "geometry": { "type": "Polygon", "coordinates": [ [ [ -70.66729, -33.4385963 ], [ -70.6672483, -33.438963 ], [ -70.6671472, -33.4389553 ], [ -70.6671873, -33.43859 ], [ -70.66729, -33.4385963 ] ] ] } },
{ "type": "Feature", "properties": { "NOMBRE": "HUERFANOS 620 - 628 ESTACIONAMIENTO 247 COMUNA SANTIAGO", "ID_INSTITU": 333814.0, "URB_RUR": "URBANO", "ROL_SII": "ROL SII SANTIAGO 97-511", "SUP_M2": 13.12, "SUP_HA": 0.0 }, "geometry": { "type": "Polygon", "coordinates": [ [ [ -70.6459628, -33.439179 ], [ -70.6459394, -33.4393282 ], [ -70.645723, -33.4393045 ], [ -70.6457484, -33.4391524 ], [ -70.6459628, -33.439179 ] ] ] } },
{ "type": "Feature", "properties": { "NOMBRE": "HUERFANOS 620 - 628 OFICINA 91 PISO 9 COMUNA SANTIAGO", "ID_INSTITU": 42644.0, "URB_RUR": "URBANO", "ROL_SII": "ROL SII SANTIAGO 97-259", "SUP_M2": 317.66, "SUP_HA": 0.0 }, "geometry": { "type": "Polygon", "coordinates": [ [ [ -70.6459628, -33.439179 ], [ -70.6459394, -33.4393282 ], [ -70.645723, -33.4393045 ], [ -70.6457484, -33.4391524 ], [ -70.6459628, -33.439179 ] ] ] } },
{ "type": "Feature", "properties": { "NOMBRE": "LIBERTAD 1560 COMUNA SANTIAGO", "ID_INSTITU": 862750.0, "URB_RUR": "URBANO", "ROL_SII": "ROL SII SANTIAGO OESTE 35-4", "SUP_M2": 3700.46, "SUP_HA": 0.0 }, "geometry": { "type": "Polygon", "coordinates": [ [ [ -70.6757433, -33.4274688 ], [ -70.6761659, -33.4272944 ], [ -70.6760975, -33.4281056 ], [ -70.6755256, -33.4281286 ], [ -70.6754822, -33.4280849 ], [ -70.6755059, -33.4278034 ], [ -70.6757251, -33.427809 ], [ -70.6757433, -33.4274688 ] ] ] } },
{ "type": "Feature", "properties": { "NOMBRE": "PADRE ORELLANA 1340 COMUNA SANTIAGO", "ID_INSTITU": 36519.0, "URB_RUR": "URBANO", "ROL_SII": "ROL SII SANTIAGO SUR 3040-81", "SUP_M2": 172.53, "SUP_HA": 0.0 }, "geometry": { "type": "Polygon", "coordinates": [ [ [ -70.6315215, -33.4602444 ], [ -70.6312957, -33.4602016 ], [ -70.6313163, -33.4601306 ], [ -70.6315416, -33.4601776 ], [ -70.6315215, -33.4602444 ] ] ] } },
{ "type": "Feature", "properties": { "NOMBRE": "AGUSTINAS 2384 COMUNA SANTIAGO", "ID_INSTITU": 36006.0, "URB_RUR": "URBANO", "ROL_SII": "ROL SII SANTIAGO OESTE 375-44", "SUP_M2": 933.7, "SUP_HA": 0.0 }, "geometry": { "type": "Polygon", "coordinates": [ [ [ -70.6695303, -33.443493 ], [ -70.6693778, -33.443469 ], [ -70.6694349, -33.4428821 ], [ -70.6695939, -33.4429043 ], [ -70.6695303, -33.443493 ] ] ] } },
{ "type": "Feature", "properties": { "NOMBRE": "SAN MARTIN 88 COMUNA SANTIAGO", "ID_INSTITU": 36640.0, "URB_RUR": "URBANO", "ROL_SII": "ROL SII SANTIAGO 46-41", "SUP_M2": 946.0, "SUP_HA": 0.0 }, "geometry": { "type": "Polygon", "coordinates": [ [ [ -70.6577791, -33.4429127 ], [ -70.6582573, -33.4429547 ], [ -70.6582283, -33.4431722 ], [ -70.6576922, -33.4431184 ], [ -70.6577132, -33.4429645 ], [ -70.65777, -33.442971 ], [ -70.6577791, -33.4429127 ] ] ] } },
{ "type": "Feature", "properties": { "NOMBRE": "CHACABUCO 931 COMUNA SANTIAGO", "ID_INSTITU": 947206.0, "URB_RUR": "URBANO", "ROL_SII": "ROL SII SANTIAGO OESTE 147-49", "SUP_M2": 70.0, "SUP_HA": 0.0 }, "geometry": { "type": "Polygon", "coordinates": [ [ [ -70.6787102, -33.4341666 ], [ -70.6787843, -33.4341723 ], [ -70.6787805, -33.434263 ], [ -70.6787053, -33.4342593 ], [ -70.6787102, -33.4341666 ] ] ] } },
{ "type": "Feature", "properties": { "NOMBRE": "AMUNATEGUI 66 COMUNA SANTIAGO", "ID_INSTITU": 42402.0, "URB_RUR": "URBANO", "ROL_SII": "ROL SII SANTIAGO 42-50", "SUP_M2": 1095.0, "SUP_HA": 0.0 }, "geometry": { "type": "Polygon", "coordinates": [ [ [ -70.6561731, -33.4432194 ], [ -70.6561477, -33.4433637 ], [ -70.6561158, -33.4433604 ], [ -70.6561025, -33.4433811 ], [ -70.6559919, -33.4433756 ], [ -70.6559936, -33.4433725 ], [ -70.6560305, -33.4432047 ], [ -70.6561731, -33.4432194 ] ] ] } },
{ "type": "Feature", "properties": { "NOMBRE": "VERGARA 24 DEPARTAMENTO 707 COMUNA SANTIAGO", "ID_INSTITU": 36724.0, "URB_RUR": "URBANO", "ROL_SII": "ROL SII SANTIAGO 401-92", "SUP_M2": 50.55, "SUP_HA": 0.0 }, "geometry": { "type": "Polygon", "coordinates": [ [ [ -70.662303, -33.4473085 ], [ -70.662241, -33.4473044 ], [ -70.6622539, -33.4472257 ], [ -70.662315, -33.4472323 ], [ -70.662303, -33.4473085 ] ] ] } },
{ "type": "Feature", "properties": { "NOMBRE": "ALMIRANTE LORENZO GOTUZZO 124 COMUNA SANTIAGO", "ID_INSTITU": 36021.0, "URB_RUR": "URBANO", "ROL_SII": "ROL SII SANTIAGO 85-12", "SUP_M2": 664.06, "SUP_HA": 0.0 }, "geometry": { "type": "Polygon", "coordinates": [ [ [ -70.6558108, -33.4418722 ], [ -70.6557268, -33.4423166 ], [ -70.6555707, -33.4423027 ], [ -70.6556697, -33.44188 ], [ -70.6557377, -33.4418815 ], [ -70.6558108, -33.4418722 ] ] ] } },
{ "type": "Feature", "properties": { "NOMBRE": "SAN CAMILO 228 AL 240 Y 246 AL 262 COMUNA SANTIAGO", "ID_INSTITU": 36607.0, "URB_RUR": "URBANO", "ROL_SII": "ROL SII SANTIAGO 451-88", "SUP_M2": 3337.75, "SUP_HA": 0.0 }, "geometry": { "type": "Polygon", "coordinates": [ [ [ -70.6352867, -33.4451592 ], [ -70.6351334, -33.4455199 ], [ -70.6343422, -33.4452963 ], [ -70.6344812, -33.444927 ], [ -70.6352867, -33.4451592 ] ] ] } },
{ "type": "Feature", "properties": { "NOMBRE": "ESPANA 554 - 590 - 576 COMUNA SANTIAGO", "ID_INSTITU": 36322.0, "URB_RUR": "URBANO", "ROL_SII": "ROL SII SANTIAGO OESTE 855-22, ROL SII SANTIAGO OESTE 855-14, ROL SII SANTIAGO OESTE 855-16, ROL SII SANTIAGO OESTE 855-23, ROL SII SANTIAGO OESTE 855", "SUP_M2": 7150.0, "SUP_HA": 0.0 }, "geometry": { "type": "Polygon", "coordinates": [ [ [ -70.6676773, -33.4551795 ], [ -70.6687272, -33.4553476 ], [ -70.6685866, -33.4559184 ], [ -70.6675246, -33.4557336 ], [ -70.6676773, -33.4551795 ] ] ] } },
{ "type": "Feature", "properties": { "NOMBRE": "HUERFANOS 1273 - 1295 COMUNA SANTIAGO", "ID_INSTITU": 324469.0, "URB_RUR": "URBANO", "ROL_SII": "ROL SII SANTIAGO 136-5", "SUP_M2": 7867.46, "SUP_HA": 0.0 }, "geometry": { "type": "Polygon", "coordinates": [ [ [ -70.655079, -33.4398295 ], [ -70.6548522, -33.4398099 ], [ -70.6548791, -33.4395826 ], [ -70.6551123, -33.439599 ], [ -70.655079, -33.4398295 ] ] ] } },
{ "type": "Feature", "properties": { "NOMBRE": "AGUSTINAS 3250 Y MATUCANA 151 COMUNA SANTIAGO", "ID_INSTITU": 42393.0, "URB_RUR": "URBANO", "ROL_SII": "ROL SII SANTIAGO OESTE 388-1", "SUP_M2": 8454.0, "SUP_HA": 0.0 }, "geometry": { "type": "Polygon", "coordinates": [ [ [ -70.6793741, -33.444758 ], [ -70.6793579, -33.4448971 ], [ -70.6793316, -33.444926 ], [ -70.6784529, -33.4448719 ], [ -70.6785491, -33.4439296 ], [ -70.6793889, -33.4440251 ], [ -70.6794302, -33.4440632 ], [ -70.6794121, -33.4441914 ], [ -70.678768, -33.444134 ], [ -70.6786937, -33.4447109 ], [ -70.6793741, -33.444758 ] ] ] } },
{ "type": "Feature", "properties": { "NOMBRE": "BULNES 74 COMUNA SANTIAGO", "ID_INSTITU": 36168.0, "URB_RUR": "URBANO", "ROL_SII": "ROL SII SANTIAGO OESTE 408-17", "SUP_M2": 248.0, "SUP_HA": 0.0 }, "geometry": { "type": "Polygon", "coordinates": [ [ [ -70.6699898, -33.445052 ], [ -70.6699822, -33.4451337 ], [ -70.6696598, -33.4451126 ], [ -70.6696689, -33.4450313 ], [ -70.6699898, -33.445052 ] ] ] } },
{ "type": "Feature", "properties": { "NOMBRE": "VALENTIN LETELIER 22 COMUNA SANTIAGO", "ID_INSTITU": 36723.0, "URB_RUR": "URBANO", "ROL_SII": "ROL SII SANTIAGO 37-28", "SUP_M2": 350.0, "SUP_HA": 0.0 }, "geometry": { "type": "Polygon", "coordinates": [ [ [ -70.6552709, -33.4440277 ], [ -70.6551267, -33.4440015 ], [ -70.6551807, -33.4437768 ], [ -70.6553254, -33.4438051 ], [ -70.655312, -33.4438597 ], [ -70.6552791, -33.443994 ], [ -70.6552709, -33.4440277 ] ] ] } },
{ "type": "Feature", "properties": { "NOMBRE": "PORTUGAL 38 DEPARTAMENTO 125 COMUNA SANTIAGO", "ID_INSTITU": 36544.0, "URB_RUR": "URBANO", "ROL_SII": "ROL SII SANTIAGO 1005-68", "SUP_M2": 63.37, "SUP_HA": 0.0 }, "geometry": { "type": "Polygon", "coordinates": [ [ [ -70.6387205, -33.4409415 ], [ -70.6386673, -33.4409994 ], [ -70.6385972, -33.440958 ], [ -70.6386519, -33.4408985 ], [ -70.6387205, -33.4409415 ] ] ] } },
{ "type": "Feature", "properties": { "NOMBRE": "TOCORNAL 413 CASA 1 COMUNA SANTIAGO", "ID_INSTITU": 36715.0, "URB_RUR": "URBANO", "ROL_SII": "ROL SII SANTIAGO 590-6", "SUP_M2": 43.4, "SUP_HA": 0.0 }, "geometry": { "type": "Polygon", "coordinates": [ [ [ -70.6407979, -33.448658 ], [ -70.6408558, -33.4486701 ], [ -70.6408317, -33.4487466 ], [ -70.6407754, -33.4487338 ], [ -70.6407979, -33.448658 ] ] ] } },
{ "type": "Feature", "properties": { "NOMBRE": "SANTO DOMINGO 2398 COMUNA SANTIAGO", "ID_INSTITU": 36680.0, "URB_RUR": "URBANO", "ROL_SII": "ROL SII SANTIAGO OESTE 266-37", "SUP_M2": 644.0, "SUP_HA": 0.0 }, "geometry": { "type": "Polygon", "coordinates": [ [ [ -70.6704623, -33.4378317 ], [ -70.6705057, -33.4378813 ], [ -70.6704807, -33.4380705 ], [ -70.6702096, -33.4380404 ], [ -70.6702407, -33.4378099 ], [ -70.6704623, -33.4378317 ] ] ] } },
{ "type": "Feature", "properties": { "NOMBRE": "MANUEL RODRIGUEZ 33 COMUNA SANTIAGO", "ID_INSTITU": 947421.0, "URB_RUR": "URBANO", "ROL_SII": "ROL SII SANTIAGO 53-9", "SUP_M2": 650.5, "SUP_HA": 0.0 }, "geometry": { "type": "Polygon", "coordinates": [ [ [ -70.6602199, -33.444735 ], [ -70.660202, -33.4448805 ], [ -70.6597586, -33.4448214 ], [ -70.6597885, -33.4446849 ], [ -70.6602199, -33.444735 ] ] ] } },
{ "type": "Feature", "properties": { "NOMBRE": "ALMIRANTE MONTT 454 COMUNA SANTIAGO", "ID_INSTITU": 36022.0, "URB_RUR": "URBANO", "ROL_SII": "ROL SII SANTIAGO 151-111", "SUP_M2": 657.47, "SUP_HA": 0.0 }, "geometry": { "type": "Polygon", "coordinates": [ [ [ -70.645009, -33.4370626 ], [ -70.6452825, -33.4370844 ], [ -70.6452529, -33.4373337 ], [ -70.6449746, -33.4373109 ], [ -70.645009, -33.4370626 ] ] ] } },
{ "type": "Feature", "properties": { "NOMBRE": "MORANDE 322 MORANDE 324 MORANDE 330 COMUNA SANTIAGO", "ID_INSTITU": 36491.0, "URB_RUR": "URBANO", "ROL_SII": "ROL SII SANTIAGO 135-62", "SUP_M2": 403.5, "SUP_HA": 0.0 }, "geometry": { "type": "Polygon", "coordinates": [ [ [ -70.6538321, -33.4395254 ], [ -70.653912, -33.4395339 ], [ -70.6538897, -33.4396562 ], [ -70.6539692, -33.4396665 ], [ -70.6539565, -33.4397304 ], [ -70.6540074, -33.4397377 ], [ -70.6539931, -33.4398258 ], [ -70.6538007, -33.4398031 ], [ -70.6537869, -33.4397845 ], [ -70.6538321, -33.4395254 ] ] ] } },
{ "type": "Feature", "properties": { "NOMBRE": "SAN IGNACIO 196 COMUNA SANTIAGO", "ID_INSTITU": 36631.0, "URB_RUR": "URBANO", "ROL_SII": "ROL SII SANTIAGO 492-13", "SUP_M2": 746.0, "SUP_HA": 0.0 }, "geometry": { "type": "Polygon", "coordinates": [ [ [ -70.6563373, -33.4488757 ], [ -70.6567305, -33.4489143 ], [ -70.6566993, -33.4491004 ], [ -70.6563209, -33.4490593 ], [ -70.6563373, -33.4488757 ] ] ] } },
{ "type": "Feature", "properties": { "NOMBRE": "MATUCANA 401 COMUNA SANTIAGO", "ID_INSTITU": 364410.0, "URB_RUR": "URBANO", "ROL_SII": "ROL SII SANTIAGO OESTE 308-1", "SUP_M2": 2148.0, "SUP_HA": 0.0 }, "geometry": { "type": "Polygon", "coordinates": [ [ [ -70.6794842, -33.4407341 ], [ -70.6797637, -33.4407619 ], [ -70.679711, -33.4414782 ], [ -70.6796669, -33.4414987 ], [ -70.6794269, -33.4414653 ], [ -70.6794842, -33.4407341 ] ] ] } },
{ "type": "Feature", "properties": { "NOMBRE": "TOCORNAL 1455 COMUNA SANTIAGO", "ID_INSTITU": 1205985.0, "URB_RUR": "URBANO", "ROL_SII": "ROL SII SANTIAGO SUR 3168-1", "SUP_M2": 198.1, "SUP_HA": 0.0 }, "geometry": { "type": "Polygon", "coordinates": [ [ [ -70.636896, -33.4635552 ], [ -70.6368639, -33.4636718 ], [ -70.6367061, -33.4636412 ], [ -70.6367311, -33.4635437 ], [ -70.6367543, -33.4635284 ], [ -70.636896, -33.4635552 ] ] ] } },
{ "type": "Feature", "properties": { "NOMBRE": "ERASMO ESCALA 2210 Y RICARDO CUMMING 37 - 41 COMUNA SANTIAGO", "ID_INSTITU": 42903.0, "URB_RUR": "URBANO", "ROL_SII": "ROL SII SANTIAGO OESTE 463-87", "SUP_M2": 272.0, "SUP_HA": 0.0 }, "geometry": { "type": "Polygon", "coordinates": [ [ [ -70.6663909, -33.4452672 ], [ -70.6664021, -33.4450989 ], [ -70.6664169, -33.4450578 ], [ -70.6665391, -33.445078 ], [ -70.6665163, -33.445272 ], [ -70.6663909, -33.4452672 ] ] ] } },
{ "type": "Feature", "properties": { "NOMBRE": "JOSE RAMON GUTIERREZ 269 COMUNA SANTIAGO", "ID_INSTITU": 36387.0, "URB_RUR": "URBANO", "ROL_SII": "ROL SII SANTIAGO 7-21", "SUP_M2": 218.73, "SUP_HA": 0.0 }, "geometry": { "type": "Polygon", "coordinates": [ [ [ -70.6404342, -33.4390945 ], [ -70.6404016, -33.4390054 ], [ -70.6406285, -33.4389637 ], [ -70.6406455, -33.4390496 ], [ -70.6404342, -33.4390945 ] ] ] } },
{ "type": "Feature", "properties": { "NOMBRE": "ARTURO PRAT 1205 ESQUINA MARINA DE GAETE 976 COMUNA SANTIAGO", "ID_INSTITU": 411642.0, "URB_RUR": "URBANO", "ROL_SII": "ROL SII SANTIAGO SUR 3080-1", "SUP_M2": 748.77, "SUP_HA": 0.0 }, "geometry": { "type": "Polygon", "coordinates": [ [ [ -70.6470539, -33.4612517 ], [ -70.6466252, -33.4612355 ], [ -70.6466449, -33.4610519 ], [ -70.6470618, -33.4610934 ], [ -70.6470539, -33.4612517 ] ] ] } },
{ "type": "Feature", "properties": { "NOMBRE": "PEDRO MONTT 1853 COMUNA SANTIAGO", "ID_INSTITU": 42612.0, "URB_RUR": "URBANO", "ROL_SII": "ROL SII SANTIAGO SUR 3792-2", "SUP_M2": 3810.67, "SUP_HA": 0.0 }, "geometry": { "type": "Polygon", "coordinates": [ [ [ -70.6592115, -33.4729434 ], [ -70.6582848, -33.4728841 ], [ -70.6583028, -33.4724942 ], [ -70.6592536, -33.4725612 ], [ -70.6592115, -33.4729434 ] ] ] } },
{ "type": "Feature", "properties": { "NOMBRE": "TEATINOS 120 COMUNA SANTIAGO", "ID_INSTITU": 42909.0, "URB_RUR": "URBANO", "ROL_SII": "ROL SII SANTIAGO 84-1", "SUP_M2": 40445.55, "SUP_HA": 0.0 }, "geometry": { "type": "Polygon", "coordinates": [ [ [ -70.6555278, -33.4422022 ], [ -70.6550015, -33.4421238 ], [ -70.6550717, -33.4416312 ], [ -70.655634, -33.4417082 ], [ -70.6555278, -33.4422022 ] ] ] } },
{ "type": "Feature", "properties": { "NOMBRE": "TEATINOS 40 COMUNA SANTIAGO", "ID_INSTITU": 42914.0, "URB_RUR": "URBANO", "ROL_SII": "ROL SII SANTIAGO 35-58", "SUP_M2": 1800.0, "SUP_HA": 0.0 }, "geometry": { "type": "Polygon", "coordinates": [ [ [ -70.6551433, -33.4433597 ], [ -70.6550594, -33.4436761 ], [ -70.6545565, -33.4436153 ], [ -70.6545668, -33.4435739 ], [ -70.654535, -33.4435671 ], [ -70.6545989, -33.4432943 ], [ -70.6551433, -33.4433597 ] ] ] } },
{ "type": "Feature", "properties": { "NOMBRE": "TEATINOS 56 COMUNA SANTIAGO", "ID_INSTITU": 36707.0, "URB_RUR": "URBANO", "ROL_SII": "ROL SII SANTIAGO 36-7", "SUP_M2": 1702.0, "SUP_HA": 0.0 }, "geometry": { "type": "Polygon", "coordinates": [ [ [ -70.655459, -33.4429511 ], [ -70.655413, -33.4431987 ], [ -70.6547835, -33.4431244 ], [ -70.6548288, -33.4428603 ], [ -70.655459, -33.4429511 ] ] ] } },
{ "type": "Feature", "properties": { "NOMBRE": "VICUNA MACKENNA 94 - 96 COMUNA PROVIDENCIA", "ID_INSTITU": 43086.0, "URB_RUR": "URBANO", "ROL_SII": "ROL SII PROVIDENCIA 862-137", "SUP_M2": 1050.0, "SUP_HA": 0.0 }, "geometry": { "type": "Polygon", "coordinates": [ [ [ -70.6338565, -33.441104 ], [ -70.6337849, -33.4412751 ], [ -70.6334514, -33.441212 ], [ -70.6335124, -33.4410465 ], [ -70.6338565, -33.441104 ] ] ] } },
{ "type": "Feature", "properties": { "NOMBRE": "VICUNA MACKENNA 84 ESQUINA VINA DEL MAR 7 COMUNA PROVIDENCIA", "ID_INSTITU": 43153.0, "URB_RUR": "URBANO", "ROL_SII": "ROL SII PROVIDENCIA 862-133", "SUP_M2": 280.3, "SUP_HA": 0.0 }, "geometry": { "type": "Polygon", "coordinates": [ [ [ -70.6340152, -33.4407813 ], [ -70.6337523, -33.4407298 ], [ -70.633775, -33.440633 ], [ -70.6340425, -33.4406852 ], [ -70.6340152, -33.4407813 ] ] ] } },
{ "type": "Feature", "properties": { "NOMBRE": "PORVENIR 630 DEPARTAMENTO 202 COMUNA SANTIAGO", "ID_INSTITU": 1425146.0, "URB_RUR": "URBANO", "ROL_SII": "ROL SII SANTIAGO SUR 2861-57", "SUP_M2": 65.0, "SUP_HA": 0.0 }, "geometry": { "type": "Polygon", "coordinates": [ [ [ -70.6420058, -33.4571571 ], [ -70.6420648, -33.4571647 ], [ -70.642043, -33.4572671 ], [ -70.6419836, -33.4572612 ], [ -70.6420058, -33.4571571 ] ] ] } },
{ "type": "Feature", "properties": { "NOMBRE": "BELLAVISTA 180 COMUNA RECOLETA", "ID_INSTITU": 269438.0, "URB_RUR": "URBANO", "ROL_SII": "ROL SII RECOLETA 78-2", "SUP_M2": 7050.53, "SUP_HA": 0.0 }, "geometry": { "type": "Polygon", "coordinates": [ [ [ -70.6424901, -33.4339953 ], [ -70.6404167, -33.4345097 ], [ -70.6403254, -33.4343246 ], [ -70.6423488, -33.4336194 ], [ -70.6424901, -33.4339953 ], [ -70.6424901, -33.4339953 ] ] ] } },
{ "type": "Feature", "properties": { "NOMBRE": "BELLAVISTA 262 DEPARTAMENTO 12 COMUNA RECOLETA", "ID_INSTITU": 52674.0, "URB_RUR": "URBANO", "ROL_SII": "ROL SII RECOLETA 74-100", "SUP_M2": 88.9, "SUP_HA": 0.0 }, "geometry": { "type": "Polygon", "coordinates": [ [ [ -70.6435436, -33.4333385 ], [ -70.6435445, -33.4333411 ], [ -70.643543, -33.4333414 ], [ -70.6435545, -33.4333752 ], [ -70.6435555, -33.433375 ], [ -70.6435561, -33.4333767 ], [ -70.6435422, -33.4333801 ], [ -70.6435604, -33.4334336 ], [ -70.6435822, -33.4334288 ], [ -70.6435942, -33.4334648 ], [ -70.6435937, -33.4334649 ], [ -70.6436124, -33.4335204 ], [ -70.6435492, -33.4335352 ], [ -70.6435402, -33.4335088 ], [ -70.6435399, -33.4335088 ], [ -70.6434862, -33.4333515 ], [ -70.6435436, -33.4333385 ] ] ] } },
{ "type": "Feature", "properties": { "NOMBRE": "MATUCANA 100 AL 214 COMUNA ESTACION CENTRAL", "ID_INSTITU": 235377.0, "URB_RUR": "URBANO", "ROL_SII": "ROL SII ESTACION CENTRAL 450-16", "SUP_M2": 6723.93, "SUP_HA": 0.0 }, "geometry": { "type": "Polygon", "coordinates": [ [ [ -70.6801006, -33.4451271 ], [ -70.6796028, -33.4450963 ], [ -70.6797101, -33.4440015 ], [ -70.6802164, -33.4440332 ], [ -70.6801006, -33.4451271 ] ] ] } },
{ "type": "Feature", "properties": { "NOMBRE": "PORTALES 3586 LOTE 1 Y LOTE 2 COMUNA ESTACION CENTRAL", "ID_INSTITU": 235430.0, "URB_RUR": "URBANO", "ROL_SII": "ROL SII ESTACION CENTRAL 328-2", "SUP_M2": 31160.0, "SUP_HA": 0.0 }, "geometry": { "type": "Polygon", "coordinates": [ [ [ -70.6858433, -33.4443051 ], [ -70.6858019, -33.4453087 ], [ -70.684509, -33.4452448 ], [ -70.6844875, -33.4442307 ], [ -70.6858433, -33.4443051 ] ] ] } },
{ "type": "Feature", "properties": { "NOMBRE": "AVENIDA GENERAL BULNES 241 PISO 4 COMUNA SANTIAGO", "ID_INSTITU": 1527371.0, "URB_RUR": "URBANO", "ROL_SII": "ROL SII SANTIAGO 484-107", "SUP_M2": 172.6, "SUP_HA": 0.0 }, "geometry": { "type": "Polygon", "coordinates": [ [ [ -70.6529538, -33.449315 ], [ -70.6528277, -33.4492902 ], [ -70.6528522, -33.4491598 ], [ -70.6529796, -33.4491807 ], [ -70.6529538, -33.449315 ] ] ] } },
{ "type": "Feature", "properties": { "NOMBRE": "SAN FRANCISCO 1286 COMUNA SANTIAGO", "ID_INSTITU": 36620.0, "URB_RUR": "URBANO", "ROL_SII": "ROL SII SANTIAGO SUR 3077-36", "SUP_M2": 233.75, "SUP_HA": 0.0 }, "geometry": { "type": "Polygon", "coordinates": [ [ [ -70.6447577, -33.4621124 ], [ -70.6444637, -33.4620942 ], [ -70.644469, -33.4620187 ], [ -70.644765, -33.4620369 ], [ -70.6447577, -33.4621124 ] ] ] } },
{ "type": "Feature", "properties": { "NOMBRE": "TOESCA 2369 AL 2377 COMUNA SANTIAGO", "ID_INSTITU": 1330153.0, "URB_RUR": "URBANO", "ROL_SII": "ROL SII SANTIAGO OESTE 826-1", "SUP_M2": 165.0, "SUP_HA": 0.0 }, "geometry": { "type": "Polygon", "coordinates": [ [ [ -70.6685059, -33.4546293 ], [ -70.6684869, -33.4546959 ], [ -70.6683711, -33.4546739 ], [ -70.6683974, -33.4545358 ], [ -70.6685078, -33.4545586 ], [ -70.6684869, -33.454626 ], [ -70.6685059, -33.4546293 ] ] ] } },
{ "type": "Feature", "properties": { "NOMBRE": "ALONSO OVALLE 652 Y 680 COMUNA SANTIAGO", "ID_INSTITU": 364438.0, "URB_RUR": "URBANO", "ROL_SII": "ROL SII SANTIAGO 429-14", "SUP_M2": 1453.96, "SUP_HA": 0.0 }, "geometry": { "type": "Polygon", "coordinates": [ [ [ -70.6452939, -33.4454328 ], [ -70.6446471, -33.4451999 ], [ -70.644687, -33.44506 ], [ -70.6453776, -33.4451882 ], [ -70.6452939, -33.4454328 ] ] ] } },
{ "type": "Feature", "properties": { "NOMBRE": "CARABINEROS DE CHILE 33 COMUNA SANTIAGO", "ID_INSTITU": 334485.0, "URB_RUR": "URBANO", "ROL_SII": "ROL SII SANTIAGO 1013-1", "SUP_M2": 153.11, "SUP_HA": 0.0 }, "geometry": { "type": "Polygon", "coordinates": [ [ [ -70.6358282, -33.4382706 ], [ -70.6358554, -33.4381958 ], [ -70.6359463, -33.438221 ], [ -70.6359159, -33.4382923 ], [ -70.6358282, -33.4382706 ] ] ] } },
{ "type": "Feature", "properties": { "NOMBRE": "MARCOLETA HOY BARON PIERRE DE COUBERTIN COMUNA SANTIAGO", "ID_INSTITU": 36438.0, "URB_RUR": "URBANO", "ROL_SII": "ROL SII SANTIAGO 1012-256", "SUP_M2": 2456.46, "SUP_HA": 0.0 }, "geometry": { "type": "Polygon", "coordinates": [ [ [ -70.6357872, -33.4399608 ], [ -70.6363965, -33.4402314 ], [ -70.6363351, -33.4403403 ], [ -70.6362813, -33.4403209 ], [ -70.6360307, -33.4403421 ], [ -70.6358916, -33.4405521 ], [ -70.6354523, -33.4403684 ], [ -70.635444, -33.4403448 ], [ -70.6357872, -33.4399608 ] ], [ [ -70.6359221, -33.4401588 ], [ -70.6357377, -33.4400465 ], [ -70.6356175, -33.440172 ], [ -70.6357974, -33.4402884 ], [ -70.6359221, -33.4401588 ] ] ] } },
{ "type": "Feature", "properties": { "NOMBRE": "VILLAVICENCIO 346 COMUNA SANTIAGO", "ID_INSTITU": 1454814.0, "URB_RUR": "URBANO", "ROL_SII": "ROL SII SANTIAGO 7-80", "SUP_M2": 494.0, "SUP_HA": 0.0 }, "geometry": { "type": "Polygon", "coordinates": [ [ [ -70.6400144, -33.4382672 ], [ -70.6400213, -33.4385685 ], [ -70.6398117, -33.4385712 ], [ -70.639812, -33.4382672 ], [ -70.6400144, -33.4382672 ] ] ] } },
{ "type": "Feature", "properties": { "NOMBRE": "AGUSTINAS 1401 - 1419 COMUNA SANTIAGO", "ID_INSTITU": 42913.0, "URB_RUR": "URBANO", "ROL_SII": "ROL SII SANTIAGO 111-1", "SUP_M2": 1650.82, "SUP_HA": 0.0 }, "geometry": { "type": "Polygon", "coordinates": [ [ [ -70.6564578, -33.4412327 ], [ -70.6564449, -33.4412175 ], [ -70.6564416, -33.4412009 ], [ -70.6564625, -33.4411327 ], [ -70.6567578, -33.4411807 ], [ -70.6567519, -33.4412649 ], [ -70.6564578, -33.4412327 ] ] ] } },
{ "type": "Feature", "properties": { "NOMBRE": "BARON PIERRE DE COUBERTIN 77 DEPARTAMENTO 34 COMUNA SANTIAGO", "ID_INSTITU": 1601721.0, "URB_RUR": "URBANO", "ROL_SII": "ROL SII SANTIAGO 1012-13", "SUP_M2": 69.0, "SUP_HA": 0.0 }, "geometry": { "type": "Polygon", "coordinates": [ [ [ -70.6357324, -33.4402384 ], [ -70.6357159, -33.4402557 ], [ -70.6357066, -33.4402504 ], [ -70.6356563, -33.4403055 ], [ -70.6356009, -33.4402698 ], [ -70.635667, -33.4401958 ], [ -70.6357324, -33.4402384 ] ] ] } },
{ "type": "Feature", "properties": { "NOMBRE": "SIERRA BELLA 1980 COMUNA SANTIAGO", "ID_INSTITU": 943088.0, "URB_RUR": "URBANO", "ROL_SII": "ROL SII SANTIAGO SUR 3638-35", "SUP_M2": 196.0, "SUP_HA": 0.0 }, "geometry": { "type": "Polygon", "coordinates": [ [ [ -70.6332553, -33.4708317 ], [ -70.6329926, -33.4707882 ], [ -70.6330131, -33.4707197 ], [ -70.6332715, -33.4707631 ], [ -70.6332553, -33.4708317 ] ] ] } },
{ "type": "Feature", "properties": { "NOMBRE": "CATEDRAL 1150 COMUNA SANTIAGO", "ID_INSTITU": 42904.0, "URB_RUR": "URBANO", "ROL_SII": "ROL SII SANTIAGO 159-1", "SUP_M2": 12298.6, "SUP_HA": 0.0 }, "geometry": { "type": "Polygon", "coordinates": [ [ [ -70.6538962, -33.4377235 ], [ -70.6537922, -33.4387039 ], [ -70.6525838, -33.4385795 ], [ -70.6526913, -33.437606 ], [ -70.6538962, -33.4377235 ] ] ] } },
{ "type": "Feature", "properties": { "NOMBRE": "SANTO DOMINGO 3128 COMUNA SANTIAGO", "ID_INSTITU": 877618.0, "URB_RUR": "URBANO", "ROL_SII": "ROL SII SANTIAGO OESTE 277-18", "SUP_M2": 4938.5, "SUP_HA": 0.0 }, "geometry": { "type": "Polygon", "coordinates": [ [ [ -70.6787357, -33.4391493 ], [ -70.6783297, -33.4391209 ], [ -70.6783428, -33.4389735 ], [ -70.6778898, -33.4389391 ], [ -70.6779408, -33.4384762 ], [ -70.6779665, -33.4384604 ], [ -70.6787828, -33.4385198 ], [ -70.6788056, -33.4385393 ], [ -70.6787357, -33.4391493 ], [ -70.6787357, -33.4391493 ] ] ] } },
{ "type": "Feature", "properties": { "NOMBRE": "TEATINOS 251 DEPARTAMENTO 710 COMUNA SANTIAGO", "ID_INSTITU": 865358.0, "URB_RUR": "URBANO", "ROL_SII": "ROL SII SANTIAGO 107-140", "SUP_M2": 70.0, "SUP_HA": 0.0 }, "geometry": { "type": "Polygon", "coordinates": [ [ [ -70.6546313, -33.4406983 ], [ -70.6545165, -33.4406794 ], [ -70.6545258, -33.4406443 ], [ -70.6545936, -33.4406572 ], [ -70.6545959, -33.4406482 ], [ -70.6545982, -33.4406434 ], [ -70.6546036, -33.4406412 ], [ -70.6546066, -33.4406409 ], [ -70.6546069, -33.4406396 ], [ -70.6546176, -33.4405955 ], [ -70.654656, -33.4406022 ], [ -70.6546313, -33.4406983 ], [ -70.6546313, -33.4406983 ] ] ] } },
{ "type": "Feature", "properties": { "NOMBRE": "BERNARDO OHIGGINS 1315 DEPARTAMENTO 34 COMUNA SANTIAGO", "ID_INSTITU": 36064.0, "URB_RUR": "URBANO", "ROL_SII": "ROL SII SANTIAGO 35-3", "SUP_M2": 244.0, "SUP_HA": 0.0 }, "geometry": { "type": "Polygon", "coordinates": [ [ [ -70.6546984, -33.4443853 ], [ -70.6545676, -33.4443583 ], [ -70.654586, -33.4443062 ], [ -70.6545392, -33.4442949 ], [ -70.6545489, -33.4442624 ], [ -70.6545711, -33.4442669 ], [ -70.6545889, -33.4442141 ], [ -70.6545952, -33.4442151 ], [ -70.6546068, -33.4441798 ], [ -70.6546798, -33.444194 ], [ -70.6546662, -33.4442409 ], [ -70.6547319, -33.4442559 ], [ -70.6546984, -33.4443853 ], [ -70.6546984, -33.4443853 ] ] ] } },
{ "type": "Feature", "properties": { "NOMBRE": "HUERFANOS 1117 - 1147 COMUNA SANTIAGO", "ID_INSTITU": 36368.0, "URB_RUR": "URBANO", "ROL_SII": "ROL SII SANTIAGO 134-4", "SUP_M2": 1078.7, "SUP_HA": 0.0 }, "geometry": { "type": "Polygon", "coordinates": [ [ [ -70.6529556, -33.4396466 ], [ -70.6529666, -33.439648 ], [ -70.6529664, -33.4396659 ], [ -70.6529053, -33.4396557 ], [ -70.6528982, -33.4396753 ], [ -70.6528864, -33.4397635 ], [ -70.6524237, -33.4397137 ], [ -70.652394, -33.439686 ], [ -70.6524225, -33.4394801 ], [ -70.6525739, -33.4394934 ], [ -70.6525612, -33.4396342 ], [ -70.6527442, -33.4396527 ], [ -70.6527808, -33.4394378 ], [ -70.6529365, -33.4394569 ], [ -70.6529067, -33.4396173 ], [ -70.6529588, -33.439625 ], [ -70.6529556, -33.4396466 ], [ -70.6529556, -33.4396466 ] ] ] } },
{ "type": "Feature", "properties": { "NOMBRE": "AGUSTINAS 1220 COMUNA SANTIAGO", "ID_INSTITU": 36001.0, "URB_RUR": "URBANO", "ROL_SII": "ROL SII SANTIAGO 83-1", "SUP_M2": 6164.0, "SUP_HA": 0.0 }, "geometry": { "type": "Polygon", "coordinates": [ [ [ -70.6544977, -33.4415886 ], [ -70.6546336, -33.4416642 ], [ -70.6545642, -33.4420698 ], [ -70.6534953, -33.441959 ], [ -70.653604, -33.4415533 ], [ -70.6537309, -33.4415052 ], [ -70.6537731, -33.4413745 ], [ -70.6545248, -33.4414455 ], [ -70.6544977, -33.4415886 ] ] ] } },
{ "type": "Feature", "properties": { "NOMBRE": "BERNARDO OHIGGINS 1371 - 1377 - 1381 - 1385 COMUNA SANTIAGO", "ID_INSTITU": 36081.0, "URB_RUR": "URBANO", "ROL_SII": "ROL SII SANTIAGO 37-71", "SUP_M2": 1491.8, "SUP_HA": 0.0 }, "geometry": { "type": "Polygon", "coordinates": [ [ [ -70.6554704, -33.4445213 ], [ -70.655166, -33.4444469 ], [ -70.6551991, -33.4443195 ], [ -70.6552585, -33.4443298 ], [ -70.6553366, -33.4440067 ], [ -70.6552791, -33.443994 ], [ -70.655312, -33.4438597 ], [ -70.6555904, -33.4439076 ], [ -70.6555904, -33.4439076 ], [ -70.6555755, -33.4439639 ], [ -70.6555465, -33.4439586 ], [ -70.6554511, -33.4443621 ], [ -70.6554994, -33.44437 ], [ -70.6554704, -33.4445213 ] ] ] } },
{ "type": "Feature", "properties": { "NOMBRE": "JOSE SANTIAGO MONTT 258 COMUNA SANTIAGO", "ID_INSTITU": 930530.0, "URB_RUR": "URBANO", "ROL_SII": "ROL SII SANTIAGO 503-18", "SUP_M2": 89.0, "SUP_HA": 0.0 }, "geometry": { "type": "Polygon", "coordinates": [ [ [ -70.6627219, -33.4505311 ], [ -70.6626896, -33.4505282 ], [ -70.6626908, -33.4505146 ], [ -70.6626465, -33.4505116 ], [ -70.6626609, -33.4504055 ], [ -70.6627372, -33.4504121 ], [ -70.6627219, -33.4505311 ], [ -70.6627219, -33.4505311 ] ] ] } },
{ "type": "Feature", "properties": { "NOMBRE": "AGUSTINAS 1442 DEPARTAMENTO 603 COMUNA SANTIAGO", "ID_INSTITU": 304552.0, "URB_RUR": "URBANO", "ROL_SII": "ROL SII SANTIAGO 87-82", "SUP_M2": 56.0, "SUP_HA": 0.0 }, "geometry": { "type": "Polygon", "coordinates": [ [ [ -70.6572149, -33.4415658 ], [ -70.6571249, -33.4415591 ], [ -70.6571298, -33.4415009 ], [ -70.6572237, -33.4415072 ], [ -70.6572149, -33.4415658 ] ] ] } },
{ "type": "Feature", "properties": { "NOMBRE": "PLAZA DE ARMAS 951 COMUNA SANTIAGO", "ID_INSTITU": 42449.0, "URB_RUR": "URBANO", "ROL_SII": "ROL SII SANTIAGO 182-34", "SUP_M2": 1563.0, "SUP_HA": 0.0 }, "geometry": { "type": "Polygon", "coordinates": [ [ [ -70.6508497, -33.437236 ], [ -70.650436, -33.4371837 ], [ -70.6504993, -33.4368249 ], [ -70.6509056, -33.4368689 ], [ -70.6508497, -33.437236 ] ] ] } },
{ "type": "Feature", "properties": { "NOMBRE": "BANDERA 318 HUERFANOS 1117 Y 1147 COMUNA SANTIAGO", "ID_INSTITU": 1375100.0, "URB_RUR": "URBANO", "ROL_SII": "ROL SII SANTIAGO 134-340", "SUP_M2": 1235.0, "SUP_HA": 0.0 }, "geometry": { "type": "Polygon", "coordinates": [ [ [ -70.6527231, -33.4397672 ], [ -70.652394, -33.4397328 ], [ -70.6523583, -33.4396985 ], [ -70.6523927, -33.4394559 ], [ -70.6525778, -33.4394765 ], [ -70.6525833, -33.4394365 ], [ -70.6526354, -33.4394411 ], [ -70.6526492, -33.4393713 ], [ -70.6527862, -33.4393862 ], [ -70.6527231, -33.4397672 ] ] ] } },
{ "type": "Feature", "properties": { "NOMBRE": "LIBERTAD 1550 COMUNA SANTIAGO", "ID_INSTITU": 862755.0, "URB_RUR": "URBANO", "ROL_SII": "ROL SII SANTIAGO OESTE 35-4", "SUP_M2": 675.55, "SUP_HA": 0.0 }, "geometry": { "type": "Polygon", "coordinates": [ [ [ -70.6757209, -33.4278082 ], [ -70.6755044, -33.4278211 ], [ -70.6755282, -33.4275461 ], [ -70.6757418, -33.4274692 ], [ -70.6757209, -33.4278082 ] ] ] } },
{ "type": "Feature", "properties": { "NOMBRE": "MIRAFLORES 666 DEPARTAMENTO 205 COMUNA SANTIAGO", "ID_INSTITU": 696234.0, "URB_RUR": "URBANO", "ROL_SII": "ROL SII SANTIAGO 201-46", "SUP_M2": 174.35, "SUP_HA": 0.0 }, "geometry": { "type": "Polygon", "coordinates": [ [ [ -70.6461323, -33.4352579 ], [ -70.6461266, -33.4353025 ], [ -70.6461771, -33.4353081 ], [ -70.6461843, -33.4352563 ], [ -70.6462509, -33.4352635 ], [ -70.6462388, -33.4353529 ], [ -70.6461984, -33.4353502 ], [ -70.6461937, -33.4353948 ], [ -70.6461905, -33.4353944 ], [ -70.6460753, -33.4353823 ], [ -70.6460924, -33.4352538 ], [ -70.6461323, -33.4352579 ] ] ] } },
{ "type": "Feature", "properties": { "NOMBRE": "MAQUINISTA ESCOBAR 3173 COMUNA SANTIAGO", "ID_INSTITU": 36435.0, "URB_RUR": "URBANO", "ROL_SII": "ROL SII SANTIAGO OESTE 963-5", "SUP_M2": 1392.4, "SUP_HA": 0.0 }, "geometry": { "type": "Polygon", "coordinates": [ [ [ -70.6781559, -33.4606978 ], [ -70.6780189, -33.4612219 ], [ -70.6777731, -33.4611748 ], [ -70.67791, -33.4606526 ], [ -70.6781559, -33.4606978 ] ] ] } },
{ "type": "Feature", "properties": { "NOMBRE": "SANTO DOMINGO 685 - 687 - 689 COMUNA SANTIAGO", "ID_INSTITU": 36687.0, "URB_RUR": "URBANO", "ROL_SII": "ROL SII SANTIAGO 201-7", "SUP_M2": 700.5, "SUP_HA": 0.0 }, "geometry": { "type": "Polygon", "coordinates": [ [ [ -70.6473053, -33.4357217 ], [ -70.6469874, -33.4356821 ], [ -70.646996, -33.435621 ], [ -70.6470128, -33.4356235 ], [ -70.6470365, -33.4354679 ], [ -70.6473388, -33.4355032 ], [ -70.6473053, -33.4357217 ] ] ] } }
]
}
